{"type":"FeatureCollection","features":[{"type":"Feature","properties":{"ZIP":"S7K6W8"},"geometry":{"type":"Point","coordinates":[-106.63324,52.1779235]}},{"type":"Feature","properties":{"ZIP":"S7K3Y8"},"geometry":{"type":"Point","coordinates":[-106.62824,52.164459]}},{"type":"Feature","properties":{"ZIP":"S7K1B1"},"geometry":{"type":"Point","coordinates":[-106.64557049999999,52.1547185]}},{"type":"Feature","properties":{"ZIP":"S7K3A9"},"geometry":{"type":"Point","coordinates":[-106.646357,52.144894]}},{"type":"Feature","properties":{"ZIP":"S7K7X6"},"geometry":{"type":"Point","coordinates":[-106.6398415,52.178723500000004]}},{"type":"Feature","properties":{"ZIP":"S7K7P7"},"geometry":{"type":"Point","coordinates":[-106.635831,52.184925500000006]}},{"type":"Feature","properties":{"ZIP":"S7K3Y6"},"geometry":{"type":"Point","coordinates":[-106.631598,52.1645385]}},{"type":"Feature","properties":{"ZIP":"S7K1G8"},"geometry":{"type":"Point","coordinates":[-106.640367,52.16207]}},{"type":"Feature","properties":{"ZIP":"S7K6N7"},"geometry":{"type":"Point","coordinates":[-106.6341915,52.174908]}},{"type":"Feature","properties":{"ZIP":"S7K0N8"},"geometry":{"type":"Point","coordinates":[-106.64774349999999,52.1392405]}},{"type":"Feature","properties":{"ZIP":"S7K1G2"},"geometry":{"type":"Point","coordinates":[-106.64037350000001,52.159779]}},{"type":"Feature","properties":{"ZIP":"S7K3X8"},"geometry":{"type":"Point","coordinates":[-106.643882,52.163093]}},{"type":"Feature","properties":{"ZIP":"S7K4X5"},"geometry":{"type":"Point","coordinates":[-106.613678,52.1673935]}},{"type":"Feature","properties":{"ZIP":"S7K3C3"},"geometry":{"type":"Point","coordinates":[-106.644676,52.1505565]}},{"type":"Feature","properties":{"ZIP":"S7K4R1"},"geometry":{"type":"Point","coordinates":[-106.62021200000001,52.1680425]}},{"type":"Feature","properties":{"ZIP":"S7K3E6"},"geometry":{"type":"Point","coordinates":[-106.63933,52.153197500000005]}},{"type":"Feature","properties":{"ZIP":"S7K4M7"},"geometry":{"type":"Point","coordinates":[-106.611137,52.169109]}},{"type":"Feature","properties":{"ZIP":"S7K3C4"},"geometry":{"type":"Point","coordinates":[-106.6446765,52.1505565]}},{"type":"Feature","properties":{"ZIP":"S7K5M2"},"geometry":{"type":"Point","coordinates":[-106.6299865,52.177876]}},{"type":"Feature","properties":{"ZIP":"S7K3Z8"},"geometry":{"type":"Point","coordinates":[-106.6242785,52.164671999999996]}},{"type":"Feature","properties":{"ZIP":"S7K6W2"},"geometry":{"type":"Point","coordinates":[-106.6399265,52.178139]}},{"type":"Feature","properties":{"ZIP":"S7K6P9"},"geometry":{"type":"Point","coordinates":[-106.636158,52.174155]}},{"type":"Feature","properties":{"ZIP":"S7K6R1"},"geometry":{"type":"Point","coordinates":[-106.6255605,52.179519]}},{"type":"Feature","properties":{"ZIP":"S7K3G1"},"geometry":{"type":"Point","coordinates":[-106.6434865,52.1458585]}},{"type":"Feature","properties":{"ZIP":"S7K1J3"},"geometry":{"type":"Point","coordinates":[-106.639038,52.1634155]}},{"type":"Feature","properties":{"ZIP":"S7K4S1"},"geometry":{"type":"Point","coordinates":[-106.6211395,52.166322]}},{"type":"Feature","properties":{"ZIP":"S7K4T4"},"geometry":{"type":"Point","coordinates":[-106.6285815,52.170184]}},{"type":"Feature","properties":{"ZIP":"S7K6R5"},"geometry":{"type":"Point","coordinates":[-106.6378655,52.175053500000004]}},{"type":"Feature","properties":{"ZIP":"S7K5L7"},"geometry":{"type":"Point","coordinates":[-106.6288485,52.1771085]}},{"type":"Feature","properties":{"ZIP":"S7K4G9"},"geometry":{"type":"Point","coordinates":[-106.61846399999999,52.163175499999994]}},{"type":"Feature","properties":{"ZIP":"S7K4Y7"},"geometry":{"type":"Point","coordinates":[-106.6157575,52.1726525]}},{"type":"Feature","properties":{"ZIP":"S7K6B7"},"geometry":{"type":"Point","coordinates":[-106.6168465,52.1856135]}},{"type":"Feature","properties":{"ZIP":"S7K4N8"},"geometry":{"type":"Point","coordinates":[-106.6127855,52.170056]}},{"type":"Feature","properties":{"ZIP":"S7K6J1"},"geometry":{"type":"Point","coordinates":[-106.6239665,52.1848405]}},{"type":"Feature","properties":{"ZIP":"S7K7V2"},"geometry":{"type":"Point","coordinates":[-106.631267,52.188842]}},{"type":"Feature","properties":{"ZIP":"S7K4X7"},"geometry":{"type":"Point","coordinates":[-106.612502,52.1714855]}},{"type":"Feature","properties":{"ZIP":"S7K5J6"},"geometry":{"type":"Point","coordinates":[-106.624271,52.1754355]}},{"type":"Feature","properties":{"ZIP":"S7K3Z7"},"geometry":{"type":"Point","coordinates":[-106.624292,52.16511]}},{"type":"Feature","properties":{"ZIP":"S7K4N9"},"geometry":{"type":"Point","coordinates":[-106.6139695,52.1710015]}},{"type":"Feature","properties":{"ZIP":"S7K4Z1"},"geometry":{"type":"Point","coordinates":[-106.61521049999999,52.1728225]}},{"type":"Feature","properties":{"ZIP":"S7K5K9"},"geometry":{"type":"Point","coordinates":[-106.6314115,52.1755595]}},{"type":"Feature","properties":{"ZIP":"S7K6G3"},"geometry":{"type":"Point","coordinates":[-106.626199,52.184467999999995]}},{"type":"Feature","properties":{"ZIP":"S7K1X4"},"geometry":{"type":"Point","coordinates":[-106.66396800000001,52.120702]}},{"type":"Feature","properties":{"ZIP":"S7K4L5"},"geometry":{"type":"Point","coordinates":[-106.642364,52.166103]}},{"type":"Feature","properties":{"ZIP":"S7K5S7"},"geometry":{"type":"Point","coordinates":[-106.625382,52.1742775]}},{"type":"Feature","properties":{"ZIP":"S7K6J2"},"geometry":{"type":"Point","coordinates":[-106.6244725,52.1832355]}},{"type":"Feature","properties":{"ZIP":"S7K8A2"},"geometry":{"type":"Point","coordinates":[-106.61611049999999,52.1806345]}},{"type":"Feature","properties":{"ZIP":"S7K5C3"},"geometry":{"type":"Point","coordinates":[-106.62060249999999,52.174984]}},{"type":"Feature","properties":{"ZIP":"S7K6E1"},"geometry":{"type":"Point","coordinates":[-106.615628,52.1825425]}},{"type":"Feature","properties":{"ZIP":"S7K1E5"},"geometry":{"type":"Point","coordinates":[-106.6401905,52.1593355]}},{"type":"Feature","properties":{"ZIP":"S7K6A9"},"geometry":{"type":"Point","coordinates":[-106.6181835,52.1844585]}},{"type":"Feature","properties":{"ZIP":"S7K2V5"},"geometry":{"type":"Point","coordinates":[-106.65216000000001,52.140214]}},{"type":"Feature","properties":{"ZIP":"S7K3E9"},"geometry":{"type":"Point","coordinates":[-106.64040750000001,52.1529805]}},{"type":"Feature","properties":{"ZIP":"S7K5J8"},"geometry":{"type":"Point","coordinates":[-106.626329,52.17541]}},{"type":"Feature","properties":{"ZIP":"S7K0S6"},"geometry":{"type":"Point","coordinates":[-106.68219350000001,52.143882500000004]}},{"type":"Feature","properties":{"ZIP":"S7K3C6"},"geometry":{"type":"Point","coordinates":[-106.64283900000001,52.15414]}},{"type":"Feature","properties":{"ZIP":"S7K4C5"},"geometry":{"type":"Point","coordinates":[-106.62602749999999,52.162499999999994]}},{"type":"Feature","properties":{"ZIP":"S7K5M4"},"geometry":{"type":"Point","coordinates":[-106.6291115,52.177020999999996]}},{"type":"Feature","properties":{"ZIP":"S7K6B1"},"geometry":{"type":"Point","coordinates":[-106.615688,52.185036499999995]}},{"type":"Feature","properties":{"ZIP":"S7K4G4"},"geometry":{"type":"Point","coordinates":[-106.6188545,52.16494]}},{"type":"Feature","properties":{"ZIP":"S7K2X1"},"geometry":{"type":"Point","coordinates":[-106.651175,52.127013]}},{"type":"Feature","properties":{"ZIP":"S7K4A3"},"geometry":{"type":"Point","coordinates":[-106.632556,52.162921]}},{"type":"Feature","properties":{"ZIP":"S7K1E7"},"geometry":{"type":"Point","coordinates":[-106.63863950000001,52.158924999999996]}},{"type":"Feature","properties":{"ZIP":"S7K4C6"},"geometry":{"type":"Point","coordinates":[-106.6242165,52.161948]}},{"type":"Feature","properties":{"ZIP":"S7K5B2"},"geometry":{"type":"Point","coordinates":[-106.6114445,52.175363000000004]}},{"type":"Feature","properties":{"ZIP":"S7K7L5"},"geometry":{"type":"Point","coordinates":[-106.63301849999999,52.1836455]}},{"type":"Feature","properties":{"ZIP":"S7K1C3"},"geometry":{"type":"Point","coordinates":[-106.636775,52.156776]}},{"type":"Feature","properties":{"ZIP":"S7K1J4"},"geometry":{"type":"Point","coordinates":[-106.639038,52.163415]}},{"type":"Feature","properties":{"ZIP":"S7K4N3"},"geometry":{"type":"Point","coordinates":[-106.615432,52.168665000000004]}},{"type":"Feature","properties":{"ZIP":"S7K5N9"},"geometry":{"type":"Point","coordinates":[-106.62199150000001,52.1791845]}},{"type":"Feature","properties":{"ZIP":"S7K7C6"},"geometry":{"type":"Point","coordinates":[-106.63309000000001,52.1777265]}},{"type":"Feature","properties":{"ZIP":"S7K3B6"},"geometry":{"type":"Point","coordinates":[-106.64613349999999,52.150658]}},{"type":"Feature","properties":{"ZIP":"S7K4P5"},"geometry":{"type":"Point","coordinates":[-106.620263,52.1693075]}},{"type":"Feature","properties":{"ZIP":"S7K5G3"},"geometry":{"type":"Point","coordinates":[-106.61687,52.1758695]}},{"type":"Feature","properties":{"ZIP":"S7K5L5"},"geometry":{"type":"Point","coordinates":[-106.63175100000001,52.177487]}},{"type":"Feature","properties":{"ZIP":"S7K2M8"},"geometry":{"type":"Point","coordinates":[-106.656768,52.137263000000004]}},{"type":"Feature","properties":{"ZIP":"S7K2Y8"},"geometry":{"type":"Point","coordinates":[-106.6505435,52.1275275]}},{"type":"Feature","properties":{"ZIP":"S7K6B4"},"geometry":{"type":"Point","coordinates":[-106.61745450000001,52.186693]}},{"type":"Feature","properties":{"ZIP":"S7K5J2"},"geometry":{"type":"Point","coordinates":[-106.6274995,52.174356]}},{"type":"Feature","properties":{"ZIP":"S7K5K5"},"geometry":{"type":"Point","coordinates":[-106.615336,52.17763]}},{"type":"Feature","properties":{"ZIP":"S7K6M8"},"geometry":{"type":"Point","coordinates":[-106.6142165,52.1768445]}},{"type":"Feature","properties":{"ZIP":"S7K7E3"},"geometry":{"type":"Point","coordinates":[-106.637027,52.1807855]}},{"type":"Feature","properties":{"ZIP":"S7K5G6"},"geometry":{"type":"Point","coordinates":[-106.6248595,52.1742965]}},{"type":"Feature","properties":{"ZIP":"S7K4M4"},"geometry":{"type":"Point","coordinates":[-106.6160285,52.164168000000004]}},{"type":"Feature","properties":{"ZIP":"S7K4S5"},"geometry":{"type":"Point","coordinates":[-106.6139795,52.1727875]}},{"type":"Feature","properties":{"ZIP":"S7K1G3"},"geometry":{"type":"Point","coordinates":[-106.639555,52.1610145]}},{"type":"Feature","properties":{"ZIP":"S7K4E8"},"geometry":{"type":"Point","coordinates":[-106.62142349999999,52.164547]}},{"type":"Feature","properties":{"ZIP":"S7K4M5"},"geometry":{"type":"Point","coordinates":[-106.6122355,52.16758]}},{"type":"Feature","properties":{"ZIP":"S7K6Z8"},"geometry":{"type":"Point","coordinates":[-106.62106349999999,52.1875725]}},{"type":"Feature","properties":{"ZIP":"S7K3Z5"},"geometry":{"type":"Point","coordinates":[-106.6269265,52.165015]}},{"type":"Feature","properties":{"ZIP":"S7K6N2"},"geometry":{"type":"Point","coordinates":[-106.61941350000001,52.182685500000005]}},{"type":"Feature","properties":{"ZIP":"S7K4X6"},"geometry":{"type":"Point","coordinates":[-106.612007,52.1712445]}},{"type":"Feature","properties":{"ZIP":"S7K4H2"},"geometry":{"type":"Point","coordinates":[-106.61930000000001,52.162631000000005]}},{"type":"Feature","properties":{"ZIP":"S7K5P5"},"geometry":{"type":"Point","coordinates":[-106.627313,52.1790995]}},{"type":"Feature","properties":{"ZIP":"S7K7S9"},"geometry":{"type":"Point","coordinates":[-106.636622,52.1873175]}},{"type":"Feature","properties":{"ZIP":"S7K0Y6"},"geometry":{"type":"Point","coordinates":[-106.6490735,52.1458055]}},{"type":"Feature","properties":{"ZIP":"S7K5M1"},"geometry":{"type":"Point","coordinates":[-106.6299865,52.177876999999995]}},{"type":"Feature","properties":{"ZIP":"S7K2G2"},"geometry":{"type":"Point","coordinates":[-106.659187,52.1508745]}},{"type":"Feature","properties":{"ZIP":"S7K2Z5"},"geometry":{"type":"Point","coordinates":[-106.649498,52.1464815]}},{"type":"Feature","properties":{"ZIP":"S7K3H7"},"geometry":{"type":"Point","coordinates":[-106.6437535,52.1426015]}},{"type":"Feature","properties":{"ZIP":"S7K4G1"},"geometry":{"type":"Point","coordinates":[-106.620214,52.1640125]}},{"type":"Feature","properties":{"ZIP":"S7K6C9"},"geometry":{"type":"Point","coordinates":[-106.618225,52.1815155]}},{"type":"Feature","properties":{"ZIP":"S7K7A8"},"geometry":{"type":"Point","coordinates":[-106.628902,52.185141]}},{"type":"Feature","properties":{"ZIP":"S7K7W4"},"geometry":{"type":"Point","coordinates":[-106.6219845,52.1878405]}},{"type":"Feature","properties":{"ZIP":"S7K6N5"},"geometry":{"type":"Point","coordinates":[-106.6209835,52.1844605]}},{"type":"Feature","properties":{"ZIP":"S7K4C3"},"geometry":{"type":"Point","coordinates":[-106.62709100000001,52.163342]}},{"type":"Feature","properties":{"ZIP":"S7K0V9"},"geometry":{"type":"Point","coordinates":[-106.6627095,52.1613325]}},{"type":"Feature","properties":{"ZIP":"S7K2N5"},"geometry":{"type":"Point","coordinates":[-106.65677600000001,52.141765]}},{"type":"Feature","properties":{"ZIP":"S7K2V4"},"geometry":{"type":"Point","coordinates":[-106.65216000000001,52.138671]}},{"type":"Feature","properties":{"ZIP":"S7K4M8"},"geometry":{"type":"Point","coordinates":[-106.6167735,52.163034999999994]}},{"type":"Feature","properties":{"ZIP":"S7K7M4"},"geometry":{"type":"Point","coordinates":[-106.632778,52.183836]}},{"type":"Feature","properties":{"ZIP":"S7K4H4"},"geometry":{"type":"Point","coordinates":[-106.62285349999999,52.163374000000005]}},{"type":"Feature","properties":{"ZIP":"S7K5P7"},"geometry":{"type":"Point","coordinates":[-106.624887,52.179063]}},{"type":"Feature","properties":{"ZIP":"S7K6N6"},"geometry":{"type":"Point","coordinates":[-106.62642249999999,52.1870325]}},{"type":"Feature","properties":{"ZIP":"S7K2M3"},"geometry":{"type":"Point","coordinates":[-106.65804800000001,52.133843]}},{"type":"Feature","properties":{"ZIP":"S7K5M3"},"geometry":{"type":"Point","coordinates":[-106.6280935,52.177525]}},{"type":"Feature","properties":{"ZIP":"S7K6J3"},"geometry":{"type":"Point","coordinates":[-106.62047100000001,52.184456499999996]}},{"type":"Feature","properties":{"ZIP":"S7K1Z1"},"geometry":{"type":"Point","coordinates":[-106.661368,52.148817]}},{"type":"Feature","properties":{"ZIP":"S7K2N6"},"geometry":{"type":"Point","coordinates":[-106.65677600000001,52.14176500000001]}},{"type":"Feature","properties":{"ZIP":"S7K3Y7"},"geometry":{"type":"Point","coordinates":[-106.63182900000001,52.164957]}},{"type":"Feature","properties":{"ZIP":"S7K4M9"},"geometry":{"type":"Point","coordinates":[-106.6164535,52.1700485]}},{"type":"Feature","properties":{"ZIP":"S7K6E2"},"geometry":{"type":"Point","coordinates":[-106.6166805,52.182578]}},{"type":"Feature","properties":{"ZIP":"S7K5Z2"},"geometry":{"type":"Point","coordinates":[-106.6542325,52.182054]}},{"type":"Feature","properties":{"ZIP":"S7K2T2"},"geometry":{"type":"Point","coordinates":[-106.651476,52.126809]}},{"type":"Feature","properties":{"ZIP":"S7K3W9"},"geometry":{"type":"Point","coordinates":[-106.63658649999999,52.1648445]}},{"type":"Feature","properties":{"ZIP":"S7K4R9"},"geometry":{"type":"Point","coordinates":[-106.622884,52.1715235]}},{"type":"Feature","properties":{"ZIP":"S7K7L4"},"geometry":{"type":"Point","coordinates":[-106.633174,52.1829285]}},{"type":"Feature","properties":{"ZIP":"S7K2G6"},"geometry":{"type":"Point","coordinates":[-106.6591895,52.154067]}},{"type":"Feature","properties":{"ZIP":"S7K3A1"},"geometry":{"type":"Point","coordinates":[-106.648548,52.150428500000004]}},{"type":"Feature","properties":{"ZIP":"S7K5N7"},"geometry":{"type":"Point","coordinates":[-106.6163615,52.1794325]}},{"type":"Feature","properties":{"ZIP":"S7K6E3"},"geometry":{"type":"Point","coordinates":[-106.618214,52.183680499999994]}},{"type":"Feature","properties":{"ZIP":"S7K6L8"},"geometry":{"type":"Point","coordinates":[-106.63026350000001,52.182791]}},{"type":"Feature","properties":{"ZIP":"S7K3B3"},"geometry":{"type":"Point","coordinates":[-106.6463885,52.1479865]}},{"type":"Feature","properties":{"ZIP":"S7K3J2"},"geometry":{"type":"Point","coordinates":[-106.68563449999999,52.1093685]}},{"type":"Feature","properties":{"ZIP":"S7K3Y9"},"geometry":{"type":"Point","coordinates":[-106.6295775,52.1649775]}},{"type":"Feature","properties":{"ZIP":"S7K4T3"},"geometry":{"type":"Point","coordinates":[-106.6282205,52.170728]}},{"type":"Feature","properties":{"ZIP":"S7K5N8"},"geometry":{"type":"Point","coordinates":[-106.6177435,52.179753500000004]}},{"type":"Feature","properties":{"ZIP":"S7K7W8"},"geometry":{"type":"Point","coordinates":[-106.617481,52.188317]}},{"type":"Feature","properties":{"ZIP":"S7K3B5"},"geometry":{"type":"Point","coordinates":[-106.646327,52.150309]}},{"type":"Feature","properties":{"ZIP":"S7K4P4"},"geometry":{"type":"Point","coordinates":[-106.6144745,52.1694165]}},{"type":"Feature","properties":{"ZIP":"S7K5L4"},"geometry":{"type":"Point","coordinates":[-106.631023,52.175274]}},{"type":"Feature","properties":{"ZIP":"S7K5R1"},"geometry":{"type":"Point","coordinates":[-106.6249845,52.179411]}},{"type":"Feature","properties":{"ZIP":"S7K6G9"},"geometry":{"type":"Point","coordinates":[-106.627527,52.182953499999996]}},{"type":"Feature","properties":{"ZIP":"S7K7J3"},"geometry":{"type":"Point","coordinates":[-106.6276245,52.181793]}},{"type":"Feature","properties":{"ZIP":"S7K3C9"},"geometry":{"type":"Point","coordinates":[-106.64356649999999,52.1464315]}},{"type":"Feature","properties":{"ZIP":"S7K4S2"},"geometry":{"type":"Point","coordinates":[-106.6154215,52.170740499999994]}},{"type":"Feature","properties":{"ZIP":"S7K3J3"},"geometry":{"type":"Point","coordinates":[-106.6905955,52.105678]}},{"type":"Feature","properties":{"ZIP":"S7K4G6"},"geometry":{"type":"Point","coordinates":[-106.621486,52.1629725]}},{"type":"Feature","properties":{"ZIP":"S7K6E5"},"geometry":{"type":"Point","coordinates":[-106.618122,52.183336]}},{"type":"Feature","properties":{"ZIP":"S7K2S1"},"geometry":{"type":"Point","coordinates":[-106.64837349999999,52.1118145]}},{"type":"Feature","properties":{"ZIP":"S7K4V7"},"geometry":{"type":"Point","coordinates":[-106.624538,52.1701815]}},{"type":"Feature","properties":{"ZIP":"S7K7T6"},"geometry":{"type":"Point","coordinates":[-106.6351045,52.187453]}},{"type":"Feature","properties":{"ZIP":"S7K3X4"},"geometry":{"type":"Point","coordinates":[-106.6384205,52.1653015]}},{"type":"Feature","properties":{"ZIP":"S7K4S3"},"geometry":{"type":"Point","coordinates":[-106.61624499999999,52.1705705]}},{"type":"Feature","properties":{"ZIP":"S7K7L7"},"geometry":{"type":"Point","coordinates":[-106.632765,52.184349499999996]}},{"type":"Feature","properties":{"ZIP":"S7K3G4"},"geometry":{"type":"Point","coordinates":[-106.6424075,52.147931]}},{"type":"Feature","properties":{"ZIP":"S7K4Y4"},"geometry":{"type":"Point","coordinates":[-106.61687549999999,52.171317]}},{"type":"Feature","properties":{"ZIP":"S7K6E6"},"geometry":{"type":"Point","coordinates":[-106.6168745,52.182577]}},{"type":"Feature","properties":{"ZIP":"S7K7P2"},"geometry":{"type":"Point","coordinates":[-106.63692599999999,52.185264000000004]}},{"type":"Feature","properties":{"ZIP":"S7K6K2"},"geometry":{"type":"Point","coordinates":[-106.627432,52.1827955]}},{"type":"Feature","properties":{"ZIP":"S7K7V9"},"geometry":{"type":"Point","coordinates":[-106.6264955,52.187866]}},{"type":"Feature","properties":{"ZIP":"S7K1B3"},"geometry":{"type":"Point","coordinates":[-106.64447000000001,52.1555545]}},{"type":"Feature","properties":{"ZIP":"S7K4T6"},"geometry":{"type":"Point","coordinates":[-106.62828,52.1708445]}},{"type":"Feature","properties":{"ZIP":"S7K6E7"},"geometry":{"type":"Point","coordinates":[-106.616818,52.18251]}},{"type":"Feature","properties":{"ZIP":"S7K5A4"},"geometry":{"type":"Point","coordinates":[-106.6124695,52.174087]}},{"type":"Feature","properties":{"ZIP":"S7K7T8"},"geometry":{"type":"Point","coordinates":[-106.633262,52.188295499999995]}},{"type":"Feature","properties":{"ZIP":"S7K0Z8"},"geometry":{"type":"Point","coordinates":[-106.645757,52.1526135]}},{"type":"Feature","properties":{"ZIP":"S7K3E3"},"geometry":{"type":"Point","coordinates":[-106.643365,52.150335]}},{"type":"Feature","properties":{"ZIP":"S7K5B8"},"geometry":{"type":"Point","coordinates":[-106.6203,52.170106000000004]}},{"type":"Feature","properties":{"ZIP":"S7K6B6"},"geometry":{"type":"Point","coordinates":[-106.61803599999999,52.185627]}},{"type":"Feature","properties":{"ZIP":"S7K7S7"},"geometry":{"type":"Point","coordinates":[-106.6377385,52.186403999999996]}},{"type":"Feature","properties":{"ZIP":"S7K1K5"},"geometry":{"type":"Point","coordinates":[-106.6624355,52.127525]}},{"type":"Feature","properties":{"ZIP":"S7K5A5"},"geometry":{"type":"Point","coordinates":[-106.6128425,52.17584050000001]}},{"type":"Feature","properties":{"ZIP":"S7K5L8"},"geometry":{"type":"Point","coordinates":[-106.6287475,52.176979]}},{"type":"Feature","properties":{"ZIP":"S7K6W9"},"geometry":{"type":"Point","coordinates":[-106.6335735,52.1766795]}},{"type":"Feature","properties":{"ZIP":"S7K3X9"},"geometry":{"type":"Point","coordinates":[-106.6437545,52.163079499999995]}},{"type":"Feature","properties":{"ZIP":"S7K6K9"},"geometry":{"type":"Point","coordinates":[-106.629093,52.184722]}},{"type":"Feature","properties":{"ZIP":"S7K7M1"},"geometry":{"type":"Point","coordinates":[-106.63257300000001,52.1840685]}},{"type":"Feature","properties":{"ZIP":"S7K7W2"},"geometry":{"type":"Point","coordinates":[-106.6243515,52.1882505]}},{"type":"Feature","properties":{"ZIP":"S7K1H7"},"geometry":{"type":"Point","coordinates":[-106.6369055,52.162403499999996]}},{"type":"Feature","properties":{"ZIP":"S7K3A7"},"geometry":{"type":"Point","coordinates":[-106.64783600000001,52.147902]}},{"type":"Feature","properties":{"ZIP":"S7K0Y5"},"geometry":{"type":"Point","coordinates":[-106.64448250000001,52.1447165]}},{"type":"Feature","properties":{"ZIP":"S7K1K8"},"geometry":{"type":"Point","coordinates":[-106.66624350000001,52.1181605]}},{"type":"Feature","properties":{"ZIP":"S7K4L2"},"geometry":{"type":"Point","coordinates":[-106.6193795,52.17045]}},{"type":"Feature","properties":{"ZIP":"S7K4P9"},"geometry":{"type":"Point","coordinates":[-106.619475,52.170004500000005]}},{"type":"Feature","properties":{"ZIP":"S7K5A6"},"geometry":{"type":"Point","coordinates":[-106.612718,52.1758425]}},{"type":"Feature","properties":{"ZIP":"S7K5G8"},"geometry":{"type":"Point","coordinates":[-106.6127855,52.176705999999996]}},{"type":"Feature","properties":{"ZIP":"S7K6H9"},"geometry":{"type":"Point","coordinates":[-106.62447449999999,52.183237500000004]}},{"type":"Feature","properties":{"ZIP":"S7K6X1"},"geometry":{"type":"Point","coordinates":[-106.63542799999999,52.177423]}},{"type":"Feature","properties":{"ZIP":"S7K7P5"},"geometry":{"type":"Point","coordinates":[-106.6357865,52.1848095]}},{"type":"Feature","properties":{"ZIP":"S7K3E5"},"geometry":{"type":"Point","coordinates":[-106.641089,52.1518195]}},{"type":"Feature","properties":{"ZIP":"S7K4M6"},"geometry":{"type":"Point","coordinates":[-106.61167499999999,52.168359499999994]}},{"type":"Feature","properties":{"ZIP":"S7K6L1"},"geometry":{"type":"Point","coordinates":[-106.622719,52.18601700000001]}},{"type":"Feature","properties":{"ZIP":"S7K3A8"},"geometry":{"type":"Point","coordinates":[-106.64784399999999,52.1482635]}},{"type":"Feature","properties":{"ZIP":"S7K7N4"},"geometry":{"type":"Point","coordinates":[-106.6370835,52.182314500000004]}},{"type":"Feature","properties":{"ZIP":"S7K0C9"},"geometry":{"type":"Point","coordinates":[-106.705932,52.0947015]}},{"type":"Feature","properties":{"ZIP":"S7K4C1"},"geometry":{"type":"Point","coordinates":[-106.6242215,52.164210499999996]}},{"type":"Feature","properties":{"ZIP":"S7K5G9"},"geometry":{"type":"Point","coordinates":[-106.609972,52.176711499999996]}},{"type":"Feature","properties":{"ZIP":"S7K6A6"},"geometry":{"type":"Point","coordinates":[-106.619374,52.1761535]}},{"type":"Feature","properties":{"ZIP":"S7K6X3"},"geometry":{"type":"Point","coordinates":[-106.619419,52.1860195]}},{"type":"Feature","properties":{"ZIP":"S7K1Y8"},"geometry":{"type":"Point","coordinates":[-106.661429,52.1472415]}},{"type":"Feature","properties":{"ZIP":"S7K2V3"},"geometry":{"type":"Point","coordinates":[-106.65216050000001,52.138669]}},{"type":"Feature","properties":{"ZIP":"S7K4S8"},"geometry":{"type":"Point","coordinates":[-106.6399715,52.167294]}},{"type":"Feature","properties":{"ZIP":"S7K0X4"},"geometry":{"type":"Point","coordinates":[-106.6528505,52.166562]}},{"type":"Feature","properties":{"ZIP":"S7K1H9"},"geometry":{"type":"Point","coordinates":[-106.6415935,52.1624925]}},{"type":"Feature","properties":{"ZIP":"S7K4V2"},"geometry":{"type":"Point","coordinates":[-106.62459100000001,52.17232]}},{"type":"Feature","properties":{"ZIP":"S7K5P6"},"geometry":{"type":"Point","coordinates":[-106.62455349999999,52.178917]}},{"type":"Feature","properties":{"ZIP":"S7K6V9"},"geometry":{"type":"Point","coordinates":[-106.6362705,52.1805995]}},{"type":"Feature","properties":{"ZIP":"S7K7T1"},"geometry":{"type":"Point","coordinates":[-106.636177,52.1876765]}},{"type":"Feature","properties":{"ZIP":"S7K0S4"},"geometry":{"type":"Point","coordinates":[-106.674695,52.143899000000005]}},{"type":"Feature","properties":{"ZIP":"S7K4W4"},"geometry":{"type":"Point","coordinates":[-106.62430950000001,52.170961500000004]}},{"type":"Feature","properties":{"ZIP":"S7K1Y9"},"geometry":{"type":"Point","coordinates":[-106.6619195,52.147245]}},{"type":"Feature","properties":{"ZIP":"S7K2G4"},"geometry":{"type":"Point","coordinates":[-106.6592095,52.152412]}},{"type":"Feature","properties":{"ZIP":"S7K3E8"},"geometry":{"type":"Point","coordinates":[-106.64040750000001,52.152969999999996]}},{"type":"Feature","properties":{"ZIP":"S7K4G2"},"geometry":{"type":"Point","coordinates":[-106.61677900000001,52.1630395]}},{"type":"Feature","properties":{"ZIP":"S7K6S9"},"geometry":{"type":"Point","coordinates":[-106.6139225,52.177711]}},{"type":"Feature","properties":{"ZIP":"S7K2B2"},"geometry":{"type":"Point","coordinates":[-106.6634325,52.1292945]}},{"type":"Feature","properties":{"ZIP":"S7K3W8"},"geometry":{"type":"Point","coordinates":[-106.63978549999999,52.1648845]}},{"type":"Feature","properties":{"ZIP":"S7K4R8"},"geometry":{"type":"Point","coordinates":[-106.623408,52.1716475]}},{"type":"Feature","properties":{"ZIP":"S7K4W5"},"geometry":{"type":"Point","coordinates":[-106.622173,52.1707205]}},{"type":"Feature","properties":{"ZIP":"S7K7L3"},"geometry":{"type":"Point","coordinates":[-106.634313,52.1816175]}},{"type":"Feature","properties":{"ZIP":"S7K8A3"},"geometry":{"type":"Point","coordinates":[-106.61594199999999,52.180636]}},{"type":"Feature","properties":{"ZIP":"S7K0W1"},"geometry":{"type":"Point","coordinates":[-106.662913,52.161459]}},{"type":"Feature","properties":{"ZIP":"S7K2G5"},"geometry":{"type":"Point","coordinates":[-106.6592095,52.152412]}},{"type":"Feature","properties":{"ZIP":"S7K2Z9"},"geometry":{"type":"Point","coordinates":[-106.64869150000001,52.1496635]}},{"type":"Feature","properties":{"ZIP":"S7K4X9"},"geometry":{"type":"Point","coordinates":[-106.61251,52.172176]}},{"type":"Feature","properties":{"ZIP":"S7K5N6"},"geometry":{"type":"Point","coordinates":[-106.61131850000001,52.178088]}},{"type":"Feature","properties":{"ZIP":"S7K6T2"},"geometry":{"type":"Point","coordinates":[-106.6341285,52.1748465]}},{"type":"Feature","properties":{"ZIP":"S7K7M5"},"geometry":{"type":"Point","coordinates":[-106.635625,52.1816185]}},{"type":"Feature","properties":{"ZIP":"S7K7W6"},"geometry":{"type":"Point","coordinates":[-106.6196735,52.188204999999996]}},{"type":"Feature","properties":{"ZIP":"S7K5E9"},"geometry":{"type":"Point","coordinates":[-106.62248500000001,52.1733445]}},{"type":"Feature","properties":{"ZIP":"S7K6W3"},"geometry":{"type":"Point","coordinates":[-106.63794949999999,52.175802000000004]}},{"type":"Feature","properties":{"ZIP":"S7K7H5"},"geometry":{"type":"Point","coordinates":[-106.6157245,52.1875595]}},{"type":"Feature","properties":{"ZIP":"S7K7T3"},"geometry":{"type":"Point","coordinates":[-106.63674900000001,52.187659]}},{"type":"Feature","properties":{"ZIP":"S7K1E6"},"geometry":{"type":"Point","coordinates":[-106.6420535,52.159176]}},{"type":"Feature","properties":{"ZIP":"S7K1X6"},"geometry":{"type":"Point","coordinates":[-106.6618045,52.121992000000006]}},{"type":"Feature","properties":{"ZIP":"S7K2M4"},"geometry":{"type":"Point","coordinates":[-106.6585955,52.132249]}},{"type":"Feature","properties":{"ZIP":"S7K5B1"},"geometry":{"type":"Point","coordinates":[-106.61420000000001,52.175062]}},{"type":"Feature","properties":{"ZIP":"S7K7P9"},"geometry":{"type":"Point","coordinates":[-106.632321,52.185769]}},{"type":"Feature","properties":{"ZIP":"S7K1A8"},"geometry":{"type":"Point","coordinates":[-106.644231,52.154411999999994]}},{"type":"Feature","properties":{"ZIP":"S7K1G9"},"geometry":{"type":"Point","coordinates":[-106.63932249999999,52.161834]}},{"type":"Feature","properties":{"ZIP":"S7K2V6"},"geometry":{"type":"Point","coordinates":[-106.65216000000001,52.140214]}},{"type":"Feature","properties":{"ZIP":"S7K4Y1"},"geometry":{"type":"Point","coordinates":[-106.6125065,52.172348]}},{"type":"Feature","properties":{"ZIP":"S7K6T4"},"geometry":{"type":"Point","coordinates":[-106.634188,52.174826499999995]}},{"type":"Feature","properties":{"ZIP":"S7K7S2"},"geometry":{"type":"Point","coordinates":[-106.6292545,52.1871065]}},{"type":"Feature","properties":{"ZIP":"S7K4Z9"},"geometry":{"type":"Point","coordinates":[-106.61278899999999,52.175054]}},{"type":"Feature","properties":{"ZIP":"S7K5L3"},"geometry":{"type":"Point","coordinates":[-106.6303865,52.1746895]}},{"type":"Feature","properties":{"ZIP":"S7K5P9"},"geometry":{"type":"Point","coordinates":[-106.6255785,52.1792145]}},{"type":"Feature","properties":{"ZIP":"S7K6G8"},"geometry":{"type":"Point","coordinates":[-106.6214325,52.1861305]}},{"type":"Feature","properties":{"ZIP":"S7K3X2"},"geometry":{"type":"Point","coordinates":[-106.639978,52.164909]}},{"type":"Feature","properties":{"ZIP":"S7K7R1"},"geometry":{"type":"Point","coordinates":[-106.632731,52.1857615]}},{"type":"Feature","properties":{"ZIP":"S7K1A9"},"geometry":{"type":"Point","coordinates":[-106.643896,52.1550685]}},{"type":"Feature","properties":{"ZIP":"S7K2G7"},"geometry":{"type":"Point","coordinates":[-106.6591895,52.154039499999996]}},{"type":"Feature","properties":{"ZIP":"S7K4G5"},"geometry":{"type":"Point","coordinates":[-106.6228485,52.165071499999996]}},{"type":"Feature","properties":{"ZIP":"S7K4N2"},"geometry":{"type":"Point","coordinates":[-106.616492,52.1685795]}},{"type":"Feature","properties":{"ZIP":"S7K5K1"},"geometry":{"type":"Point","coordinates":[-106.62562349999999,52.175364]}},{"type":"Feature","properties":{"ZIP":"S7K2X2"},"geometry":{"type":"Point","coordinates":[-106.650669,52.127658]}},{"type":"Feature","properties":{"ZIP":"S7K4A4"},"geometry":{"type":"Point","coordinates":[-106.633123,52.1623965]}},{"type":"Feature","properties":{"ZIP":"S7K4J6"},"geometry":{"type":"Point","coordinates":[-106.6285075,52.163398]}},{"type":"Feature","properties":{"ZIP":"S7K5A1"},"geometry":{"type":"Point","coordinates":[-106.6136775,52.1738305]}},{"type":"Feature","properties":{"ZIP":"S7K0Z4"},"geometry":{"type":"Point","coordinates":[-106.647033,52.1520915]}},{"type":"Feature","properties":{"ZIP":"S7K4C7"},"geometry":{"type":"Point","coordinates":[-106.622849,52.164640000000006]}},{"type":"Feature","properties":{"ZIP":"S7K6B3"},"geometry":{"type":"Point","coordinates":[-106.6161645,52.185533]}},{"type":"Feature","properties":{"ZIP":"S7K6R4"},"geometry":{"type":"Point","coordinates":[-106.6194105,52.183702]}},{"type":"Feature","properties":{"ZIP":"S7K7L6"},"geometry":{"type":"Point","coordinates":[-106.63301,52.1845345]}},{"type":"Feature","properties":{"ZIP":"S7K3A3"},"geometry":{"type":"Point","coordinates":[-106.6476635,52.1435575]}},{"type":"Feature","properties":{"ZIP":"S7K5K3"},"geometry":{"type":"Point","coordinates":[-106.61731,52.178777999999994]}},{"type":"Feature","properties":{"ZIP":"S7K5X7"},"geometry":{"type":"Point","coordinates":[-106.6468715,52.17342]}},{"type":"Feature","properties":{"ZIP":"S7K6M2"},"geometry":{"type":"Point","coordinates":[-106.625563,52.184545]}},{"type":"Feature","properties":{"ZIP":"S7K7W9"},"geometry":{"type":"Point","coordinates":[-106.6187455,52.18797]}},{"type":"Feature","properties":{"ZIP":"S7K2K2"},"geometry":{"type":"Point","coordinates":[-106.6502835,52.11013]}},{"type":"Feature","properties":{"ZIP":"S7K4A5"},"geometry":{"type":"Point","coordinates":[-106.632046,52.162037]}},{"type":"Feature","properties":{"ZIP":"S7K5A2"},"geometry":{"type":"Point","coordinates":[-106.6130875,52.1740005]}},{"type":"Feature","properties":{"ZIP":"S7K5R3"},"geometry":{"type":"Point","coordinates":[-106.608308,52.178731]}},{"type":"Feature","properties":{"ZIP":"S7K6H4"},"geometry":{"type":"Point","coordinates":[-106.6262725,52.1844275]}},{"type":"Feature","properties":{"ZIP":"S7K6P1"},"geometry":{"type":"Point","coordinates":[-106.624018,52.1870735]}},{"type":"Feature","properties":{"ZIP":"S7K7J5"},"geometry":{"type":"Point","coordinates":[-106.6272045,52.182364]}},{"type":"Feature","properties":{"ZIP":"S7K1E9"},"geometry":{"type":"Point","coordinates":[-106.6365815,52.160247]}},{"type":"Feature","properties":{"ZIP":"S7K2T5"},"geometry":{"type":"Point","coordinates":[-106.65366750000001,52.144416500000005]}},{"type":"Feature","properties":{"ZIP":"S7K3E1"},"geometry":{"type":"Point","coordinates":[-106.6435655,52.147996]}},{"type":"Feature","properties":{"ZIP":"S7K4G7"},"geometry":{"type":"Point","coordinates":[-106.6213885,52.162592000000004]}},{"type":"Feature","properties":{"ZIP":"S7K4N4"},"geometry":{"type":"Point","coordinates":[-106.613984,52.1682325]}},{"type":"Feature","properties":{"ZIP":"S7K5C9"},"geometry":{"type":"Point","coordinates":[-106.624896,52.173322]}},{"type":"Feature","properties":{"ZIP":"S7K5P1"},"geometry":{"type":"Point","coordinates":[-106.619452,52.1787655]}},{"type":"Feature","properties":{"ZIP":"S7K7M9"},"geometry":{"type":"Point","coordinates":[-106.637655,52.1816765]}},{"type":"Feature","properties":{"ZIP":"S7K4P6"},"geometry":{"type":"Point","coordinates":[-106.619073,52.1691875]}},{"type":"Feature","properties":{"ZIP":"S7K5A3"},"geometry":{"type":"Point","coordinates":[-106.612713,52.174053]}},{"type":"Feature","properties":{"ZIP":"S7K5R7"},"geometry":{"type":"Point","coordinates":[-106.6129995,52.1783075]}},{"type":"Feature","properties":{"ZIP":"S7K7T7"},"geometry":{"type":"Point","coordinates":[-106.63131100000001,52.187631]}},{"type":"Feature","properties":{"ZIP":"S7K2E7"},"geometry":{"type":"Point","coordinates":[-106.659183,52.147768]}},{"type":"Feature","properties":{"ZIP":"S7K3E2"},"geometry":{"type":"Point","coordinates":[-106.643567,52.1478865]}},{"type":"Feature","properties":{"ZIP":"S7K4E1"},"geometry":{"type":"Point","coordinates":[-106.623598,52.1625725]}},{"type":"Feature","properties":{"ZIP":"S7K4S4"},"geometry":{"type":"Point","coordinates":[-106.61371700000001,52.1723815]}},{"type":"Feature","properties":{"ZIP":"S7K5M9"},"geometry":{"type":"Point","coordinates":[-106.612408,52.179289]}},{"type":"Feature","properties":{"ZIP":"S7K5V5"},"geometry":{"type":"Point","coordinates":[-106.63038449999999,52.178572]}},{"type":"Feature","properties":{"ZIP":"S7K6B5"},"geometry":{"type":"Point","coordinates":[-106.6180945,52.1856195]}},{"type":"Feature","properties":{"ZIP":"S7K6R7"},"geometry":{"type":"Point","coordinates":[-106.6380645,52.174212999999995]}},{"type":"Feature","properties":{"ZIP":"S7K7R4"},"geometry":{"type":"Point","coordinates":[-106.630316,52.185146]}},{"type":"Feature","properties":{"ZIP":"S7K4G8"},"geometry":{"type":"Point","coordinates":[-106.6185655,52.162310000000005]}},{"type":"Feature","properties":{"ZIP":"S7K7X2"},"geometry":{"type":"Point","coordinates":[-106.6159515,52.188306]}},{"type":"Feature","properties":{"ZIP":"S7K1C6"},"geometry":{"type":"Point","coordinates":[-106.6373,52.158057]}},{"type":"Feature","properties":{"ZIP":"S7K2S5"},"geometry":{"type":"Point","coordinates":[-106.6592615,52.1220905]}},{"type":"Feature","properties":{"ZIP":"S7K2X5"},"geometry":{"type":"Point","coordinates":[-106.6442365,52.1303415]}},{"type":"Feature","properties":{"ZIP":"S7K3B9"},"geometry":{"type":"Point","coordinates":[-106.644579,52.146035999999995]}},{"type":"Feature","properties":{"ZIP":"S7K4K8"},"geometry":{"type":"Point","coordinates":[-106.640256,52.1661305]}},{"type":"Feature","properties":{"ZIP":"S7K4V9"},"geometry":{"type":"Point","coordinates":[-106.623034,52.169949]}},{"type":"Feature","properties":{"ZIP":"S7K6A1"},"geometry":{"type":"Point","coordinates":[-106.62199749999999,52.178869500000005]}},{"type":"Feature","properties":{"ZIP":"S7K2E8"},"geometry":{"type":"Point","coordinates":[-106.659183,52.147768]}},{"type":"Feature","properties":{"ZIP":"S7K2N1"},"geometry":{"type":"Point","coordinates":[-106.6567065,52.1383115]}},{"type":"Feature","properties":{"ZIP":"S7K5N1"},"geometry":{"type":"Point","coordinates":[-106.6108745,52.1775635]}},{"type":"Feature","properties":{"ZIP":"S7K5V6"},"geometry":{"type":"Point","coordinates":[-106.6280705,52.179471]}},{"type":"Feature","properties":{"ZIP":"S7K6R8"},"geometry":{"type":"Point","coordinates":[-106.6395315,52.1775935]}},{"type":"Feature","properties":{"ZIP":"S7K5E2"},"geometry":{"type":"Point","coordinates":[-106.6240075,52.1734065]}},{"type":"Feature","properties":{"ZIP":"S7K5K6"},"geometry":{"type":"Point","coordinates":[-106.61535950000001,52.177853999999996]}},{"type":"Feature","properties":{"ZIP":"S7K5P3"},"geometry":{"type":"Point","coordinates":[-106.62059099999999,52.179060500000006]}},{"type":"Feature","properties":{"ZIP":"S7K6E8"},"geometry":{"type":"Point","coordinates":[-106.61615549999999,52.187561]}},{"type":"Feature","properties":{"ZIP":"S7K7N2"},"geometry":{"type":"Point","coordinates":[-106.638135,52.183186]}},{"type":"Feature","properties":{"ZIP":"S7K7X3"},"geometry":{"type":"Point","coordinates":[-106.615984,52.188707]}},{"type":"Feature","properties":{"ZIP":"S7K4B7"},"geometry":{"type":"Point","coordinates":[-106.62878,52.162831]}},{"type":"Feature","properties":{"ZIP":"S7K5G7"},"geometry":{"type":"Point","coordinates":[-106.6182495,52.1761975]}},{"type":"Feature","properties":{"ZIP":"S7K5R9"},"geometry":{"type":"Point","coordinates":[-106.616586,52.179157000000004]}},{"type":"Feature","properties":{"ZIP":"S7K1Y6"},"geometry":{"type":"Point","coordinates":[-106.6614795,52.1459045]}},{"type":"Feature","properties":{"ZIP":"S7K2E9"},"geometry":{"type":"Point","coordinates":[-106.659179,52.1493275]}},{"type":"Feature","properties":{"ZIP":"S7K2N2"},"geometry":{"type":"Point","coordinates":[-106.656768,52.138651499999995]}},{"type":"Feature","properties":{"ZIP":"S7K3E4"},"geometry":{"type":"Point","coordinates":[-106.6435575,52.149583]}},{"type":"Feature","properties":{"ZIP":"S7K5B9"},"geometry":{"type":"Point","coordinates":[-106.621292,52.1741825]}},{"type":"Feature","properties":{"ZIP":"S7K5J4"},"geometry":{"type":"Point","coordinates":[-106.62668550000001,52.17621]}},{"type":"Feature","properties":{"ZIP":"S7K5V8"},"geometry":{"type":"Point","coordinates":[-106.6206435,52.180116]}},{"type":"Feature","properties":{"ZIP":"S7K0P1"},"geometry":{"type":"Point","coordinates":[-106.64620450000001,52.141545]}},{"type":"Feature","properties":{"ZIP":"S7K4H1"},"geometry":{"type":"Point","coordinates":[-106.61858000000001,52.163315999999995]}},{"type":"Feature","properties":{"ZIP":"S7K4N7"},"geometry":{"type":"Point","coordinates":[-106.6131705,52.170717]}},{"type":"Feature","properties":{"ZIP":"S7K4T9"},"geometry":{"type":"Point","coordinates":[-106.626203,52.1721105]}},{"type":"Feature","properties":{"ZIP":"S7K5K7"},"geometry":{"type":"Point","coordinates":[-106.61657249999999,52.177844]}},{"type":"Feature","properties":{"ZIP":"S7K5P4"},"geometry":{"type":"Point","coordinates":[-106.6199815,52.1790515]}},{"type":"Feature","properties":{"ZIP":"S7K7S8"},"geometry":{"type":"Point","coordinates":[-106.636761,52.186623999999995]}},{"type":"Feature","properties":{"ZIP":"S7K7X4"},"geometry":{"type":"Point","coordinates":[-106.63978,52.178877]}},{"type":"Feature","properties":{"ZIP":"S7K3C2"},"geometry":{"type":"Point","coordinates":[-106.6450405,52.148407]}},{"type":"Feature","properties":{"ZIP":"S7K4B9"},"geometry":{"type":"Point","coordinates":[-106.63101950000001,52.1619575]}},{"type":"Feature","properties":{"ZIP":"S7K5L9"},"geometry":{"type":"Point","coordinates":[-106.62776099999999,52.1781955]}},{"type":"Feature","properties":{"ZIP":"S7K7K6"},"geometry":{"type":"Point","coordinates":[-106.62771599999999,52.1861465]}},{"type":"Feature","properties":{"ZIP":"S7K4E9"},"geometry":{"type":"Point","coordinates":[-106.6201555,52.1648005]}},{"type":"Feature","properties":{"ZIP":"S7K5J5"},"geometry":{"type":"Point","coordinates":[-106.6264185,52.1755685]}},{"type":"Feature","properties":{"ZIP":"S7K6B8"},"geometry":{"type":"Point","coordinates":[-106.61678749999999,52.1856205]}},{"type":"Feature","properties":{"ZIP":"S7K5Y8"},"geometry":{"type":"Point","coordinates":[-106.65193099999999,52.1802325]}},{"type":"Feature","properties":{"ZIP":"S7K6V8"},"geometry":{"type":"Point","coordinates":[-106.637707,52.1749205]}},{"type":"Feature","properties":{"ZIP":"S7K7G2"},"geometry":{"type":"Point","coordinates":[-106.61289,52.178009]}},{"type":"Feature","properties":{"ZIP":"S7K7X5"},"geometry":{"type":"Point","coordinates":[-106.639437,52.1802165]}},{"type":"Feature","properties":{"ZIP":"S7K2L8"},"geometry":{"type":"Point","coordinates":[-106.6603605,52.128465500000004]}},{"type":"Feature","properties":{"ZIP":"S7K1A2"},"geometry":{"type":"Point","coordinates":[-106.641411,52.1540795]}},{"type":"Feature","properties":{"ZIP":"S7K1G5"},"geometry":{"type":"Point","coordinates":[-106.6402775,52.1630205]}},{"type":"Feature","properties":{"ZIP":"S7K3Y5"},"geometry":{"type":"Point","coordinates":[-106.6521995,52.1705545]}},{"type":"Feature","properties":{"ZIP":"S7K6L4"},"geometry":{"type":"Point","coordinates":[-106.62606099999999,52.186417500000005]}},{"type":"Feature","properties":{"ZIP":"S7K7M3"},"geometry":{"type":"Point","coordinates":[-106.6327275,52.183948]}},{"type":"Feature","properties":{"ZIP":"S7K2R5"},"geometry":{"type":"Point","coordinates":[-106.65364,52.111757999999995]}},{"type":"Feature","properties":{"ZIP":"S7K4H3"},"geometry":{"type":"Point","coordinates":[-106.64297049999999,52.162594]}},{"type":"Feature","properties":{"ZIP":"S7K1E3"},"geometry":{"type":"Point","coordinates":[-106.64009300000001,52.159657499999994]}},{"type":"Feature","properties":{"ZIP":"S7K6A8"},"geometry":{"type":"Point","coordinates":[-106.6108135,52.17687050000001]}},{"type":"Feature","properties":{"ZIP":"S7K6X4"},"geometry":{"type":"Point","coordinates":[-106.62720350000001,52.1875505]}},{"type":"Feature","properties":{"ZIP":"S7K7V3"},"geometry":{"type":"Point","coordinates":[-106.6333025,52.1887095]}},{"type":"Feature","properties":{"ZIP":"S7K1A5"},"geometry":{"type":"Point","coordinates":[-106.64407750000001,52.1540525]}},{"type":"Feature","properties":{"ZIP":"S7K1G6"},"geometry":{"type":"Point","coordinates":[-106.639433,52.16151]}},{"type":"Feature","properties":{"ZIP":"S7K2Z7"},"geometry":{"type":"Point","coordinates":[-106.64946850000001,52.147828000000004]}},{"type":"Feature","properties":{"ZIP":"S7K3H8"},"geometry":{"type":"Point","coordinates":[-106.6445635,52.1413205]}},{"type":"Feature","properties":{"ZIP":"S7K5N5"},"geometry":{"type":"Point","coordinates":[-106.612088,52.178785500000004]}},{"type":"Feature","properties":{"ZIP":"S7K6L5"},"geometry":{"type":"Point","coordinates":[-106.6250995,52.1860095]}},{"type":"Feature","properties":{"ZIP":"S7K7R9"},"geometry":{"type":"Point","coordinates":[-106.63049649999999,52.18625]}},{"type":"Feature","properties":{"ZIP":"S7K0P6"},"geometry":{"type":"Point","coordinates":[-106.6529195,52.1409865]}},{"type":"Feature","properties":{"ZIP":"S7K1J1"},"geometry":{"type":"Point","coordinates":[-106.6403295,52.162927499999995]}},{"type":"Feature","properties":{"ZIP":"S7K4Z6"},"geometry":{"type":"Point","coordinates":[-106.657387,52.176728]}},{"type":"Feature","properties":{"ZIP":"S7K2T1"},"geometry":{"type":"Point","coordinates":[-106.650053,52.1127585]}},{"type":"Feature","properties":{"ZIP":"S7K3C5"},"geometry":{"type":"Point","coordinates":[-106.6432265,52.153135]}},{"type":"Feature","properties":{"ZIP":"S7K7P8"},"geometry":{"type":"Point","coordinates":[-106.6313965,52.1856415]}},{"type":"Feature","properties":{"ZIP":"S7K7V4"},"geometry":{"type":"Point","coordinates":[-106.6332705,52.1883805]}},{"type":"Feature","properties":{"ZIP":"S7K1A7"},"geometry":{"type":"Point","coordinates":[-106.644515,52.154078999999996]}},{"type":"Feature","properties":{"ZIP":"S7K4G3"},"geometry":{"type":"Point","coordinates":[-106.6174325,52.165408]}},{"type":"Feature","properties":{"ZIP":"S7K5C5"},"geometry":{"type":"Point","coordinates":[-106.62376,52.1663375]}},{"type":"Feature","properties":{"ZIP":"S7K6L6"},"geometry":{"type":"Point","coordinates":[-106.6279585,52.186242]}},{"type":"Feature","properties":{"ZIP":"S7K7S1"},"geometry":{"type":"Point","coordinates":[-106.630743,52.18729]}},{"type":"Feature","properties":{"ZIP":"S7K1J2"},"geometry":{"type":"Point","coordinates":[-106.6403885,52.162980000000005]}},{"type":"Feature","properties":{"ZIP":"S7K2W9"},"geometry":{"type":"Point","coordinates":[-106.6521065,52.131361]}},{"type":"Feature","properties":{"ZIP":"S7K4A2"},"geometry":{"type":"Point","coordinates":[-106.63740250000001,52.1622885]}},{"type":"Feature","properties":{"ZIP":"S7K4P2"},"geometry":{"type":"Point","coordinates":[-106.6148405,52.170156500000004]}},{"type":"Feature","properties":{"ZIP":"S7K7N7"},"geometry":{"type":"Point","coordinates":[-106.63801749999999,52.185317]}},{"type":"Feature","properties":{"ZIP":"S7K5T2"},"geometry":{"type":"Point","coordinates":[-106.63307,52.1783385]}},{"type":"Feature","properties":{"ZIP":"S7K4T2"},"geometry":{"type":"Point","coordinates":[-106.6294605,52.1714985]}},{"type":"Feature","properties":{"ZIP":"S7K5J9"},"geometry":{"type":"Point","coordinates":[-106.6266685,52.1749435]}},{"type":"Feature","properties":{"ZIP":"S7K8H3"},"geometry":{"type":"Point","coordinates":[-106.6602615,52.182409]}},{"type":"Feature","properties":{"ZIP":"S7K0R1"},"geometry":{"type":"Point","coordinates":[-106.655092,52.142578]}},{"type":"Feature","properties":{"ZIP":"S7K1C2"},"geometry":{"type":"Point","coordinates":[-106.63450499999999,52.1607355]}},{"type":"Feature","properties":{"ZIP":"S7K2R8"},"geometry":{"type":"Point","coordinates":[-106.651097,52.111836499999995]}},{"type":"Feature","properties":{"ZIP":"S7K6W4"},"geometry":{"type":"Point","coordinates":[-106.636787,52.175287999999995]}},{"type":"Feature","properties":{"ZIP":"S7K7J2"},"geometry":{"type":"Point","coordinates":[-106.625294,52.181599]}},{"type":"Feature","properties":{"ZIP":"S7K2M5"},"geometry":{"type":"Point","coordinates":[-106.65721450000001,52.1357145]}},{"type":"Feature","properties":{"ZIP":"S7K4W7"},"geometry":{"type":"Point","coordinates":[-106.620503,52.1705695]}},{"type":"Feature","properties":{"ZIP":"S7K5H7"},"geometry":{"type":"Point","coordinates":[-106.6293495,52.1690325]}},{"type":"Feature","properties":{"ZIP":"S7K7V6"},"geometry":{"type":"Point","coordinates":[-106.6278235,52.1881535]}},{"type":"Feature","properties":{"ZIP":"S7K8B3"},"geometry":{"type":"Point","coordinates":[-106.66221,52.178073999999995]}},{"type":"Feature","properties":{"ZIP":"S7K1Z3"},"geometry":{"type":"Point","coordinates":[-106.661314,52.1506115]}},{"type":"Feature","properties":{"ZIP":"S7K2V7"},"geometry":{"type":"Point","coordinates":[-106.65228450000001,52.1419455]}},{"type":"Feature","properties":{"ZIP":"S7K4Y2"},"geometry":{"type":"Point","coordinates":[-106.6124995,52.172347]}},{"type":"Feature","properties":{"ZIP":"S7K7C4"},"geometry":{"type":"Point","coordinates":[-106.632409,52.182342000000006]}},{"type":"Feature","properties":{"ZIP":"S7K7M7"},"geometry":{"type":"Point","coordinates":[-106.6380585,52.1818205]}},{"type":"Feature","properties":{"ZIP":"S7K8H4"},"geometry":{"type":"Point","coordinates":[-106.6602775,52.1811655]}},{"type":"Feature","properties":{"ZIP":"S7K4V6"},"geometry":{"type":"Point","coordinates":[-106.62552,52.1703335]}},{"type":"Feature","properties":{"ZIP":"S7K6W5"},"geometry":{"type":"Point","coordinates":[-106.6367305,52.1745655]}},{"type":"Feature","properties":{"ZIP":"S7K7N9"},"geometry":{"type":"Point","coordinates":[-106.6369015,52.184921]}},{"type":"Feature","properties":{"ZIP":"S7K1E8"},"geometry":{"type":"Point","coordinates":[-106.6359035,52.1598705]}},{"type":"Feature","properties":{"ZIP":"S7K2M7"},"geometry":{"type":"Point","coordinates":[-106.6571515,52.1356945]}},{"type":"Feature","properties":{"ZIP":"S7K3X3"},"geometry":{"type":"Point","coordinates":[-106.636267,52.165241]}},{"type":"Feature","properties":{"ZIP":"S7K5M7"},"geometry":{"type":"Point","coordinates":[-106.609858,52.178279]}},{"type":"Feature","properties":{"ZIP":"S7K7R2"},"geometry":{"type":"Point","coordinates":[-106.631,52.184859]}},{"type":"Feature","properties":{"ZIP":"S7K1Z4"},"geometry":{"type":"Point","coordinates":[-106.661618,52.150453]}},{"type":"Feature","properties":{"ZIP":"S7K2H4"},"geometry":{"type":"Point","coordinates":[-106.6615725,52.1296235]}},{"type":"Feature","properties":{"ZIP":"S7K3G3"},"geometry":{"type":"Point","coordinates":[-106.6422125,52.147902]}},{"type":"Feature","properties":{"ZIP":"S7K1C4"},"geometry":{"type":"Point","coordinates":[-106.6374555,52.1555155]}},{"type":"Feature","properties":{"ZIP":"S7K1J5"},"geometry":{"type":"Point","coordinates":[-106.67100350000001,52.130991]}},{"type":"Feature","properties":{"ZIP":"S7K6W6"},"geometry":{"type":"Point","coordinates":[-106.6381825,52.1776185]}},{"type":"Feature","properties":{"ZIP":"S7K7P1"},"geometry":{"type":"Point","coordinates":[-106.63279,52.186707999999996]}},{"type":"Feature","properties":{"ZIP":"S7K4M1"},"geometry":{"type":"Point","coordinates":[-106.6398335,52.166205000000005]}},{"type":"Feature","properties":{"ZIP":"S7K5M8"},"geometry":{"type":"Point","coordinates":[-106.61279400000001,52.179608]}},{"type":"Feature","properties":{"ZIP":"S7K7V8"},"geometry":{"type":"Point","coordinates":[-106.62589600000001,52.188255]}},{"type":"Feature","properties":{"ZIP":"S7K1Z6"},"geometry":{"type":"Point","coordinates":[-106.661191,52.1535285]}},{"type":"Feature","properties":{"ZIP":"S7K4T5"},"geometry":{"type":"Point","coordinates":[-106.62666250000001,52.170956000000004]}},{"type":"Feature","properties":{"ZIP":"S7K5K4"},"geometry":{"type":"Point","coordinates":[-106.61689100000001,52.178273]}},{"type":"Feature","properties":{"ZIP":"S7K7S5"},"geometry":{"type":"Point","coordinates":[-106.6371605,52.1861765]}},{"type":"Feature","properties":{"ZIP":"S7K7X1"},"geometry":{"type":"Point","coordinates":[-106.61612099999999,52.188809]}},{"type":"Feature","properties":{"ZIP":"S7K4B3"},"geometry":{"type":"Point","coordinates":[-106.6270835,52.163125]}},{"type":"Feature","properties":{"ZIP":"S7K6H5"},"geometry":{"type":"Point","coordinates":[-106.623966,52.1848405]}},{"type":"Feature","properties":{"ZIP":"S7K6W7"},"geometry":{"type":"Point","coordinates":[-106.6384885,52.178953]}},{"type":"Feature","properties":{"ZIP":"S7K0Z6"},"geometry":{"type":"Point","coordinates":[-106.646815,52.152933000000004]}},{"type":"Feature","properties":{"ZIP":"S7K2Y9"},"geometry":{"type":"Point","coordinates":[-106.65041199999999,52.1275105]}},{"type":"Feature","properties":{"ZIP":"S7K4M2"},"geometry":{"type":"Point","coordinates":[-106.63763,52.166835]}},{"type":"Feature","properties":{"ZIP":"S7K4X1"},"geometry":{"type":"Point","coordinates":[-106.6252985,52.168909]}},{"type":"Feature","properties":{"ZIP":"S7K3Z3"},"geometry":{"type":"Point","coordinates":[-106.623816,52.1637865]}},{"type":"Feature","properties":{"ZIP":"S7K5P2"},"geometry":{"type":"Point","coordinates":[-106.62019599999999,52.17852]}},{"type":"Feature","properties":{"ZIP":"S7K7S6"},"geometry":{"type":"Point","coordinates":[-106.636856,52.1865295]}},{"type":"Feature","properties":{"ZIP":"S7K4P7"},"geometry":{"type":"Point","coordinates":[-106.61784,52.169391]}},{"type":"Feature","properties":{"ZIP":"S7K6H7"},"geometry":{"type":"Point","coordinates":[-106.6199095,52.1852515]}},{"type":"Feature","properties":{"ZIP":"S7K7P3"},"geometry":{"type":"Point","coordinates":[-106.63486950000001,52.186299500000004]}},{"type":"Feature","properties":{"ZIP":"S7K1Y5"},"geometry":{"type":"Point","coordinates":[-106.6622185,52.1436425]}},{"type":"Feature","properties":{"ZIP":"S7K7R5"},"geometry":{"type":"Point","coordinates":[-106.630128,52.185225]}},{"type":"Feature","properties":{"ZIP":"S7K0N9"},"geometry":{"type":"Point","coordinates":[-106.6481065,52.1384555]}},{"type":"Feature","properties":{"ZIP":"S7K3Z4"},"geometry":{"type":"Point","coordinates":[-106.628265,52.164996]}},{"type":"Feature","properties":{"ZIP":"S7K6N1"},"geometry":{"type":"Point","coordinates":[-106.635324,52.174876499999996]}},{"type":"Feature","properties":{"ZIP":"S7K6V6"},"geometry":{"type":"Point","coordinates":[-106.6370885,52.1807085]}},{"type":"Feature","properties":{"ZIP":"S7K2X6"},"geometry":{"type":"Point","coordinates":[-106.643403,52.130928]}},{"type":"Feature","properties":{"ZIP":"S7K6H8"},"geometry":{"type":"Point","coordinates":[-106.622661,52.1860825]}},{"type":"Feature","properties":{"ZIP":"S7K7P4"},"geometry":{"type":"Point","coordinates":[-106.63441,52.185666499999996]}},{"type":"Feature","properties":{"ZIP":"S7K2V1"},"geometry":{"type":"Point","coordinates":[-106.65316200000001,52.135197000000005]}},{"type":"Feature","properties":{"ZIP":"S7K1Z9"},"geometry":{"type":"Point","coordinates":[-106.6613025,52.1532435]}},{"type":"Feature","properties":{"ZIP":"S7K2W5"},"geometry":{"type":"Point","coordinates":[-106.6521135,52.148108500000006]}},{"type":"Feature","properties":{"ZIP":"S7K3H4"},"geometry":{"type":"Point","coordinates":[-106.6554145,52.1292505]}},{"type":"Feature","properties":{"ZIP":"S7K4Y8"},"geometry":{"type":"Point","coordinates":[-106.6157335,52.173325500000004]}},{"type":"Feature","properties":{"ZIP":"S7K6V7"},"geometry":{"type":"Point","coordinates":[-106.63619,52.180619500000006]}},{"type":"Feature","properties":{"ZIP":"S7K6P5"},"geometry":{"type":"Point","coordinates":[-106.6243475,52.186715500000005]}},{"type":"Feature","properties":{"ZIP":"S7K1G4"},"geometry":{"type":"Point","coordinates":[-106.63681600000001,52.160626]}},{"type":"Feature","properties":{"ZIP":"S7K1Y7"},"geometry":{"type":"Point","coordinates":[-106.662086,52.145163499999995]}},{"type":"Feature","properties":{"ZIP":"S7K2G1"},"geometry":{"type":"Point","coordinates":[-106.65917400000001,52.149497]}},{"type":"Feature","properties":{"ZIP":"S7K2Z4"},"geometry":{"type":"Point","coordinates":[-106.6481705,52.1290605]}},{"type":"Feature","properties":{"ZIP":"S7K7R7"},"geometry":{"type":"Point","coordinates":[-106.6307655,52.186964]}},{"type":"Feature","properties":{"ZIP":"S7K7W3"},"geometry":{"type":"Point","coordinates":[-106.621983,52.187878999999995]}},{"type":"Feature","properties":{"ZIP":"S7K2J3"},"geometry":{"type":"Point","coordinates":[-106.66085050000001,52.110130999999996]}},{"type":"Feature","properties":{"ZIP":"S7K2R4"},"geometry":{"type":"Point","coordinates":[-106.6562095,52.1117305]}},{"type":"Feature","properties":{"ZIP":"S7K2W6"},"geometry":{"type":"Point","coordinates":[-106.652119,52.1479235]}},{"type":"Feature","properties":{"ZIP":"S7K3Z6"},"geometry":{"type":"Point","coordinates":[-106.625579,52.164192]}},{"type":"Feature","properties":{"ZIP":"S7K4Y9"},"geometry":{"type":"Point","coordinates":[-106.6171605,52.172957]}},{"type":"Feature","properties":{"ZIP":"S7K5K8"},"geometry":{"type":"Point","coordinates":[-106.614532,52.1780915]}},{"type":"Feature","properties":{"ZIP":"S7K6G1"},"geometry":{"type":"Point","coordinates":[-106.6183485,52.182367]}},{"type":"Feature","properties":{"ZIP":"S7K6N4"},"geometry":{"type":"Point","coordinates":[-106.623648,52.184463]}},{"type":"Feature","properties":{"ZIP":"S7K1E1"},"geometry":{"type":"Point","coordinates":[-106.63981749999999,52.158283]}},{"type":"Feature","properties":{"ZIP":"S7K1K9"},"geometry":{"type":"Point","coordinates":[-106.665784,52.1254095]}},{"type":"Feature","properties":{"ZIP":"S7K2C9"},"geometry":{"type":"Point","coordinates":[-106.6573505,52.1384725]}},{"type":"Feature","properties":{"ZIP":"S7K3V9"},"geometry":{"type":"Point","coordinates":[-106.6349905,52.162893]}},{"type":"Feature","properties":{"ZIP":"S7K4W3"},"geometry":{"type":"Point","coordinates":[-106.626382,52.171392499999996]}},{"type":"Feature","properties":{"ZIP":"S7K0M5"},"geometry":{"type":"Point","coordinates":[-106.654361,52.136654500000006]}},{"type":"Feature","properties":{"ZIP":"S7K5C2"},"geometry":{"type":"Point","coordinates":[-106.62170950000001,52.1739585]}},{"type":"Feature","properties":{"ZIP":"S7K5N4"},"geometry":{"type":"Point","coordinates":[-106.639981,52.152494000000004]}},{"type":"Feature","properties":{"ZIP":"S7K6S8"},"geometry":{"type":"Point","coordinates":[-106.61402799999999,52.1781665]}},{"type":"Feature","properties":{"ZIP":"S7K7R8"},"geometry":{"type":"Point","coordinates":[-106.629934,52.186712]}},{"type":"Feature","properties":{"ZIP":"S7K5E7"},"geometry":{"type":"Point","coordinates":[-106.622883,52.172339]}},{"type":"Feature","properties":{"ZIP":"S7K7H2"},"geometry":{"type":"Point","coordinates":[-106.620697,52.187583000000004]}},{"type":"Feature","properties":{"ZIP":"S7K7N5"},"geometry":{"type":"Point","coordinates":[-106.636822,52.1817955]}},{"type":"Feature","properties":{"ZIP":"S7K0Y7"},"geometry":{"type":"Point","coordinates":[-106.6501395,52.147057000000004]}},{"type":"Feature","properties":{"ZIP":"S7K2X9"},"geometry":{"type":"Point","coordinates":[-106.64960400000001,52.149765]}},{"type":"Feature","properties":{"ZIP":"S7K3W7"},"geometry":{"type":"Point","coordinates":[-106.64300399999999,52.164066000000005]}},{"type":"Feature","properties":{"ZIP":"S7K5A8"},"geometry":{"type":"Point","coordinates":[-106.61443,52.175871]}},{"type":"Feature","properties":{"ZIP":"S7K5J7"},"geometry":{"type":"Point","coordinates":[-106.62669199999999,52.175747]}},{"type":"Feature","properties":{"ZIP":"S7K7W5"},"geometry":{"type":"Point","coordinates":[-106.620869,52.1882145]}},{"type":"Feature","properties":{"ZIP":"S7K1S7"},"geometry":{"type":"Point","coordinates":[-106.66618249999999,52.1500895]}},{"type":"Feature","properties":{"ZIP":"S7K2R6"},"geometry":{"type":"Point","coordinates":[-106.65423,52.125158]}},{"type":"Feature","properties":{"ZIP":"S7K2W8"},"geometry":{"type":"Point","coordinates":[-106.6533945,52.12608]}},{"type":"Feature","properties":{"ZIP":"S7K3B1"},"geometry":{"type":"Point","coordinates":[-106.6463265,52.145915]}},{"type":"Feature","properties":{"ZIP":"S7K4P1"},"geometry":{"type":"Point","coordinates":[-106.6156175,52.169765999999996]}},{"type":"Feature","properties":{"ZIP":"S7K4V3"},"geometry":{"type":"Point","coordinates":[-106.625588,52.1717955]}},{"type":"Feature","properties":{"ZIP":"S7K5E8"},"geometry":{"type":"Point","coordinates":[-106.6227995,52.173]}},{"type":"Feature","properties":{"ZIP":"S7K5L1"},"geometry":{"type":"Point","coordinates":[-106.62910099999999,52.173998]}},{"type":"Feature","properties":{"ZIP":"S7K5Z1"},"geometry":{"type":"Point","coordinates":[-106.65281999999999,52.182145000000006]}},{"type":"Feature","properties":{"ZIP":"S7K7H3"},"geometry":{"type":"Point","coordinates":[-106.63320949999999,52.180032]}},{"type":"Feature","properties":{"ZIP":"S7K7N6"},"geometry":{"type":"Point","coordinates":[-106.636962,52.183078]}},{"type":"Feature","properties":{"ZIP":"S7K7T2"},"geometry":{"type":"Point","coordinates":[-106.63676749999999,52.186851]}},{"type":"Feature","properties":{"ZIP":"S7K7X7"},"geometry":{"type":"Point","coordinates":[-106.639347,52.175776]}},{"type":"Feature","properties":{"ZIP":"S7K0Y8"},"geometry":{"type":"Point","coordinates":[-106.651283,52.1470505]}},{"type":"Feature","properties":{"ZIP":"S7K1L6"},"geometry":{"type":"Point","coordinates":[-106.6603265,52.128379]}},{"type":"Feature","properties":{"ZIP":"S7K1X5"},"geometry":{"type":"Point","coordinates":[-106.664312,52.1324835]}},{"type":"Feature","properties":{"ZIP":"S7K2E2"},"geometry":{"type":"Point","coordinates":[-106.6587335,52.1396655]}},{"type":"Feature","properties":{"ZIP":"S7K4C4"},"geometry":{"type":"Point","coordinates":[-106.625058,52.161629500000004]}},{"type":"Feature","properties":{"ZIP":"S7K4L6"},"geometry":{"type":"Point","coordinates":[-106.64276,52.166872]}},{"type":"Feature","properties":{"ZIP":"S7K5H2"},"geometry":{"type":"Point","coordinates":[-106.6660415,52.1664555]}},{"type":"Feature","properties":{"ZIP":"S7K5S9"},"geometry":{"type":"Point","coordinates":[-106.632864,52.175053500000004]}},{"type":"Feature","properties":{"ZIP":"S7K0P9"},"geometry":{"type":"Point","coordinates":[-106.64572050000001,52.1406585]}},{"type":"Feature","properties":{"ZIP":"S7K1C1"},"geometry":{"type":"Point","coordinates":[-106.63882100000001,52.157877]}},{"type":"Feature","properties":{"ZIP":"S7K2R7"},"geometry":{"type":"Point","coordinates":[-106.6507605,52.112021999999996]}},{"type":"Feature","properties":{"ZIP":"S7K3B2"},"geometry":{"type":"Point","coordinates":[-106.6463985,52.1467285]}},{"type":"Feature","properties":{"ZIP":"S7K4H6"},"geometry":{"type":"Point","coordinates":[-106.6355375,52.1676475]}},{"type":"Feature","properties":{"ZIP":"S7K4V4"},"geometry":{"type":"Point","coordinates":[-106.625181,52.1715935]}},{"type":"Feature","properties":{"ZIP":"S7K5L2"},"geometry":{"type":"Point","coordinates":[-106.629133,52.1740765]}},{"type":"Feature","properties":{"ZIP":"S7K5P8"},"geometry":{"type":"Point","coordinates":[-106.6267775,52.179146]}},{"type":"Feature","properties":{"ZIP":"S7K6J6"},"geometry":{"type":"Point","coordinates":[-106.6207805,52.185593]}},{"type":"Feature","properties":{"ZIP":"S7K7V5"},"geometry":{"type":"Point","coordinates":[-106.62813,52.1877375]}},{"type":"Feature","properties":{"ZIP":"S7K1Z2"},"geometry":{"type":"Point","coordinates":[-106.66178500000001,52.148661000000004]}},{"type":"Feature","properties":{"ZIP":"S7K2N7"},"geometry":{"type":"Point","coordinates":[-106.6691795,52.11182049999999]}},{"type":"Feature","properties":{"ZIP":"S7K7M6"},"geometry":{"type":"Point","coordinates":[-106.6330495,52.184563999999995]}},{"type":"Feature","properties":{"ZIP":"S7K0B2"},"geometry":{"type":"Point","coordinates":[-106.66532699999999,52.1270605]}},{"type":"Feature","properties":{"ZIP":"S7K3T8"},"geometry":{"type":"Point","coordinates":[-106.652445,52.1444095]}},{"type":"Feature","properties":{"ZIP":"S7K4J5"},"geometry":{"type":"Point","coordinates":[-106.629908,52.161747]}},{"type":"Feature","properties":{"ZIP":"S7K4P3"},"geometry":{"type":"Point","coordinates":[-106.6140555,52.1703115]}},{"type":"Feature","properties":{"ZIP":"S7K5G1"},"geometry":{"type":"Point","coordinates":[-106.622998,52.172823]}},{"type":"Feature","properties":{"ZIP":"S7K7N8"},"geometry":{"type":"Point","coordinates":[-106.6378725,52.184534]}},{"type":"Feature","properties":{"ZIP":"S7K0S8"},"geometry":{"type":"Point","coordinates":[-106.6862845,52.14389]}},{"type":"Feature","properties":{"ZIP":"S7K1X7"},"geometry":{"type":"Point","coordinates":[-106.661449,52.137499500000004]}},{"type":"Feature","properties":{"ZIP":"S7K2Y6"},"geometry":{"type":"Point","coordinates":[-106.6518145,52.126694]}},{"type":"Feature","properties":{"ZIP":"S7K3C7"},"geometry":{"type":"Point","coordinates":[-106.6422775,52.155772]}},{"type":"Feature","properties":{"ZIP":"S7K6B2"},"geometry":{"type":"Point","coordinates":[-106.618762,52.18445800000001]}},{"type":"Feature","properties":{"ZIP":"S7K6J7"},"geometry":{"type":"Point","coordinates":[-106.61986350000001,52.186795000000004]}},{"type":"Feature","properties":{"ZIP":"S7K6R2"},"geometry":{"type":"Point","coordinates":[-106.62748250000001,52.1828855]}},{"type":"Feature","properties":{"ZIP":"S7K0N2"},"geometry":{"type":"Point","coordinates":[-106.64822849999999,52.136673]}},{"type":"Feature","properties":{"ZIP":"S7K2P2"},"geometry":{"type":"Point","coordinates":[-106.666777,52.1120305]}},{"type":"Feature","properties":{"ZIP":"S7K3A2"},"geometry":{"type":"Point","coordinates":[-106.647662,52.151562]}},{"type":"Feature","properties":{"ZIP":"S7K3G2"},"geometry":{"type":"Point","coordinates":[-106.643848,52.145289500000004]}},{"type":"Feature","properties":{"ZIP":"S7K5X3"},"geometry":{"type":"Point","coordinates":[-106.6664715,52.166658999999996]}},{"type":"Feature","properties":{"ZIP":"S7K7S3"},"geometry":{"type":"Point","coordinates":[-106.6347175,52.1862795]}},{"type":"Feature","properties":{"ZIP":"S7K1T8"},"geometry":{"type":"Point","coordinates":[-106.66491149999999,52.1602965]}},{"type":"Feature","properties":{"ZIP":"S7K2K1"},"geometry":{"type":"Point","coordinates":[-106.652068,52.110136499999996]}},{"type":"Feature","properties":{"ZIP":"S7K2R9"},"geometry":{"type":"Point","coordinates":[-106.6514935,52.1269335]}},{"type":"Feature","properties":{"ZIP":"S7K5Z7"},"geometry":{"type":"Point","coordinates":[-106.65199050000001,52.187499]}},{"type":"Feature","properties":{"ZIP":"S7K7T5"},"geometry":{"type":"Point","coordinates":[-106.634954,52.1876395]}},{"type":"Feature","properties":{"ZIP":"S7K7Y3"},"geometry":{"type":"Point","coordinates":[-106.6352005,52.171823]}},{"type":"Feature","properties":{"ZIP":"S7K0H5"},"geometry":{"type":"Point","coordinates":[-106.66960549999999,52.13147]}},{"type":"Feature","properties":{"ZIP":"S7K0T6"},"geometry":{"type":"Point","coordinates":[-106.666982,52.1581195]}},{"type":"Feature","properties":{"ZIP":"S7K1M3"},"geometry":{"type":"Point","coordinates":[-106.6624815,52.127050999999994]}},{"type":"Feature","properties":{"ZIP":"S7K2E5"},"geometry":{"type":"Point","coordinates":[-106.659153,52.145863]}},{"type":"Feature","properties":{"ZIP":"S7K2Y7"},"geometry":{"type":"Point","coordinates":[-106.649021,52.137224]}},{"type":"Feature","properties":{"ZIP":"S7K4W8"},"geometry":{"type":"Point","coordinates":[-106.6214885,52.1694375]}},{"type":"Feature","properties":{"ZIP":"S7K5B3"},"geometry":{"type":"Point","coordinates":[-106.6118505,52.175302]}},{"type":"Feature","properties":{"ZIP":"S7K6Y5"},"geometry":{"type":"Point","coordinates":[-106.6387095,52.1741035]}},{"type":"Feature","properties":{"ZIP":"S7K7V7"},"geometry":{"type":"Point","coordinates":[-106.6293625,52.188315]}},{"type":"Feature","properties":{"ZIP":"S7K0N5"},"geometry":{"type":"Point","coordinates":[-106.651923,52.137958999999995]}},{"type":"Feature","properties":{"ZIP":"S7K3Z1"},"geometry":{"type":"Point","coordinates":[-106.6289665,52.163724]}},{"type":"Feature","properties":{"ZIP":"S7K4Y3"},"geometry":{"type":"Point","coordinates":[-106.6166535,52.1729815]}},{"type":"Feature","properties":{"ZIP":"S7K6T6"},"geometry":{"type":"Point","coordinates":[-106.6335555,52.175788499999996]}},{"type":"Feature","properties":{"ZIP":"S7K7M8"},"geometry":{"type":"Point","coordinates":[-106.638817,52.182256]}},{"type":"Feature","properties":{"ZIP":"S7K1T9"},"geometry":{"type":"Point","coordinates":[-106.664974,52.163005]}},{"type":"Feature","properties":{"ZIP":"S7K2X3"},"geometry":{"type":"Point","coordinates":[-106.6500745,52.127785]}},{"type":"Feature","properties":{"ZIP":"S7K4J7"},"geometry":{"type":"Point","coordinates":[-106.6296245,52.162476]}},{"type":"Feature","properties":{"ZIP":"S7K1Y1"},"geometry":{"type":"Point","coordinates":[-106.660815,52.138872500000005]}},{"type":"Feature","properties":{"ZIP":"S7K2E6"},"geometry":{"type":"Point","coordinates":[-106.659157,52.1462405]}},{"type":"Feature","properties":{"ZIP":"S7K4C8"},"geometry":{"type":"Point","coordinates":[-106.6470655,52.169924]}},{"type":"Feature","properties":{"ZIP":"S7K4W9"},"geometry":{"type":"Point","coordinates":[-106.620824,52.1681165]}},{"type":"Feature","properties":{"ZIP":"S7K5B6"},"geometry":{"type":"Point","coordinates":[-106.62147300000001,52.172414]}},{"type":"Feature","properties":{"ZIP":"S7K5H9"},"geometry":{"type":"Point","coordinates":[-106.63702,52.1667355]}},{"type":"Feature","properties":{"ZIP":"S7K6J9"},"geometry":{"type":"Point","coordinates":[-106.6261925,52.1845455]}},{"type":"Feature","properties":{"ZIP":"S7K7R3"},"geometry":{"type":"Point","coordinates":[-106.63128549999999,52.1845275]}},{"type":"Feature","properties":{"ZIP":"S7K1B2"},"geometry":{"type":"Point","coordinates":[-106.646854,52.1538715]}},{"type":"Feature","properties":{"ZIP":"S7K1H3"},"geometry":{"type":"Point","coordinates":[-106.642375,52.161327]}},{"type":"Feature","properties":{"ZIP":"S7K2P4"},"geometry":{"type":"Point","coordinates":[-106.6641745,52.111875]}},{"type":"Feature","properties":{"ZIP":"S7K2W2"},"geometry":{"type":"Point","coordinates":[-106.65261799999999,52.1441375]}},{"type":"Feature","properties":{"ZIP":"S7K3Z2"},"geometry":{"type":"Point","coordinates":[-106.62721450000001,52.16369]}},{"type":"Feature","properties":{"ZIP":"S7K5X9"},"geometry":{"type":"Point","coordinates":[-106.646717,52.178866]}},{"type":"Feature","properties":{"ZIP":"S7K6V4"},"geometry":{"type":"Point","coordinates":[-106.662769,52.172435500000006]}},{"type":"Feature","properties":{"ZIP":"S7K1C5"},"geometry":{"type":"Point","coordinates":[-106.6378625,52.156771]}},{"type":"Feature","properties":{"ZIP":"S7K1J9"},"geometry":{"type":"Point","coordinates":[-106.66455500000001,52.123377000000005]}},{"type":"Feature","properties":{"ZIP":"S7K1V6"},"geometry":{"type":"Point","coordinates":[-106.6633825,52.1495735]}},{"type":"Feature","properties":{"ZIP":"S7K2S2"},"geometry":{"type":"Point","coordinates":[-106.59893550000001,52.143356499999996]}},{"type":"Feature","properties":{"ZIP":"S7K2X4"},"geometry":{"type":"Point","coordinates":[-106.649238,52.1283755]}},{"type":"Feature","properties":{"ZIP":"S7K6P2"},"geometry":{"type":"Point","coordinates":[-106.6318775,52.1826325]}},{"type":"Feature","properties":{"ZIP":"S7K0K8"},"geometry":{"type":"Point","coordinates":[-106.657198,52.130173]}},{"type":"Feature","properties":{"ZIP":"S7K1G1"},"geometry":{"type":"Point","coordinates":[-106.6387325,52.1611685]}},{"type":"Feature","properties":{"ZIP":"S7K2M9"},"geometry":{"type":"Point","coordinates":[-106.65690649999999,52.1366515]}},{"type":"Feature","properties":{"ZIP":"S7K3X7"},"geometry":{"type":"Point","coordinates":[-106.643102,52.163741]}},{"type":"Feature","properties":{"ZIP":"S7K7L8"},"geometry":{"type":"Point","coordinates":[-106.63212,52.1838]}},{"type":"Feature","properties":{"ZIP":"S7K1H4"},"geometry":{"type":"Point","coordinates":[-106.6419785,52.1619425]}},{"type":"Feature","properties":{"ZIP":"S7K1Z7"},"geometry":{"type":"Point","coordinates":[-106.66144299999999,52.152097]}},{"type":"Feature","properties":{"ZIP":"S7K2H7"},"geometry":{"type":"Point","coordinates":[-106.666955,52.1238205]}},{"type":"Feature","properties":{"ZIP":"S7K2W3"},"geometry":{"type":"Point","coordinates":[-106.65213299999999,52.146037500000006]}},{"type":"Feature","properties":{"ZIP":"S7K4N5"},"geometry":{"type":"Point","coordinates":[-106.61382,52.1687905]}},{"type":"Feature","properties":{"ZIP":"S7K4Y5"},"geometry":{"type":"Point","coordinates":[-106.6172085,52.170985]}},{"type":"Feature","properties":{"ZIP":"S7K7N1"},"geometry":{"type":"Point","coordinates":[-106.6385365,52.183373]}},{"type":"Feature","properties":{"ZIP":"S7K0R8"},"geometry":{"type":"Point","coordinates":[-106.6644625,52.144073]}},{"type":"Feature","properties":{"ZIP":"S7K0Y3"},"geometry":{"type":"Point","coordinates":[-106.6486845,52.144903]}},{"type":"Feature","properties":{"ZIP":"S7K3V3"},"geometry":{"type":"Point","coordinates":[-106.65052700000001,52.165449499999994]}},{"type":"Feature","properties":{"ZIP":"S7K5R8"},"geometry":{"type":"Point","coordinates":[-106.61632900000001,52.179021]}},{"type":"Feature","properties":{"ZIP":"S7K7Z1"},"geometry":{"type":"Point","coordinates":[-106.6576755,52.183479500000004]}},{"type":"Feature","properties":{"ZIP":"S7K0V1"},"geometry":{"type":"Point","coordinates":[-106.657581,52.157782499999996]}},{"type":"Feature","properties":{"ZIP":"S7K4E7"},"geometry":{"type":"Point","coordinates":[-106.6371085,52.162366]}},{"type":"Feature","properties":{"ZIP":"S7K4X2"},"geometry":{"type":"Point","coordinates":[-106.62941749999999,52.1691615]}},{"type":"Feature","properties":{"ZIP":"S7K5J3"},"geometry":{"type":"Point","coordinates":[-106.627445,52.174255]}},{"type":"Feature","properties":{"ZIP":"S7K7W1"},"geometry":{"type":"Point","coordinates":[-106.62458799999999,52.188243]}},{"type":"Feature","properties":{"ZIP":"S7K1H6"},"geometry":{"type":"Point","coordinates":[-106.6404405,52.162217999999996]}},{"type":"Feature","properties":{"ZIP":"S7K1Z8"},"geometry":{"type":"Point","coordinates":[-106.661118,52.155106]}},{"type":"Feature","properties":{"ZIP":"S7K2H9"},"geometry":{"type":"Point","coordinates":[-106.662099,52.1286445]}},{"type":"Feature","properties":{"ZIP":"S7K2R1"},"geometry":{"type":"Point","coordinates":[-106.658555,52.112015]}},{"type":"Feature","properties":{"ZIP":"S7K4N6"},"geometry":{"type":"Point","coordinates":[-106.612488,52.169248499999995]}},{"type":"Feature","properties":{"ZIP":"S7K4T7"},"geometry":{"type":"Point","coordinates":[-106.6281695,52.170998999999995]}},{"type":"Feature","properties":{"ZIP":"S7K0R9"},"geometry":{"type":"Point","coordinates":[-106.663208,52.143861]}},{"type":"Feature","properties":{"ZIP":"S7K0Y4"},"geometry":{"type":"Point","coordinates":[-106.649131,52.1448925]}},{"type":"Feature","properties":{"ZIP":"S7K1C8"},"geometry":{"type":"Point","coordinates":[-106.6391255,52.1580035]}},{"type":"Feature","properties":{"ZIP":"S7K1V9"},"geometry":{"type":"Point","coordinates":[-106.6634045,52.152159999999995]}},{"type":"Feature","properties":{"ZIP":"S7K3C1"},"geometry":{"type":"Point","coordinates":[-106.6450375,52.1479285]}},{"type":"Feature","properties":{"ZIP":"S7K4K9"},"geometry":{"type":"Point","coordinates":[-106.6369175,52.166146]}},{"type":"Feature","properties":{"ZIP":"S7K4P8"},"geometry":{"type":"Point","coordinates":[-106.6177815,52.1699]}},{"type":"Feature","properties":{"ZIP":"S7K6A3"},"geometry":{"type":"Point","coordinates":[-106.618729,52.179002499999996]}},{"type":"Feature","properties":{"ZIP":"S7K7T9"},"geometry":{"type":"Point","coordinates":[-106.629727,52.188908999999995]}},{"type":"Feature","properties":{"ZIP":"S7K0L2"},"geometry":{"type":"Point","coordinates":[-106.6611765,52.1335105]}},{"type":"Feature","properties":{"ZIP":"S7K0Z9"},"geometry":{"type":"Point","coordinates":[-106.64479,52.1523405]}},{"type":"Feature","properties":{"ZIP":"S7K2Z3"},"geometry":{"type":"Point","coordinates":[-106.647818,52.129061]}},{"type":"Feature","properties":{"ZIP":"S7K4S6"},"geometry":{"type":"Point","coordinates":[-106.6152375,52.1748215]}},{"type":"Feature","properties":{"ZIP":"S7K7R6"},"geometry":{"type":"Point","coordinates":[-106.6284565,52.187556]}},{"type":"Feature","properties":{"ZIP":"S7K0X1"},"geometry":{"type":"Point","coordinates":[-106.6573635,52.16463]}},{"type":"Feature","properties":{"ZIP":"S7K1B5"},"geometry":{"type":"Point","coordinates":[-106.6414075,52.156269]}},{"type":"Feature","properties":{"ZIP":"S7K2J2"},"geometry":{"type":"Point","coordinates":[-106.6617655,52.1292805]}},{"type":"Feature","properties":{"ZIP":"S7K3J8"},"geometry":{"type":"Point","coordinates":[-106.655092,52.12426]}},{"type":"Feature","properties":{"ZIP":"S7K5E4"},"geometry":{"type":"Point","coordinates":[-106.63851299999999,52.169939]}},{"type":"Feature","properties":{"ZIP":"S7K7N3"},"geometry":{"type":"Point","coordinates":[-106.63756699999999,52.1832115]}},{"type":"Feature","properties":{"ZIP":"S7K2S8"},"geometry":{"type":"Point","coordinates":[-106.65371,52.138641]}},{"type":"Feature","properties":{"ZIP":"S7K2X7"},"geometry":{"type":"Point","coordinates":[-106.6504145,52.146499500000004]}},{"type":"Feature","properties":{"ZIP":"S7K3V8"},"geometry":{"type":"Point","coordinates":[-106.6432905,52.1630945]}},{"type":"Feature","properties":{"ZIP":"S7K4W2"},"geometry":{"type":"Point","coordinates":[-106.6274095,52.171797]}},{"type":"Feature","properties":{"ZIP":"S7K5S1"},"geometry":{"type":"Point","coordinates":[-106.618776,52.180127]}},{"type":"Feature","properties":{"ZIP":"S7K7V1"},"geometry":{"type":"Point","coordinates":[-106.631694,52.1887375]}},{"type":"Feature","properties":{"ZIP":"S7K7Z4"},"geometry":{"type":"Point","coordinates":[-106.62697299999999,52.1688005]}},{"type":"Feature","properties":{"ZIP":"S7K0V6"},"geometry":{"type":"Point","coordinates":[-106.662887,52.1604035]}},{"type":"Feature","properties":{"ZIP":"S7K1A1"},"geometry":{"type":"Point","coordinates":[-106.641513,52.154137500000004]}},{"type":"Feature","properties":{"ZIP":"S7K2V2"},"geometry":{"type":"Point","coordinates":[-106.6521575,52.1371565]}},{"type":"Feature","properties":{"ZIP":"S7K3Y4"},"geometry":{"type":"Point","coordinates":[-106.648421,52.1684475]}},{"type":"Feature","properties":{"ZIP":"S7K4S7"},"geometry":{"type":"Point","coordinates":[-106.616141,52.176312499999995]}},{"type":"Feature","properties":{"ZIP":"S7K5N3"},"geometry":{"type":"Point","coordinates":[-106.640616,52.1523445]}},{"type":"Feature","properties":{"ZIP":"S7K6S4"},"geometry":{"type":"Point","coordinates":[-106.6386785,52.178545]}},{"type":"Feature","properties":{"ZIP":"S7K7M2"},"geometry":{"type":"Point","coordinates":[-106.6324385,52.184113499999995]}},{"type":"Feature","properties":{"ZIP":"S7K8E8"},"geometry":{"type":"Point","coordinates":[-106.664426,52.173041]}},{"type":"Feature","properties":{"ZIP":"S7K0P2"},"geometry":{"type":"Point","coordinates":[-106.6457065,52.1427985]}},{"type":"Feature","properties":{"ZIP":"S7K1H8"},"geometry":{"type":"Point","coordinates":[-106.6356905,52.1624]}},{"type":"Feature","properties":{"ZIP":"S7K4V1"},"geometry":{"type":"Point","coordinates":[-106.62616349999999,52.172242499999996]}},{"type":"Feature","properties":{"ZIP":"S7K5E6"},"geometry":{"type":"Point","coordinates":[-106.6266205,52.17106]}},{"type":"Feature","properties":{"ZIP":"S7K0S2"},"geometry":{"type":"Point","coordinates":[-106.660251,52.143921000000006]}},{"type":"Feature","properties":{"ZIP":"S7K1X2"},"geometry":{"type":"Point","coordinates":[-106.665779,52.1293345]}},{"type":"Feature","properties":{"ZIP":"S7K2S9"},"geometry":{"type":"Point","coordinates":[-106.6537085,52.138607]}},{"type":"Feature","properties":{"ZIP":"S7K2X8"},"geometry":{"type":"Point","coordinates":[-106.6496075,52.149767999999995]}},{"type":"Feature","properties":{"ZIP":"S7K4L3"},"geometry":{"type":"Point","coordinates":[-106.661006,52.1665445]}},{"type":"Feature","properties":{"ZIP":"S7K5A7"},"geometry":{"type":"Point","coordinates":[-106.61470349999999,52.1755195]}},{"type":"Feature","properties":{"ZIP":"S7K5S6"},"geometry":{"type":"Point","coordinates":[-106.641065,52.1674245]}},{"type":"Feature","properties":{"ZIP":"S7K6P6"},"geometry":{"type":"Point","coordinates":[-106.6464895,52.1755775]}},{"type":"Feature","properties":{"ZIP":"S7K8A1"},"geometry":{"type":"Point","coordinates":[-106.65768750000001,52.1811385]}},{"type":"Feature","properties":{"ZIP":"S7K0V7"},"geometry":{"type":"Point","coordinates":[-106.6559455,52.160273000000004]}},{"type":"Feature","properties":{"ZIP":"S7K1N4"},"geometry":{"type":"Point","coordinates":[-106.6692655,52.1304855]}},{"type":"Feature","properties":{"ZIP":"S7K2N4"},"geometry":{"type":"Point","coordinates":[-106.65676350000001,52.14085]}},{"type":"Feature","properties":{"ZIP":"S7K5W2"},"geometry":{"type":"Point","coordinates":[-106.6649125,52.16852]}},{"type":"Feature","properties":{"ZIP":"S7K8G1"},"geometry":{"type":"Point","coordinates":[-106.6508855,52.172407500000006]}},{"type":"Feature","properties":{"ZIP":"S7K0A6"},"geometry":{"type":"Point","coordinates":[-106.66853,52.1258025]}},{"type":"Feature","properties":{"ZIP":"S7K0P4"},"geometry":{"type":"Point","coordinates":[-106.654593,52.139477]}},{"type":"Feature","properties":{"ZIP":"S7K1S3"},"geometry":{"type":"Point","coordinates":[-106.665876,52.133716]}},{"type":"Feature","properties":{"ZIP":"S7K2A9"},"geometry":{"type":"Point","coordinates":[-106.6643115,52.1261865]}},{"type":"Feature","properties":{"ZIP":"S7K2J4"},"geometry":{"type":"Point","coordinates":[-106.65861699999999,52.136024]}},{"type":"Feature","properties":{"ZIP":"S7K1L1"},"geometry":{"type":"Point","coordinates":[-106.66614100000001,52.110412999999994]}},{"type":"Feature","properties":{"ZIP":"S7K2M2"},"geometry":{"type":"Point","coordinates":[-106.659749,52.13365]}},{"type":"Feature","properties":{"ZIP":"S7K4R3"},"geometry":{"type":"Point","coordinates":[-106.6215105,52.1690395]}},{"type":"Feature","properties":{"ZIP":"S7K5H1"},"geometry":{"type":"Point","coordinates":[-106.668856,52.1665555]}},{"type":"Feature","properties":{"ZIP":"S7K7L1"},"geometry":{"type":"Point","coordinates":[-106.66315,52.172996]}},{"type":"Feature","properties":{"ZIP":"S7K0M7"},"geometry":{"type":"Point","coordinates":[-106.6509315,52.1353785]}},{"type":"Feature","properties":{"ZIP":"S7K4S9"},"geometry":{"type":"Point","coordinates":[-106.6289285,52.172075]}},{"type":"Feature","properties":{"ZIP":"S7K4X8"},"geometry":{"type":"Point","coordinates":[-106.612919,52.1724945]}},{"type":"Feature","properties":{"ZIP":"S7K5W6"},"geometry":{"type":"Point","coordinates":[-106.64863,52.185388]}},{"type":"Feature","properties":{"ZIP":"S7K7A9"},"geometry":{"type":"Point","coordinates":[-106.6719065,52.132936]}},{"type":"Feature","properties":{"ZIP":"S7K8G4"},"geometry":{"type":"Point","coordinates":[-106.645455,52.180257]}},{"type":"Feature","properties":{"ZIP":"S7K0A7"},"geometry":{"type":"Point","coordinates":[-106.666618,52.12572]}},{"type":"Feature","properties":{"ZIP":"S7K0X5"},"geometry":{"type":"Point","coordinates":[-106.6517495,52.1685155]}},{"type":"Feature","properties":{"ZIP":"S7K2J7"},"geometry":{"type":"Point","coordinates":[-106.658709,52.135819999999995]}},{"type":"Feature","properties":{"ZIP":"S7K3S4"},"geometry":{"type":"Point","coordinates":[-106.65455700000001,52.1578085]}},{"type":"Feature","properties":{"ZIP":"S7K6G5"},"geometry":{"type":"Point","coordinates":[-106.6465135,52.178199]}},{"type":"Feature","properties":{"ZIP":"S7K0S5"},"geometry":{"type":"Point","coordinates":[-106.6766715,52.143981499999995]}},{"type":"Feature","properties":{"ZIP":"S7K2Y2"},"geometry":{"type":"Point","coordinates":[-106.648518,52.163101999999995]}},{"type":"Feature","properties":{"ZIP":"S7K5A9"},"geometry":{"type":"Point","coordinates":[-106.613658,52.1747765]}},{"type":"Feature","properties":{"ZIP":"S7K6X5"},"geometry":{"type":"Point","coordinates":[-106.6534695,52.183836]}},{"type":"Feature","properties":{"ZIP":"S7K0M8"},"geometry":{"type":"Point","coordinates":[-106.6529075,52.136643500000005]}},{"type":"Feature","properties":{"ZIP":"S7K3H9"},"geometry":{"type":"Point","coordinates":[-106.643687,52.1430375]}},{"type":"Feature","properties":{"ZIP":"S7K4T1"},"geometry":{"type":"Point","coordinates":[-106.62916,52.171567]}},{"type":"Feature","properties":{"ZIP":"S7K7C2"},"geometry":{"type":"Point","coordinates":[-106.6343675,52.170838]}},{"type":"Feature","properties":{"ZIP":"S7K8G8"},"geometry":{"type":"Point","coordinates":[-106.651341,52.187602999999996]}},{"type":"Feature","properties":{"ZIP":"S7K0X7"},"geometry":{"type":"Point","coordinates":[-106.65165200000001,52.1721665]}},{"type":"Feature","properties":{"ZIP":"S7K1S9"},"geometry":{"type":"Point","coordinates":[-106.6661575,52.152330500000005]}},{"type":"Feature","properties":{"ZIP":"S7K2B5"},"geometry":{"type":"Point","coordinates":[-106.662701,52.13081]}},{"type":"Feature","properties":{"ZIP":"S7K2J8"},"geometry":{"type":"Point","coordinates":[-106.656259,52.110136]}},{"type":"Feature","properties":{"ZIP":"S7K3T7"},"geometry":{"type":"Point","coordinates":[-106.657534,52.158213]}},{"type":"Feature","properties":{"ZIP":"S7K4Z7"},"geometry":{"type":"Point","coordinates":[-106.657329,52.176077]}},{"type":"Feature","properties":{"ZIP":"S7K7X8"},"geometry":{"type":"Point","coordinates":[-106.6401755,52.177488499999995]}},{"type":"Feature","properties":{"ZIP":"S7K0G6"},"geometry":{"type":"Point","coordinates":[-106.6603925,52.1280815]}},{"type":"Feature","properties":{"ZIP":"S7K0Z1"},"geometry":{"type":"Point","coordinates":[-106.6470995,52.148861]}},{"type":"Feature","properties":{"ZIP":"S7K2Y3"},"geometry":{"type":"Point","coordinates":[-106.648567,52.1629195]}},{"type":"Feature","properties":{"ZIP":"S7K4L7"},"geometry":{"type":"Point","coordinates":[-106.64233899999999,52.166949]}},{"type":"Feature","properties":{"ZIP":"S7K4W6"},"geometry":{"type":"Point","coordinates":[-106.6243095,52.170961500000004]}},{"type":"Feature","properties":{"ZIP":"S7K5H5"},"geometry":{"type":"Point","coordinates":[-106.6645025,52.166511]}},{"type":"Feature","properties":{"ZIP":"S7K0M9"},"geometry":{"type":"Point","coordinates":[-106.651344,52.1367065]}},{"type":"Feature","properties":{"ZIP":"S7K4N1"},"geometry":{"type":"Point","coordinates":[-106.6160125,52.168792499999995]}},{"type":"Feature","properties":{"ZIP":"S7K7C3"},"geometry":{"type":"Point","coordinates":[-106.6649105,52.170686]}},{"type":"Feature","properties":{"ZIP":"S7K7W7"},"geometry":{"type":"Point","coordinates":[-106.618087,52.187955]}},{"type":"Feature","properties":{"ZIP":"S7K0X8"},"geometry":{"type":"Point","coordinates":[-106.6514415,52.173054]}},{"type":"Feature","properties":{"ZIP":"S7K1T5"},"geometry":{"type":"Point","coordinates":[-106.66614849999999,52.1561925]}},{"type":"Feature","properties":{"ZIP":"S7K2B8"},"geometry":{"type":"Point","coordinates":[-106.664321,52.130294000000006]}},{"type":"Feature","properties":{"ZIP":"S7K4V5"},"geometry":{"type":"Point","coordinates":[-106.6254935,52.170755]}},{"type":"Feature","properties":{"ZIP":"S7K5Z6"},"geometry":{"type":"Point","coordinates":[-106.6531715,52.186170000000004]}},{"type":"Feature","properties":{"ZIP":"S7K6N8"},"geometry":{"type":"Point","coordinates":[-106.652974,52.156977499999996]}},{"type":"Feature","properties":{"ZIP":"S7K7T4"},"geometry":{"type":"Point","coordinates":[-106.6345505,52.187976500000005]}},{"type":"Feature","properties":{"ZIP":"S7K7X9"},"geometry":{"type":"Point","coordinates":[-106.639793,52.1758495]}},{"type":"Feature","properties":{"ZIP":"S7K0H4"},"geometry":{"type":"Point","coordinates":[-106.6694715,52.131299]}},{"type":"Feature","properties":{"ZIP":"S7K0Z3"},"geometry":{"type":"Point","coordinates":[-106.6480045,52.152271999999996]}},{"type":"Feature","properties":{"ZIP":"S7K1M1"},"geometry":{"type":"Point","coordinates":[-106.660434,52.1281925]}},{"type":"Feature","properties":{"ZIP":"S7K2T3"},"geometry":{"type":"Point","coordinates":[-106.65367649999999,52.141858]}},{"type":"Feature","properties":{"ZIP":"S7K5M6"},"geometry":{"type":"Point","coordinates":[-106.613373,52.179955500000005]}},{"type":"Feature","properties":{"ZIP":"S7K5T3"},"geometry":{"type":"Point","coordinates":[-106.62597500000001,52.1672775]}},{"type":"Feature","properties":{"ZIP":"S7K6Y4"},"geometry":{"type":"Point","coordinates":[-106.618293,52.179567500000005]}},{"type":"Feature","properties":{"ZIP":"S7K1H1"},"geometry":{"type":"Point","coordinates":[-106.644675,52.16102]}},{"type":"Feature","properties":{"ZIP":"S7K1P4"},"geometry":{"type":"Point","coordinates":[-106.6606965,52.1318055]}},{"type":"Feature","properties":{"ZIP":"S7K5C7"},"geometry":{"type":"Point","coordinates":[-106.6510515,52.173125999999996]}},{"type":"Feature","properties":{"ZIP":"S7K6E4"},"geometry":{"type":"Point","coordinates":[-106.61804000000001,52.18178]}},{"type":"Feature","properties":{"ZIP":"S7K6M1"},"geometry":{"type":"Point","coordinates":[-106.65123650000001,52.158024499999996]}},{"type":"Feature","properties":{"ZIP":"S7K6T5"},"geometry":{"type":"Point","coordinates":[-106.663849,52.136794]}},{"type":"Feature","properties":{"ZIP":"S7K3T9"},"geometry":{"type":"Point","coordinates":[-106.656352,52.160397]}},{"type":"Feature","properties":{"ZIP":"S7K5G2"},"geometry":{"type":"Point","coordinates":[-106.622702,52.174017]}},{"type":"Feature","properties":{"ZIP":"S7K6N9"},"geometry":{"type":"Point","coordinates":[-106.62209,52.1681925]}},{"type":"Feature","properties":{"ZIP":"S7K1X8"},"geometry":{"type":"Point","coordinates":[-106.6614495,52.137499500000004]}},{"type":"Feature","properties":{"ZIP":"S7K4L9"},"geometry":{"type":"Point","coordinates":[-106.640111,52.1662515]}},{"type":"Feature","properties":{"ZIP":"S7K5H8"},"geometry":{"type":"Point","coordinates":[-106.6374325,52.167065]}},{"type":"Feature","properties":{"ZIP":"S7K5T9"},"geometry":{"type":"Point","coordinates":[-106.662769,52.168082]}},{"type":"Feature","properties":{"ZIP":"S7K6J8"},"geometry":{"type":"Point","coordinates":[-106.620329,52.186589999999995]}},{"type":"Feature","properties":{"ZIP":"S7K0W4"},"geometry":{"type":"Point","coordinates":[-106.6561085,52.1614015]}},{"type":"Feature","properties":{"ZIP":"S7K1P8"},"geometry":{"type":"Point","coordinates":[-106.66893250000001,52.152046]}},{"type":"Feature","properties":{"ZIP":"S7K7S4"},"geometry":{"type":"Point","coordinates":[-106.633666,52.1866505]}},{"type":"Feature","properties":{"ZIP":"S7K0B6"},"geometry":{"type":"Point","coordinates":[-106.6646725,52.128377]}},{"type":"Feature","properties":{"ZIP":"S7K0R4"},"geometry":{"type":"Point","coordinates":[-106.64488850000001,52.14229]}},{"type":"Feature","properties":{"ZIP":"S7K0Y1"},"geometry":{"type":"Point","coordinates":[-106.65488450000001,52.144951500000005]}},{"type":"Feature","properties":{"ZIP":"S7K3V1"},"geometry":{"type":"Point","coordinates":[-106.6520465,52.1603185]}},{"type":"Feature","properties":{"ZIP":"S7K0T8"},"geometry":{"type":"Point","coordinates":[-106.66193899999999,52.1581695]}},{"type":"Feature","properties":{"ZIP":"S7K1M5"},"geometry":{"type":"Point","coordinates":[-106.6627,52.110142499999995]}},{"type":"Feature","properties":{"ZIP":"S7K5V2"},"geometry":{"type":"Point","coordinates":[-106.647256,52.167678]}},{"type":"Feature","properties":{"ZIP":"S7K6Y6"},"geometry":{"type":"Point","coordinates":[-106.633321,52.1718555]}},{"type":"Feature","properties":{"ZIP":"S7K8B5"},"geometry":{"type":"Point","coordinates":[-106.65079399999999,52.177492]}},{"type":"Feature","properties":{"ZIP":"S7K0N7"},"geometry":{"type":"Point","coordinates":[-106.649892,52.137905]}},{"type":"Feature","properties":{"ZIP":"S7K0W5"},"geometry":{"type":"Point","coordinates":[-106.65162849999999,52.162479000000005]}},{"type":"Feature","properties":{"ZIP":"S7K1R2"},"geometry":{"type":"Point","coordinates":[-106.66757050000001,52.1551225]}},{"type":"Feature","properties":{"ZIP":"S7K3A4"},"geometry":{"type":"Point","coordinates":[-106.6477565,52.144882]}},{"type":"Feature","properties":{"ZIP":"S7K7C7"},"geometry":{"type":"Point","coordinates":[-106.65993,52.158122000000006]}},{"type":"Feature","properties":{"ZIP":"S7K0B7"},"geometry":{"type":"Point","coordinates":[-106.6652055,52.123513]}},{"type":"Feature","properties":{"ZIP":"S7K0R5"},"geometry":{"type":"Point","coordinates":[-106.65437299999999,52.14301]}},{"type":"Feature","properties":{"ZIP":"S7K0Y2"},"geometry":{"type":"Point","coordinates":[-106.65437349999999,52.144879]}},{"type":"Feature","properties":{"ZIP":"S7K2K5"},"geometry":{"type":"Point","coordinates":[-106.658458,52.141756]}},{"type":"Feature","properties":{"ZIP":"S7K3V2"},"geometry":{"type":"Point","coordinates":[-106.6482075,52.164028]}},{"type":"Feature","properties":{"ZIP":"S7K4K2"},"geometry":{"type":"Point","coordinates":[-106.6475165,52.167259]}},{"type":"Feature","properties":{"ZIP":"S7K4V8"},"geometry":{"type":"Point","coordinates":[-106.624291,52.170401]}},{"type":"Feature","properties":{"ZIP":"S7K5L6"},"geometry":{"type":"Point","coordinates":[-106.6312355,52.176683999999995]}},{"type":"Feature","properties":{"ZIP":"S7K5Z9"},"geometry":{"type":"Point","coordinates":[-106.6566575,52.1344025]}},{"type":"Feature","properties":{"ZIP":"S7K7J7"},"geometry":{"type":"Point","coordinates":[-106.6580195,52.1729255]}},{"type":"Feature","properties":{"ZIP":"S7K7Y9"},"geometry":{"type":"Point","coordinates":[-106.63623000000001,52.1714585]}},{"type":"Feature","properties":{"ZIP":"S7K0T9"},"geometry":{"type":"Point","coordinates":[-106.65989400000001,52.1581895]}},{"type":"Feature","properties":{"ZIP":"S7K1M6"},"geometry":{"type":"Point","coordinates":[-106.664094,52.1241545]}},{"type":"Feature","properties":{"ZIP":"S7K1Y3"},"geometry":{"type":"Point","coordinates":[-106.66011800000001,52.140303]}},{"type":"Feature","properties":{"ZIP":"S7K1R6"},"geometry":{"type":"Point","coordinates":[-106.668081,52.1502125]}},{"type":"Feature","properties":{"ZIP":"S7K3G8"},"geometry":{"type":"Point","coordinates":[-106.66237699999999,52.124496]}},{"type":"Feature","properties":{"ZIP":"S7K5Y2"},"geometry":{"type":"Point","coordinates":[-106.646617,52.181962]}},{"type":"Feature","properties":{"ZIP":"S7K6V5"},"geometry":{"type":"Point","coordinates":[-106.6328615,52.17502]}},{"type":"Feature","properties":{"ZIP":"S7K0C2"},"geometry":{"type":"Point","coordinates":[-106.6596725,52.126348500000006]}},{"type":"Feature","properties":{"ZIP":"S7K1K3"},"geometry":{"type":"Point","coordinates":[-106.6653355,52.125043000000005]}},{"type":"Feature","properties":{"ZIP":"S7K1V7"},"geometry":{"type":"Point","coordinates":[-106.6633895,52.149981499999996]}},{"type":"Feature","properties":{"ZIP":"S7K2C3"},"geometry":{"type":"Point","coordinates":[-106.661367,52.122088000000005]}},{"type":"Feature","properties":{"ZIP":"S7K4B4"},"geometry":{"type":"Point","coordinates":[-106.665377,52.1577015]}},{"type":"Feature","properties":{"ZIP":"S7K6P3"},"geometry":{"type":"Point","coordinates":[-106.6251585,52.186085]}},{"type":"Feature","properties":{"ZIP":"S7K0K9"},"geometry":{"type":"Point","coordinates":[-106.656172,52.130678]}},{"type":"Feature","properties":{"ZIP":"S7K2Z1"},"geometry":{"type":"Point","coordinates":[-106.64950300000001,52.128258]}},{"type":"Feature","properties":{"ZIP":"S7K6K3"},"geometry":{"type":"Point","coordinates":[-106.65721500000001,52.1425745]}},{"type":"Feature","properties":{"ZIP":"S7K7L9"},"geometry":{"type":"Point","coordinates":[-106.632666,52.1842205]}},{"type":"Feature","properties":{"ZIP":"S7K8E5"},"geometry":{"type":"Point","coordinates":[-106.6250925,52.167431]}},{"type":"Feature","properties":{"ZIP":"S7K0W8"},"geometry":{"type":"Point","coordinates":[-106.66311049999999,52.164626999999996]}},{"type":"Feature","properties":{"ZIP":"S7K1B4"},"geometry":{"type":"Point","coordinates":[-106.6426155,52.156276000000005]}},{"type":"Feature","properties":{"ZIP":"S7K1R8"},"geometry":{"type":"Point","coordinates":[-106.667836,52.1556725]}},{"type":"Feature","properties":{"ZIP":"S7K2W4"},"geometry":{"type":"Point","coordinates":[-106.6521295,52.146455]}},{"type":"Feature","properties":{"ZIP":"S7K3H2"},"geometry":{"type":"Point","coordinates":[-106.660111,52.1255205]}},{"type":"Feature","properties":{"ZIP":"S7K5Y3"},"geometry":{"type":"Point","coordinates":[-106.646526,52.1832555]}},{"type":"Feature","properties":{"ZIP":"S7K2C5"},"geometry":{"type":"Point","coordinates":[-106.65963099999999,52.1227835]}},{"type":"Feature","properties":{"ZIP":"S7K2S7"},"geometry":{"type":"Point","coordinates":[-106.6536615,52.137168]}},{"type":"Feature","properties":{"ZIP":"S7K3V7"},"geometry":{"type":"Point","coordinates":[-106.6525345,52.164618000000004]}},{"type":"Feature","properties":{"ZIP":"S7K4W1"},"geometry":{"type":"Point","coordinates":[-106.628654,52.1727815]}},{"type":"Feature","properties":{"ZIP":"S7K6P4"},"geometry":{"type":"Point","coordinates":[-106.6493625,52.159898]}},{"type":"Feature","properties":{"ZIP":"S7K7K5"},"geometry":{"type":"Point","coordinates":[-106.6269645,52.1875525]}},{"type":"Feature","properties":{"ZIP":"S7K7Z3"},"geometry":{"type":"Point","coordinates":[-106.6367945,52.171697]}},{"type":"Feature","properties":{"ZIP":"S7K5N2"},"geometry":{"type":"Point","coordinates":[-106.6106605,52.177683]}},{"type":"Feature","properties":{"ZIP":"S7K1R9"},"geometry":{"type":"Point","coordinates":[-106.66760450000001,52.1557465]}},{"type":"Feature","properties":{"ZIP":"S7K2R3"},"geometry":{"type":"Point","coordinates":[-106.655711,52.124851]}},{"type":"Feature","properties":{"ZIP":"S7K5Y5"},"geometry":{"type":"Point","coordinates":[-106.64650850000001,52.184342]}},{"type":"Feature","properties":{"ZIP":"S7K1C9"},"geometry":{"type":"Point","coordinates":[-106.6384865,52.1573845]}},{"type":"Feature","properties":{"ZIP":"S7K1W5"},"geometry":{"type":"Point","coordinates":[-106.663287,52.157524499999994]}},{"type":"Feature","properties":{"ZIP":"S7K2L1"},"geometry":{"type":"Point","coordinates":[-106.656014,52.1670115]}},{"type":"Feature","properties":{"ZIP":"S7K0M1"},"geometry":{"type":"Point","coordinates":[-106.6585765,52.136585]}},{"type":"Feature","properties":{"ZIP":"S7K1N3"},"geometry":{"type":"Point","coordinates":[-106.6619555,52.1252615]}},{"type":"Feature","properties":{"ZIP":"S7K5W1"},"geometry":{"type":"Point","coordinates":[-106.631459,52.16927]}},{"type":"Feature","properties":{"ZIP":"S7K7A6"},"geometry":{"type":"Point","coordinates":[-106.6339175,52.1807895]}},{"type":"Feature","properties":{"ZIP":"S7K1S2"},"geometry":{"type":"Point","coordinates":[-106.6675285,52.157191499999996]}},{"type":"Feature","properties":{"ZIP":"S7K7K9"},"geometry":{"type":"Point","coordinates":[-106.657693,52.185745499999996]}},{"type":"Feature","properties":{"ZIP":"S7K7P6"},"geometry":{"type":"Point","coordinates":[-106.637405,52.184537500000005]}},{"type":"Feature","properties":{"ZIP":"S7K5Y9"},"geometry":{"type":"Point","coordinates":[-106.65236999999999,52.175422499999996]}},{"type":"Feature","properties":{"ZIP":"S7K0E8"},"geometry":{"type":"Point","coordinates":[-106.661993,52.129065499999996]}},{"type":"Feature","properties":{"ZIP":"S7K2E1"},"geometry":{"type":"Point","coordinates":[-106.6591505,52.1385775]}},{"type":"Feature","properties":{"ZIP":"S7K2T0"},"geometry":{"type":"Point","coordinates":[-106.66787,52.2841605]}},{"type":"Feature","properties":{"ZIP":"S7K6P7"},"geometry":{"type":"Point","coordinates":[-106.61538949999999,52.164460500000004]}},{"type":"Feature","properties":{"ZIP":"S7K1N7"},"geometry":{"type":"Point","coordinates":[-106.6691065,52.132577999999995]}},{"type":"Feature","properties":{"ZIP":"S7K0E9"},"geometry":{"type":"Point","coordinates":[-106.6628685,52.1287355]}},{"type":"Feature","properties":{"ZIP":"S7K5W8"},"geometry":{"type":"Point","coordinates":[-106.66024,52.1706255]}},{"type":"Feature","properties":{"ZIP":"S7K0A8"},"geometry":{"type":"Point","coordinates":[-106.65848,52.132386499999996]}},{"type":"Feature","properties":{"ZIP":"S7K6G6"},"geometry":{"type":"Point","coordinates":[-106.621444,52.186023]}},{"type":"Feature","properties":{"ZIP":"S7K1L7"},"geometry":{"type":"Point","coordinates":[-106.6625005,52.127736999999996]}},{"type":"Feature","properties":{"ZIP":"S7K2E3"},"geometry":{"type":"Point","coordinates":[-106.659149,52.144684]}},{"type":"Feature","properties":{"ZIP":"S7K6X6"},"geometry":{"type":"Point","coordinates":[-106.661744,52.1249165]}},{"type":"Feature","properties":{"ZIP":"S7K8A9"},"geometry":{"type":"Point","coordinates":[-106.650893,52.175101]}},{"type":"Feature","properties":{"ZIP":"S7K0W2"},"geometry":{"type":"Point","coordinates":[-106.66108299999999,52.1624855]}},{"type":"Feature","properties":{"ZIP":"S7K3J1"},"geometry":{"type":"Point","coordinates":[-106.682405,52.112562999999994]}},{"type":"Feature","properties":{"ZIP":"S7K5C6"},"geometry":{"type":"Point","coordinates":[-106.6523895,52.172981]}},{"type":"Feature","properties":{"ZIP":"S7K2J9"},"geometry":{"type":"Point","coordinates":[-106.654742,52.110141999999996]}},{"type":"Feature","properties":{"ZIP":"S7K2E4"},"geometry":{"type":"Point","coordinates":[-106.659149,52.144684]}},{"type":"Feature","properties":{"ZIP":"S7K0W3"},"geometry":{"type":"Point","coordinates":[-106.66144,52.1624855]}},{"type":"Feature","properties":{"ZIP":"S7K0R3"},"geometry":{"type":"Point","coordinates":[-106.651822,52.145548]}},{"type":"Feature","properties":{"ZIP":"S7K0X9"},"geometry":{"type":"Point","coordinates":[-106.6564035,52.1448135]}},{"type":"Feature","properties":{"ZIP":"S7K2B9"},"geometry":{"type":"Point","coordinates":[-106.66177099999999,52.1327345]}},{"type":"Feature","properties":{"ZIP":"S7K2T4"},"geometry":{"type":"Point","coordinates":[-106.65367699999999,52.141804]}},{"type":"Feature","properties":{"ZIP":"S7K1H2"},"geometry":{"type":"Point","coordinates":[-106.644139,52.161238]}},{"type":"Feature","properties":{"ZIP":"S7K2P3"},"geometry":{"type":"Point","coordinates":[-106.6551555,52.1439845]}},{"type":"Feature","properties":{"ZIP":"S7K2C1"},"geometry":{"type":"Point","coordinates":[-106.66073,52.1092235]}},{"type":"Feature","properties":{"ZIP":"S7K7Y5"},"geometry":{"type":"Point","coordinates":[-106.6323785,52.178122]}},{"type":"Feature","properties":{"ZIP":"S7K0J5"},"geometry":{"type":"Point","coordinates":[-106.660572,52.1317005]}},{"type":"Feature","properties":{"ZIP":"S7K0Z5"},"geometry":{"type":"Point","coordinates":[-106.6464255,52.151928999999996]}},{"type":"Feature","properties":{"ZIP":"S7K2H6"},"geometry":{"type":"Point","coordinates":[-106.66182749999999,52.128836]}},{"type":"Feature","properties":{"ZIP":"S7K6M6"},"geometry":{"type":"Point","coordinates":[-106.66487749999999,52.1695735]}},{"type":"Feature","properties":{"ZIP":"S7K2C2"},"geometry":{"type":"Point","coordinates":[-106.661235,52.134185]}},{"type":"Feature","properties":{"ZIP":"S7K3B8"},"geometry":{"type":"Point","coordinates":[-106.645034,52.145945]}},{"type":"Feature","properties":{"ZIP":"S7K5G4"},"geometry":{"type":"Point","coordinates":[-106.621864,52.175222]}},{"type":"Feature","properties":{"ZIP":"S7K2T7"},"geometry":{"type":"Point","coordinates":[-106.653679,52.145994]}},{"type":"Feature","properties":{"ZIP":"S7K5B7"},"geometry":{"type":"Point","coordinates":[-106.621868,52.172349]}},{"type":"Feature","properties":{"ZIP":"S7K0W6"},"geometry":{"type":"Point","coordinates":[-106.662733,52.163534]}},{"type":"Feature","properties":{"ZIP":"S7K2P7"},"geometry":{"type":"Point","coordinates":[-106.65737899999999,52.130786]}},{"type":"Feature","properties":{"ZIP":"S7K3A5"},"geometry":{"type":"Point","coordinates":[-106.64782,52.146544500000005]}},{"type":"Feature","properties":{"ZIP":"S7K3J6"},"geometry":{"type":"Point","coordinates":[-106.7216815,52.105447999999996]}},{"type":"Feature","properties":{"ZIP":"S7K5E1"},"geometry":{"type":"Point","coordinates":[-106.626137,52.173294]}},{"type":"Feature","properties":{"ZIP":"S7K8J4"},"geometry":{"type":"Point","coordinates":[-106.644148,52.1861105]}},{"type":"Feature","properties":{"ZIP":"S7K1M8"},"geometry":{"type":"Point","coordinates":[-106.6607475,52.127629]}},{"type":"Feature","properties":{"ZIP":"S7K2T8"},"geometry":{"type":"Point","coordinates":[-106.653679,52.145994]}},{"type":"Feature","properties":{"ZIP":"S7K3A6"},"geometry":{"type":"Point","coordinates":[-106.64782,52.146609999999995]}},{"type":"Feature","properties":{"ZIP":"S7K3J7"},"geometry":{"type":"Point","coordinates":[-106.667975,52.122876000000005]}},{"type":"Feature","properties":{"ZIP":"S7K0C5"},"geometry":{"type":"Point","coordinates":[-106.660368,52.126384]}},{"type":"Feature","properties":{"ZIP":"S7K2K9"},"geometry":{"type":"Point","coordinates":[-106.6559425,52.167342]}},{"type":"Feature","properties":{"ZIP":"S7K0V3"},"geometry":{"type":"Point","coordinates":[-106.664691,52.1592055]}},{"type":"Feature","properties":{"ZIP":"S7K6S1"},"geometry":{"type":"Point","coordinates":[-106.6370905,52.17324]}},{"type":"Feature","properties":{"ZIP":"S7K8E6"},"geometry":{"type":"Point","coordinates":[-106.6407665,52.174492]}},{"type":"Feature","properties":{"ZIP":"S7K6E9"},"geometry":{"type":"Point","coordinates":[-106.6606205,52.1595715]}},{"type":"Feature","properties":{"ZIP":"S7K0C8"},"geometry":{"type":"Point","coordinates":[-106.66898549999999,52.129172499999996]}},{"type":"Feature","properties":{"ZIP":"S7K6A4"},"geometry":{"type":"Point","coordinates":[-106.66682499999999,52.168081]}},{"type":"Feature","properties":{"ZIP":"S7K2N3"},"geometry":{"type":"Point","coordinates":[-106.656761,52.1402315]}},{"type":"Feature","properties":{"ZIP":"S7K1B6"},"geometry":{"type":"Point","coordinates":[-106.640972,52.156282000000004]}},{"type":"Feature","properties":{"ZIP":"S7K2A1"},"geometry":{"type":"Point","coordinates":[-106.66062400000001,52.156641]}},{"type":"Feature","properties":{"ZIP":"S7K3H5"},"geometry":{"type":"Point","coordinates":[-106.652338,52.1313945]}},{"type":"Feature","properties":{"ZIP":"S7K2W7"},"geometry":{"type":"Point","coordinates":[-106.650619,52.137251500000005]}}]}