{"type":"FeatureCollection","features":[{"type":"Feature","properties":{"ZIP":"G4T9B5"},"geometry":{"type":"Point","coordinates":[-61.9011,47.26074199999999]}},{"type":"Feature","properties":{"ZIP":"G4T3J3"},"geometry":{"type":"Point","coordinates":[-61.946644500000005,47.3651275]}},{"type":"Feature","properties":{"ZIP":"G4T3C4"},"geometry":{"type":"Point","coordinates":[-61.943063,47.3728865]}},{"type":"Feature","properties":{"ZIP":"G4T0A4"},"geometry":{"type":"Point","coordinates":[-61.963710000000006,47.2465785]}},{"type":"Feature","properties":{"ZIP":"G4T5L2"},"geometry":{"type":"Point","coordinates":[-61.774568,47.4206605]}},{"type":"Feature","properties":{"ZIP":"G4T5G1"},"geometry":{"type":"Point","coordinates":[-61.7577405,47.418015]}},{"type":"Feature","properties":{"ZIP":"G4T5J1"},"geometry":{"type":"Point","coordinates":[-61.798272499999996,47.394623499999994]}},{"type":"Feature","properties":{"ZIP":"G4T1P1"},"geometry":{"type":"Point","coordinates":[-61.877233000000004,47.369118]}},{"type":"Feature","properties":{"ZIP":"G4T3E6"},"geometry":{"type":"Point","coordinates":[-61.9018645,47.371815]}},{"type":"Feature","properties":{"ZIP":"G4T2S3"},"geometry":{"type":"Point","coordinates":[-61.876997,47.4020735]}},{"type":"Feature","properties":{"ZIP":"G4T3S5"},"geometry":{"type":"Point","coordinates":[-61.916771,47.348595]}},{"type":"Feature","properties":{"ZIP":"G4T3C1"},"geometry":{"type":"Point","coordinates":[-61.931674,47.373929000000004]}},{"type":"Feature","properties":{"ZIP":"G4T2T8"},"geometry":{"type":"Point","coordinates":[-61.901594,47.403541]}},{"type":"Feature","properties":{"ZIP":"G4T0E4"},"geometry":{"type":"Point","coordinates":[-61.961497,47.217487500000004]}},{"type":"Feature","properties":{"ZIP":"G4T3C3"},"geometry":{"type":"Point","coordinates":[-61.9415415,47.3730015]}},{"type":"Feature","properties":{"ZIP":"G4T2C9"},"geometry":{"type":"Point","coordinates":[-61.8920335,47.401985999999994]}},{"type":"Feature","properties":{"ZIP":"G4T3M1"},"geometry":{"type":"Point","coordinates":[-61.8822945,47.352796999999995]}},{"type":"Feature","properties":{"ZIP":"G4T2J6"},"geometry":{"type":"Point","coordinates":[-61.871553,47.4145815]}},{"type":"Feature","properties":{"ZIP":"G4T2V3"},"geometry":{"type":"Point","coordinates":[-61.91794,47.396077500000004]}},{"type":"Feature","properties":{"ZIP":"G4T5K9"},"geometry":{"type":"Point","coordinates":[-61.773825,47.416318000000004]}},{"type":"Feature","properties":{"ZIP":"G4T2M6"},"geometry":{"type":"Point","coordinates":[-61.8934155,47.4089345]}},{"type":"Feature","properties":{"ZIP":"G4T0G3"},"geometry":{"type":"Point","coordinates":[-61.910093,47.227446]}},{"type":"Feature","properties":{"ZIP":"G4T5G3"},"geometry":{"type":"Point","coordinates":[-61.7569865,47.4174885]}},{"type":"Feature","properties":{"ZIP":"G4T2S4"},"geometry":{"type":"Point","coordinates":[-61.878461,47.4036015]}},{"type":"Feature","properties":{"ZIP":"G4T0K3"},"geometry":{"type":"Point","coordinates":[-62.014094,47.238592999999995]}},{"type":"Feature","properties":{"ZIP":"G4T1J7"},"geometry":{"type":"Point","coordinates":[-61.871589,47.380790000000005]}},{"type":"Feature","properties":{"ZIP":"G4T5B3"},"geometry":{"type":"Point","coordinates":[-61.7535385,47.4363855]}},{"type":"Feature","properties":{"ZIP":"G4T2R2"},"geometry":{"type":"Point","coordinates":[-61.914248,47.390662500000005]}},{"type":"Feature","properties":{"ZIP":"G4T2S9"},"geometry":{"type":"Point","coordinates":[-61.8888345,47.4093745]}},{"type":"Feature","properties":{"ZIP":"G4T2E3"},"geometry":{"type":"Point","coordinates":[-61.893084,47.405896]}},{"type":"Feature","properties":{"ZIP":"G4T3V7"},"geometry":{"type":"Point","coordinates":[-61.942071999999996,47.388054]}},{"type":"Feature","properties":{"ZIP":"G4T1L7"},"geometry":{"type":"Point","coordinates":[-61.873398,47.376333]}},{"type":"Feature","properties":{"ZIP":"G4T2G8"},"geometry":{"type":"Point","coordinates":[-61.8894835,47.386894]}},{"type":"Feature","properties":{"ZIP":"G4T0K6"},"geometry":{"type":"Point","coordinates":[-62.010271,47.2494375]}},{"type":"Feature","properties":{"ZIP":"G4T2E6"},"geometry":{"type":"Point","coordinates":[-61.8740405,47.402049]}},{"type":"Feature","properties":{"ZIP":"G4T3R3"},"geometry":{"type":"Point","coordinates":[-61.908812999999995,47.371781999999996]}},{"type":"Feature","properties":{"ZIP":"G4T7A4"},"geometry":{"type":"Point","coordinates":[-61.506663,47.5679595]}},{"type":"Feature","properties":{"ZIP":"G4T3G6"},"geometry":{"type":"Point","coordinates":[-61.938517000000004,47.365164500000006]}},{"type":"Feature","properties":{"ZIP":"G4T3M5"},"geometry":{"type":"Point","coordinates":[-61.8861475,47.353406500000006]}},{"type":"Feature","properties":{"ZIP":"G4T1A8"},"geometry":{"type":"Point","coordinates":[-61.8687575,47.3826945]}},{"type":"Feature","properties":{"ZIP":"G4T2T3"},"geometry":{"type":"Point","coordinates":[-61.8888745,47.409386999999995]}},{"type":"Feature","properties":{"ZIP":"G4T7A5"},"geometry":{"type":"Point","coordinates":[-61.519746999999995,47.563443]}},{"type":"Feature","properties":{"ZIP":"G4T0C7"},"geometry":{"type":"Point","coordinates":[-61.945074500000004,47.2226755]}},{"type":"Feature","properties":{"ZIP":"G4T0C8"},"geometry":{"type":"Point","coordinates":[-61.9468665,47.221244]}},{"type":"Feature","properties":{"ZIP":"G4T2C2"},"geometry":{"type":"Point","coordinates":[-61.874506999999994,47.4078555]}},{"type":"Feature","properties":{"ZIP":"G4T9G7"},"geometry":{"type":"Point","coordinates":[-61.8399505,47.22974]}},{"type":"Feature","properties":{"ZIP":"G4T7A8"},"geometry":{"type":"Point","coordinates":[-61.540383500000004,47.55578]}},{"type":"Feature","properties":{"ZIP":"G4T9B9"},"geometry":{"type":"Point","coordinates":[-61.8857895,47.247213]}},{"type":"Feature","properties":{"ZIP":"G4T2G3"},"geometry":{"type":"Point","coordinates":[-61.880483999999996,47.3964515]}},{"type":"Feature","properties":{"ZIP":"G4T3C2"},"geometry":{"type":"Point","coordinates":[-61.939865,47.373314]}},{"type":"Feature","properties":{"ZIP":"G4T9A5"},"geometry":{"type":"Point","coordinates":[-61.8646165,47.236999499999996]}},{"type":"Feature","properties":{"ZIP":"G4T1N3"},"geometry":{"type":"Point","coordinates":[-61.8820125,47.375577]}},{"type":"Feature","properties":{"ZIP":"G4T3S9"},"geometry":{"type":"Point","coordinates":[-61.9128925,47.37877]}},{"type":"Feature","properties":{"ZIP":"G4T7B1"},"geometry":{"type":"Point","coordinates":[-61.5541425,47.5539025]}},{"type":"Feature","properties":{"ZIP":"G4T2G4"},"geometry":{"type":"Point","coordinates":[-61.882783,47.396671]}},{"type":"Feature","properties":{"ZIP":"G4T2V1"},"geometry":{"type":"Point","coordinates":[-61.9096565,47.3998595]}},{"type":"Feature","properties":{"ZIP":"G4T3G1"},"geometry":{"type":"Point","coordinates":[-61.910793,47.372023999999996]}},{"type":"Feature","properties":{"ZIP":"G4T1C4"},"geometry":{"type":"Point","coordinates":[-61.860695,47.3819475]}},{"type":"Feature","properties":{"ZIP":"G4T0C2"},"geometry":{"type":"Point","coordinates":[-61.931363000000005,47.227663500000006]}},{"type":"Feature","properties":{"ZIP":"G4T1N5"},"geometry":{"type":"Point","coordinates":[-61.8790855,47.370025]}},{"type":"Feature","properties":{"ZIP":"G4T5A1"},"geometry":{"type":"Point","coordinates":[-61.783921,47.445652499999994]}},{"type":"Feature","properties":{"ZIP":"G4T3H8"},"geometry":{"type":"Point","coordinates":[-61.931472,47.3711135]}},{"type":"Feature","properties":{"ZIP":"G4T9A8"},"geometry":{"type":"Point","coordinates":[-61.847261,47.2363735]}},{"type":"Feature","properties":{"ZIP":"G4T0K5"},"geometry":{"type":"Point","coordinates":[-62.014219999999995,47.239185500000005]}},{"type":"Feature","properties":{"ZIP":"G4T3G4"},"geometry":{"type":"Point","coordinates":[-61.9114875,47.372161500000004]}},{"type":"Feature","properties":{"ZIP":"G4T9G1"},"geometry":{"type":"Point","coordinates":[-61.910186,47.2366595]}},{"type":"Feature","properties":{"ZIP":"G4T3C7"},"geometry":{"type":"Point","coordinates":[-61.954449,47.3715985]}},{"type":"Feature","properties":{"ZIP":"G4T5H7"},"geometry":{"type":"Point","coordinates":[-61.8084845,47.398392]}},{"type":"Feature","properties":{"ZIP":"G4T1A7"},"geometry":{"type":"Point","coordinates":[-61.872168,47.383659]}},{"type":"Feature","properties":{"ZIP":"G4T8B3"},"geometry":{"type":"Point","coordinates":[-61.714154,47.523707]}},{"type":"Feature","properties":{"ZIP":"G4T0H8"},"geometry":{"type":"Point","coordinates":[-61.956379,47.2198115]}},{"type":"Feature","properties":{"ZIP":"G4T2L3"},"geometry":{"type":"Point","coordinates":[-61.8734135,47.3846405]}},{"type":"Feature","properties":{"ZIP":"G4T3R4"},"geometry":{"type":"Point","coordinates":[-61.908475,47.378687]}},{"type":"Feature","properties":{"ZIP":"G4T6A7"},"geometry":{"type":"Point","coordinates":[-61.544627,47.6209215]}},{"type":"Feature","properties":{"ZIP":"G4T7C5"},"geometry":{"type":"Point","coordinates":[-61.5430255,47.5501015]}},{"type":"Feature","properties":{"ZIP":"G4T2A8"},"geometry":{"type":"Point","coordinates":[-61.884571,47.409734]}},{"type":"Feature","properties":{"ZIP":"G4T5A6"},"geometry":{"type":"Point","coordinates":[-61.7996385,47.404177000000004]}},{"type":"Feature","properties":{"ZIP":"G4T1B1"},"geometry":{"type":"Point","coordinates":[-61.867084,47.3822195]}},{"type":"Feature","properties":{"ZIP":"G4T2L6"},"geometry":{"type":"Point","coordinates":[-61.888551500000005,47.395558]}},{"type":"Feature","properties":{"ZIP":"G4T3J4"},"geometry":{"type":"Point","coordinates":[-61.9399885,47.364934500000004]}},{"type":"Feature","properties":{"ZIP":"G4T9B7"},"geometry":{"type":"Point","coordinates":[-61.903596,47.2546795]}},{"type":"Feature","properties":{"ZIP":"G4T5J6"},"geometry":{"type":"Point","coordinates":[-61.7743375,47.3994895]}},{"type":"Feature","properties":{"ZIP":"G4T3B8"},"geometry":{"type":"Point","coordinates":[-61.926914499999995,47.374516]}},{"type":"Feature","properties":{"ZIP":"G4T5C7"},"geometry":{"type":"Point","coordinates":[-61.790473,47.412131]}},{"type":"Feature","properties":{"ZIP":"G4T1P3"},"geometry":{"type":"Point","coordinates":[-61.8797215,47.3693405]}},{"type":"Feature","properties":{"ZIP":"G4T5J7"},"geometry":{"type":"Point","coordinates":[-61.783559499999996,47.392605]}},{"type":"Feature","properties":{"ZIP":"G4T0K1"},"geometry":{"type":"Point","coordinates":[-61.987393499999996,47.220956]}},{"type":"Feature","properties":{"ZIP":"G4T3N1"},"geometry":{"type":"Point","coordinates":[-61.894089,47.356027499999996]}},{"type":"Feature","properties":{"ZIP":"G4T0B9"},"geometry":{"type":"Point","coordinates":[-61.927052,47.228018000000006]}},{"type":"Feature","properties":{"ZIP":"G4T2T9"},"geometry":{"type":"Point","coordinates":[-61.90115,47.4037435]}},{"type":"Feature","properties":{"ZIP":"G4T9H6"},"geometry":{"type":"Point","coordinates":[-61.845686,47.2293145]}},{"type":"Feature","properties":{"ZIP":"G4T3L9"},"geometry":{"type":"Point","coordinates":[-61.872856,47.362787]}},{"type":"Feature","properties":{"ZIP":"G4T7B2"},"geometry":{"type":"Point","coordinates":[-61.549273,47.5523455]}},{"type":"Feature","properties":{"ZIP":"G4T2K6"},"geometry":{"type":"Point","coordinates":[-61.9009255,47.408479]}},{"type":"Feature","properties":{"ZIP":"G4T3A6"},"geometry":{"type":"Point","coordinates":[-61.9380505,47.3843855]}},{"type":"Feature","properties":{"ZIP":"G4T3H6"},"geometry":{"type":"Point","coordinates":[-61.93312,47.369307]}},{"type":"Feature","properties":{"ZIP":"G4T3P8"},"geometry":{"type":"Point","coordinates":[-61.890944000000005,47.371061999999995]}},{"type":"Feature","properties":{"ZIP":"G4T9A7"},"geometry":{"type":"Point","coordinates":[-61.8546705,47.2366155]}},{"type":"Feature","properties":{"ZIP":"G4T2B5"},"geometry":{"type":"Point","coordinates":[-61.9102185,47.40679]}},{"type":"Feature","properties":{"ZIP":"G4T6A2"},"geometry":{"type":"Point","coordinates":[-61.521178500000005,47.62738]}},{"type":"Feature","properties":{"ZIP":"G4T7B3"},"geometry":{"type":"Point","coordinates":[-61.555758999999995,47.553993]}},{"type":"Feature","properties":{"ZIP":"G4T9C4"},"geometry":{"type":"Point","coordinates":[-61.855776500000005,47.235815]}},{"type":"Feature","properties":{"ZIP":"G4T1J8"},"geometry":{"type":"Point","coordinates":[-61.86703,47.3776305]}},{"type":"Feature","properties":{"ZIP":"G4T1P7"},"geometry":{"type":"Point","coordinates":[-61.8806235,47.3691425]}},{"type":"Feature","properties":{"ZIP":"G4T3N5"},"geometry":{"type":"Point","coordinates":[-61.8859035,47.3656665]}},{"type":"Feature","properties":{"ZIP":"G4T3V6"},"geometry":{"type":"Point","coordinates":[-61.9420355,47.387288999999996]}},{"type":"Feature","properties":{"ZIP":"G4T3C6"},"geometry":{"type":"Point","coordinates":[-61.9528935,47.371724]}},{"type":"Feature","properties":{"ZIP":"G4T1H2"},"geometry":{"type":"Point","coordinates":[-61.870131,47.3737495]}},{"type":"Feature","properties":{"ZIP":"G4T7B4"},"geometry":{"type":"Point","coordinates":[-61.500033,47.5713205]}},{"type":"Feature","properties":{"ZIP":"G4T9C7"},"geometry":{"type":"Point","coordinates":[-61.843315,47.235913]}},{"type":"Feature","properties":{"ZIP":"G4T1P8"},"geometry":{"type":"Point","coordinates":[-61.8783965,47.369281]}},{"type":"Feature","properties":{"ZIP":"G4T0A3"},"geometry":{"type":"Point","coordinates":[-61.959841499999996,47.245185]}},{"type":"Feature","properties":{"ZIP":"G4T3R2"},"geometry":{"type":"Point","coordinates":[-61.896004,47.372098]}},{"type":"Feature","properties":{"ZIP":"G4T1H4"},"geometry":{"type":"Point","coordinates":[-61.872955000000005,47.370365500000005]}},{"type":"Feature","properties":{"ZIP":"G4T1N7"},"geometry":{"type":"Point","coordinates":[-61.8781925,47.368866]}},{"type":"Feature","properties":{"ZIP":"G4T2J7"},"geometry":{"type":"Point","coordinates":[-61.876139,47.394214500000004]}},{"type":"Feature","properties":{"ZIP":"G4T2V4"},"geometry":{"type":"Point","coordinates":[-61.9238575,47.3933755]}},{"type":"Feature","properties":{"ZIP":"G4T3M4"},"geometry":{"type":"Point","coordinates":[-61.884937,47.3520365]}},{"type":"Feature","properties":{"ZIP":"G4T3T6"},"geometry":{"type":"Point","coordinates":[-61.758523,47.4150655]}},{"type":"Feature","properties":{"ZIP":"G4T5A3"},"geometry":{"type":"Point","coordinates":[-61.819876,47.400959]}},{"type":"Feature","properties":{"ZIP":"G4T7B5"},"geometry":{"type":"Point","coordinates":[-61.552094,47.5505615]}},{"type":"Feature","properties":{"ZIP":"G4T2L1"},"geometry":{"type":"Point","coordinates":[-61.883559000000005,47.4083525]}},{"type":"Feature","properties":{"ZIP":"G4T3V8"},"geometry":{"type":"Point","coordinates":[-61.9457175,47.380999]}},{"type":"Feature","properties":{"ZIP":"G4T5L1"},"geometry":{"type":"Point","coordinates":[-61.771266499999996,47.4123225]}},{"type":"Feature","properties":{"ZIP":"G4T1L8"},"geometry":{"type":"Point","coordinates":[-61.876719,47.3759895]}},{"type":"Feature","properties":{"ZIP":"G4T2G9"},"geometry":{"type":"Point","coordinates":[-61.88704,47.38683]}},{"type":"Feature","properties":{"ZIP":"G4T2T2"},"geometry":{"type":"Point","coordinates":[-61.8867255,47.408280500000004]}},{"type":"Feature","properties":{"ZIP":"G4T2B8"},"geometry":{"type":"Point","coordinates":[-61.8802855,47.407587]}},{"type":"Feature","properties":{"ZIP":"G4T7C4"},"geometry":{"type":"Point","coordinates":[-61.542835,47.5499345]}},{"type":"Feature","properties":{"ZIP":"G4T2E7"},"geometry":{"type":"Point","coordinates":[-61.8702215,47.4065575]}},{"type":"Feature","properties":{"ZIP":"G4T3B1"},"geometry":{"type":"Point","coordinates":[-61.957525,47.372429499999996]}},{"type":"Feature","properties":{"ZIP":"G4T3N9"},"geometry":{"type":"Point","coordinates":[-61.8846445,47.360730000000004]}},{"type":"Feature","properties":{"ZIP":"G4T5C3"},"geometry":{"type":"Point","coordinates":[-61.80495500000001,47.411433]}},{"type":"Feature","properties":{"ZIP":"G4T0A5"},"geometry":{"type":"Point","coordinates":[-61.9413005,47.243489]}},{"type":"Feature","properties":{"ZIP":"G4T5A5"},"geometry":{"type":"Point","coordinates":[-61.80309,47.403015]}},{"type":"Feature","properties":{"ZIP":"G4T9E1"},"geometry":{"type":"Point","coordinates":[-61.866859500000004,47.2338585]}},{"type":"Feature","properties":{"ZIP":"G4T2L5"},"geometry":{"type":"Point","coordinates":[-61.874894499999996,47.3882185]}},{"type":"Feature","properties":{"ZIP":"G4T3P1"},"geometry":{"type":"Point","coordinates":[-61.8842755,47.35843]}},{"type":"Feature","properties":{"ZIP":"G4T3W1"},"geometry":{"type":"Point","coordinates":[-61.9486365,47.377298999999994]}},{"type":"Feature","properties":{"ZIP":"G4T1E3"},"geometry":{"type":"Point","coordinates":[-61.8632845,47.3810335]}},{"type":"Feature","properties":{"ZIP":"G4T2M7"},"geometry":{"type":"Point","coordinates":[-61.893924999999996,47.409456500000005]}},{"type":"Feature","properties":{"ZIP":"G4T3K9"},"geometry":{"type":"Point","coordinates":[-61.904168,47.359057]}},{"type":"Feature","properties":{"ZIP":"G4T5N4"},"geometry":{"type":"Point","coordinates":[-61.800567,47.414092499999995]}},{"type":"Feature","properties":{"ZIP":"G4T7A6"},"geometry":{"type":"Point","coordinates":[-61.518035999999995,47.5635345]}},{"type":"Feature","properties":{"ZIP":"G4T2K1"},"geometry":{"type":"Point","coordinates":[-61.889031,47.413195]}},{"type":"Feature","properties":{"ZIP":"G4T2P1"},"geometry":{"type":"Point","coordinates":[-61.908021500000004,47.4074645]}},{"type":"Feature","properties":{"ZIP":"G4T5J3"},"geometry":{"type":"Point","coordinates":[-61.791683,47.393112]}},{"type":"Feature","properties":{"ZIP":"G4T9E2"},"geometry":{"type":"Point","coordinates":[-61.8719335,47.232957]}},{"type":"Feature","properties":{"ZIP":"G4T2E9"},"geometry":{"type":"Point","coordinates":[-61.9343075,47.3960975]}},{"type":"Feature","properties":{"ZIP":"G4T5C5"},"geometry":{"type":"Point","coordinates":[-61.804579000000004,47.411564999999996]}},{"type":"Feature","properties":{"ZIP":"G4T5L4"},"geometry":{"type":"Point","coordinates":[-61.784168,47.39323]}},{"type":"Feature","properties":{"ZIP":"G4T1M5"},"geometry":{"type":"Point","coordinates":[-61.8756645,47.3684]}},{"type":"Feature","properties":{"ZIP":"G4T2M8"},"geometry":{"type":"Point","coordinates":[-61.8959655,47.412991]}},{"type":"Feature","properties":{"ZIP":"G4T2T5"},"geometry":{"type":"Point","coordinates":[-61.890942499999994,47.408404]}},{"type":"Feature","properties":{"ZIP":"G4T5N5"},"geometry":{"type":"Point","coordinates":[-61.80432,47.41424]}},{"type":"Feature","properties":{"ZIP":"G4T7A7"},"geometry":{"type":"Point","coordinates":[-61.52695799999999,47.55924]}},{"type":"Feature","properties":{"ZIP":"G4T2K2"},"geometry":{"type":"Point","coordinates":[-61.893336,47.414773]}},{"type":"Feature","properties":{"ZIP":"G4T3G9"},"geometry":{"type":"Point","coordinates":[-61.9156125,47.369637]}},{"type":"Feature","properties":{"ZIP":"G4T1K6"},"geometry":{"type":"Point","coordinates":[-61.875082500000005,47.3747065]}},{"type":"Feature","properties":{"ZIP":"G4T2L7"},"geometry":{"type":"Point","coordinates":[-61.87939900000001,47.3902935]}},{"type":"Feature","properties":{"ZIP":"G4T5L5"},"geometry":{"type":"Point","coordinates":[-61.779926,47.40087]}},{"type":"Feature","properties":{"ZIP":"G4T6C4"},"geometry":{"type":"Point","coordinates":[-61.5046785,47.615529499999994]}},{"type":"Feature","properties":{"ZIP":"G4T3E7"},"geometry":{"type":"Point","coordinates":[-61.8984325,47.371975500000005]}},{"type":"Feature","properties":{"ZIP":"G4T3M9"},"geometry":{"type":"Point","coordinates":[-61.8887035,47.352194]}},{"type":"Feature","properties":{"ZIP":"G4T1B7"},"geometry":{"type":"Point","coordinates":[-61.8727785,47.376215]}},{"type":"Feature","properties":{"ZIP":"G4T1K7"},"geometry":{"type":"Point","coordinates":[-61.8722805,47.366232499999995]}},{"type":"Feature","properties":{"ZIP":"G4T9G9"},"geometry":{"type":"Point","coordinates":[-61.841664,47.228058000000004]}},{"type":"Feature","properties":{"ZIP":"G4T2J1"},"geometry":{"type":"Point","coordinates":[-61.8660455,47.390022]}},{"type":"Feature","properties":{"ZIP":"G4T3S6"},"geometry":{"type":"Point","coordinates":[-61.917156500000004,47.3482295]}},{"type":"Feature","properties":{"ZIP":"G4T5G5"},"geometry":{"type":"Point","coordinates":[-61.818976,47.406769]}},{"type":"Feature","properties":{"ZIP":"G4T3V3"},"geometry":{"type":"Point","coordinates":[-61.9373365,47.3585315]}},{"type":"Feature","properties":{"ZIP":"G4T5B1"},"geometry":{"type":"Point","coordinates":[-61.758567,47.448496500000005]}},{"type":"Feature","properties":{"ZIP":"G4T3K2"},"geometry":{"type":"Point","coordinates":[-61.932266999999996,47.3631445]}},{"type":"Feature","properties":{"ZIP":"G4T3P6"},"geometry":{"type":"Point","coordinates":[-61.886643,47.362098]}},{"type":"Feature","properties":{"ZIP":"G4T6C7"},"geometry":{"type":"Point","coordinates":[-61.4802915,47.573993]}},{"type":"Feature","properties":{"ZIP":"G4T9H5"},"geometry":{"type":"Point","coordinates":[-61.86117,47.229506]}},{"type":"Feature","properties":{"ZIP":"G4T0K2"},"geometry":{"type":"Point","coordinates":[-61.984714,47.220146]}},{"type":"Feature","properties":{"ZIP":"G4T2B3"},"geometry":{"type":"Point","coordinates":[-61.905069999999995,47.413394999999994]}},{"type":"Feature","properties":{"ZIP":"G4T3L8"},"geometry":{"type":"Point","coordinates":[-61.907689000000005,47.3530685]}},{"type":"Feature","properties":{"ZIP":"G4T2K5"},"geometry":{"type":"Point","coordinates":[-61.900575,47.409779]}},{"type":"Feature","properties":{"ZIP":"G4T3A5"},"geometry":{"type":"Point","coordinates":[-61.9533245,47.382906500000004]}},{"type":"Feature","properties":{"ZIP":"G4T2S6"},"geometry":{"type":"Point","coordinates":[-61.884901,47.408025499999994]}},{"type":"Feature","properties":{"ZIP":"G4T9A6"},"geometry":{"type":"Point","coordinates":[-61.8580665,47.2365205]}},{"type":"Feature","properties":{"ZIP":"G4T1G7"},"geometry":{"type":"Point","coordinates":[-61.8685565,47.3762785]}},{"type":"Feature","properties":{"ZIP":"G4T2B4"},"geometry":{"type":"Point","coordinates":[-61.909291499999995,47.4129205]}},{"type":"Feature","properties":{"ZIP":"G4T2N3"},"geometry":{"type":"Point","coordinates":[-61.8974535,47.4091005]}},{"type":"Feature","properties":{"ZIP":"G4T3T2"},"geometry":{"type":"Point","coordinates":[-61.9279995,47.3668975]}},{"type":"Feature","properties":{"ZIP":"G4T3Z1"},"geometry":{"type":"Point","coordinates":[-61.885653500000004,47.366338]}},{"type":"Feature","properties":{"ZIP":"G4T5H3"},"geometry":{"type":"Point","coordinates":[-61.812872,47.396819]}},{"type":"Feature","properties":{"ZIP":"G4T6A1"},"geometry":{"type":"Point","coordinates":[-61.5234575,47.6289125]}},{"type":"Feature","properties":{"ZIP":"G4T9C3"},"geometry":{"type":"Point","coordinates":[-61.8661045,47.246325999999996]}},{"type":"Feature","properties":{"ZIP":"G4T1A4"},"geometry":{"type":"Point","coordinates":[-61.860974999999996,47.3856995]}},{"type":"Feature","properties":{"ZIP":"G4T3V5"},"geometry":{"type":"Point","coordinates":[-61.940983,47.355637]}},{"type":"Feature","properties":{"ZIP":"G4T5K4"},"geometry":{"type":"Point","coordinates":[-61.7643145,47.412226000000004]}},{"type":"Feature","properties":{"ZIP":"G4T8A9"},"geometry":{"type":"Point","coordinates":[-61.704878,47.52893]}},{"type":"Feature","properties":{"ZIP":"G4T0A1"},"geometry":{"type":"Point","coordinates":[-61.972561999999996,47.247608]}},{"type":"Feature","properties":{"ZIP":"G4T1L3"},"geometry":{"type":"Point","coordinates":[-61.875645,47.3745885]}},{"type":"Feature","properties":{"ZIP":"G4T2A3"},"geometry":{"type":"Point","coordinates":[-61.896023,47.4109675]}},{"type":"Feature","properties":{"ZIP":"G4T2G5"},"geometry":{"type":"Point","coordinates":[-61.9420875,47.3926855]}},{"type":"Feature","properties":{"ZIP":"G4T3K4"},"geometry":{"type":"Point","coordinates":[-61.926963,47.361960499999995]}},{"type":"Feature","properties":{"ZIP":"G4T6E2"},"geometry":{"type":"Point","coordinates":[-61.5343775,47.6164455]}},{"type":"Feature","properties":{"ZIP":"G4T0K4"},"geometry":{"type":"Point","coordinates":[-62.013439500000004,47.2427835]}},{"type":"Feature","properties":{"ZIP":"G4T1G8"},"geometry":{"type":"Point","coordinates":[-61.878184,47.372986999999995]}},{"type":"Feature","properties":{"ZIP":"G4T2V2"},"geometry":{"type":"Point","coordinates":[-61.9096565,47.3998595]}},{"type":"Feature","properties":{"ZIP":"G4T3T3"},"geometry":{"type":"Point","coordinates":[-61.9288085,47.368663999999995]}},{"type":"Feature","properties":{"ZIP":"G4T5H4"},"geometry":{"type":"Point","coordinates":[-61.791279,47.4003505]}},{"type":"Feature","properties":{"ZIP":"G4T0E6"},"geometry":{"type":"Point","coordinates":[-61.970237999999995,47.216378500000005]}},{"type":"Feature","properties":{"ZIP":"G4T2K7"},"geometry":{"type":"Point","coordinates":[-61.9017865,47.406525]}},{"type":"Feature","properties":{"ZIP":"G4T5B7"},"geometry":{"type":"Point","coordinates":[-61.8209355,47.400724]}},{"type":"Feature","properties":{"ZIP":"G4T8B1"},"geometry":{"type":"Point","coordinates":[-61.7077135,47.531656999999996]}},{"type":"Feature","properties":{"ZIP":"G4T9E9"},"geometry":{"type":"Point","coordinates":[-61.902882,47.2404215]}},{"type":"Feature","properties":{"ZIP":"G4T1C7"},"geometry":{"type":"Point","coordinates":[-61.861528,47.3809875]}},{"type":"Feature","properties":{"ZIP":"G4T1L4"},"geometry":{"type":"Point","coordinates":[-61.874634,47.3793115]}},{"type":"Feature","properties":{"ZIP":"G4T2A4"},"geometry":{"type":"Point","coordinates":[-61.89033,47.414160499999994]}},{"type":"Feature","properties":{"ZIP":"G4T3K5"},"geometry":{"type":"Point","coordinates":[-61.92609,47.3620875]}},{"type":"Feature","properties":{"ZIP":"G4T0C3"},"geometry":{"type":"Point","coordinates":[-61.9322115,47.227355]}},{"type":"Feature","properties":{"ZIP":"G4T3M2"},"geometry":{"type":"Point","coordinates":[-61.874544,47.3574495]}},{"type":"Feature","properties":{"ZIP":"G4T3T4"},"geometry":{"type":"Point","coordinates":[-61.9290995,47.362944999999996]}},{"type":"Feature","properties":{"ZIP":"G4T1J9"},"geometry":{"type":"Point","coordinates":[-61.8712915,47.379470999999995]}},{"type":"Feature","properties":{"ZIP":"G4T3H9"},"geometry":{"type":"Point","coordinates":[-61.935409,47.365939499999996]}},{"type":"Feature","properties":{"ZIP":"G4T5B8"},"geometry":{"type":"Point","coordinates":[-61.81678,47.404270999999994]}},{"type":"Feature","properties":{"ZIP":"G4T6B8"},"geometry":{"type":"Point","coordinates":[-61.476436500000005,47.573505]}},{"type":"Feature","properties":{"ZIP":"G4T8B2"},"geometry":{"type":"Point","coordinates":[-61.712331,47.529771499999995]}},{"type":"Feature","properties":{"ZIP":"G4T5M9"},"geometry":{"type":"Point","coordinates":[-61.8007985,47.4073825]}},{"type":"Feature","properties":{"ZIP":"G4T7A3"},"geometry":{"type":"Point","coordinates":[-61.503733499999996,47.5698465]}},{"type":"Feature","properties":{"ZIP":"G4T0C5"},"geometry":{"type":"Point","coordinates":[-61.936522499999995,47.225787]}},{"type":"Feature","properties":{"ZIP":"G4T3G5"},"geometry":{"type":"Point","coordinates":[-61.95498550000001,47.369816]}},{"type":"Feature","properties":{"ZIP":"G4T3A9"},"geometry":{"type":"Point","coordinates":[-61.937708,47.3787285]}},{"type":"Feature","properties":{"ZIP":"G4T5C1"},"geometry":{"type":"Point","coordinates":[-61.8138365,47.4068515]}},{"type":"Feature","properties":{"ZIP":"G4T6B9"},"geometry":{"type":"Point","coordinates":[-61.513756,47.619217]}},{"type":"Feature","properties":{"ZIP":"G4T9G2"},"geometry":{"type":"Point","coordinates":[-61.839692,47.2326465]}},{"type":"Feature","properties":{"ZIP":"G4T1C9"},"geometry":{"type":"Point","coordinates":[-61.8632935,47.380573999999996]}},{"type":"Feature","properties":{"ZIP":"G4T2A6"},"geometry":{"type":"Point","coordinates":[-61.8864815,47.412690999999995]}},{"type":"Feature","properties":{"ZIP":"G4T5E9"},"geometry":{"type":"Point","coordinates":[-61.767235,47.4117435]}},{"type":"Feature","properties":{"ZIP":"G4T5N1"},"geometry":{"type":"Point","coordinates":[-61.801531499999996,47.408448]}},{"type":"Feature","properties":{"ZIP":"G4T9J1"},"geometry":{"type":"Point","coordinates":[-61.845742,47.2323725]}},{"type":"Feature","properties":{"ZIP":"G4T0C6"},"geometry":{"type":"Point","coordinates":[-61.936043,47.2241185]}},{"type":"Feature","properties":{"ZIP":"G4T1H5"},"geometry":{"type":"Point","coordinates":[-61.880752,47.370571999999996]}},{"type":"Feature","properties":{"ZIP":"G4T1N8"},"geometry":{"type":"Point","coordinates":[-61.8776995,47.36819]}},{"type":"Feature","properties":{"ZIP":"G4T2J8"},"geometry":{"type":"Point","coordinates":[-61.8744095,47.391791]}},{"type":"Feature","properties":{"ZIP":"G4T2N8"},"geometry":{"type":"Point","coordinates":[-61.895959500000004,47.397546500000004]}},{"type":"Feature","properties":{"ZIP":"G4T2V5"},"geometry":{"type":"Point","coordinates":[-61.9288875,47.391079500000004]}},{"type":"Feature","properties":{"ZIP":"G4T6A5"},"geometry":{"type":"Point","coordinates":[-61.6240005,47.5783075]}},{"type":"Feature","properties":{"ZIP":"G4T0E9"},"geometry":{"type":"Point","coordinates":[-61.982909,47.2195665]}},{"type":"Feature","properties":{"ZIP":"G4T1K3"},"geometry":{"type":"Point","coordinates":[-61.8705435,47.378398000000004]}},{"type":"Feature","properties":{"ZIP":"G4T1R8"},"geometry":{"type":"Point","coordinates":[-61.864007,47.3792725]}},{"type":"Feature","properties":{"ZIP":"G4T6C1"},"geometry":{"type":"Point","coordinates":[-61.52308,47.6179035]}},{"type":"Feature","properties":{"ZIP":"G4T1L9"},"geometry":{"type":"Point","coordinates":[-61.876901000000004,47.3757855]}},{"type":"Feature","properties":{"ZIP":"G4T3Y1"},"geometry":{"type":"Point","coordinates":[-61.938903,47.386145]}},{"type":"Feature","properties":{"ZIP":"G4T5N2"},"geometry":{"type":"Point","coordinates":[-61.7996465,47.411775]}},{"type":"Feature","properties":{"ZIP":"G4T1N9"},"geometry":{"type":"Point","coordinates":[-61.8772775,47.367766]}},{"type":"Feature","properties":{"ZIP":"G4T2J9"},"geometry":{"type":"Point","coordinates":[-61.887774,47.411131999999995]}},{"type":"Feature","properties":{"ZIP":"G4T2N9"},"geometry":{"type":"Point","coordinates":[-61.901039499999996,47.386353]}},{"type":"Feature","properties":{"ZIP":"G4T2V6"},"geometry":{"type":"Point","coordinates":[-61.931920000000005,47.3896945]}},{"type":"Feature","properties":{"ZIP":"G4T3T8"},"geometry":{"type":"Point","coordinates":[-61.933090500000006,47.3845035]}},{"type":"Feature","properties":{"ZIP":"G4T0G2"},"geometry":{"type":"Point","coordinates":[-61.9625765,47.216503]}},{"type":"Feature","properties":{"ZIP":"G4T1A9"},"geometry":{"type":"Point","coordinates":[-61.865333,47.380728500000004]}},{"type":"Feature","properties":{"ZIP":"G4T1K4"},"geometry":{"type":"Point","coordinates":[-61.870625000000004,47.3783565]}},{"type":"Feature","properties":{"ZIP":"G4T2E8"},"geometry":{"type":"Point","coordinates":[-61.9297945,47.396851999999996]}},{"type":"Feature","properties":{"ZIP":"G4T2S1"},"geometry":{"type":"Point","coordinates":[-61.870434,47.396770000000004]}},{"type":"Feature","properties":{"ZIP":"G4T5L3"},"geometry":{"type":"Point","coordinates":[-61.7820375,47.398759999999996]}},{"type":"Feature","properties":{"ZIP":"G4T6C2"},"geometry":{"type":"Point","coordinates":[-61.516295,47.6187015]}},{"type":"Feature","properties":{"ZIP":"G4T0J2"},"geometry":{"type":"Point","coordinates":[-61.966668,47.2148385]}},{"type":"Feature","properties":{"ZIP":"G4T2H6"},"geometry":{"type":"Point","coordinates":[-61.8453785,47.397836]}},{"type":"Feature","properties":{"ZIP":"G4T2T4"},"geometry":{"type":"Point","coordinates":[-61.891978,47.407931]}},{"type":"Feature","properties":{"ZIP":"G4T3E5"},"geometry":{"type":"Point","coordinates":[-61.895467,47.3729715]}},{"type":"Feature","properties":{"ZIP":"G4T5G2"},"geometry":{"type":"Point","coordinates":[-61.7617235,47.4120705]}},{"type":"Feature","properties":{"ZIP":"G4T9B6"},"geometry":{"type":"Point","coordinates":[-61.9154235,47.2641725]}},{"type":"Feature","properties":{"ZIP":"G4T0K9"},"geometry":{"type":"Point","coordinates":[-61.937916,47.2231405]}},{"type":"Feature","properties":{"ZIP":"G4T3G8"},"geometry":{"type":"Point","coordinates":[-61.951464,47.3678935]}},{"type":"Feature","properties":{"ZIP":"G4T3M7"},"geometry":{"type":"Point","coordinates":[-61.893697,47.3561605]}},{"type":"Feature","properties":{"ZIP":"G4T3T9"},"geometry":{"type":"Point","coordinates":[-61.939964,47.364478]}},{"type":"Feature","properties":{"ZIP":"G4T6A8"},"geometry":{"type":"Point","coordinates":[-61.544518499999995,47.620837]}},{"type":"Feature","properties":{"ZIP":"G4T1K5"},"geometry":{"type":"Point","coordinates":[-61.870667999999995,47.376977999999994]}},{"type":"Feature","properties":{"ZIP":"G4T1Z1"},"geometry":{"type":"Point","coordinates":[-61.7091705,47.276538]}},{"type":"Feature","properties":{"ZIP":"G4T2S2"},"geometry":{"type":"Point","coordinates":[-61.869708,47.3949955]}},{"type":"Feature","properties":{"ZIP":"G4T6C3"},"geometry":{"type":"Point","coordinates":[-61.517122,47.615768]}},{"type":"Feature","properties":{"ZIP":"G4T0A7"},"geometry":{"type":"Point","coordinates":[-61.918283,47.2333775]}},{"type":"Feature","properties":{"ZIP":"G4T0J3"},"geometry":{"type":"Point","coordinates":[-61.985449,47.232988]}},{"type":"Feature","properties":{"ZIP":"G4T2A9"},"geometry":{"type":"Point","coordinates":[-61.8753445,47.4099565]}},{"type":"Feature","properties":{"ZIP":"G4T2H7"},"geometry":{"type":"Point","coordinates":[-61.850312,47.3934855]}},{"type":"Feature","properties":{"ZIP":"G4T3L1"},"geometry":{"type":"Point","coordinates":[-61.906667999999996,47.359481]}},{"type":"Feature","properties":{"ZIP":"G4T3S3"},"geometry":{"type":"Point","coordinates":[-61.916199000000006,47.349139]}},{"type":"Feature","properties":{"ZIP":"G4T0C9"},"geometry":{"type":"Point","coordinates":[-61.953556,47.2195895]}},{"type":"Feature","properties":{"ZIP":"G4T0L1"},"geometry":{"type":"Point","coordinates":[-61.9306845,47.225533999999996]}},{"type":"Feature","properties":{"ZIP":"G4T1H8"},"geometry":{"type":"Point","coordinates":[-61.87899,47.366966]}},{"type":"Feature","properties":{"ZIP":"G4T1P2"},"geometry":{"type":"Point","coordinates":[-61.879099499999995,47.370046]}},{"type":"Feature","properties":{"ZIP":"G4T2C3"},"geometry":{"type":"Point","coordinates":[-61.873631,47.407842]}},{"type":"Feature","properties":{"ZIP":"G4T2P2"},"geometry":{"type":"Point","coordinates":[-61.90537449999999,47.403203000000005]}},{"type":"Feature","properties":{"ZIP":"G4T3V1"},"geometry":{"type":"Point","coordinates":[-61.9353075,47.361449]}},{"type":"Feature","properties":{"ZIP":"G4T6A9"},"geometry":{"type":"Point","coordinates":[-61.525724,47.6179795]}},{"type":"Feature","properties":{"ZIP":"G4T2G1"},"geometry":{"type":"Point","coordinates":[-61.9353085,47.396068]}},{"type":"Feature","properties":{"ZIP":"G4T3P3"},"geometry":{"type":"Point","coordinates":[-61.9901765,47.223430500000006]}},{"type":"Feature","properties":{"ZIP":"G4T3W5"},"geometry":{"type":"Point","coordinates":[-61.958146,47.3640095]}},{"type":"Feature","properties":{"ZIP":"G4T0A8"},"geometry":{"type":"Point","coordinates":[-61.9852225,47.236104]}},{"type":"Feature","properties":{"ZIP":"G4T0J4"},"geometry":{"type":"Point","coordinates":[-61.9797315,47.222395500000005]}},{"type":"Feature","properties":{"ZIP":"G4T1M8"},"geometry":{"type":"Point","coordinates":[-61.8750365,47.3678575]}},{"type":"Feature","properties":{"ZIP":"G4T2B1"},"geometry":{"type":"Point","coordinates":[-61.903142,47.408441999999994]}},{"type":"Feature","properties":{"ZIP":"G4T2M9"},"geometry":{"type":"Point","coordinates":[-61.8962185,47.4136775]}},{"type":"Feature","properties":{"ZIP":"G4T2T7"},"geometry":{"type":"Point","coordinates":[-61.895381,47.4063775]}},{"type":"Feature","properties":{"ZIP":"G4T3Y7"},"geometry":{"type":"Point","coordinates":[-61.875186,47.361204]}},{"type":"Feature","properties":{"ZIP":"G4T9B8"},"geometry":{"type":"Point","coordinates":[-61.8944915,47.251034000000004]}},{"type":"Feature","properties":{"ZIP":"G4T2C4"},"geometry":{"type":"Point","coordinates":[-61.8696355,47.408666999999994]}},{"type":"Feature","properties":{"ZIP":"G4T2K3"},"geometry":{"type":"Point","coordinates":[-61.8928395,47.416557499999996]}},{"type":"Feature","properties":{"ZIP":"G4T2P6"},"geometry":{"type":"Point","coordinates":[-61.9102855,47.408747500000004]}},{"type":"Feature","properties":{"ZIP":"G4T3A1"},"geometry":{"type":"Point","coordinates":[-61.9471915,47.380351000000005]}},{"type":"Feature","properties":{"ZIP":"G4T5A9"},"geometry":{"type":"Point","coordinates":[-61.758371999999994,47.449556]}},{"type":"Feature","properties":{"ZIP":"G4T9E4"},"geometry":{"type":"Point","coordinates":[-61.871497500000004,47.231624999999994]}},{"type":"Feature","properties":{"ZIP":"G4T1Z8"},"geometry":{"type":"Point","coordinates":[-61.7059585,47.2759765]}},{"type":"Feature","properties":{"ZIP":"G4T2G2"},"geometry":{"type":"Point","coordinates":[-61.878204,47.397153]}},{"type":"Feature","properties":{"ZIP":"G4T2L8"},"geometry":{"type":"Point","coordinates":[-61.895297,47.3985395]}},{"type":"Feature","properties":{"ZIP":"G4T3J8"},"geometry":{"type":"Point","coordinates":[-61.9547465,47.3675005]}},{"type":"Feature","properties":{"ZIP":"G4T5C8"},"geometry":{"type":"Point","coordinates":[-61.794033,47.4121045]}},{"type":"Feature","properties":{"ZIP":"G4T9A4"},"geometry":{"type":"Point","coordinates":[-61.868815,47.238022]}},{"type":"Feature","properties":{"ZIP":"G4T0B7"},"geometry":{"type":"Point","coordinates":[-61.921963,47.2310835]}},{"type":"Feature","properties":{"ZIP":"G4T1N2"},"geometry":{"type":"Point","coordinates":[-61.877298499999995,47.369975]}},{"type":"Feature","properties":{"ZIP":"G4T3L5"},"geometry":{"type":"Point","coordinates":[-61.8815745,47.355652]}},{"type":"Feature","properties":{"ZIP":"G4T7A9"},"geometry":{"type":"Point","coordinates":[-61.5407195,47.5556815]}},{"type":"Feature","properties":{"ZIP":"G4T1A2"},"geometry":{"type":"Point","coordinates":[-61.869319000000004,47.384144000000006]}},{"type":"Feature","properties":{"ZIP":"G4T1J1"},"geometry":{"type":"Point","coordinates":[-61.8583355,47.3853355]}},{"type":"Feature","properties":{"ZIP":"G4T2P7"},"geometry":{"type":"Point","coordinates":[-61.903504,47.4057745]}},{"type":"Feature","properties":{"ZIP":"G4T6B2"},"geometry":{"type":"Point","coordinates":[-61.512318500000006,47.618564]}},{"type":"Feature","properties":{"ZIP":"G4T8A6"},"geometry":{"type":"Point","coordinates":[-61.709084000000004,47.529658]}},{"type":"Feature","properties":{"ZIP":"G4T9E6"},"geometry":{"type":"Point","coordinates":[-61.8870635,47.2384625]}},{"type":"Feature","properties":{"ZIP":"G4T0G9"},"geometry":{"type":"Point","coordinates":[-61.948484,47.2284345]}},{"type":"Feature","properties":{"ZIP":"G4T1K8"},"geometry":{"type":"Point","coordinates":[-61.874449,47.370437499999994]}},{"type":"Feature","properties":{"ZIP":"G4T2S5"},"geometry":{"type":"Point","coordinates":[-61.8850065,47.408092499999995]}},{"type":"Feature","properties":{"ZIP":"G4T1G4"},"geometry":{"type":"Point","coordinates":[-61.871196999999995,47.375298]}},{"type":"Feature","properties":{"ZIP":"G4T2N2"},"geometry":{"type":"Point","coordinates":[-61.897941,47.4100915]}},{"type":"Feature","properties":{"ZIP":"G4T5G6"},"geometry":{"type":"Point","coordinates":[-61.8272085,47.407599000000005]}},{"type":"Feature","properties":{"ZIP":"G4T9C1"},"geometry":{"type":"Point","coordinates":[-61.878878,47.251588]}},{"type":"Feature","properties":{"ZIP":"G4T1P5"},"geometry":{"type":"Point","coordinates":[-61.8800935,47.369780000000006]}},{"type":"Feature","properties":{"ZIP":"G4T2C8"},"geometry":{"type":"Point","coordinates":[-61.926519,47.398749499999994]}},{"type":"Feature","properties":{"ZIP":"G4T3H5"},"geometry":{"type":"Point","coordinates":[-61.915998,47.3688695]}},{"type":"Feature","properties":{"ZIP":"G4T3N2"},"geometry":{"type":"Point","coordinates":[-61.8957235,47.362496]}},{"type":"Feature","properties":{"ZIP":"G4T3V4"},"geometry":{"type":"Point","coordinates":[-61.937453500000004,47.35908]}},{"type":"Feature","properties":{"ZIP":"G4T9E7"},"geometry":{"type":"Point","coordinates":[-61.898422,47.2412305]}},{"type":"Feature","properties":{"ZIP":"G4T1L2"},"geometry":{"type":"Point","coordinates":[-61.874936000000005,47.3712075]}},{"type":"Feature","properties":{"ZIP":"G4T2A2"},"geometry":{"type":"Point","coordinates":[-61.8943885,47.411846]}},{"type":"Feature","properties":{"ZIP":"G4T2M1"},"geometry":{"type":"Point","coordinates":[-61.8954545,47.397915499999996]}},{"type":"Feature","properties":{"ZIP":"G4T3K3"},"geometry":{"type":"Point","coordinates":[-61.934196,47.3646955]}},{"type":"Feature","properties":{"ZIP":"G4T5L9"},"geometry":{"type":"Point","coordinates":[-61.784634,47.408243999999996]}},{"type":"Feature","properties":{"ZIP":"G4T6C8"},"geometry":{"type":"Point","coordinates":[-61.4866685,47.572306499999996]}},{"type":"Feature","properties":{"ZIP":"G4T0C1"},"geometry":{"type":"Point","coordinates":[-61.925850499999996,47.2296695]}},{"type":"Feature","properties":{"ZIP":"G4T1N4"},"geometry":{"type":"Point","coordinates":[-61.8786365,47.3741835]}},{"type":"Feature","properties":{"ZIP":"G4T2J3"},"geometry":{"type":"Point","coordinates":[-61.869061,47.390349]}},{"type":"Feature","properties":{"ZIP":"G4T0E5"},"geometry":{"type":"Point","coordinates":[-61.969800500000005,47.2164365]}},{"type":"Feature","properties":{"ZIP":"G4T1P6"},"geometry":{"type":"Point","coordinates":[-61.881347000000005,47.3700755]}},{"type":"Feature","properties":{"ZIP":"G4T2R1"},"geometry":{"type":"Point","coordinates":[-61.9106255,47.397207]}},{"type":"Feature","properties":{"ZIP":"G4T3N4"},"geometry":{"type":"Point","coordinates":[-61.886796000000004,47.3669235]}},{"type":"Feature","properties":{"ZIP":"G4T6B6"},"geometry":{"type":"Point","coordinates":[-61.4780995,47.575206]}},{"type":"Feature","properties":{"ZIP":"G4T9E8"},"geometry":{"type":"Point","coordinates":[-61.899619,47.241129]}},{"type":"Feature","properties":{"ZIP":"G4T0H4"},"geometry":{"type":"Point","coordinates":[-61.9391335,47.222566]}},{"type":"Feature","properties":{"ZIP":"G4T2M2"},"geometry":{"type":"Point","coordinates":[-61.89802,47.4011005]}},{"type":"Feature","properties":{"ZIP":"G4T2S8"},"geometry":{"type":"Point","coordinates":[-61.888144,47.4095935]}},{"type":"Feature","properties":{"ZIP":"G4T3X3"},"geometry":{"type":"Point","coordinates":[-61.881272,47.357035499999995]}},{"type":"Feature","properties":{"ZIP":"G4T5E6"},"geometry":{"type":"Point","coordinates":[-61.7777105,47.411473]}},{"type":"Feature","properties":{"ZIP":"G4T5M5"},"geometry":{"type":"Point","coordinates":[-61.80096,47.396348]}},{"type":"Feature","properties":{"ZIP":"G4T9H7"},"geometry":{"type":"Point","coordinates":[-61.901695000000004,47.242537999999996]}},{"type":"Feature","properties":{"ZIP":"G4T3G3"},"geometry":{"type":"Point","coordinates":[-61.9102695,47.3718585]}},{"type":"Feature","properties":{"ZIP":"G4T1A5"},"geometry":{"type":"Point","coordinates":[-61.859643,47.383613]}},{"type":"Feature","properties":{"ZIP":"G4T2E1"},"geometry":{"type":"Point","coordinates":[-61.8882415,47.4042525]}},{"type":"Feature","properties":{"ZIP":"G4T3A7"},"geometry":{"type":"Point","coordinates":[-61.9421055,47.378674000000004]}},{"type":"Feature","properties":{"ZIP":"G4T5K7"},"geometry":{"type":"Point","coordinates":[-61.775348,47.399854000000005]}},{"type":"Feature","properties":{"ZIP":"G4T6B7"},"geometry":{"type":"Point","coordinates":[-61.4771275,47.574211500000004]}},{"type":"Feature","properties":{"ZIP":"G4T0A2"},"geometry":{"type":"Point","coordinates":[-62.004123,47.249449999999996]}},{"type":"Feature","properties":{"ZIP":"G4T0H5"},"geometry":{"type":"Point","coordinates":[-61.9520005,47.2199035]}},{"type":"Feature","properties":{"ZIP":"G4T2G6"},"geometry":{"type":"Point","coordinates":[-61.939758999999995,47.3920935]}},{"type":"Feature","properties":{"ZIP":"G4T2M3"},"geometry":{"type":"Point","coordinates":[-61.898175499999994,47.401388499999996]}},{"type":"Feature","properties":{"ZIP":"G4T3R1"},"geometry":{"type":"Point","coordinates":[-61.8934785,47.3733845]}},{"type":"Feature","properties":{"ZIP":"G4T3X4"},"geometry":{"type":"Point","coordinates":[-61.915904499999996,47.3718985]}},{"type":"Feature","properties":{"ZIP":"G4T5E7"},"geometry":{"type":"Point","coordinates":[-61.774727999999996,47.411289]}},{"type":"Feature","properties":{"ZIP":"G4T5M6"},"geometry":{"type":"Point","coordinates":[-61.795897,47.3994955]}},{"type":"Feature","properties":{"ZIP":"G4T6E4"},"geometry":{"type":"Point","coordinates":[-61.472628,47.617129000000006]}},{"type":"Feature","properties":{"ZIP":"G4T9H8"},"geometry":{"type":"Point","coordinates":[-61.907499,47.2435335]}},{"type":"Feature","properties":{"ZIP":"G4T1N6"},"geometry":{"type":"Point","coordinates":[-61.8798885,47.3711785]}},{"type":"Feature","properties":{"ZIP":"G4T2B6"},"geometry":{"type":"Point","coordinates":[-61.899187,47.406984]}},{"type":"Feature","properties":{"ZIP":"G4T2N5"},"geometry":{"type":"Point","coordinates":[-61.890648999999996,47.3885265]}},{"type":"Feature","properties":{"ZIP":"G4T5H5"},"geometry":{"type":"Point","coordinates":[-61.7820945,47.399201500000004]}},{"type":"Feature","properties":{"ZIP":"G4T6A3"},"geometry":{"type":"Point","coordinates":[-61.519269,47.625218000000004]}},{"type":"Feature","properties":{"ZIP":"G4T0E7"},"geometry":{"type":"Point","coordinates":[-61.981884,47.219224]}},{"type":"Feature","properties":{"ZIP":"G4T1A6"},"geometry":{"type":"Point","coordinates":[-61.86363,47.386431]}},{"type":"Feature","properties":{"ZIP":"G4T2K9"},"geometry":{"type":"Point","coordinates":[-61.901454,47.4050105]}},{"type":"Feature","properties":{"ZIP":"G4T2R3"},"geometry":{"type":"Point","coordinates":[-61.924608,47.401691]}},{"type":"Feature","properties":{"ZIP":"G4T3A8"},"geometry":{"type":"Point","coordinates":[-61.946449,47.37853200000001]}},{"type":"Feature","properties":{"ZIP":"G4T3N6"},"geometry":{"type":"Point","coordinates":[-61.8867825,47.366865]}},{"type":"Feature","properties":{"ZIP":"G4T0H6"},"geometry":{"type":"Point","coordinates":[-61.959562500000004,47.2343905]}},{"type":"Feature","properties":{"ZIP":"G4T2A5"},"geometry":{"type":"Point","coordinates":[-61.892506,47.412798]}},{"type":"Feature","properties":{"ZIP":"G4T2T1"},"geometry":{"type":"Point","coordinates":[-61.889786,47.4089645]}},{"type":"Feature","properties":{"ZIP":"G4T3K6"},"geometry":{"type":"Point","coordinates":[-61.9181455,47.3618085]}},{"type":"Feature","properties":{"ZIP":"G4T5E8"},"geometry":{"type":"Point","coordinates":[-61.7678705,47.411789999999996]}},{"type":"Feature","properties":{"ZIP":"G4T9B3"},"geometry":{"type":"Point","coordinates":[-61.923606,47.273365999999996]}},{"type":"Feature","properties":{"ZIP":"G4T9H9"},"geometry":{"type":"Point","coordinates":[-61.9060855,47.2455995]}},{"type":"Feature","properties":{"ZIP":"G4T2B7"},"geometry":{"type":"Point","coordinates":[-61.9001625,47.406552500000004]}},{"type":"Feature","properties":{"ZIP":"G4T2N6"},"geometry":{"type":"Point","coordinates":[-61.890101,47.392512499999995]}},{"type":"Feature","properties":{"ZIP":"G4T6A4"},"geometry":{"type":"Point","coordinates":[-61.517243,47.626150499999994]}},{"type":"Feature","properties":{"ZIP":"G4T9C8"},"geometry":{"type":"Point","coordinates":[-61.847548,47.238223]}},{"type":"Feature","properties":{"ZIP":"G4T0E8"},"geometry":{"type":"Point","coordinates":[-61.9815665,47.2193445]}},{"type":"Feature","properties":{"ZIP":"G4T1K1"},"geometry":{"type":"Point","coordinates":[-61.8693215,47.3767045]}},{"type":"Feature","properties":{"ZIP":"G4T1R6"},"geometry":{"type":"Point","coordinates":[-61.877404,47.370482499999994]}},{"type":"Feature","properties":{"ZIP":"G4T2R5"},"geometry":{"type":"Point","coordinates":[-61.937777499999996,47.393341]}},{"type":"Feature","properties":{"ZIP":"G4T3J1"},"geometry":{"type":"Point","coordinates":[-61.9372865,47.365359]}},{"type":"Feature","properties":{"ZIP":"G4T3N8"},"geometry":{"type":"Point","coordinates":[-61.8849455,47.3615955]}},{"type":"Feature","properties":{"ZIP":"G4T2M5"},"geometry":{"type":"Point","coordinates":[-61.899953999999994,47.404052]}},{"type":"Feature","properties":{"ZIP":"G4T3K7"},"geometry":{"type":"Point","coordinates":[-61.921295,47.3620835]}},{"type":"Feature","properties":{"ZIP":"G4T3X8"},"geometry":{"type":"Point","coordinates":[-61.9277005,47.3653155]}},{"type":"Feature","properties":{"ZIP":"G4T9B4"},"geometry":{"type":"Point","coordinates":[-61.920612500000004,47.270765999999995]}},{"type":"Feature","properties":{"ZIP":"G4T0K7"},"geometry":{"type":"Point","coordinates":[-61.923578500000005,47.2279685]}},{"type":"Feature","properties":{"ZIP":"G4T5H9"},"geometry":{"type":"Point","coordinates":[-61.8062065,47.397447]}},{"type":"Feature","properties":{"ZIP":"G4T3J2"},"geometry":{"type":"Point","coordinates":[-61.9369755,47.365422]}},{"type":"Feature","properties":{"ZIP":"G4T3V9"},"geometry":{"type":"Point","coordinates":[-61.9456895,47.381302500000004]}},{"type":"Feature","properties":{"ZIP":"G4T8B4"},"geometry":{"type":"Point","coordinates":[-61.713942,47.524063]}},{"type":"Feature","properties":{"ZIP":"G4T9G4"},"geometry":{"type":"Point","coordinates":[-61.837891,47.2313605]}},{"type":"Feature","properties":{"ZIP":"G4T0H9"},"geometry":{"type":"Point","coordinates":[-61.97089,47.2186235]}},{"type":"Feature","properties":{"ZIP":"G4T1E2"},"geometry":{"type":"Point","coordinates":[-61.8660385,47.377868]}},{"type":"Feature","properties":{"ZIP":"G4T2A7"},"geometry":{"type":"Point","coordinates":[-61.885166,47.4090085]}},{"type":"Feature","properties":{"ZIP":"G4T2H4"},"geometry":{"type":"Point","coordinates":[-61.864931999999996,47.386861499999995]}},{"type":"Feature","properties":{"ZIP":"G4T3E3"},"geometry":{"type":"Point","coordinates":[-61.892618,47.372319]}},{"type":"Feature","properties":{"ZIP":"G4T3K8"},"geometry":{"type":"Point","coordinates":[-61.916049,47.361867000000004]}},{"type":"Feature","properties":{"ZIP":"G4T9J4"},"geometry":{"type":"Point","coordinates":[-61.901876,47.2436175]}},{"type":"Feature","properties":{"ZIP":"G4T0K8"},"geometry":{"type":"Point","coordinates":[-61.928529499999996,47.222655]}},{"type":"Feature","properties":{"ZIP":"G4T1H6"},"geometry":{"type":"Point","coordinates":[-61.870293,47.373403999999994]}},{"type":"Feature","properties":{"ZIP":"G4T2C1"},"geometry":{"type":"Point","coordinates":[-61.8810645,47.407483]}},{"type":"Feature","properties":{"ZIP":"G4T3G7"},"geometry":{"type":"Point","coordinates":[-61.952058,47.368765999999994]}},{"type":"Feature","properties":{"ZIP":"G4T3M6"},"geometry":{"type":"Point","coordinates":[-61.8915425,47.3544995]}},{"type":"Feature","properties":{"ZIP":"G4T1R9"},"geometry":{"type":"Point","coordinates":[-61.860904,47.382763]}},{"type":"Feature","properties":{"ZIP":"G4T3B5"},"geometry":{"type":"Point","coordinates":[-61.950663000000006,47.373757]}},{"type":"Feature","properties":{"ZIP":"G4T5C4"},"geometry":{"type":"Point","coordinates":[-61.8087285,47.410655500000004]}},{"type":"Feature","properties":{"ZIP":"G4T9A1"},"geometry":{"type":"Point","coordinates":[-61.8961255,47.246369]}},{"type":"Feature","properties":{"ZIP":"G4T9G6"},"geometry":{"type":"Point","coordinates":[-61.8393,47.229218]}},{"type":"Feature","properties":{"ZIP":"G4T0A6"},"geometry":{"type":"Point","coordinates":[-61.9395085,47.242565]}},{"type":"Feature","properties":{"ZIP":"G4T1M1"},"geometry":{"type":"Point","coordinates":[-61.876818,47.3778475]}},{"type":"Feature","properties":{"ZIP":"G4T3Y5"},"geometry":{"type":"Point","coordinates":[-61.9200485,47.361031]}},{"type":"Feature","properties":{"ZIP":"G4T1H7"},"geometry":{"type":"Point","coordinates":[-61.8790965,47.368038999999996]}},{"type":"Feature","properties":{"ZIP":"G4T2V7"},"geometry":{"type":"Point","coordinates":[-61.932955500000006,47.389222000000004]}},{"type":"Feature","properties":{"ZIP":"G4T8A1"},"geometry":{"type":"Point","coordinates":[-61.7056265,47.5333105]}},{"type":"Feature","properties":{"ZIP":"G4T3B6"},"geometry":{"type":"Point","coordinates":[-61.8871985,47.239166]}},{"type":"Feature","properties":{"ZIP":"G4T3P2"},"geometry":{"type":"Point","coordinates":[-61.8841095,47.3506365]}},{"type":"Feature","properties":{"ZIP":"G4T3W2"},"geometry":{"type":"Point","coordinates":[-61.949127,47.376203000000004]}},{"type":"Feature","properties":{"ZIP":"G4T1E4"},"geometry":{"type":"Point","coordinates":[-61.864715000000004,47.379099]}},{"type":"Feature","properties":{"ZIP":"G4T3M8"},"geometry":{"type":"Point","coordinates":[-61.893926500000006,47.356747]}},{"type":"Feature","properties":{"ZIP":"G4T5A7"},"geometry":{"type":"Point","coordinates":[-61.7599955,47.4495985]}},{"type":"Feature","properties":{"ZIP":"G4T9E3"},"geometry":{"type":"Point","coordinates":[-61.8704755,47.2330885]}},{"type":"Feature","properties":{"ZIP":"G4T0G6"},"geometry":{"type":"Point","coordinates":[-61.9320845,47.221633499999996]}},{"type":"Feature","properties":{"ZIP":"G4T1B6"},"geometry":{"type":"Point","coordinates":[-61.872372999999996,47.378437000000005]}},{"type":"Feature","properties":{"ZIP":"G4T1Z6"},"geometry":{"type":"Point","coordinates":[-61.710284,47.2729475]}},{"type":"Feature","properties":{"ZIP":"G4T3J7"},"geometry":{"type":"Point","coordinates":[-61.9539635,47.3653515]}},{"type":"Feature","properties":{"ZIP":"G4T9A3"},"geometry":{"type":"Point","coordinates":[-61.907794499999994,47.2427805]}},{"type":"Feature","properties":{"ZIP":"G4T9G8"},"geometry":{"type":"Point","coordinates":[-61.8463475,47.2333385]}},{"type":"Feature","properties":{"ZIP":"G4T1E5"},"geometry":{"type":"Point","coordinates":[-61.860794999999996,47.3812455]}},{"type":"Feature","properties":{"ZIP":"G4T2H9"},"geometry":{"type":"Point","coordinates":[-61.8596855,47.393599]}},{"type":"Feature","properties":{"ZIP":"G4T3L4"},"geometry":{"type":"Point","coordinates":[-61.881434,47.355716]}},{"type":"Feature","properties":{"ZIP":"G4T5G4"},"geometry":{"type":"Point","coordinates":[-61.817177,47.4053875]}},{"type":"Feature","properties":{"ZIP":"G4T5N6"},"geometry":{"type":"Point","coordinates":[-61.817919,47.407072]}},{"type":"Feature","properties":{"ZIP":"G4T0E1"},"geometry":{"type":"Point","coordinates":[-61.954082,47.2181975]}},{"type":"Feature","properties":{"ZIP":"G4T0L8"},"geometry":{"type":"Point","coordinates":[-61.9829825,47.219629]}},{"type":"Feature","properties":{"ZIP":"G4T1H9"},"geometry":{"type":"Point","coordinates":[-61.8786315,47.367065999999994]}},{"type":"Feature","properties":{"ZIP":"G4T3H1"},"geometry":{"type":"Point","coordinates":[-61.8852225,47.366033]}},{"type":"Feature","properties":{"ZIP":"G4T3V2"},"geometry":{"type":"Point","coordinates":[-61.9337825,47.361819499999996]}},{"type":"Feature","properties":{"ZIP":"G4T6B1"},"geometry":{"type":"Point","coordinates":[-61.5164015,47.619747000000004]}},{"type":"Feature","properties":{"ZIP":"G4T8A5"},"geometry":{"type":"Point","coordinates":[-61.702377999999996,47.534099]}},{"type":"Feature","properties":{"ZIP":"G4T0G7"},"geometry":{"type":"Point","coordinates":[-61.937284500000004,47.220282999999995]}},{"type":"Feature","properties":{"ZIP":"G4T3P4"},"geometry":{"type":"Point","coordinates":[-61.886666,47.3541575]}},{"type":"Feature","properties":{"ZIP":"G4T3W8"},"geometry":{"type":"Point","coordinates":[-61.8969775,47.3687455]}},{"type":"Feature","properties":{"ZIP":"G4T5L6"},"geometry":{"type":"Point","coordinates":[-61.7778325,47.406616]}},{"type":"Feature","properties":{"ZIP":"G4T6C6"},"geometry":{"type":"Point","coordinates":[-61.4720435,47.5716715]}},{"type":"Feature","properties":{"ZIP":"G4T2B2"},"geometry":{"type":"Point","coordinates":[-61.908051,47.41013]}},{"type":"Feature","properties":{"ZIP":"G4T3E8"},"geometry":{"type":"Point","coordinates":[-61.9017425,47.37083]}},{"type":"Feature","properties":{"ZIP":"G4T5N8"},"geometry":{"type":"Point","coordinates":[-61.87207,47.397399]}},{"type":"Feature","properties":{"ZIP":"G4T0E2"},"geometry":{"type":"Point","coordinates":[-61.961137,47.2175405]}},{"type":"Feature","properties":{"ZIP":"G4T1P4"},"geometry":{"type":"Point","coordinates":[-61.8787795,47.368227]}},{"type":"Feature","properties":{"ZIP":"G4T2K4"},"geometry":{"type":"Point","coordinates":[-61.898542500000005,47.413387]}},{"type":"Feature","properties":{"ZIP":"G4T3A2"},"geometry":{"type":"Point","coordinates":[-61.947958,47.38254]}},{"type":"Feature","properties":{"ZIP":"G4T3H3"},"geometry":{"type":"Point","coordinates":[-61.883826,47.3648415]}},{"type":"Feature","properties":{"ZIP":"G4T5J9"},"geometry":{"type":"Point","coordinates":[-61.7982575,47.3946095]}},{"type":"Feature","properties":{"ZIP":"G4T1B8"},"geometry":{"type":"Point","coordinates":[-61.8581425,47.3866635]}},{"type":"Feature","properties":{"ZIP":"G4T2A1"},"geometry":{"type":"Point","coordinates":[-61.9031485,47.414951]}},{"type":"Feature","properties":{"ZIP":"G4T3X1"},"geometry":{"type":"Point","coordinates":[-61.953784,47.364799500000004]}},{"type":"Feature","properties":{"ZIP":"G4T5E1"},"geometry":{"type":"Point","coordinates":[-61.815112,47.4103705]}},{"type":"Feature","properties":{"ZIP":"G4T5L8"},"geometry":{"type":"Point","coordinates":[-61.7846135,47.416307]}},{"type":"Feature","properties":{"ZIP":"G4T2J2"},"geometry":{"type":"Point","coordinates":[-61.8663265,47.387635]}},{"type":"Feature","properties":{"ZIP":"G4T3E9"},"geometry":{"type":"Point","coordinates":[-61.905772,47.370714500000005]}},{"type":"Feature","properties":{"ZIP":"G4T5P3"},"geometry":{"type":"Point","coordinates":[-61.799240499999996,47.409546000000006]}},{"type":"Feature","properties":{"ZIP":"G4T2P9"},"geometry":{"type":"Point","coordinates":[-61.9142125,47.400088]}},{"type":"Feature","properties":{"ZIP":"G4T5K1"},"geometry":{"type":"Point","coordinates":[-61.759516000000005,47.4221605]}},{"type":"Feature","properties":{"ZIP":"G4T6B5"},"geometry":{"type":"Point","coordinates":[-61.4732245,47.614692000000005]}},{"type":"Feature","properties":{"ZIP":"G4T8A7"},"geometry":{"type":"Point","coordinates":[-61.715013,47.5243605]}},{"type":"Feature","properties":{"ZIP":"G4T0H3"},"geometry":{"type":"Point","coordinates":[-61.94801,47.2280015]}},{"type":"Feature","properties":{"ZIP":"G4T1C3"},"geometry":{"type":"Point","coordinates":[-61.8587295,47.3847775]}},{"type":"Feature","properties":{"ZIP":"G4T3P7"},"geometry":{"type":"Point","coordinates":[-61.905007499999996,47.369714]}},{"type":"Feature","properties":{"ZIP":"G4T3X2"},"geometry":{"type":"Point","coordinates":[-61.8935305,47.372348]}},{"type":"Feature","properties":{"ZIP":"G4T5E4"},"geometry":{"type":"Point","coordinates":[-61.778239,47.411559999999994]}},{"type":"Feature","properties":{"ZIP":"G4T2J4"},"geometry":{"type":"Point","coordinates":[-61.875969,47.408902]}},{"type":"Feature","properties":{"ZIP":"G4T2N4"},"geometry":{"type":"Point","coordinates":[-61.899031,47.412308]}},{"type":"Feature","properties":{"ZIP":"G4T5A2"},"geometry":{"type":"Point","coordinates":[-61.838660000000004,47.403966]}},{"type":"Feature","properties":{"ZIP":"G4T1C8"},"geometry":{"type":"Point","coordinates":[-61.862148000000005,47.3805585]}},{"type":"Feature","properties":{"ZIP":"G4T2M4"},"geometry":{"type":"Point","coordinates":[-61.899652,47.4038275]}},{"type":"Feature","properties":{"ZIP":"G4T3X5"},"geometry":{"type":"Point","coordinates":[-61.885342,47.360186999999996]}},{"type":"Feature","properties":{"ZIP":"G4T5A4"},"geometry":{"type":"Point","coordinates":[-61.8094015,47.412116999999995]}},{"type":"Feature","properties":{"ZIP":"G4T9C9"},"geometry":{"type":"Point","coordinates":[-61.867789,47.2342235]}},{"type":"Feature","properties":{"ZIP":"G4T2R9"},"geometry":{"type":"Point","coordinates":[-61.8573525,47.3923505]}},{"type":"Feature","properties":{"ZIP":"G4T3R6"},"geometry":{"type":"Point","coordinates":[-61.916703999999996,47.361183499999996]}},{"type":"Feature","properties":{"ZIP":"G4T9A2"},"geometry":{"type":"Point","coordinates":[-61.897482,47.2454555]}},{"type":"Feature","properties":{"ZIP":"G4T3Y6"},"geometry":{"type":"Point","coordinates":[-61.957789000000005,47.365757]}},{"type":"Feature","properties":{"ZIP":"G4T2V9"},"geometry":{"type":"Point","coordinates":[-61.891184499999994,47.4101835]}},{"type":"Feature","properties":{"ZIP":"G4T8A4"},"geometry":{"type":"Point","coordinates":[-61.709233,47.5295005]}},{"type":"Feature","properties":{"ZIP":"G4T1G3"},"geometry":{"type":"Point","coordinates":[-61.8707555,47.3755585]}},{"type":"Feature","properties":{"ZIP":"G4T2N1"},"geometry":{"type":"Point","coordinates":[-61.8949195,47.406398499999995]}},{"type":"Feature","properties":{"ZIP":"G4T2C7"},"geometry":{"type":"Point","coordinates":[-61.908703,47.404449]}},{"type":"Feature","properties":{"ZIP":"G4T2L9"},"geometry":{"type":"Point","coordinates":[-61.8923815,47.39696]}},{"type":"Feature","properties":{"ZIP":"G4T3Y9"},"geometry":{"type":"Point","coordinates":[-61.8860705,47.3665935]}},{"type":"Feature","properties":{"ZIP":"G4T1J2"},"geometry":{"type":"Point","coordinates":[-61.857974,47.38283800000001]}},{"type":"Feature","properties":{"ZIP":"G4T5B2"},"geometry":{"type":"Point","coordinates":[-61.7461185,47.460472]}},{"type":"Feature","properties":{"ZIP":"G4T3T7"},"geometry":{"type":"Point","coordinates":[-61.9338475,47.380102]}}]}