{"type":"FeatureCollection","features":[{"type":"Feature","properties":{"ZIP":"G8E1E3"},"geometry":{"type":"Point","coordinates":[-71.6909395,48.631776]}},{"type":"Feature","properties":{"ZIP":"G8E1A7"},"geometry":{"type":"Point","coordinates":[-71.6684575,48.6415355]}},{"type":"Feature","properties":{"ZIP":"G8E1X5"},"geometry":{"type":"Point","coordinates":[-71.7357015,48.638957500000004]}},{"type":"Feature","properties":{"ZIP":"G8E1S3"},"geometry":{"type":"Point","coordinates":[-71.67091350000001,48.60661]}},{"type":"Feature","properties":{"ZIP":"G8E2M1"},"geometry":{"type":"Point","coordinates":[-71.6999055,48.633843999999996]}},{"type":"Feature","properties":{"ZIP":"G8E2A6"},"geometry":{"type":"Point","coordinates":[-71.62953999999999,48.5987365]}},{"type":"Feature","properties":{"ZIP":"G8E1E5"},"geometry":{"type":"Point","coordinates":[-71.694062,48.632349500000004]}},{"type":"Feature","properties":{"ZIP":"G8E2K8"},"geometry":{"type":"Point","coordinates":[-71.6982145,48.6369295]}},{"type":"Feature","properties":{"ZIP":"G8E1L9"},"geometry":{"type":"Point","coordinates":[-71.63104,48.596194499999996]}},{"type":"Feature","properties":{"ZIP":"G8E1R7"},"geometry":{"type":"Point","coordinates":[-71.665261,48.5991365]}},{"type":"Feature","properties":{"ZIP":"G8E1X6"},"geometry":{"type":"Point","coordinates":[-71.7345385,48.63874]}},{"type":"Feature","properties":{"ZIP":"G8E1H8"},"geometry":{"type":"Point","coordinates":[-71.61901399999999,48.6058315]}},{"type":"Feature","properties":{"ZIP":"G8E1A1"},"geometry":{"type":"Point","coordinates":[-71.6860715,48.659779]}},{"type":"Feature","properties":{"ZIP":"G8E1A2"},"geometry":{"type":"Point","coordinates":[-71.6356785,48.651542500000005]}},{"type":"Feature","properties":{"ZIP":"G8E1E2"},"geometry":{"type":"Point","coordinates":[-71.690752,48.631739]}},{"type":"Feature","properties":{"ZIP":"G8E1A4"},"geometry":{"type":"Point","coordinates":[-71.762156,48.674333000000004]}},{"type":"Feature","properties":{"ZIP":"G8E1E4"},"geometry":{"type":"Point","coordinates":[-71.69452799999999,48.632442]}},{"type":"Feature","properties":{"ZIP":"G8E1A5"},"geometry":{"type":"Point","coordinates":[-71.693071,48.645969]}},{"type":"Feature","properties":{"ZIP":"G8E1L8"},"geometry":{"type":"Point","coordinates":[-71.63104,48.596194499999996]}},{"type":"Feature","properties":{"ZIP":"G8E1S8"},"geometry":{"type":"Point","coordinates":[-71.6883325,48.627832]}},{"type":"Feature","properties":{"ZIP":"G8E1T2"},"geometry":{"type":"Point","coordinates":[-71.698579,48.632109]}},{"type":"Feature","properties":{"ZIP":"G8E1P7"},"geometry":{"type":"Point","coordinates":[-71.657028,48.588251]}},{"type":"Feature","properties":{"ZIP":"G8E1S1"},"geometry":{"type":"Point","coordinates":[-71.66832099999999,48.6031825]}},{"type":"Feature","properties":{"ZIP":"G8E1G3"},"geometry":{"type":"Point","coordinates":[-71.697484,48.6309235]}},{"type":"Feature","properties":{"ZIP":"G8E2A4"},"geometry":{"type":"Point","coordinates":[-71.630136,48.596282]}},{"type":"Feature","properties":{"ZIP":"G8E1J9"},"geometry":{"type":"Point","coordinates":[-71.623757,48.6011685]}},{"type":"Feature","properties":{"ZIP":"G8E1R1"},"geometry":{"type":"Point","coordinates":[-71.6587325,48.590503999999996]}},{"type":"Feature","properties":{"ZIP":"G8E1A3"},"geometry":{"type":"Point","coordinates":[-71.686983,48.6599395]}},{"type":"Feature","properties":{"ZIP":"G8E1V7"},"geometry":{"type":"Point","coordinates":[-71.71555599999999,48.635749000000004]}},{"type":"Feature","properties":{"ZIP":"G8E1Y1"},"geometry":{"type":"Point","coordinates":[-71.6222525,48.6030755]}},{"type":"Feature","properties":{"ZIP":"G8E2K4"},"geometry":{"type":"Point","coordinates":[-71.69934900000001,48.634049000000005]}},{"type":"Feature","properties":{"ZIP":"G8E1G9"},"geometry":{"type":"Point","coordinates":[-71.6957615,48.6292765]}},{"type":"Feature","properties":{"ZIP":"G8E1R4"},"geometry":{"type":"Point","coordinates":[-71.663449,48.59674]}},{"type":"Feature","properties":{"ZIP":"G8E2K7"},"geometry":{"type":"Point","coordinates":[-71.69865250000001,48.635817]}},{"type":"Feature","properties":{"ZIP":"G8E1P1"},"geometry":{"type":"Point","coordinates":[-71.633578,48.590231]}},{"type":"Feature","properties":{"ZIP":"G8E1R5"},"geometry":{"type":"Point","coordinates":[-71.663701,48.5970735]}},{"type":"Feature","properties":{"ZIP":"G8E2C1"},"geometry":{"type":"Point","coordinates":[-71.6322835,48.5948535]}},{"type":"Feature","properties":{"ZIP":"G8E1H2"},"geometry":{"type":"Point","coordinates":[-71.62022049999999,48.617855]}},{"type":"Feature","properties":{"ZIP":"G8E1X3"},"geometry":{"type":"Point","coordinates":[-71.70517749999999,48.633302]}},{"type":"Feature","properties":{"ZIP":"G8E2A9"},"geometry":{"type":"Point","coordinates":[-71.63263,48.592284500000005]}},{"type":"Feature","properties":{"ZIP":"G8E1S9"},"geometry":{"type":"Point","coordinates":[-71.6873575,48.6273795]}},{"type":"Feature","properties":{"ZIP":"G8E1H3"},"geometry":{"type":"Point","coordinates":[-71.6135845,48.616665]}},{"type":"Feature","properties":{"ZIP":"G8E1R9"},"geometry":{"type":"Point","coordinates":[-71.666593,48.6008975]}},{"type":"Feature","properties":{"ZIP":"G8E1G1"},"geometry":{"type":"Point","coordinates":[-71.69349,48.630176500000005]}},{"type":"Feature","properties":{"ZIP":"G8E1V1"},"geometry":{"type":"Point","coordinates":[-71.7092015,48.634303]}},{"type":"Feature","properties":{"ZIP":"G8E2C6"},"geometry":{"type":"Point","coordinates":[-71.63505,48.5908515]}},{"type":"Feature","properties":{"ZIP":"G8E1H9"},"geometry":{"type":"Point","coordinates":[-71.61907149999999,48.605847499999996]}},{"type":"Feature","properties":{"ZIP":"G8E1P9"},"geometry":{"type":"Point","coordinates":[-71.65686,48.588029000000006]}},{"type":"Feature","properties":{"ZIP":"G8E1L4"},"geometry":{"type":"Point","coordinates":[-71.77560199999999,48.614914]}},{"type":"Feature","properties":{"ZIP":"G8E1B5"},"geometry":{"type":"Point","coordinates":[-71.694206,48.635275]}},{"type":"Feature","properties":{"ZIP":"G8E2B6"},"geometry":{"type":"Point","coordinates":[-71.633668,48.592169]}},{"type":"Feature","properties":{"ZIP":"G8E2K3"},"geometry":{"type":"Point","coordinates":[-71.6997085,48.633137000000005]}},{"type":"Feature","properties":{"ZIP":"G8E1B6"},"geometry":{"type":"Point","coordinates":[-71.694206,48.635275]}},{"type":"Feature","properties":{"ZIP":"G8E1K1"},"geometry":{"type":"Point","coordinates":[-71.624628,48.6018595]}},{"type":"Feature","properties":{"ZIP":"G8E2M2"},"geometry":{"type":"Point","coordinates":[-71.699706,48.634530999999996]}},{"type":"Feature","properties":{"ZIP":"G8E1G8"},"geometry":{"type":"Point","coordinates":[-71.69358650000001,48.629506500000005]}},{"type":"Feature","properties":{"ZIP":"G8E1K2"},"geometry":{"type":"Point","coordinates":[-71.6208905,48.6013655]}},{"type":"Feature","properties":{"ZIP":"G8E2B8"},"geometry":{"type":"Point","coordinates":[-71.6327395,48.593960499999994]}},{"type":"Feature","properties":{"ZIP":"G8E1S5"},"geometry":{"type":"Point","coordinates":[-71.673722,48.610322499999995]}},{"type":"Feature","properties":{"ZIP":"G8E1A6"},"geometry":{"type":"Point","coordinates":[-71.64437849999999,48.637215]}},{"type":"Feature","properties":{"ZIP":"G8E1H1"},"geometry":{"type":"Point","coordinates":[-71.694283,48.6289515]}},{"type":"Feature","properties":{"ZIP":"G8E1R6"},"geometry":{"type":"Point","coordinates":[-71.665201,48.599057]}},{"type":"Feature","properties":{"ZIP":"G8E1A8"},"geometry":{"type":"Point","coordinates":[-71.62511900000001,48.6337575]}},{"type":"Feature","properties":{"ZIP":"G8E2J4"},"geometry":{"type":"Point","coordinates":[-71.69772800000001,48.634965]}},{"type":"Feature","properties":{"ZIP":"G8E2B2"},"geometry":{"type":"Point","coordinates":[-71.631879,48.593701]}},{"type":"Feature","properties":{"ZIP":"G8E2J5"},"geometry":{"type":"Point","coordinates":[-71.6972955,48.636072]}},{"type":"Feature","properties":{"ZIP":"G8E1C6"},"geometry":{"type":"Point","coordinates":[-71.694941,48.6335705]}},{"type":"Feature","properties":{"ZIP":"G8E1R8"},"geometry":{"type":"Point","coordinates":[-71.66649699999999,48.600770499999996]}},{"type":"Feature","properties":{"ZIP":"G8E1Y7"},"geometry":{"type":"Point","coordinates":[-71.623786,48.6015]}},{"type":"Feature","properties":{"ZIP":"G8E1E9"},"geometry":{"type":"Point","coordinates":[-71.693665,48.630211]}},{"type":"Feature","properties":{"ZIP":"G8E2B3"},"geometry":{"type":"Point","coordinates":[-71.631879,48.593701]}},{"type":"Feature","properties":{"ZIP":"G8E1C7"},"geometry":{"type":"Point","coordinates":[-71.69233299999999,48.6330215]}},{"type":"Feature","properties":{"ZIP":"G8E1M4"},"geometry":{"type":"Point","coordinates":[-71.63153750000001,48.5952335]}},{"type":"Feature","properties":{"ZIP":"G8E2A2"},"geometry":{"type":"Point","coordinates":[-71.6310285,48.593697500000005]}},{"type":"Feature","properties":{"ZIP":"G8E1P8"},"geometry":{"type":"Point","coordinates":[-71.656032,48.586934]}},{"type":"Feature","properties":{"ZIP":"G8E2B4"},"geometry":{"type":"Point","coordinates":[-71.634045,48.5913775]}},{"type":"Feature","properties":{"ZIP":"G8E1C8"},"geometry":{"type":"Point","coordinates":[-71.69718,48.634034]}},{"type":"Feature","properties":{"ZIP":"G8E1G2"},"geometry":{"type":"Point","coordinates":[-71.69575649999999,48.6305975]}},{"type":"Feature","properties":{"ZIP":"G8E1V2"},"geometry":{"type":"Point","coordinates":[-71.71073200000001,48.6345955]}},{"type":"Feature","properties":{"ZIP":"G8E2A3"},"geometry":{"type":"Point","coordinates":[-71.63131,48.593145]}},{"type":"Feature","properties":{"ZIP":"G8E2K1"},"geometry":{"type":"Point","coordinates":[-71.699959,48.6323225]}},{"type":"Feature","properties":{"ZIP":"G8E1E1"},"geometry":{"type":"Point","coordinates":[-71.6889845,48.63132950000001]}},{"type":"Feature","properties":{"ZIP":"G8E1S2"},"geometry":{"type":"Point","coordinates":[-71.667709,48.6023735]}},{"type":"Feature","properties":{"ZIP":"G8E2L9"},"geometry":{"type":"Point","coordinates":[-71.687512,48.658401999999995]}},{"type":"Feature","properties":{"ZIP":"G8E1M8"},"geometry":{"type":"Point","coordinates":[-71.630248,48.594504]}},{"type":"Feature","properties":{"ZIP":"G8E1X9"},"geometry":{"type":"Point","coordinates":[-71.6219795,48.6029985]}},{"type":"Feature","properties":{"ZIP":"G8E1Z3"},"geometry":{"type":"Point","coordinates":[-71.6302465,48.593757499999995]}},{"type":"Feature","properties":{"ZIP":"G8E1G7"},"geometry":{"type":"Point","coordinates":[-71.69358650000001,48.6295095]}},{"type":"Feature","properties":{"ZIP":"G8E1M9"},"geometry":{"type":"Point","coordinates":[-71.6321265,48.594182]}},{"type":"Feature","properties":{"ZIP":"G8E2H5"},"geometry":{"type":"Point","coordinates":[-71.69518149999999,48.635818]}},{"type":"Feature","properties":{"ZIP":"G8E2B7"},"geometry":{"type":"Point","coordinates":[-71.6336475,48.592209]}},{"type":"Feature","properties":{"ZIP":"G8E1N4"},"geometry":{"type":"Point","coordinates":[-71.6322995,48.5914595]}},{"type":"Feature","properties":{"ZIP":"G8E1V9"},"geometry":{"type":"Point","coordinates":[-71.7165165,48.636044]}},{"type":"Feature","properties":{"ZIP":"G8E1B7"},"geometry":{"type":"Point","coordinates":[-71.6944995,48.6345905]}},{"type":"Feature","properties":{"ZIP":"G8E1R3"},"geometry":{"type":"Point","coordinates":[-71.660641,48.593027500000005]}},{"type":"Feature","properties":{"ZIP":"G8E1Y2"},"geometry":{"type":"Point","coordinates":[-71.621442,48.6016925]}},{"type":"Feature","properties":{"ZIP":"G8E2K6"},"geometry":{"type":"Point","coordinates":[-71.699213,48.6343955]}},{"type":"Feature","properties":{"ZIP":"G8E1Z5"},"geometry":{"type":"Point","coordinates":[-71.618206,48.606053]}},{"type":"Feature","properties":{"ZIP":"G8E2M3"},"geometry":{"type":"Point","coordinates":[-71.70293000000001,48.6320185]}},{"type":"Feature","properties":{"ZIP":"G8E1N9"},"geometry":{"type":"Point","coordinates":[-71.632885,48.5901365]}},{"type":"Feature","properties":{"ZIP":"G8E1W3"},"geometry":{"type":"Point","coordinates":[-71.7116345,48.635033]}},{"type":"Feature","properties":{"ZIP":"G8E1B8"},"geometry":{"type":"Point","coordinates":[-71.69453999999999,48.634598499999996]}},{"type":"Feature","properties":{"ZIP":"G8E2B9"},"geometry":{"type":"Point","coordinates":[-71.6328805,48.5936835]}},{"type":"Feature","properties":{"ZIP":"G8E1W5"},"geometry":{"type":"Point","coordinates":[-71.72017199999999,48.6364035]}},{"type":"Feature","properties":{"ZIP":"G8E2A8"},"geometry":{"type":"Point","coordinates":[-71.63332700000001,48.5909655]}},{"type":"Feature","properties":{"ZIP":"G8E1K4"},"geometry":{"type":"Point","coordinates":[-71.6406805,48.609926]}},{"type":"Feature","properties":{"ZIP":"G8E1Y4"},"geometry":{"type":"Point","coordinates":[-71.620336,48.6020815]}},{"type":"Feature","properties":{"ZIP":"G8E1P3"},"geometry":{"type":"Point","coordinates":[-71.63530850000001,48.590697500000005]}},{"type":"Feature","properties":{"ZIP":"G8E2J3"},"geometry":{"type":"Point","coordinates":[-71.698024,48.63425]}},{"type":"Feature","properties":{"ZIP":"G8E1Y5"},"geometry":{"type":"Point","coordinates":[-71.620073,48.602171]}},{"type":"Feature","properties":{"ZIP":"G8E1M1"},"geometry":{"type":"Point","coordinates":[-71.6312895,48.5957115]}},{"type":"Feature","properties":{"ZIP":"G8E1Z8"},"geometry":{"type":"Point","coordinates":[-71.6178625,48.606883999999994]}},{"type":"Feature","properties":{"ZIP":"G8E2B1"},"geometry":{"type":"Point","coordinates":[-71.6324575,48.592608]}},{"type":"Feature","properties":{"ZIP":"G8E1K6"},"geometry":{"type":"Point","coordinates":[-71.65356399999999,48.6168315]}},{"type":"Feature","properties":{"ZIP":"G8E1Y6"},"geometry":{"type":"Point","coordinates":[-71.622716,48.601859000000005]}},{"type":"Feature","properties":{"ZIP":"G8E1M2"},"geometry":{"type":"Point","coordinates":[-71.6312895,48.5957115]}},{"type":"Feature","properties":{"ZIP":"G8E1T1"},"geometry":{"type":"Point","coordinates":[-71.6960165,48.6316155]}},{"type":"Feature","properties":{"ZIP":"G8E1A9"},"geometry":{"type":"Point","coordinates":[-71.696146,48.636838499999996]}},{"type":"Feature","properties":{"ZIP":"G8E1H4"},"geometry":{"type":"Point","coordinates":[-71.6544495,48.614883500000005]}},{"type":"Feature","properties":{"ZIP":"G8E2C4"},"geometry":{"type":"Point","coordinates":[-71.63246050000001,48.5959405]}},{"type":"Feature","properties":{"ZIP":"G8E1M3"},"geometry":{"type":"Point","coordinates":[-71.6312005,48.595169]}},{"type":"Feature","properties":{"ZIP":"G8E2A1"},"geometry":{"type":"Point","coordinates":[-71.6320455,48.591772500000005]}},{"type":"Feature","properties":{"ZIP":"G8E1H5"},"geometry":{"type":"Point","coordinates":[-71.6543915,48.6148745]}},{"type":"Feature","properties":{"ZIP":"G8E1K8"},"geometry":{"type":"Point","coordinates":[-71.77831,48.6194105]}},{"type":"Feature","properties":{"ZIP":"G8E1Y8"},"geometry":{"type":"Point","coordinates":[-71.620538,48.602655]}},{"type":"Feature","properties":{"ZIP":"G8E2C5"},"geometry":{"type":"Point","coordinates":[-71.6339805,48.591851]}},{"type":"Feature","properties":{"ZIP":"G8E2G6"},"geometry":{"type":"Point","coordinates":[-71.6966,48.632509999999996]}},{"type":"Feature","properties":{"ZIP":"G8E1B2"},"geometry":{"type":"Point","coordinates":[-71.6933295,48.63585500000001]}},{"type":"Feature","properties":{"ZIP":"G8E1X7"},"geometry":{"type":"Point","coordinates":[-71.75580199999999,48.642570500000005]}},{"type":"Feature","properties":{"ZIP":"G8E2J9"},"geometry":{"type":"Point","coordinates":[-71.6973065,48.6375175]}},{"type":"Feature","properties":{"ZIP":"G8E1Y9"},"geometry":{"type":"Point","coordinates":[-71.620153,48.602815500000005]}},{"type":"Feature","properties":{"ZIP":"G8E2L8"},"geometry":{"type":"Point","coordinates":[-71.6872055,48.659020999999996]}},{"type":"Feature","properties":{"ZIP":"G8E1M6"},"geometry":{"type":"Point","coordinates":[-71.63258300000001,48.595035499999994]}},{"type":"Feature","properties":{"ZIP":"G8E2H3"},"geometry":{"type":"Point","coordinates":[-71.695324,48.6354735]}},{"type":"Feature","properties":{"ZIP":"G8E1B3"},"geometry":{"type":"Point","coordinates":[-71.693938,48.6359595]}},{"type":"Feature","properties":{"ZIP":"G8E1X8"},"geometry":{"type":"Point","coordinates":[-71.76012399999999,48.643409500000004]}},{"type":"Feature","properties":{"ZIP":"G8E2B5"},"geometry":{"type":"Point","coordinates":[-71.63431399999999,48.5907645]}},{"type":"Feature","properties":{"ZIP":"G8E2C7"},"geometry":{"type":"Point","coordinates":[-71.6333665,48.5936195]}},{"type":"Feature","properties":{"ZIP":"G8E1V4"},"geometry":{"type":"Point","coordinates":[-71.7115445,48.634909]}},{"type":"Feature","properties":{"ZIP":"G8E1L5"},"geometry":{"type":"Point","coordinates":[-71.7778675,48.617441]}},{"type":"Feature","properties":{"ZIP":"G8E2C8"},"geometry":{"type":"Point","coordinates":[-71.633608,48.593175]}},{"type":"Feature","properties":{"ZIP":"G8E2A5"},"geometry":{"type":"Point","coordinates":[-71.6301335,48.5954545]}},{"type":"Feature","properties":{"ZIP":"G8E1R2"},"geometry":{"type":"Point","coordinates":[-71.659729,48.591821499999995]}},{"type":"Feature","properties":{"ZIP":"G8E1S4"},"geometry":{"type":"Point","coordinates":[-71.68338299999999,48.6230965]}},{"type":"Feature","properties":{"ZIP":"G8E1Z4"},"geometry":{"type":"Point","coordinates":[-71.616503,48.6098615]}},{"type":"Feature","properties":{"ZIP":"G8E2E4"},"geometry":{"type":"Point","coordinates":[-71.6928795,48.6315675]}},{"type":"Feature","properties":{"ZIP":"G8E2H6"},"geometry":{"type":"Point","coordinates":[-71.6978385,48.6314025]}},{"type":"Feature","properties":{"ZIP":"G8E2A7"},"geometry":{"type":"Point","coordinates":[-71.63332700000001,48.5909655]}},{"type":"Feature","properties":{"ZIP":"G8E1K3"},"geometry":{"type":"Point","coordinates":[-71.6407475,48.612496]}},{"type":"Feature","properties":{"ZIP":"G8E1Y3"},"geometry":{"type":"Point","coordinates":[-71.621442,48.6016925]}},{"type":"Feature","properties":{"ZIP":"G8E1S6"},"geometry":{"type":"Point","coordinates":[-71.67486199999999,48.611830499999996]}},{"type":"Feature","properties":{"ZIP":"G8E1Z6"},"geometry":{"type":"Point","coordinates":[-71.6181905,48.606093]}},{"type":"Feature","properties":{"ZIP":"G8E2H8"},"geometry":{"type":"Point","coordinates":[-71.6986915,48.631854000000004]}},{"type":"Feature","properties":{"ZIP":"G8E1E6"},"geometry":{"type":"Point","coordinates":[-71.69585000000001,48.632661]}},{"type":"Feature","properties":{"ZIP":"G8E1Z7"},"geometry":{"type":"Point","coordinates":[-71.6178465,48.6069255]}},{"type":"Feature","properties":{"ZIP":"G8E1C1"},"geometry":{"type":"Point","coordinates":[-71.6962695,48.634843000000004]}},{"type":"Feature","properties":{"ZIP":"G8E1K5"},"geometry":{"type":"Point","coordinates":[-71.65325899999999,48.617630500000004]}},{"type":"Feature","properties":{"ZIP":"G8E2C2"},"geometry":{"type":"Point","coordinates":[-71.6320905,48.595231]}},{"type":"Feature","properties":{"ZIP":"G8E2K9"},"geometry":{"type":"Point","coordinates":[-71.697647,48.638369499999996]}},{"type":"Feature","properties":{"ZIP":"G8E2E9"},"geometry":{"type":"Point","coordinates":[-71.6960885,48.6297355]}},{"type":"Feature","properties":{"ZIP":"G8E1P4"},"geometry":{"type":"Point","coordinates":[-71.635536,48.59076]}},{"type":"Feature","properties":{"ZIP":"G8E1X4"},"geometry":{"type":"Point","coordinates":[-71.7174265,48.635738]}},{"type":"Feature","properties":{"ZIP":"G8E2C3"},"geometry":{"type":"Point","coordinates":[-71.632587,48.5957]}},{"type":"Feature","properties":{"ZIP":"G8E1E8"},"geometry":{"type":"Point","coordinates":[-71.69371100000001,48.6302125]}},{"type":"Feature","properties":{"ZIP":"G8E2G1"},"geometry":{"type":"Point","coordinates":[-71.69594799999999,48.629975]}},{"type":"Feature","properties":{"ZIP":"G8E1K7"},"geometry":{"type":"Point","coordinates":[-71.6565965,48.610328]}},{"type":"Feature","properties":{"ZIP":"G8E1B1"},"geometry":{"type":"Point","coordinates":[-71.69636399999999,48.636930500000005]}},{"type":"Feature","properties":{"ZIP":"G8E1Z2"},"geometry":{"type":"Point","coordinates":[-71.6153175,48.611393]}},{"type":"Feature","properties":{"ZIP":"G8E2H4"},"geometry":{"type":"Point","coordinates":[-71.6953665,48.635363]}},{"type":"Feature","properties":{"ZIP":"G8E1L7"},"geometry":{"type":"Point","coordinates":[-71.7603575,48.624939]}},{"type":"Feature","properties":{"ZIP":"G8E2E5"},"geometry":{"type":"Point","coordinates":[-71.694142,48.630711000000005]}},{"type":"Feature","properties":{"ZIP":"G8E2H7"},"geometry":{"type":"Point","coordinates":[-71.6978385,48.6314025]}},{"type":"Feature","properties":{"ZIP":"G8E2E6"},"geometry":{"type":"Point","coordinates":[-71.6945825,48.630030000000005]}},{"type":"Feature","properties":{"ZIP":"G8E1B9"},"geometry":{"type":"Point","coordinates":[-71.695932,48.634861]}},{"type":"Feature","properties":{"ZIP":"G8E2E8"},"geometry":{"type":"Point","coordinates":[-71.69594799999999,48.629975]}},{"type":"Feature","properties":{"ZIP":"G8E1E7"},"geometry":{"type":"Point","coordinates":[-71.69902450000001,48.6331465]}},{"type":"Feature","properties":{"ZIP":"G8E1C2"},"geometry":{"type":"Point","coordinates":[-71.698834,48.63364]}},{"type":"Feature","properties":{"ZIP":"G8E2L2"},"geometry":{"type":"Point","coordinates":[-71.69664399999999,48.640260999999995]}},{"type":"Feature","properties":{"ZIP":"G8E1Z9"},"geometry":{"type":"Point","coordinates":[-71.63202899999999,48.591803]}},{"type":"Feature","properties":{"ZIP":"G8E1P6"},"geometry":{"type":"Point","coordinates":[-71.60592299999999,48.6303965]}},{"type":"Feature","properties":{"ZIP":"G8E2L4"},"geometry":{"type":"Point","coordinates":[-71.69484299999999,48.644543999999996]}},{"type":"Feature","properties":{"ZIP":"G8E2G3"},"geometry":{"type":"Point","coordinates":[-71.6968395,48.628369]}},{"type":"Feature","properties":{"ZIP":"G8E2J6"},"geometry":{"type":"Point","coordinates":[-71.6979125,48.634567000000004]}},{"type":"Feature","properties":{"ZIP":"G8E2L5"},"geometry":{"type":"Point","coordinates":[-71.6931735,48.646]}}]}