{"type":"FeatureCollection","features":[{"type":"Feature","properties":{"ZIP":"G9N4J7","VERTICES":13},"geometry":{"type":"Point","coordinates":[-72.7403665,46.554051]}},{"type":"Feature","properties":{"ZIP":"G9N1J6","VERTICES":13},"geometry":{"type":"Point","coordinates":[-72.687594,46.618193500000004]}},{"type":"Feature","properties":{"ZIP":"G9N4L6","VERTICES":13},"geometry":{"type":"Point","coordinates":[-72.744286,46.553987]}},{"type":"Feature","properties":{"ZIP":"G9N2K8","VERTICES":13},"geometry":{"type":"Point","coordinates":[-72.74627100000001,46.551133]}},{"type":"Feature","properties":{"ZIP":"G9N1B3","VERTICES":13},"geometry":{"type":"Point","coordinates":[-72.7558045,46.5427875]}},{"type":"Feature","properties":{"ZIP":"G9N3P7","VERTICES":12},"geometry":{"type":"Point","coordinates":[-72.7450135,46.564073500000006]}},{"type":"Feature","properties":{"ZIP":"G9N1C6","VERTICES":12},"geometry":{"type":"Point","coordinates":[-72.68988300000001,46.613306]}},{"type":"Feature","properties":{"ZIP":"G9N3P9","VERTICES":12},"geometry":{"type":"Point","coordinates":[-72.7463545,46.565117]}},{"type":"Feature","properties":{"ZIP":"G9N3N4","VERTICES":12},"geometry":{"type":"Point","coordinates":[-72.742726,46.563575]}},{"type":"Feature","properties":{"ZIP":"G9N2S6","VERTICES":11},"geometry":{"type":"Point","coordinates":[-72.74046150000001,46.558507500000005]}},{"type":"Feature","properties":{"ZIP":"G9N4J9","VERTICES":11},"geometry":{"type":"Point","coordinates":[-72.7412315,46.5535355]}},{"type":"Feature","properties":{"ZIP":"G9N1R4","VERTICES":11},"geometry":{"type":"Point","coordinates":[-72.747896,46.537135500000005]}},{"type":"Feature","properties":{"ZIP":"G9N3K7","VERTICES":11},"geometry":{"type":"Point","coordinates":[-72.743314,46.565128]}},{"type":"Feature","properties":{"ZIP":"G9N2J4","VERTICES":11},"geometry":{"type":"Point","coordinates":[-72.7408475,46.554676]}},{"type":"Feature","properties":{"ZIP":"G9N3P8","VERTICES":11},"geometry":{"type":"Point","coordinates":[-72.74509499999999,46.564128]}},{"type":"Feature","properties":{"ZIP":"G9N3C4","VERTICES":11},"geometry":{"type":"Point","coordinates":[-72.738181,46.566565]}},{"type":"Feature","properties":{"ZIP":"G9N4K5","VERTICES":11},"geometry":{"type":"Point","coordinates":[-72.743806,46.5553705]}},{"type":"Feature","properties":{"ZIP":"G9N1S7","VERTICES":11},"geometry":{"type":"Point","coordinates":[-72.748417,46.5446905]}},{"type":"Feature","properties":{"ZIP":"G9N3W9","VERTICES":11},"geometry":{"type":"Point","coordinates":[-72.7451755,46.561860499999995]}},{"type":"Feature","properties":{"ZIP":"G9N2L5","VERTICES":11},"geometry":{"type":"Point","coordinates":[-72.74150650000001,46.554768499999994]}},{"type":"Feature","properties":{"ZIP":"G9N3X7","VERTICES":11},"geometry":{"type":"Point","coordinates":[-72.7363395,46.554787000000005]}},{"type":"Feature","properties":{"ZIP":"G9N1J4","VERTICES":11},"geometry":{"type":"Point","coordinates":[-72.7891535,46.5696275]}},{"type":"Feature","properties":{"ZIP":"G9N3T3","VERTICES":10},"geometry":{"type":"Point","coordinates":[-72.74855,46.565524999999994]}},{"type":"Feature","properties":{"ZIP":"G9N3W1","VERTICES":10},"geometry":{"type":"Point","coordinates":[-72.7411025,46.5593365]}},{"type":"Feature","properties":{"ZIP":"G9N4N7","VERTICES":10},"geometry":{"type":"Point","coordinates":[-72.747806,46.5551185]}},{"type":"Feature","properties":{"ZIP":"G9N2R5","VERTICES":10},"geometry":{"type":"Point","coordinates":[-72.74507449999999,46.555257499999996]}},{"type":"Feature","properties":{"ZIP":"G9N6J9","VERTICES":10},"geometry":{"type":"Point","coordinates":[-72.76154199999999,46.572168]}},{"type":"Feature","properties":{"ZIP":"G9N1Z8","VERTICES":10},"geometry":{"type":"Point","coordinates":[-72.77412899999999,46.5424085]}},{"type":"Feature","properties":{"ZIP":"G9N2R6","VERTICES":10},"geometry":{"type":"Point","coordinates":[-72.7449355,46.5553225]}},{"type":"Feature","properties":{"ZIP":"G9N4K1","VERTICES":10},"geometry":{"type":"Point","coordinates":[-72.74127050000001,46.553561]}},{"type":"Feature","properties":{"ZIP":"G9N1J8","VERTICES":10},"geometry":{"type":"Point","coordinates":[-72.689033,46.618919]}},{"type":"Feature","properties":{"ZIP":"G9N4E1","VERTICES":10},"geometry":{"type":"Point","coordinates":[-72.7380025,46.553861999999995]}},{"type":"Feature","properties":{"ZIP":"G9N2M7","VERTICES":10},"geometry":{"type":"Point","coordinates":[-72.74804599999999,46.551029]}},{"type":"Feature","properties":{"ZIP":"G9N4G3","VERTICES":10},"geometry":{"type":"Point","coordinates":[-72.74255550000001,46.5572705]}},{"type":"Feature","properties":{"ZIP":"G9N6T6","VERTICES":10},"geometry":{"type":"Point","coordinates":[-72.687829,46.5913055]}},{"type":"Feature","properties":{"ZIP":"G9N2V7","VERTICES":10},"geometry":{"type":"Point","coordinates":[-72.74734699999999,46.555373]}},{"type":"Feature","properties":{"ZIP":"G9N3S5","VERTICES":10},"geometry":{"type":"Point","coordinates":[-72.73974050000001,46.5594315]}},{"type":"Feature","properties":{"ZIP":"G9N6K3","VERTICES":10},"geometry":{"type":"Point","coordinates":[-72.759631,46.575197]}},{"type":"Feature","properties":{"ZIP":"G9N1K1","VERTICES":10},"geometry":{"type":"Point","coordinates":[-72.7449495,46.537332]}},{"type":"Feature","properties":{"ZIP":"G9N1S5","VERTICES":10},"geometry":{"type":"Point","coordinates":[-72.7489075,46.5369365]}},{"type":"Feature","properties":{"ZIP":"G9N3N1","VERTICES":10},"geometry":{"type":"Point","coordinates":[-72.741042,46.5617115]}},{"type":"Feature","properties":{"ZIP":"G9N6X1","VERTICES":10},"geometry":{"type":"Point","coordinates":[-72.7720985,46.5722175]}},{"type":"Feature","properties":{"ZIP":"G9N2V9","VERTICES":10},"geometry":{"type":"Point","coordinates":[-72.7463065,46.556051499999995]}},{"type":"Feature","properties":{"ZIP":"G9N6H9","VERTICES":10},"geometry":{"type":"Point","coordinates":[-72.754756,46.5758575]}},{"type":"Feature","properties":{"ZIP":"G9N4Z3","VERTICES":10},"geometry":{"type":"Point","coordinates":[-72.743208,46.567852]}},{"type":"Feature","properties":{"ZIP":"G9N6K6","VERTICES":10},"geometry":{"type":"Point","coordinates":[-72.7589435,46.579796]}},{"type":"Feature","properties":{"ZIP":"G9N1K4","VERTICES":10},"geometry":{"type":"Point","coordinates":[-72.7471055,46.5372395]}},{"type":"Feature","properties":{"ZIP":"G9N4G6","VERTICES":10},"geometry":{"type":"Point","coordinates":[-72.743322,46.5578325]}},{"type":"Feature","properties":{"ZIP":"G9N3A8","VERTICES":10},"geometry":{"type":"Point","coordinates":[-72.74338900000001,46.5619825]}},{"type":"Feature","properties":{"ZIP":"G9N5V7","VERTICES":10},"geometry":{"type":"Point","coordinates":[-72.71380049999999,46.582932]}},{"type":"Feature","properties":{"ZIP":"G9N6B5","VERTICES":10},"geometry":{"type":"Point","coordinates":[-72.7485135,46.572674]}},{"type":"Feature","properties":{"ZIP":"G9N2L4","VERTICES":10},"geometry":{"type":"Point","coordinates":[-72.7414925,46.554778]}},{"type":"Feature","properties":{"ZIP":"G9N1S8","VERTICES":10},"geometry":{"type":"Point","coordinates":[-72.749031,46.543537]}},{"type":"Feature","properties":{"ZIP":"G9N2H4","VERTICES":10},"geometry":{"type":"Point","coordinates":[-72.7463635,46.550124499999995]}},{"type":"Feature","properties":{"ZIP":"G9N3V5","VERTICES":10},"geometry":{"type":"Point","coordinates":[-72.738445,46.557527]}},{"type":"Feature","properties":{"ZIP":"G9N3X1","VERTICES":10},"geometry":{"type":"Point","coordinates":[-72.74513350000001,46.561829]}},{"type":"Feature","properties":{"ZIP":"G9N1B4","VERTICES":10},"geometry":{"type":"Point","coordinates":[-72.7586025,46.542457]}},{"type":"Feature","properties":{"ZIP":"G9N1J3","VERTICES":10},"geometry":{"type":"Point","coordinates":[-72.74502100000001,46.538121000000004]}},{"type":"Feature","properties":{"ZIP":"G9N1K6","VERTICES":10},"geometry":{"type":"Point","coordinates":[-72.7495135,46.537136000000004]}},{"type":"Feature","properties":{"ZIP":"G9N1W5","VERTICES":10},"geometry":{"type":"Point","coordinates":[-72.74986,46.545486499999996]}},{"type":"Feature","properties":{"ZIP":"G9N2S4","VERTICES":10},"geometry":{"type":"Point","coordinates":[-72.7413645,46.557919]}},{"type":"Feature","properties":{"ZIP":"G9N2N7","VERTICES":10},"geometry":{"type":"Point","coordinates":[-72.742295,46.555805]}},{"type":"Feature","properties":{"ZIP":"G9N3K4","VERTICES":10},"geometry":{"type":"Point","coordinates":[-72.7419485,46.564139999999995]}},{"type":"Feature","properties":{"ZIP":"G9N1R1","VERTICES":10},"geometry":{"type":"Point","coordinates":[-72.747562,46.54424]}},{"type":"Feature","properties":{"ZIP":"G9N4C7","VERTICES":9},"geometry":{"type":"Point","coordinates":[-72.737398,46.5534585]}},{"type":"Feature","properties":{"ZIP":"G9N2J1","VERTICES":9},"geometry":{"type":"Point","coordinates":[-72.742906,46.553357]}},{"type":"Feature","properties":{"ZIP":"G9N3H9","VERTICES":9},"geometry":{"type":"Point","coordinates":[-72.7434755,46.5661085]}},{"type":"Feature","properties":{"ZIP":"G9N3P5","VERTICES":9},"geometry":{"type":"Point","coordinates":[-72.74381600000001,46.5632265]}},{"type":"Feature","properties":{"ZIP":"G9N3K6","VERTICES":9},"geometry":{"type":"Point","coordinates":[-72.74327249999999,46.565096999999994]}},{"type":"Feature","properties":{"ZIP":"G9N6Z8","VERTICES":9},"geometry":{"type":"Point","coordinates":[-72.74824100000001,46.572341]}},{"type":"Feature","properties":{"ZIP":"G9N1C1","VERTICES":9},"geometry":{"type":"Point","coordinates":[-72.7561625,46.542187]}},{"type":"Feature","properties":{"ZIP":"G9N1J7","VERTICES":9},"geometry":{"type":"Point","coordinates":[-72.68780699999999,46.618301]}},{"type":"Feature","properties":{"ZIP":"G9N4C9","VERTICES":9},"geometry":{"type":"Point","coordinates":[-72.7380025,46.553861999999995]}},{"type":"Feature","properties":{"ZIP":"G9N5W6","VERTICES":9},"geometry":{"type":"Point","coordinates":[-72.714249,46.5807355]}},{"type":"Feature","properties":{"ZIP":"G9N1G4","VERTICES":9},"geometry":{"type":"Point","coordinates":[-72.7448355,46.5395975]}},{"type":"Feature","properties":{"ZIP":"G9N3A3","VERTICES":9},"geometry":{"type":"Point","coordinates":[-72.746346,46.5580885]}},{"type":"Feature","properties":{"ZIP":"G9N4A7","VERTICES":9},"geometry":{"type":"Point","coordinates":[-72.746115,46.5614255]}},{"type":"Feature","properties":{"ZIP":"G9N2R7","VERTICES":9},"geometry":{"type":"Point","coordinates":[-72.74359050000001,46.556073999999995]}},{"type":"Feature","properties":{"ZIP":"G9N3K9","VERTICES":9},"geometry":{"type":"Point","coordinates":[-72.7451575,46.5665185]}},{"type":"Feature","properties":{"ZIP":"G9N3S2","VERTICES":9},"geometry":{"type":"Point","coordinates":[-72.7383515,46.5584655]}},{"type":"Feature","properties":{"ZIP":"G9N1J9","VERTICES":9},"geometry":{"type":"Point","coordinates":[-72.6890535,46.618929]}},{"type":"Feature","properties":{"ZIP":"G9N2G8","VERTICES":9},"geometry":{"type":"Point","coordinates":[-72.737314,46.556107999999995]}},{"type":"Feature","properties":{"ZIP":"G9N2T2","VERTICES":9},"geometry":{"type":"Point","coordinates":[-72.74659700000001,46.5551595]}},{"type":"Feature","properties":{"ZIP":"G9N5A5","VERTICES":9},"geometry":{"type":"Point","coordinates":[-72.7432945,46.568999]}},{"type":"Feature","properties":{"ZIP":"G9N3J3","VERTICES":9},"geometry":{"type":"Point","coordinates":[-72.742568,46.566686]}},{"type":"Feature","properties":{"ZIP":"G9N4A8","VERTICES":9},"geometry":{"type":"Point","coordinates":[-72.746115,46.5614255]}},{"type":"Feature","properties":{"ZIP":"G9N4H7","VERTICES":9},"geometry":{"type":"Point","coordinates":[-72.7433545,46.5567695]}},{"type":"Feature","properties":{"ZIP":"G9N4P9","VERTICES":9},"geometry":{"type":"Point","coordinates":[-72.75403850000001,46.5503235]}},{"type":"Feature","properties":{"ZIP":"G9N2R8","VERTICES":9},"geometry":{"type":"Point","coordinates":[-72.7434425,46.556173]}},{"type":"Feature","properties":{"ZIP":"G9N3L1","VERTICES":9},"geometry":{"type":"Point","coordinates":[-72.7469495,46.5678285]}},{"type":"Feature","properties":{"ZIP":"G9N2Y8","VERTICES":9},"geometry":{"type":"Point","coordinates":[-72.7431105,46.560401]}},{"type":"Feature","properties":{"ZIP":"G9N1G6","VERTICES":9},"geometry":{"type":"Point","coordinates":[-72.68793199999999,46.6150465]}},{"type":"Feature","properties":{"ZIP":"G9N2J5","VERTICES":9},"geometry":{"type":"Point","coordinates":[-72.740405,46.554958]}},{"type":"Feature","properties":{"ZIP":"G9N2K9","VERTICES":9},"geometry":{"type":"Point","coordinates":[-72.74566899999999,46.551671]}},{"type":"Feature","properties":{"ZIP":"G9N2A6","VERTICES":9},"geometry":{"type":"Point","coordinates":[-72.7369425,46.5540145]}},{"type":"Feature","properties":{"ZIP":"G9N2H2","VERTICES":9},"geometry":{"type":"Point","coordinates":[-72.735725,46.557132499999994]}},{"type":"Feature","properties":{"ZIP":"G9N2T4","VERTICES":9},"geometry":{"type":"Point","coordinates":[-72.745623,46.5557515]}},{"type":"Feature","properties":{"ZIP":"G9N3N3","VERTICES":9},"geometry":{"type":"Point","coordinates":[-72.74278100000001,46.5636145]}},{"type":"Feature","properties":{"ZIP":"G9N2W1","VERTICES":9},"geometry":{"type":"Point","coordinates":[-72.744517,46.5572255]}},{"type":"Feature","properties":{"ZIP":"G9N3R1","VERTICES":9},"geometry":{"type":"Point","coordinates":[-72.7461415,46.564916499999995]}},{"type":"Feature","properties":{"ZIP":"G9N1B2","VERTICES":9},"geometry":{"type":"Point","coordinates":[-72.75540799999999,46.5428575]}},{"type":"Feature","properties":{"ZIP":"G9N3S7","VERTICES":9},"geometry":{"type":"Point","coordinates":[-72.7443385,46.562431000000004]}},{"type":"Feature","properties":{"ZIP":"G9N4K6","VERTICES":9},"geometry":{"type":"Point","coordinates":[-72.74455499999999,46.555940500000005]}},{"type":"Feature","properties":{"ZIP":"G9N2Z1","VERTICES":9},"geometry":{"type":"Point","coordinates":[-72.7419905,46.5611325]}},{"type":"Feature","properties":{"ZIP":"G9N2J7","VERTICES":9},"geometry":{"type":"Point","coordinates":[-72.7388625,46.555910999999995]}},{"type":"Feature","properties":{"ZIP":"G9N3S8","VERTICES":9},"geometry":{"type":"Point","coordinates":[-72.74447649999999,46.562531]}},{"type":"Feature","properties":{"ZIP":"G9N4E5","VERTICES":9},"geometry":{"type":"Point","coordinates":[-72.7395495,46.554964999999996]}},{"type":"Feature","properties":{"ZIP":"G9N4K7","VERTICES":9},"geometry":{"type":"Point","coordinates":[-72.744567,46.555955]}},{"type":"Feature","properties":{"ZIP":"G9N4Z4","VERTICES":9},"geometry":{"type":"Point","coordinates":[-72.743208,46.567852]}},{"type":"Feature","properties":{"ZIP":"G9N2A8","VERTICES":9},"geometry":{"type":"Point","coordinates":[-72.7356015,46.55487]}},{"type":"Feature","properties":{"ZIP":"G9N3N5","VERTICES":9},"geometry":{"type":"Point","coordinates":[-72.744269,46.564677]}},{"type":"Feature","properties":{"ZIP":"G9N4A1","VERTICES":9},"geometry":{"type":"Point","coordinates":[-72.7432275,46.5598595]}},{"type":"Feature","properties":{"ZIP":"G9N2P8","VERTICES":9},"geometry":{"type":"Point","coordinates":[-72.7398745,46.557941]}},{"type":"Feature","properties":{"ZIP":"G9N4C3","VERTICES":9},"geometry":{"type":"Point","coordinates":[-72.7439935,46.559431000000004]}},{"type":"Feature","properties":{"ZIP":"G9N3S9","VERTICES":9},"geometry":{"type":"Point","coordinates":[-72.74594300000001,46.563621499999996]}},{"type":"Feature","properties":{"ZIP":"G9N7P9","VERTICES":9},"geometry":{"type":"Point","coordinates":[-72.7118275,46.585334]}},{"type":"Feature","properties":{"ZIP":"G9N2G2","VERTICES":9},"geometry":{"type":"Point","coordinates":[-72.739541,46.554486]}},{"type":"Feature","properties":{"ZIP":"G9N3T1","VERTICES":9},"geometry":{"type":"Point","coordinates":[-72.7455445,46.5633195]}},{"type":"Feature","properties":{"ZIP":"G9N7X5","VERTICES":9},"geometry":{"type":"Point","coordinates":[-72.7560765,46.5802105]}},{"type":"Feature","properties":{"ZIP":"G9N1T3","VERTICES":9},"geometry":{"type":"Point","coordinates":[-72.749976,46.53685]}},{"type":"Feature","properties":{"ZIP":"G9N2N8","VERTICES":9},"geometry":{"type":"Point","coordinates":[-72.74181,46.556141499999995]}},{"type":"Feature","properties":{"ZIP":"G9N3V9","VERTICES":9},"geometry":{"type":"Point","coordinates":[-72.740633,46.558986]}},{"type":"Feature","properties":{"ZIP":"G9N5J2","VERTICES":9},"geometry":{"type":"Point","coordinates":[-72.73540349999999,46.564840000000004]}},{"type":"Feature","properties":{"ZIP":"G9N2R2","VERTICES":8},"geometry":{"type":"Point","coordinates":[-72.748897,46.5516315]}},{"type":"Feature","properties":{"ZIP":"G9N3K5","VERTICES":8},"geometry":{"type":"Point","coordinates":[-72.7419645,46.5641515]}},{"type":"Feature","properties":{"ZIP":"G9N1B8","VERTICES":8},"geometry":{"type":"Point","coordinates":[-72.75155649999999,46.542502]}},{"type":"Feature","properties":{"ZIP":"G9N2M2","VERTICES":8},"geometry":{"type":"Point","coordinates":[-72.73840949999999,46.556593]}},{"type":"Feature","properties":{"ZIP":"G9N3Z2","VERTICES":8},"geometry":{"type":"Point","coordinates":[-72.740623,46.557929]}},{"type":"Feature","properties":{"ZIP":"G9N4L4","VERTICES":8},"geometry":{"type":"Point","coordinates":[-72.7412185,46.552184]}},{"type":"Feature","properties":{"ZIP":"G9N6E4","VERTICES":8},"geometry":{"type":"Point","coordinates":[-72.7629895,46.567575]}},{"type":"Feature","properties":{"ZIP":"G9N6L2","VERTICES":8},"geometry":{"type":"Point","coordinates":[-72.76150100000001,46.573792]}},{"type":"Feature","properties":{"ZIP":"G9N2B8","VERTICES":8},"geometry":{"type":"Point","coordinates":[-72.73881700000001,46.553854]}},{"type":"Feature","properties":{"ZIP":"G9N1H4","VERTICES":8},"geometry":{"type":"Point","coordinates":[-72.6839605,46.617642000000004]}},{"type":"Feature","properties":{"ZIP":"G9N3R9","VERTICES":8},"geometry":{"type":"Point","coordinates":[-72.73777899999999,46.558039]}},{"type":"Feature","properties":{"ZIP":"G9N4Y6","VERTICES":8},"geometry":{"type":"Point","coordinates":[-72.74396150000001,46.5667345]}},{"type":"Feature","properties":{"ZIP":"G9N4G1","VERTICES":8},"geometry":{"type":"Point","coordinates":[-72.741748,46.5566635]}},{"type":"Feature","properties":{"ZIP":"G9N6E5","VERTICES":8},"geometry":{"type":"Point","coordinates":[-72.761974,46.56814]}},{"type":"Feature","properties":{"ZIP":"G9N2P1","VERTICES":8},"geometry":{"type":"Point","coordinates":[-72.7409065,46.556737]}},{"type":"Feature","properties":{"ZIP":"G9N2V3","VERTICES":8},"geometry":{"type":"Point","coordinates":[-72.74194299999999,46.5584375]}},{"type":"Feature","properties":{"ZIP":"G9N3P6","VERTICES":8},"geometry":{"type":"Point","coordinates":[-72.74381,46.5632215]}},{"type":"Feature","properties":{"ZIP":"G9N4A6","VERTICES":8},"geometry":{"type":"Point","coordinates":[-72.744451,46.5607655]}},{"type":"Feature","properties":{"ZIP":"G9N5B8","VERTICES":8},"geometry":{"type":"Point","coordinates":[-72.73029249999999,46.567623499999996]}},{"type":"Feature","properties":{"ZIP":"G9N6A9","VERTICES":8},"geometry":{"type":"Point","coordinates":[-72.74598,46.572948]}},{"type":"Feature","properties":{"ZIP":"G9N6X9","VERTICES":8},"geometry":{"type":"Point","coordinates":[-73.690166,45.568794999999994]}},{"type":"Feature","properties":{"ZIP":"G9N7S3","VERTICES":8},"geometry":{"type":"Point","coordinates":[-72.7560095,46.577797000000004]}},{"type":"Feature","properties":{"ZIP":"G9N2E3","VERTICES":8},"geometry":{"type":"Point","coordinates":[-72.737555,46.555228]}},{"type":"Feature","properties":{"ZIP":"G9N6R6","VERTICES":8},"geometry":{"type":"Point","coordinates":[-72.7599765,46.5666745]}},{"type":"Feature","properties":{"ZIP":"G9N1Z9","VERTICES":8},"geometry":{"type":"Point","coordinates":[-72.77412899999999,46.5424085]}},{"type":"Feature","properties":{"ZIP":"G9N2G7","VERTICES":8},"geometry":{"type":"Point","coordinates":[-72.73724849999999,46.556148]}},{"type":"Feature","properties":{"ZIP":"G9N3T5","VERTICES":8},"geometry":{"type":"Point","coordinates":[-72.75105500000001,46.5674025]}},{"type":"Feature","properties":{"ZIP":"G9N3Z5","VERTICES":8},"geometry":{"type":"Point","coordinates":[-72.7412545,46.558409999999995]}},{"type":"Feature","properties":{"ZIP":"G9N4L7","VERTICES":8},"geometry":{"type":"Point","coordinates":[-72.74517399999999,46.554649999999995]}},{"type":"Feature","properties":{"ZIP":"G9N2C1","VERTICES":8},"geometry":{"type":"Point","coordinates":[-72.737498,46.554576]}},{"type":"Feature","properties":{"ZIP":"G9N2V5","VERTICES":8},"geometry":{"type":"Point","coordinates":[-72.740342,46.559088]}},{"type":"Feature","properties":{"ZIP":"G9N3W3","VERTICES":8},"geometry":{"type":"Point","coordinates":[-72.741742,46.559915000000004]}},{"type":"Feature","properties":{"ZIP":"G9N4H5","VERTICES":8},"geometry":{"type":"Point","coordinates":[-72.742549,46.556181]}},{"type":"Feature","properties":{"ZIP":"G9N6Y1","VERTICES":8},"geometry":{"type":"Point","coordinates":[-73.690177,45.5688065]}},{"type":"Feature","properties":{"ZIP":"G9N2E4","VERTICES":8},"geometry":{"type":"Point","coordinates":[-72.73675850000001,46.555744000000004]}},{"type":"Feature","properties":{"ZIP":"G9N3C1","VERTICES":8},"geometry":{"type":"Point","coordinates":[-72.7400955,46.5653835]}},{"type":"Feature","properties":{"ZIP":"G9N3Y3","VERTICES":8},"geometry":{"type":"Point","coordinates":[-72.73802549999999,46.556009]}},{"type":"Feature","properties":{"ZIP":"G9N4K3","VERTICES":8},"geometry":{"type":"Point","coordinates":[-72.743146,46.5548765]}},{"type":"Feature","properties":{"ZIP":"G9N7V8","VERTICES":8},"geometry":{"type":"Point","coordinates":[-72.7573375,46.57533]}},{"type":"Feature","properties":{"ZIP":"G9N2A4","VERTICES":8},"geometry":{"type":"Point","coordinates":[-72.7379455,46.553413]}},{"type":"Feature","properties":{"ZIP":"G9N3Z6","VERTICES":8},"geometry":{"type":"Point","coordinates":[-72.74186800000001,46.558855]}},{"type":"Feature","properties":{"ZIP":"G9N6L7","VERTICES":8},"geometry":{"type":"Point","coordinates":[-72.760584,46.582115]}},{"type":"Feature","properties":{"ZIP":"G9N3W5","VERTICES":8},"geometry":{"type":"Point","coordinates":[-72.7423765,46.560413]}},{"type":"Feature","properties":{"ZIP":"G9N5C1","VERTICES":8},"geometry":{"type":"Point","coordinates":[-72.735875,46.5711225]}},{"type":"Feature","properties":{"ZIP":"G9N6B2","VERTICES":8},"geometry":{"type":"Point","coordinates":[-72.74769,46.5741895]}},{"type":"Feature","properties":{"ZIP":"G9N6H8","VERTICES":8},"geometry":{"type":"Point","coordinates":[-72.760679,46.5716565]}},{"type":"Feature","properties":{"ZIP":"G9N1H8","VERTICES":8},"geometry":{"type":"Point","coordinates":[-72.68829,46.6113675]}},{"type":"Feature","properties":{"ZIP":"G9N4Y9","VERTICES":8},"geometry":{"type":"Point","coordinates":[-72.741013,46.568645000000004]}},{"type":"Feature","properties":{"ZIP":"G9N2M8","VERTICES":8},"geometry":{"type":"Point","coordinates":[-72.74705850000001,46.551862]}},{"type":"Feature","properties":{"ZIP":"G9N2T3","VERTICES":8},"geometry":{"type":"Point","coordinates":[-72.745652,46.5557335]}},{"type":"Feature","properties":{"ZIP":"G9N3Z7","VERTICES":8},"geometry":{"type":"Point","coordinates":[-72.74189100000001,46.558870999999996]}},{"type":"Feature","properties":{"ZIP":"G9N3W6","VERTICES":8},"geometry":{"type":"Point","coordinates":[-72.742345,46.560390999999996]}},{"type":"Feature","properties":{"ZIP":"G9N4X3","VERTICES":8},"geometry":{"type":"Point","coordinates":[-72.713751,46.5868075]}},{"type":"Feature","properties":{"ZIP":"G9N5L1","VERTICES":8},"geometry":{"type":"Point","coordinates":[-72.7390595,46.564370499999995]}},{"type":"Feature","properties":{"ZIP":"G9N8H1","VERTICES":8},"geometry":{"type":"Point","coordinates":[-72.735028,46.571601]}},{"type":"Feature","properties":{"ZIP":"G9N2E6","VERTICES":8},"geometry":{"type":"Point","coordinates":[-72.7360685,46.5562005]}},{"type":"Feature","properties":{"ZIP":"G9N2R9","VERTICES":8},"geometry":{"type":"Point","coordinates":[-72.742677,46.556681]}},{"type":"Feature","properties":{"ZIP":"G9N4E3","VERTICES":8},"geometry":{"type":"Point","coordinates":[-72.738779,46.5544235]}},{"type":"Feature","properties":{"ZIP":"G9N6C7","VERTICES":8},"geometry":{"type":"Point","coordinates":[-72.7585705,46.569228]}},{"type":"Feature","properties":{"ZIP":"G9N6K5","VERTICES":8},"geometry":{"type":"Point","coordinates":[-72.759529,46.577791000000005]}},{"type":"Feature","properties":{"ZIP":"G9N2Y9","VERTICES":8},"geometry":{"type":"Point","coordinates":[-72.7421765,46.561012]}},{"type":"Feature","properties":{"ZIP":"G9N3G9","VERTICES":8},"geometry":{"type":"Point","coordinates":[-72.7422105,46.5654655]}},{"type":"Feature","properties":{"ZIP":"G9N3Z8","VERTICES":8},"geometry":{"type":"Point","coordinates":[-72.7425465,46.559343]}},{"type":"Feature","properties":{"ZIP":"G9N4G5","VERTICES":8},"geometry":{"type":"Point","coordinates":[-72.7433285,46.557837]}},{"type":"Feature","properties":{"ZIP":"G9N5H2","VERTICES":8},"geometry":{"type":"Point","coordinates":[-72.740463,46.570943]}},{"type":"Feature","properties":{"ZIP":"G9N6X2","VERTICES":8},"geometry":{"type":"Point","coordinates":[-72.774767,46.5734595]}},{"type":"Feature","properties":{"ZIP":"G9N7P4","VERTICES":8},"geometry":{"type":"Point","coordinates":[-72.745913,46.575484]}},{"type":"Feature","properties":{"ZIP":"G9N2P6","VERTICES":8},"geometry":{"type":"Point","coordinates":[-72.7407345,46.5574055]}},{"type":"Feature","properties":{"ZIP":"G9N4H9","VERTICES":8},"geometry":{"type":"Point","coordinates":[-72.74399299999999,46.557229500000005]}},{"type":"Feature","properties":{"ZIP":"G9N4E4","VERTICES":8},"geometry":{"type":"Point","coordinates":[-72.739471,46.5549515]}},{"type":"Feature","properties":{"ZIP":"G9N2A7","VERTICES":8},"geometry":{"type":"Point","coordinates":[-72.7367475,46.554135]}},{"type":"Feature","properties":{"ZIP":"G9N2N4","VERTICES":8},"geometry":{"type":"Point","coordinates":[-72.7440055,46.554659]}},{"type":"Feature","properties":{"ZIP":"G9N2T5","VERTICES":8},"geometry":{"type":"Point","coordinates":[-72.744441,46.5565385]}},{"type":"Feature","properties":{"ZIP":"G9N4M5","VERTICES":8},"geometry":{"type":"Point","coordinates":[-72.74309550000001,46.552608]}},{"type":"Feature","properties":{"ZIP":"G9N5H3","VERTICES":8},"geometry":{"type":"Point","coordinates":[-72.733968,46.565059000000005]}},{"type":"Feature","properties":{"ZIP":"G9N7P6","VERTICES":8},"geometry":{"type":"Point","coordinates":[-72.755046,46.5776425]}},{"type":"Feature","properties":{"ZIP":"G9N1L8","VERTICES":8},"geometry":{"type":"Point","coordinates":[-72.756201,46.540977999999996]}},{"type":"Feature","properties":{"ZIP":"G9N1V6","VERTICES":8},"geometry":{"type":"Point","coordinates":[-72.75086,46.543739]}},{"type":"Feature","properties":{"ZIP":"G9N2E9","VERTICES":8},"geometry":{"type":"Point","coordinates":[-72.735325,46.556675]}},{"type":"Feature","properties":{"ZIP":"G9N2S2","VERTICES":8},"geometry":{"type":"Point","coordinates":[-72.74179050000001,46.556884999999994]}},{"type":"Feature","properties":{"ZIP":"G9N3Y7","VERTICES":8},"geometry":{"type":"Point","coordinates":[-72.73918900000001,46.5568545]}},{"type":"Feature","properties":{"ZIP":"G9N2T6","VERTICES":8},"geometry":{"type":"Point","coordinates":[-72.74427850000001,46.556656000000004]}},{"type":"Feature","properties":{"ZIP":"G9N4M6","VERTICES":8},"geometry":{"type":"Point","coordinates":[-72.74286849999999,46.552434]}},{"type":"Feature","properties":{"ZIP":"G9N6X4","VERTICES":8},"geometry":{"type":"Point","coordinates":[-72.777372,46.5744505]}},{"type":"Feature","properties":{"ZIP":"G9N1G9","VERTICES":8},"geometry":{"type":"Point","coordinates":[-72.72040899999999,46.577918999999994]}},{"type":"Feature","properties":{"ZIP":"G9N2S3","VERTICES":8},"geometry":{"type":"Point","coordinates":[-72.74179050000001,46.556884999999994]}},{"type":"Feature","properties":{"ZIP":"G9N2X9","VERTICES":8},"geometry":{"type":"Point","coordinates":[-72.741308,46.560649]}},{"type":"Feature","properties":{"ZIP":"G9N3N6","VERTICES":8},"geometry":{"type":"Point","coordinates":[-72.7442395,46.5646565]}},{"type":"Feature","properties":{"ZIP":"G9N2K1","VERTICES":8},"geometry":{"type":"Point","coordinates":[-72.7382585,46.5567365]}},{"type":"Feature","properties":{"ZIP":"G9N4Y2","VERTICES":8},"geometry":{"type":"Point","coordinates":[-72.7100395,46.595521000000005]}},{"type":"Feature","properties":{"ZIP":"G9N5C7","VERTICES":8},"geometry":{"type":"Point","coordinates":[-72.73698350000001,46.5708295]}},{"type":"Feature","properties":{"ZIP":"G9N4T7","VERTICES":8},"geometry":{"type":"Point","coordinates":[-72.73737600000001,46.56612]}},{"type":"Feature","properties":{"ZIP":"G9N7M1","VERTICES":8},"geometry":{"type":"Point","coordinates":[-72.761729,46.580541999999994]}},{"type":"Feature","properties":{"ZIP":"G9N1T2","VERTICES":8},"geometry":{"type":"Point","coordinates":[-72.7499715,46.536781500000004]}},{"type":"Feature","properties":{"ZIP":"G9N2Z4","VERTICES":8},"geometry":{"type":"Point","coordinates":[-72.743675,46.560945000000004]}},{"type":"Feature","properties":{"ZIP":"G9N6A6","VERTICES":8},"geometry":{"type":"Point","coordinates":[-72.747228,46.574819]}},{"type":"Feature","properties":{"ZIP":"G9N2R1","VERTICES":8},"geometry":{"type":"Point","coordinates":[-72.74907,46.551443]}},{"type":"Feature","properties":{"ZIP":"G9N3X8","VERTICES":8},"geometry":{"type":"Point","coordinates":[-72.73699500000001,46.5552615]}},{"type":"Feature","properties":{"ZIP":"G9N4Y3","VERTICES":8},"geometry":{"type":"Point","coordinates":[-72.7102945,46.594792]}},{"type":"Feature","properties":{"ZIP":"G9N3T2","VERTICES":8},"geometry":{"type":"Point","coordinates":[-72.7469085,46.564336]}},{"type":"Feature","properties":{"ZIP":"G9N4L3","VERTICES":8},"geometry":{"type":"Point","coordinates":[-72.741219,46.5521835]}},{"type":"Feature","properties":{"ZIP":"G9N6S8","VERTICES":8},"geometry":{"type":"Point","coordinates":[-72.76514499999999,46.5698335]}},{"type":"Feature","properties":{"ZIP":"G9N1K8","VERTICES":8},"geometry":{"type":"Point","coordinates":[-72.7497855,46.5371195]}},{"type":"Feature","properties":{"ZIP":"G9N2Z5","VERTICES":8},"geometry":{"type":"Point","coordinates":[-72.742483,46.561665]}},{"type":"Feature","properties":{"ZIP":"G9N3H8","VERTICES":8},"geometry":{"type":"Point","coordinates":[-72.7444735,46.5654755]}},{"type":"Feature","properties":{"ZIP":"G9N4N6","VERTICES":8},"geometry":{"type":"Point","coordinates":[-72.74696850000001,46.554491]}},{"type":"Feature","properties":{"ZIP":"G9N6A7","VERTICES":8},"geometry":{"type":"Point","coordinates":[-72.747228,46.574819]}},{"type":"Feature","properties":{"ZIP":"G9N1H3","VERTICES":7},"geometry":{"type":"Point","coordinates":[-72.7533165,46.5390795]}},{"type":"Feature","properties":{"ZIP":"G9N1X1","VERTICES":7},"geometry":{"type":"Point","coordinates":[-72.7521835,46.5430955]}},{"type":"Feature","properties":{"ZIP":"G9N2E1","VERTICES":7},"geometry":{"type":"Point","coordinates":[-72.743449,46.5511635]}},{"type":"Feature","properties":{"ZIP":"G9N2W6","VERTICES":7},"geometry":{"type":"Point","coordinates":[-72.74269050000001,46.558488]}},{"type":"Feature","properties":{"ZIP":"G9N3X9","VERTICES":7},"geometry":{"type":"Point","coordinates":[-72.73688250000001,46.5551815]}},{"type":"Feature","properties":{"ZIP":"G9N4S3","VERTICES":7},"geometry":{"type":"Point","coordinates":[-72.7317205,46.5678775]}},{"type":"Feature","properties":{"ZIP":"G9N1Z6","VERTICES":7},"geometry":{"type":"Point","coordinates":[-72.7715175,46.543649]}},{"type":"Feature","properties":{"ZIP":"G9N4E9","VERTICES":7},"geometry":{"type":"Point","coordinates":[-72.741045,46.556131]}},{"type":"Feature","properties":{"ZIP":"G9N5Y4","VERTICES":7},"geometry":{"type":"Point","coordinates":[-72.7244435,46.5713535]}},{"type":"Feature","properties":{"ZIP":"G9N1E9","VERTICES":7},"geometry":{"type":"Point","coordinates":[-72.7498965,46.5402035]}},{"type":"Feature","properties":{"ZIP":"G9N2Z6","VERTICES":7},"geometry":{"type":"Point","coordinates":[-72.7422885,46.561774]}},{"type":"Feature","properties":{"ZIP":"G9N4A5","VERTICES":7},"geometry":{"type":"Point","coordinates":[-72.7444075,46.5607345]}},{"type":"Feature","properties":{"ZIP":"G9N1M9","VERTICES":7},"geometry":{"type":"Point","coordinates":[-72.7457855,46.5380615]}},{"type":"Feature","properties":{"ZIP":"G9N2E2","VERTICES":7},"geometry":{"type":"Point","coordinates":[-72.737615,46.555192500000004]}},{"type":"Feature","properties":{"ZIP":"G9N2K5","VERTICES":7},"geometry":{"type":"Point","coordinates":[-72.735992,46.557451]}},{"type":"Feature","properties":{"ZIP":"G9N3B7","VERTICES":7},"geometry":{"type":"Point","coordinates":[-72.73896149999999,46.565113]}},{"type":"Feature","properties":{"ZIP":"G9N4C8","VERTICES":7},"geometry":{"type":"Point","coordinates":[-72.7374375,46.553483]}},{"type":"Feature","properties":{"ZIP":"G9N5W4","VERTICES":7},"geometry":{"type":"Point","coordinates":[-72.7146635,46.5808125]}},{"type":"Feature","properties":{"ZIP":"G9N2M4","VERTICES":7},"geometry":{"type":"Point","coordinates":[-72.737962,46.556867499999996]}},{"type":"Feature","properties":{"ZIP":"G9N3M6","VERTICES":7},"geometry":{"type":"Point","coordinates":[-72.7370085,46.55805]}},{"type":"Feature","properties":{"ZIP":"G9N3Z4","VERTICES":7},"geometry":{"type":"Point","coordinates":[-72.741287,46.5584365]}},{"type":"Feature","properties":{"ZIP":"G9N6L3","VERTICES":7},"geometry":{"type":"Point","coordinates":[-72.7610375,46.574282999999994]}},{"type":"Feature","properties":{"ZIP":"G9N7C5","VERTICES":7},"geometry":{"type":"Point","coordinates":[-72.74935550000001,46.5684495]}},{"type":"Feature","properties":{"ZIP":"G9N1T6","VERTICES":7},"geometry":{"type":"Point","coordinates":[-72.7500975,46.538562]}},{"type":"Feature","properties":{"ZIP":"G9N3J1","VERTICES":7},"geometry":{"type":"Point","coordinates":[-72.74333,46.5662005]}},{"type":"Feature","properties":{"ZIP":"G9N3W2","VERTICES":7},"geometry":{"type":"Point","coordinates":[-72.7411025,46.559336]}},{"type":"Feature","properties":{"ZIP":"G9N7H2","VERTICES":7},"geometry":{"type":"Point","coordinates":[-72.757249,46.5819875]}},{"type":"Feature","properties":{"ZIP":"G9N2K6","VERTICES":7},"geometry":{"type":"Point","coordinates":[-72.7367255,46.556981500000006]}},{"type":"Feature","properties":{"ZIP":"G9N2W8","VERTICES":7},"geometry":{"type":"Point","coordinates":[-72.74193,46.5590765]}},{"type":"Feature","properties":{"ZIP":"G9N3Y2","VERTICES":7},"geometry":{"type":"Point","coordinates":[-72.7374585,46.555587]}},{"type":"Feature","properties":{"ZIP":"G9N4Y7","VERTICES":7},"geometry":{"type":"Point","coordinates":[-72.7429315,46.5673885]}},{"type":"Feature","properties":{"ZIP":"G9N5E2","VERTICES":7},"geometry":{"type":"Point","coordinates":[-72.73255,46.566514999999995]}},{"type":"Feature","properties":{"ZIP":"G9N6K1","VERTICES":7},"geometry":{"type":"Point","coordinates":[-72.761493,46.5722115]}},{"type":"Feature","properties":{"ZIP":"G9N7K4","VERTICES":7},"geometry":{"type":"Point","coordinates":[-72.77383499999999,46.571208]}},{"type":"Feature","properties":{"ZIP":"G9N7V5","VERTICES":7},"geometry":{"type":"Point","coordinates":[-72.76144049999999,46.582127]}},{"type":"Feature","properties":{"ZIP":"G9N4G2","VERTICES":7},"geometry":{"type":"Point","coordinates":[-72.7416975,46.5566255]}},{"type":"Feature","properties":{"ZIP":"G9N5A4","VERTICES":7},"geometry":{"type":"Point","coordinates":[-72.736121,46.572581]}},{"type":"Feature","properties":{"ZIP":"G9N5G7","VERTICES":7},"geometry":{"type":"Point","coordinates":[-72.737109,46.5684375]}},{"type":"Feature","properties":{"ZIP":"G9N6T5","VERTICES":7},"geometry":{"type":"Point","coordinates":[-72.72784150000001,46.500980999999996]}},{"type":"Feature","properties":{"ZIP":"G9N7N8","VERTICES":7},"geometry":{"type":"Point","coordinates":[-72.749094,46.5606645]}},{"type":"Feature","properties":{"ZIP":"G9N4X1","VERTICES":7},"geometry":{"type":"Point","coordinates":[-72.72055399999999,46.575582]}},{"type":"Feature","properties":{"ZIP":"G9N5B9","VERTICES":7},"geometry":{"type":"Point","coordinates":[-72.73609049999999,46.5712755]}},{"type":"Feature","properties":{"ZIP":"G9N5K8","VERTICES":7},"geometry":{"type":"Point","coordinates":[-72.7400585,46.565931500000005]}},{"type":"Feature","properties":{"ZIP":"G9N6B1","VERTICES":7},"geometry":{"type":"Point","coordinates":[-72.747612,46.5741345]}},{"type":"Feature","properties":{"ZIP":"G9N2K7","VERTICES":7},"geometry":{"type":"Point","coordinates":[-72.747478,46.549867]}},{"type":"Feature","properties":{"ZIP":"G9N5W8","VERTICES":7},"geometry":{"type":"Point","coordinates":[-72.7157295,46.582687]}},{"type":"Feature","properties":{"ZIP":"G9N7E1","VERTICES":7},"geometry":{"type":"Point","coordinates":[-72.748727,46.570442]}},{"type":"Feature","properties":{"ZIP":"G9N5K9","VERTICES":7},"geometry":{"type":"Point","coordinates":[-72.7400585,46.565931500000005]}},{"type":"Feature","properties":{"ZIP":"G9N2E5","VERTICES":7},"geometry":{"type":"Point","coordinates":[-72.736759,46.555744000000004]}},{"type":"Feature","properties":{"ZIP":"G9N3C2","VERTICES":7},"geometry":{"type":"Point","coordinates":[-72.740655,46.565038]}},{"type":"Feature","properties":{"ZIP":"G9N4E2","VERTICES":7},"geometry":{"type":"Point","coordinates":[-72.738776,46.5544205]}},{"type":"Feature","properties":{"ZIP":"G9N4S9","VERTICES":7},"geometry":{"type":"Point","coordinates":[-72.73293749999999,46.5680695]}},{"type":"Feature","properties":{"ZIP":"G9N8K8","VERTICES":7},"geometry":{"type":"Point","coordinates":[-72.7492295,46.557239499999994]}},{"type":"Feature","properties":{"ZIP":"G9N2A5","VERTICES":7},"geometry":{"type":"Point","coordinates":[-72.737952,46.5534095]}},{"type":"Feature","properties":{"ZIP":"G9N4G4","VERTICES":7},"geometry":{"type":"Point","coordinates":[-72.7426365,46.5573325]}},{"type":"Feature","properties":{"ZIP":"G9N5A6","VERTICES":7},"geometry":{"type":"Point","coordinates":[-72.7440315,46.568469]}},{"type":"Feature","properties":{"ZIP":"G9N5H1","VERTICES":7},"geometry":{"type":"Point","coordinates":[-72.7402115,46.570713]}},{"type":"Feature","properties":{"ZIP":"G9N6L8","VERTICES":7},"geometry":{"type":"Point","coordinates":[-72.7603495,46.582154]}},{"type":"Feature","properties":{"ZIP":"G9N7P1","VERTICES":7},"geometry":{"type":"Point","coordinates":[-72.7083835,46.586653]}},{"type":"Feature","properties":{"ZIP":"G9N1V3","VERTICES":7},"geometry":{"type":"Point","coordinates":[-72.7511575,46.542773999999994]}},{"type":"Feature","properties":{"ZIP":"G9N3A6","VERTICES":7},"geometry":{"type":"Point","coordinates":[-72.741233,46.563185000000004]}},{"type":"Feature","properties":{"ZIP":"G9N4R1","VERTICES":7},"geometry":{"type":"Point","coordinates":[-72.754039,46.550329500000004]}},{"type":"Feature","properties":{"ZIP":"G9N6B3","VERTICES":7},"geometry":{"type":"Point","coordinates":[-72.74905799999999,46.575213500000004]}},{"type":"Feature","properties":{"ZIP":"G9N7S8","VERTICES":7},"geometry":{"type":"Point","coordinates":[-72.7579135,46.575314]}},{"type":"Feature","properties":{"ZIP":"G9N4Z1","VERTICES":7},"geometry":{"type":"Point","coordinates":[-72.7411045,46.568585]}},{"type":"Feature","properties":{"ZIP":"G9N1C8","VERTICES":7},"geometry":{"type":"Point","coordinates":[-72.7480095,46.540887]}},{"type":"Feature","properties":{"ZIP":"G9N1K3","VERTICES":7},"geometry":{"type":"Point","coordinates":[-72.746635,46.53726]}},{"type":"Feature","properties":{"ZIP":"G9N1S6","VERTICES":7},"geometry":{"type":"Point","coordinates":[-72.7489175,46.536998]}},{"type":"Feature","properties":{"ZIP":"G9N5Z9","VERTICES":7},"geometry":{"type":"Point","coordinates":[-72.74523500000001,46.575225]}},{"type":"Feature","properties":{"ZIP":"G9N7E5","VERTICES":7},"geometry":{"type":"Point","coordinates":[-72.711029,46.587790999999996]}},{"type":"Feature","properties":{"ZIP":"G9N1G7","VERTICES":7},"geometry":{"type":"Point","coordinates":[-72.6883735,46.614756]}},{"type":"Feature","properties":{"ZIP":"G9N1L6","VERTICES":7},"geometry":{"type":"Point","coordinates":[-72.7515655,46.5373645]}},{"type":"Feature","properties":{"ZIP":"G9N1V5","VERTICES":7},"geometry":{"type":"Point","coordinates":[-72.75071249999999,46.5439985]}},{"type":"Feature","properties":{"ZIP":"G9N3J5","VERTICES":7},"geometry":{"type":"Point","coordinates":[-72.74729500000001,46.5646115]}},{"type":"Feature","properties":{"ZIP":"G9N5C3","VERTICES":7},"geometry":{"type":"Point","coordinates":[-72.73735099999999,46.572607500000004]}},{"type":"Feature","properties":{"ZIP":"G9N6B4","VERTICES":7},"geometry":{"type":"Point","coordinates":[-72.748887,46.575075]}},{"type":"Feature","properties":{"ZIP":"G9N8H5","VERTICES":7},"geometry":{"type":"Point","coordinates":[-72.73621399999999,46.5724795]}},{"type":"Feature","properties":{"ZIP":"G9N1J1","VERTICES":7},"geometry":{"type":"Point","coordinates":[-72.7505285,46.538625499999995]}},{"type":"Feature","properties":{"ZIP":"G9N2E8","VERTICES":7},"geometry":{"type":"Point","coordinates":[-72.73528999999999,46.556697]}},{"type":"Feature","properties":{"ZIP":"G9N3Y6","VERTICES":7},"geometry":{"type":"Point","coordinates":[-72.73855950000001,46.5564105]}},{"type":"Feature","properties":{"ZIP":"G9N5X4","VERTICES":7},"geometry":{"type":"Point","coordinates":[-72.71831900000001,46.5771165]}},{"type":"Feature","properties":{"ZIP":"G9N1C9","VERTICES":7},"geometry":{"type":"Point","coordinates":[-72.7476845,46.540891]}},{"type":"Feature","properties":{"ZIP":"G9N2H3","VERTICES":7},"geometry":{"type":"Point","coordinates":[-72.735636,46.5571925]}},{"type":"Feature","properties":{"ZIP":"G9N6A1","VERTICES":7},"geometry":{"type":"Point","coordinates":[-72.745233,46.575225]}},{"type":"Feature","properties":{"ZIP":"G9N8A2","VERTICES":7},"geometry":{"type":"Point","coordinates":[-72.710224,46.594827499999994]}},{"type":"Feature","properties":{"ZIP":"G9N1G8","VERTICES":7},"geometry":{"type":"Point","coordinates":[-72.7488955,46.539378]}},{"type":"Feature","properties":{"ZIP":"G9N3R2","VERTICES":7},"geometry":{"type":"Point","coordinates":[-72.7467365,46.5654785]}},{"type":"Feature","properties":{"ZIP":"G9N5X5","VERTICES":7},"geometry":{"type":"Point","coordinates":[-72.7189745,46.5764295]}},{"type":"Feature","properties":{"ZIP":"G9N6K7","VERTICES":7},"geometry":{"type":"Point","coordinates":[-72.7586135,46.582632000000004]}},{"type":"Feature","properties":{"ZIP":"G9N1E2","VERTICES":7},"geometry":{"type":"Point","coordinates":[-72.745757,46.5402825]}},{"type":"Feature","properties":{"ZIP":"G9N1K5","VERTICES":7},"geometry":{"type":"Point","coordinates":[-72.74763200000001,46.5372085]}},{"type":"Feature","properties":{"ZIP":"G9N5B1","VERTICES":7},"geometry":{"type":"Point","coordinates":[-72.7286455,46.568372499999995]}},{"type":"Feature","properties":{"ZIP":"G9N8A3","VERTICES":7},"geometry":{"type":"Point","coordinates":[-72.758655,46.574739]}},{"type":"Feature","properties":{"ZIP":"G9N2C6","VERTICES":7},"geometry":{"type":"Point","coordinates":[-72.73541750000001,46.555777]}},{"type":"Feature","properties":{"ZIP":"G9N2W3","VERTICES":7},"geometry":{"type":"Point","coordinates":[-72.7444165,46.557274]}},{"type":"Feature","properties":{"ZIP":"G9N4J4","VERTICES":7},"geometry":{"type":"Point","coordinates":[-72.74587,46.5586185]}},{"type":"Feature","properties":{"ZIP":"G9N6B6","VERTICES":7},"geometry":{"type":"Point","coordinates":[-72.747377,46.572578]}},{"type":"Feature","properties":{"ZIP":"G9N6P6","VERTICES":7},"geometry":{"type":"Point","coordinates":[-72.7582975,46.567567999999994]}},{"type":"Feature","properties":{"ZIP":"G9N8H8","VERTICES":7},"geometry":{"type":"Point","coordinates":[-72.774627,46.5765555]}},{"type":"Feature","properties":{"ZIP":"G9N4E6","VERTICES":7},"geometry":{"type":"Point","coordinates":[-72.74027050000001,46.555538999999996]}},{"type":"Feature","properties":{"ZIP":"G9N4K8","VERTICES":7},"geometry":{"type":"Point","coordinates":[-72.7452385,46.556459000000004]}},{"type":"Feature","properties":{"ZIP":"G9N4T6","VERTICES":7},"geometry":{"type":"Point","coordinates":[-72.73775950000001,46.565666]}},{"type":"Feature","properties":{"ZIP":"G9N5E9","VERTICES":7},"geometry":{"type":"Point","coordinates":[-72.740389,46.572131]}},{"type":"Feature","properties":{"ZIP":"G9N6K8","VERTICES":7},"geometry":{"type":"Point","coordinates":[-72.76619149999999,46.5690805]}},{"type":"Feature","properties":{"ZIP":"G9N1E4","VERTICES":7},"geometry":{"type":"Point","coordinates":[-72.7477175,46.540182]}},{"type":"Feature","properties":{"ZIP":"G9N2B2","VERTICES":7},"geometry":{"type":"Point","coordinates":[-72.74308500000001,46.5505335]}},{"type":"Feature","properties":{"ZIP":"G9N2N6","VERTICES":7},"geometry":{"type":"Point","coordinates":[-72.742782,46.5554745]}},{"type":"Feature","properties":{"ZIP":"G9N2Z3","VERTICES":7},"geometry":{"type":"Point","coordinates":[-72.743757,46.560897]}},{"type":"Feature","properties":{"ZIP":"G9N4A2","VERTICES":7},"geometry":{"type":"Point","coordinates":[-72.743315,46.5599215]}},{"type":"Feature","properties":{"ZIP":"G9N5H8","VERTICES":7},"geometry":{"type":"Point","coordinates":[-72.739385,46.5693135]}},{"type":"Feature","properties":{"ZIP":"G9N8A4","VERTICES":7},"geometry":{"type":"Point","coordinates":[-72.7580025,46.565696]}},{"type":"Feature","properties":{"ZIP":"G9N1H1","VERTICES":7},"geometry":{"type":"Point","coordinates":[-72.6922795,46.6121745]}},{"type":"Feature","properties":{"ZIP":"G9N2P9","VERTICES":7},"geometry":{"type":"Point","coordinates":[-72.73977,46.5580055]}},{"type":"Feature","properties":{"ZIP":"G9N1Z4","VERTICES":7},"geometry":{"type":"Point","coordinates":[-72.768456,46.544048000000004]}},{"type":"Feature","properties":{"ZIP":"G9N2Y1","VERTICES":7},"geometry":{"type":"Point","coordinates":[-72.74583899999999,46.5589705]}},{"type":"Feature","properties":{"ZIP":"G9N3Y9","VERTICES":7},"geometry":{"type":"Point","coordinates":[-72.7398935,46.5573785]}},{"type":"Feature","properties":{"ZIP":"G9N4E7","VERTICES":7},"geometry":{"type":"Point","coordinates":[-72.7403995,46.555636500000006]}},{"type":"Feature","properties":{"ZIP":"G9N4K9","VERTICES":7},"geometry":{"type":"Point","coordinates":[-72.7467115,46.5557405]}},{"type":"Feature","properties":{"ZIP":"G9N4Z6","VERTICES":7},"geometry":{"type":"Point","coordinates":[-72.7416645,46.5688835]}},{"type":"Feature","properties":{"ZIP":"G9N6K9","VERTICES":7},"geometry":{"type":"Point","coordinates":[-72.76619149999999,46.5690805]}},{"type":"Feature","properties":{"ZIP":"G9N6S7","VERTICES":7},"geometry":{"type":"Point","coordinates":[-72.764876,46.5692715]}},{"type":"Feature","properties":{"ZIP":"G9N7X3","VERTICES":7},"geometry":{"type":"Point","coordinates":[-72.75461050000001,46.578725500000004]}},{"type":"Feature","properties":{"ZIP":"G9N2H6","VERTICES":7},"geometry":{"type":"Point","coordinates":[-72.744964,46.551673]}},{"type":"Feature","properties":{"ZIP":"G9N3V8","VERTICES":7},"geometry":{"type":"Point","coordinates":[-72.740544,46.5589475]}},{"type":"Feature","properties":{"ZIP":"G9N4G9","VERTICES":7},"geometry":{"type":"Point","coordinates":[-72.744899,46.558966999999996]}},{"type":"Feature","properties":{"ZIP":"G9N6X6","VERTICES":7},"geometry":{"type":"Point","coordinates":[-73.6897165,45.568307000000004]}},{"type":"Feature","properties":{"ZIP":"G9N0A2","VERTICES":7},"geometry":{"type":"Point","coordinates":[-72.74960999999999,46.5563255]}},{"type":"Feature","properties":{"ZIP":"G9N1H2","VERTICES":7},"geometry":{"type":"Point","coordinates":[-72.6916715,46.614647500000004]}},{"type":"Feature","properties":{"ZIP":"G9N1M3","VERTICES":7},"geometry":{"type":"Point","coordinates":[-72.74401,46.54058499999999]}},{"type":"Feature","properties":{"ZIP":"G9N2K3","VERTICES":7},"geometry":{"type":"Point","coordinates":[-72.737833,46.55746]}},{"type":"Feature","properties":{"ZIP":"G9N3R6","VERTICES":7},"geometry":{"type":"Point","coordinates":[-72.736565,46.557188499999995]}},{"type":"Feature","properties":{"ZIP":"G9N4J6","VERTICES":7},"geometry":{"type":"Point","coordinates":[-72.73997399999999,46.553749499999995]}},{"type":"Feature","properties":{"ZIP":"G9N4S2","VERTICES":7},"geometry":{"type":"Point","coordinates":[-72.73514499999999,46.5652985]}},{"type":"Feature","properties":{"ZIP":"G9N5C8","VERTICES":7},"geometry":{"type":"Point","coordinates":[-72.73698350000001,46.5708295]}},{"type":"Feature","properties":{"ZIP":"G9N6B9","VERTICES":7},"geometry":{"type":"Point","coordinates":[-72.7499715,46.57322]}},{"type":"Feature","properties":{"ZIP":"G9N1Z5","VERTICES":7},"geometry":{"type":"Point","coordinates":[-72.772415,46.543405]}},{"type":"Feature","properties":{"ZIP":"G9N3E8","VERTICES":7},"geometry":{"type":"Point","coordinates":[-72.741319,46.5653145]}},{"type":"Feature","properties":{"ZIP":"G9N4E8","VERTICES":7},"geometry":{"type":"Point","coordinates":[-72.741001,46.556097]}},{"type":"Feature","properties":{"ZIP":"G9N4T8","VERTICES":7},"geometry":{"type":"Point","coordinates":[-72.73621750000001,46.566841]}},{"type":"Feature","properties":{"ZIP":"G9N7M2","VERTICES":7},"geometry":{"type":"Point","coordinates":[-72.76082099999999,46.579995]}},{"type":"Feature","properties":{"ZIP":"G9N2V1","VERTICES":7},"geometry":{"type":"Point","coordinates":[-72.7424425,46.5578615]}},{"type":"Feature","properties":{"ZIP":"G9N4W7","VERTICES":7},"geometry":{"type":"Point","coordinates":[-72.722219,46.5757035]}},{"type":"Feature","properties":{"ZIP":"G9N7G6","VERTICES":7},"geometry":{"type":"Point","coordinates":[-72.76728349999999,46.569601500000005]}},{"type":"Feature","properties":{"ZIP":"G9N8B5","VERTICES":7},"geometry":{"type":"Point","coordinates":[-72.748786,46.5724785]}},{"type":"Feature","properties":{"ZIP":"G9N3B5","VERTICES":6},"geometry":{"type":"Point","coordinates":[-72.740164,46.5643095]}},{"type":"Feature","properties":{"ZIP":"G9N4Y5","VERTICES":6},"geometry":{"type":"Point","coordinates":[-72.743863,46.566794]}},{"type":"Feature","properties":{"ZIP":"G9N5C9","VERTICES":6},"geometry":{"type":"Point","coordinates":[-72.738241,46.571739]}},{"type":"Feature","properties":{"ZIP":"G9N5L7","VERTICES":6},"geometry":{"type":"Point","coordinates":[-72.741078,46.564395000000005]}},{"type":"Feature","properties":{"ZIP":"G9N5W3","VERTICES":6},"geometry":{"type":"Point","coordinates":[-72.7157515,46.582732]}},{"type":"Feature","properties":{"ZIP":"G9N6R4","VERTICES":6},"geometry":{"type":"Point","coordinates":[-72.76041699999999,46.5672215]}},{"type":"Feature","properties":{"ZIP":"G9N7V2","VERTICES":6},"geometry":{"type":"Point","coordinates":[-72.76791399999999,46.569049]}},{"type":"Feature","properties":{"ZIP":"G9N2G5","VERTICES":6},"geometry":{"type":"Point","coordinates":[-72.7380625,46.555628]}},{"type":"Feature","properties":{"ZIP":"G9N3E9","VERTICES":6},"geometry":{"type":"Point","coordinates":[-72.74111,46.565494]}},{"type":"Feature","properties":{"ZIP":"G9N6S9","VERTICES":6},"geometry":{"type":"Point","coordinates":[-72.765888,46.5699245]}},{"type":"Feature","properties":{"ZIP":"G9N7C4","VERTICES":6},"geometry":{"type":"Point","coordinates":[-72.7606735,46.568023999999994]}},{"type":"Feature","properties":{"ZIP":"G9N1K9","VERTICES":6},"geometry":{"type":"Point","coordinates":[-72.7503855,46.537094499999995]}},{"type":"Feature","properties":{"ZIP":"G9N1T4","VERTICES":6},"geometry":{"type":"Point","coordinates":[-72.75002850000001,46.5377205]}},{"type":"Feature","properties":{"ZIP":"G9N2N9","VERTICES":6},"geometry":{"type":"Point","coordinates":[-72.7409785,46.55669]}},{"type":"Feature","properties":{"ZIP":"G9N2V2","VERTICES":6},"geometry":{"type":"Point","coordinates":[-72.742066,46.5583635]}},{"type":"Feature","properties":{"ZIP":"G9N4H2","VERTICES":6},"geometry":{"type":"Point","coordinates":[-72.7456675,46.559574999999995]}},{"type":"Feature","properties":{"ZIP":"G9N6A8","VERTICES":6},"geometry":{"type":"Point","coordinates":[-72.74598,46.572948]}},{"type":"Feature","properties":{"ZIP":"G9N6X8","VERTICES":6},"geometry":{"type":"Point","coordinates":[-73.68995699999999,45.568568]}},{"type":"Feature","properties":{"ZIP":"G9N8B9","VERTICES":6},"geometry":{"type":"Point","coordinates":[-72.707312,46.587123]}},{"type":"Feature","properties":{"ZIP":"G9N1X2","VERTICES":6},"geometry":{"type":"Point","coordinates":[-72.75400099999999,46.5400745]}},{"type":"Feature","properties":{"ZIP":"G9N3Y1","VERTICES":6},"geometry":{"type":"Point","coordinates":[-72.7374425,46.555576]}},{"type":"Feature","properties":{"ZIP":"G9N4S5","VERTICES":6},"geometry":{"type":"Point","coordinates":[-72.7304575,46.568666]}},{"type":"Feature","properties":{"ZIP":"G9N5L8","VERTICES":6},"geometry":{"type":"Point","coordinates":[-72.7414285,46.56497]}},{"type":"Feature","properties":{"ZIP":"G9N6R5","VERTICES":6},"geometry":{"type":"Point","coordinates":[-72.75787650000001,46.565824]}},{"type":"Feature","properties":{"ZIP":"G9N2G6","VERTICES":6},"geometry":{"type":"Point","coordinates":[-72.738173,46.555553]}},{"type":"Feature","properties":{"ZIP":"G9N2S7","VERTICES":6},"geometry":{"type":"Point","coordinates":[-72.740434,46.5585265]}},{"type":"Feature","properties":{"ZIP":"G9N2Y5","VERTICES":6},"geometry":{"type":"Point","coordinates":[-72.743998,46.559830500000004]}},{"type":"Feature","properties":{"ZIP":"G9N3G1","VERTICES":6},"geometry":{"type":"Point","coordinates":[-72.7387675,46.567179499999995]}},{"type":"Feature","properties":{"ZIP":"G9N3T4","VERTICES":6},"geometry":{"type":"Point","coordinates":[-72.74809400000001,46.565182]}},{"type":"Feature","properties":{"ZIP":"G9N4V1","VERTICES":6},"geometry":{"type":"Point","coordinates":[-72.7354875,46.567342]}},{"type":"Feature","properties":{"ZIP":"G9N5G5","VERTICES":6},"geometry":{"type":"Point","coordinates":[-72.736021,46.567623999999995]}},{"type":"Feature","properties":{"ZIP":"G9N5P6","VERTICES":6},"geometry":{"type":"Point","coordinates":[-72.70962700000001,46.5888505]}},{"type":"Feature","properties":{"ZIP":"G9N7Y7","VERTICES":6},"geometry":{"type":"Point","coordinates":[-72.709,46.586231]}},{"type":"Feature","properties":{"ZIP":"G9N2B9","VERTICES":6},"geometry":{"type":"Point","coordinates":[-72.738764,46.553886500000004]}},{"type":"Feature","properties":{"ZIP":"G9N2J2","VERTICES":6},"geometry":{"type":"Point","coordinates":[-72.74237099999999,46.5536955]}},{"type":"Feature","properties":{"ZIP":"G9N3A2","VERTICES":6},"geometry":{"type":"Point","coordinates":[-72.7468045,46.560452]}},{"type":"Feature","properties":{"ZIP":"G9N4H3","VERTICES":6},"geometry":{"type":"Point","coordinates":[-72.74571449999999,46.5596145]}},{"type":"Feature","properties":{"ZIP":"G9N4P7","VERTICES":6},"geometry":{"type":"Point","coordinates":[-72.74889150000001,46.5503055]}},{"type":"Feature","properties":{"ZIP":"G9N5J5","VERTICES":6},"geometry":{"type":"Point","coordinates":[-72.7366015,46.565746000000004]}},{"type":"Feature","properties":{"ZIP":"G9N5T7","VERTICES":6},"geometry":{"type":"Point","coordinates":[-72.70720850000001,46.585725]}},{"type":"Feature","properties":{"ZIP":"G9N8C1","VERTICES":6},"geometry":{"type":"Point","coordinates":[-72.740364,46.569096]}},{"type":"Feature","properties":{"ZIP":"G9N1A2","VERTICES":6},"geometry":{"type":"Point","coordinates":[-72.7472515,46.545994500000006]}},{"type":"Feature","properties":{"ZIP":"G9N1H6","VERTICES":6},"geometry":{"type":"Point","coordinates":[-72.747833,46.538914]}},{"type":"Feature","properties":{"ZIP":"G9N3B8","VERTICES":6},"geometry":{"type":"Point","coordinates":[-72.7382705,46.565560000000005]}},{"type":"Feature","properties":{"ZIP":"G9N3S1","VERTICES":6},"geometry":{"type":"Point","coordinates":[-72.7377835,46.558042]}},{"type":"Feature","properties":{"ZIP":"G9N6Z9","VERTICES":6},"geometry":{"type":"Point","coordinates":[-72.74798150000001,46.5716825]}},{"type":"Feature","properties":{"ZIP":"G9N2M5","VERTICES":6},"geometry":{"type":"Point","coordinates":[-72.73695000000001,46.5575785]}},{"type":"Feature","properties":{"ZIP":"G9N2Y6","VERTICES":6},"geometry":{"type":"Point","coordinates":[-72.743908,46.559887]}},{"type":"Feature","properties":{"ZIP":"G9N5Y8","VERTICES":6},"geometry":{"type":"Point","coordinates":[-72.727715,46.6242005]}},{"type":"Feature","properties":{"ZIP":"G9N6E6","VERTICES":6},"geometry":{"type":"Point","coordinates":[-72.76099199999999,46.5687035]}},{"type":"Feature","properties":{"ZIP":"G9N7Y9","VERTICES":6},"geometry":{"type":"Point","coordinates":[-72.7325795,46.565088]}},{"type":"Feature","properties":{"ZIP":"G9N1L2","VERTICES":6},"geometry":{"type":"Point","coordinates":[-72.746021,46.536899500000004]}},{"type":"Feature","properties":{"ZIP":"G9N3J2","VERTICES":6},"geometry":{"type":"Point","coordinates":[-72.7425715,46.566683999999995]}},{"type":"Feature","properties":{"ZIP":"G9N6H7","VERTICES":6},"geometry":{"type":"Point","coordinates":[-72.7603615,46.571899]}},{"type":"Feature","properties":{"ZIP":"G9N7H3","VERTICES":6},"geometry":{"type":"Point","coordinates":[-72.7090235,46.588179499999995]}},{"type":"Feature","properties":{"ZIP":"G9N1A3","VERTICES":6},"geometry":{"type":"Point","coordinates":[-72.7472515,46.545994500000006]}},{"type":"Feature","properties":{"ZIP":"G9N1H7","VERTICES":6},"geometry":{"type":"Point","coordinates":[-72.746194,46.538765]}},{"type":"Feature","properties":{"ZIP":"G9N1N4","VERTICES":6},"geometry":{"type":"Point","coordinates":[-72.74604199999999,46.540394]}},{"type":"Feature","properties":{"ZIP":"G9N1X4","VERTICES":6},"geometry":{"type":"Point","coordinates":[-72.7575855,46.542904]}},{"type":"Feature","properties":{"ZIP":"G9N2W9","VERTICES":6},"geometry":{"type":"Point","coordinates":[-72.741924,46.559081]}},{"type":"Feature","properties":{"ZIP":"G9N6R7","VERTICES":6},"geometry":{"type":"Point","coordinates":[-72.7606965,46.567448]}},{"type":"Feature","properties":{"ZIP":"G9N1C5","VERTICES":6},"geometry":{"type":"Point","coordinates":[-72.68961300000001,46.612854]}},{"type":"Feature","properties":{"ZIP":"G9N2Y7","VERTICES":6},"geometry":{"type":"Point","coordinates":[-72.743124,46.560392]}},{"type":"Feature","properties":{"ZIP":"G9N3G4","VERTICES":6},"geometry":{"type":"Point","coordinates":[-72.73732100000001,46.5681205]}},{"type":"Feature","properties":{"ZIP":"G9N3M9","VERTICES":6},"geometry":{"type":"Point","coordinates":[-72.740287,46.5609065]}},{"type":"Feature","properties":{"ZIP":"G9N4V4","VERTICES":6},"geometry":{"type":"Point","coordinates":[-72.733876,46.568389499999995]}},{"type":"Feature","properties":{"ZIP":"G9N5R3","VERTICES":6},"geometry":{"type":"Point","coordinates":[-72.71151,46.595327]}},{"type":"Feature","properties":{"ZIP":"G9N5Y9","VERTICES":6},"geometry":{"type":"Point","coordinates":[-72.7445385,46.571613]}},{"type":"Feature","properties":{"ZIP":"G9N6E7","VERTICES":6},"geometry":{"type":"Point","coordinates":[-72.7610455,46.56867200000001]}},{"type":"Feature","properties":{"ZIP":"G9N7Z1","VERTICES":6},"geometry":{"type":"Point","coordinates":[-72.72468599999999,46.571534]}},{"type":"Feature","properties":{"ZIP":"G9N1L3","VERTICES":6},"geometry":{"type":"Point","coordinates":[-72.7471565,46.5366535]}},{"type":"Feature","properties":{"ZIP":"G9N3A4","VERTICES":6},"geometry":{"type":"Point","coordinates":[-72.74489,46.56073]}},{"type":"Feature","properties":{"ZIP":"G9N4X2","VERTICES":6},"geometry":{"type":"Point","coordinates":[-72.718823,46.579768]}},{"type":"Feature","properties":{"ZIP":"G9N5T9","VERTICES":6},"geometry":{"type":"Point","coordinates":[-72.7107335,46.5884765]}},{"type":"Feature","properties":{"ZIP":"G9N6Y3","VERTICES":6},"geometry":{"type":"Point","coordinates":[-72.77485200000001,46.574335500000004]}},{"type":"Feature","properties":{"ZIP":"G9N7H4","VERTICES":6},"geometry":{"type":"Point","coordinates":[-72.7502445,46.5634005]}},{"type":"Feature","properties":{"ZIP":"G9N1A4","VERTICES":6},"geometry":{"type":"Point","coordinates":[-72.746938,46.5437035]}},{"type":"Feature","properties":{"ZIP":"G9N2X1","VERTICES":6},"geometry":{"type":"Point","coordinates":[-72.741249,46.559546]}},{"type":"Feature","properties":{"ZIP":"G9N4K4","VERTICES":6},"geometry":{"type":"Point","coordinates":[-72.74365900000001,46.555252499999995]}},{"type":"Feature","properties":{"ZIP":"G9N5E4","VERTICES":6},"geometry":{"type":"Point","coordinates":[-72.7352155,46.5684295]}},{"type":"Feature","properties":{"ZIP":"G9N5W9","VERTICES":6},"geometry":{"type":"Point","coordinates":[-72.7183085,46.5818835]}},{"type":"Feature","properties":{"ZIP":"G9N6C6","VERTICES":6},"geometry":{"type":"Point","coordinates":[-72.7602775,46.568248]}},{"type":"Feature","properties":{"ZIP":"G9N6R8","VERTICES":6},"geometry":{"type":"Point","coordinates":[-72.761195,46.5680635]}},{"type":"Feature","properties":{"ZIP":"G9N7A8","VERTICES":6},"geometry":{"type":"Point","coordinates":[-72.7615455,46.5811695]}},{"type":"Feature","properties":{"ZIP":"G9N5R5","VERTICES":6},"geometry":{"type":"Point","coordinates":[-72.7055155,46.588881]}},{"type":"Feature","properties":{"ZIP":"G9N5Z3","VERTICES":6},"geometry":{"type":"Point","coordinates":[-72.7445355,46.572521]}},{"type":"Feature","properties":{"ZIP":"G9N6E8","VERTICES":6},"geometry":{"type":"Point","coordinates":[-72.759502,46.5695575]}},{"type":"Feature","properties":{"ZIP":"G9N7Z6","VERTICES":6},"geometry":{"type":"Point","coordinates":[-72.76109550000001,46.5822045]}},{"type":"Feature","properties":{"ZIP":"G9N1L4","VERTICES":6},"geometry":{"type":"Point","coordinates":[-72.7483015,46.5364655]}},{"type":"Feature","properties":{"ZIP":"G9N2C3","VERTICES":6},"geometry":{"type":"Point","coordinates":[-72.737054,46.5547405]}},{"type":"Feature","properties":{"ZIP":"G9N3J4","VERTICES":6},"geometry":{"type":"Point","coordinates":[-72.740269,46.568179]}},{"type":"Feature","properties":{"ZIP":"G9N4H8","VERTICES":6},"geometry":{"type":"Point","coordinates":[-72.74331799999999,46.556742]}},{"type":"Feature","properties":{"ZIP":"G9N5C2","VERTICES":6},"geometry":{"type":"Point","coordinates":[-72.7375745,46.573046000000005]}},{"type":"Feature","properties":{"ZIP":"G9N5V1","VERTICES":6},"geometry":{"type":"Point","coordinates":[-72.7078875,46.585248]}},{"type":"Feature","properties":{"ZIP":"G9N6P3","VERTICES":6},"geometry":{"type":"Point","coordinates":[-72.76294,46.5715]}},{"type":"Feature","properties":{"ZIP":"G9N7H5","VERTICES":6},"geometry":{"type":"Point","coordinates":[-72.73756750000001,46.573583]}},{"type":"Feature","properties":{"ZIP":"G9N1N7","VERTICES":6},"geometry":{"type":"Point","coordinates":[-72.746104,46.54146849999999]}},{"type":"Feature","properties":{"ZIP":"G9N1X7","VERTICES":6},"geometry":{"type":"Point","coordinates":[-72.77059750000001,46.544283]}},{"type":"Feature","properties":{"ZIP":"G9N3L2","VERTICES":6},"geometry":{"type":"Point","coordinates":[-72.748536,46.569019999999995]}},{"type":"Feature","properties":{"ZIP":"G9N3Y5","VERTICES":6},"geometry":{"type":"Point","coordinates":[-72.738795,46.556574]}},{"type":"Feature","properties":{"ZIP":"G9N5E6","VERTICES":6},"geometry":{"type":"Point","coordinates":[-72.737176,46.56984]}},{"type":"Feature","properties":{"ZIP":"G9N6R9","VERTICES":6},"geometry":{"type":"Point","coordinates":[-72.76168200000001,46.568456999999995]}},{"type":"Feature","properties":{"ZIP":"G9N7A9","VERTICES":6},"geometry":{"type":"Point","coordinates":[-72.7615455,46.5811695]}},{"type":"Feature","properties":{"ZIP":"G9N7K9","VERTICES":6},"geometry":{"type":"Point","coordinates":[-72.7465875,46.575804500000004]}},{"type":"Feature","properties":{"ZIP":"G9N2M9","VERTICES":6},"geometry":{"type":"Point","coordinates":[-72.7456235,46.553225499999996]}},{"type":"Feature","properties":{"ZIP":"G9N3V2","VERTICES":6},"geometry":{"type":"Point","coordinates":[-72.7372555,46.5566575]}},{"type":"Feature","properties":{"ZIP":"G9N4V8","VERTICES":6},"geometry":{"type":"Point","coordinates":[-72.728479,46.571858000000006]}},{"type":"Feature","properties":{"ZIP":"G9N5A7","VERTICES":6},"geometry":{"type":"Point","coordinates":[-72.74240900000001,46.5697135]}},{"type":"Feature","properties":{"ZIP":"G9N6M1","VERTICES":6},"geometry":{"type":"Point","coordinates":[-72.757867,46.576128]}},{"type":"Feature","properties":{"ZIP":"G9N2C4","VERTICES":6},"geometry":{"type":"Point","coordinates":[-72.7361095,46.555331499999994]}},{"type":"Feature","properties":{"ZIP":"G9N2J6","VERTICES":6},"geometry":{"type":"Point","coordinates":[-72.74004400000001,46.5551935]}},{"type":"Feature","properties":{"ZIP":"G9N4B7","VERTICES":6},"geometry":{"type":"Point","coordinates":[-72.74115,46.5573265]}},{"type":"Feature","properties":{"ZIP":"G9N4R3","VERTICES":6},"geometry":{"type":"Point","coordinates":[-72.7540435,46.5501255]}},{"type":"Feature","properties":{"ZIP":"G9N5V6","VERTICES":6},"geometry":{"type":"Point","coordinates":[-72.7128085,46.581202000000005]}},{"type":"Feature","properties":{"ZIP":"G9N6P4","VERTICES":6},"geometry":{"type":"Point","coordinates":[-72.762906,46.5714745]}},{"type":"Feature","properties":{"ZIP":"G9N7S9","VERTICES":6},"geometry":{"type":"Point","coordinates":[-72.7171645,46.5821845]}},{"type":"Feature","properties":{"ZIP":"G9N1N9","VERTICES":6},"geometry":{"type":"Point","coordinates":[-72.74613249999999,46.542062]}},{"type":"Feature","properties":{"ZIP":"G9N2S1","VERTICES":6},"geometry":{"type":"Point","coordinates":[-72.74265199999999,46.556697]}},{"type":"Feature","properties":{"ZIP":"G9N2X6","VERTICES":6},"geometry":{"type":"Point","coordinates":[-72.74345149999999,46.5592965]}},{"type":"Feature","properties":{"ZIP":"G9N3L5","VERTICES":6},"geometry":{"type":"Point","coordinates":[-72.757518,46.570878]}},{"type":"Feature","properties":{"ZIP":"G9N5E7","VERTICES":6},"geometry":{"type":"Point","coordinates":[-72.736514,46.569361]}},{"type":"Feature","properties":{"ZIP":"G9N6C8","VERTICES":6},"geometry":{"type":"Point","coordinates":[-72.758654,46.569179000000005]}},{"type":"Feature","properties":{"ZIP":"G9N7B2","VERTICES":6},"geometry":{"type":"Point","coordinates":[-72.7089435,46.588229999999996]}},{"type":"Feature","properties":{"ZIP":"G9N7W5","VERTICES":6},"geometry":{"type":"Point","coordinates":[-72.75415799999999,46.578091]}},{"type":"Feature","properties":{"ZIP":"G9N3H1","VERTICES":6},"geometry":{"type":"Point","coordinates":[-72.741652,46.5662545]}},{"type":"Feature","properties":{"ZIP":"G9N3V4","VERTICES":6},"geometry":{"type":"Point","coordinates":[-72.737921,46.557173]}},{"type":"Feature","properties":{"ZIP":"G9N3Z9","VERTICES":6},"geometry":{"type":"Point","coordinates":[-72.7425465,46.559343]}},{"type":"Feature","properties":{"ZIP":"G9N4V9","VERTICES":6},"geometry":{"type":"Point","coordinates":[-72.7275255,46.572255]}},{"type":"Feature","properties":{"ZIP":"G9N6X3","VERTICES":6},"geometry":{"type":"Point","coordinates":[-72.77318600000001,46.57532]}},{"type":"Feature","properties":{"ZIP":"G9N2C5","VERTICES":6},"geometry":{"type":"Point","coordinates":[-72.7361735,46.555293]}},{"type":"Feature","properties":{"ZIP":"G9N3J7","VERTICES":6},"geometry":{"type":"Point","coordinates":[-72.749023,46.5677205]}},{"type":"Feature","properties":{"ZIP":"G9N4J3","VERTICES":6},"geometry":{"type":"Point","coordinates":[-72.744958,46.5579615]}},{"type":"Feature","properties":{"ZIP":"G9N4R8","VERTICES":6},"geometry":{"type":"Point","coordinates":[-72.7233525,46.571875]}},{"type":"Feature","properties":{"ZIP":"G9N4X6","VERTICES":6},"geometry":{"type":"Point","coordinates":[-72.71476150000001,46.5855035]}},{"type":"Feature","properties":{"ZIP":"G9N5C5","VERTICES":6},"geometry":{"type":"Point","coordinates":[-72.7310455,46.566384]}},{"type":"Feature","properties":{"ZIP":"G9N5L3","VERTICES":6},"geometry":{"type":"Point","coordinates":[-72.743268,46.566708]}},{"type":"Feature","properties":{"ZIP":"G9N6P5","VERTICES":6},"geometry":{"type":"Point","coordinates":[-72.75833499999999,46.567585]}},{"type":"Feature","properties":{"ZIP":"G9N7T1","VERTICES":6},"geometry":{"type":"Point","coordinates":[-72.71192400000001,46.5892985]}},{"type":"Feature","properties":{"ZIP":"G9N1J2","VERTICES":6},"geometry":{"type":"Point","coordinates":[-72.75157100000001,46.53854]}},{"type":"Feature","properties":{"ZIP":"G9N1P3","VERTICES":6},"geometry":{"type":"Point","coordinates":[-72.746325,46.5431835]}},{"type":"Feature","properties":{"ZIP":"G9N1Y1","VERTICES":6},"geometry":{"type":"Point","coordinates":[-72.77059600000001,46.543383500000004]}},{"type":"Feature","properties":{"ZIP":"G9N2X7","VERTICES":6},"geometry":{"type":"Point","coordinates":[-72.743277,46.559400499999995]}},{"type":"Feature","properties":{"ZIP":"G9N3C6","VERTICES":6},"geometry":{"type":"Point","coordinates":[-72.7366945,46.5675425]}},{"type":"Feature","properties":{"ZIP":"G9N4T4","VERTICES":6},"geometry":{"type":"Point","coordinates":[-72.7173825,46.5831795]}},{"type":"Feature","properties":{"ZIP":"G9N5M9","VERTICES":6},"geometry":{"type":"Point","coordinates":[-72.7073245,46.5863615]}},{"type":"Feature","properties":{"ZIP":"G9N7W7","VERTICES":6},"geometry":{"type":"Point","coordinates":[-72.7487295,46.560672499999995]}},{"type":"Feature","properties":{"ZIP":"G9N2N5","VERTICES":6},"geometry":{"type":"Point","coordinates":[-72.7442385,46.5545105]}},{"type":"Feature","properties":{"ZIP":"G9N3H3","VERTICES":6},"geometry":{"type":"Point","coordinates":[-72.73829,46.5684295]}},{"type":"Feature","properties":{"ZIP":"G9N4G7","VERTICES":6},"geometry":{"type":"Point","coordinates":[-72.744061,46.558357]}},{"type":"Feature","properties":{"ZIP":"G9N5H6","VERTICES":6},"geometry":{"type":"Point","coordinates":[-72.735321,46.566089500000004]}},{"type":"Feature","properties":{"ZIP":"G9N6A4","VERTICES":6},"geometry":{"type":"Point","coordinates":[-72.7417275,46.578528]}},{"type":"Feature","properties":{"ZIP":"G9N6M5","VERTICES":6},"geometry":{"type":"Point","coordinates":[-72.760963,46.576169]}},{"type":"Feature","properties":{"ZIP":"G9N7P7","VERTICES":6},"geometry":{"type":"Point","coordinates":[-72.7461545,46.57031]}},{"type":"Feature","properties":{"ZIP":"G9N2J8","VERTICES":6},"geometry":{"type":"Point","coordinates":[-72.73944399999999,46.555595499999995]}},{"type":"Feature","properties":{"ZIP":"G9N3B1","VERTICES":6},"geometry":{"type":"Point","coordinates":[-72.7429865,46.562329500000004]}},{"type":"Feature","properties":{"ZIP":"G9N3R3","VERTICES":6},"geometry":{"type":"Point","coordinates":[-72.7501405,46.567901500000005]}},{"type":"Feature","properties":{"ZIP":"G9N4X8","VERTICES":6},"geometry":{"type":"Point","coordinates":[-72.711794,46.5902655]}},{"type":"Feature","properties":{"ZIP":"G9N5L4","VERTICES":6},"geometry":{"type":"Point","coordinates":[-72.739597,46.563857]}},{"type":"Feature","properties":{"ZIP":"G9N5V8","VERTICES":6},"geometry":{"type":"Point","coordinates":[-72.71384850000001,46.583037]}},{"type":"Feature","properties":{"ZIP":"G9N6Z3","VERTICES":6},"geometry":{"type":"Point","coordinates":[-72.770685,46.5744845]}},{"type":"Feature","properties":{"ZIP":"G9N7T2","VERTICES":6},"geometry":{"type":"Point","coordinates":[-72.709889,46.591771]}},{"type":"Feature","properties":{"ZIP":"G9N1P4","VERTICES":6},"geometry":{"type":"Point","coordinates":[-72.746336,46.5437835]}},{"type":"Feature","properties":{"ZIP":"G9N1Y8","VERTICES":6},"geometry":{"type":"Point","coordinates":[-72.7677025,46.540465]}},{"type":"Feature","properties":{"ZIP":"G9N3C9","VERTICES":6},"geometry":{"type":"Point","coordinates":[-72.74547050000001,46.562709]}},{"type":"Feature","properties":{"ZIP":"G9N3Y8","VERTICES":6},"geometry":{"type":"Point","coordinates":[-72.73939050000001,46.5570015]}},{"type":"Feature","properties":{"ZIP":"G9N4Z5","VERTICES":6},"geometry":{"type":"Point","coordinates":[-72.741911,46.568716499999994]}},{"type":"Feature","properties":{"ZIP":"G9N5N1","VERTICES":6},"geometry":{"type":"Point","coordinates":[-72.70544,46.587599499999996]}},{"type":"Feature","properties":{"ZIP":"G9N6S3","VERTICES":6},"geometry":{"type":"Point","coordinates":[-72.762546,46.569308]}},{"type":"Feature","properties":{"ZIP":"G9N7B7","VERTICES":6},"geometry":{"type":"Point","coordinates":[-72.7487915,46.573636500000006]}},{"type":"Feature","properties":{"ZIP":"G9N7L9","VERTICES":6},"geometry":{"type":"Point","coordinates":[-72.76174,46.5804545]}},{"type":"Feature","properties":{"ZIP":"G9N2T7","VERTICES":6},"geometry":{"type":"Point","coordinates":[-72.743461,46.557223]}},{"type":"Feature","properties":{"ZIP":"G9N3H5","VERTICES":6},"geometry":{"type":"Point","coordinates":[-72.7462055,46.5643585]}},{"type":"Feature","properties":{"ZIP":"G9N4N3","VERTICES":6},"geometry":{"type":"Point","coordinates":[-72.74520150000001,46.5531675]}},{"type":"Feature","properties":{"ZIP":"G9N3B2","VERTICES":6},"geometry":{"type":"Point","coordinates":[-72.7426485,46.562580499999996]}},{"type":"Feature","properties":{"ZIP":"G9N3K3","VERTICES":6},"geometry":{"type":"Point","coordinates":[-72.746769,46.570121]}},{"type":"Feature","properties":{"ZIP":"G9N4C5","VERTICES":6},"geometry":{"type":"Point","coordinates":[-72.74503999999999,46.5601475]}},{"type":"Feature","properties":{"ZIP":"G9N4J5","VERTICES":6},"geometry":{"type":"Point","coordinates":[-72.746463,46.5590745]}},{"type":"Feature","properties":{"ZIP":"G9N5W1","VERTICES":6},"geometry":{"type":"Point","coordinates":[-72.7131215,46.582319999999996]}},{"type":"Feature","properties":{"ZIP":"G9N7J6","VERTICES":6},"geometry":{"type":"Point","coordinates":[-72.733784,46.5697115]}},{"type":"Feature","properties":{"ZIP":"G9N7T5","VERTICES":6},"geometry":{"type":"Point","coordinates":[-72.70828399999999,46.58576]}},{"type":"Feature","properties":{"ZIP":"G9N8J2","VERTICES":6},"geometry":{"type":"Point","coordinates":[-72.727409,46.5697145]}},{"type":"Feature","properties":{"ZIP":"G9N1B6","VERTICES":6},"geometry":{"type":"Point","coordinates":[-72.747278,46.5424015]}},{"type":"Feature","properties":{"ZIP":"G9N2L8","VERTICES":6},"geometry":{"type":"Point","coordinates":[-72.73924099999999,46.556069]}},{"type":"Feature","properties":{"ZIP":"G9N5G1","VERTICES":6},"geometry":{"type":"Point","coordinates":[-72.738687,46.570906]}},{"type":"Feature","properties":{"ZIP":"G9N5N4","VERTICES":6},"geometry":{"type":"Point","coordinates":[-72.720697,46.5783025]}},{"type":"Feature","properties":{"ZIP":"G9N6E2","VERTICES":6},"geometry":{"type":"Point","coordinates":[-72.7561825,46.5709385]}},{"type":"Feature","properties":{"ZIP":"G9N8S4","VERTICES":6},"geometry":{"type":"Point","coordinates":[-72.7286575,46.570014]}},{"type":"Feature","properties":{"ZIP":"G9N2T9","VERTICES":6},"geometry":{"type":"Point","coordinates":[-72.742501,46.557824499999995]}},{"type":"Feature","properties":{"ZIP":"G9N3N9","VERTICES":6},"geometry":{"type":"Point","coordinates":[-72.749322,46.568423499999994]}},{"type":"Feature","properties":{"ZIP":"G9N5B5","VERTICES":6},"geometry":{"type":"Point","coordinates":[-72.72966199999999,46.5680245]}},{"type":"Feature","properties":{"ZIP":"G9N7G4","VERTICES":6},"geometry":{"type":"Point","coordinates":[-72.731811,46.56782]}},{"type":"Feature","properties":{"ZIP":"G9N1W9","VERTICES":6},"geometry":{"type":"Point","coordinates":[-72.75134249999999,46.546783500000004]}},{"type":"Feature","properties":{"ZIP":"G9N2C9","VERTICES":6},"geometry":{"type":"Point","coordinates":[-72.74339649999999,46.551187]}},{"type":"Feature","properties":{"ZIP":"G9N2W5","VERTICES":6},"geometry":{"type":"Point","coordinates":[-72.743296,46.558017]}},{"type":"Feature","properties":{"ZIP":"G9N4C6","VERTICES":6},"geometry":{"type":"Point","coordinates":[-72.7452115,46.5602235]}},{"type":"Feature","properties":{"ZIP":"G9N5L6","VERTICES":6},"geometry":{"type":"Point","coordinates":[-72.740812,46.564093]}},{"type":"Feature","properties":{"ZIP":"G9N5W2","VERTICES":6},"geometry":{"type":"Point","coordinates":[-72.7134045,46.580863]}},{"type":"Feature","properties":{"ZIP":"G9N7T6","VERTICES":6},"geometry":{"type":"Point","coordinates":[-72.7569885,46.576375999999996]}},{"type":"Feature","properties":{"ZIP":"G9N8J5","VERTICES":6},"geometry":{"type":"Point","coordinates":[-72.733996,46.571073999999996]}},{"type":"Feature","properties":{"ZIP":"G9N1B7","VERTICES":6},"geometry":{"type":"Point","coordinates":[-72.747278,46.5424015]}},{"type":"Feature","properties":{"ZIP":"G9N2G4","VERTICES":6},"geometry":{"type":"Point","coordinates":[-72.738756,46.554958]}},{"type":"Feature","properties":{"ZIP":"G9N2S5","VERTICES":6},"geometry":{"type":"Point","coordinates":[-72.741418,46.5578855]}},{"type":"Feature","properties":{"ZIP":"G9N4Z9","VERTICES":6},"geometry":{"type":"Point","coordinates":[-72.73912150000001,46.5705655]}},{"type":"Feature","properties":{"ZIP":"G9N5G2","VERTICES":6},"geometry":{"type":"Point","coordinates":[-72.73459700000001,46.56657]}},{"type":"Feature","properties":{"ZIP":"G9N5N7","VERTICES":6},"geometry":{"type":"Point","coordinates":[-72.7079435,46.587824999999995]}},{"type":"Feature","properties":{"ZIP":"G9N6E3","VERTICES":6},"geometry":{"type":"Point","coordinates":[-72.7562675,46.570833]}},{"type":"Feature","properties":{"ZIP":"G9N6L1","VERTICES":6},"geometry":{"type":"Point","coordinates":[-72.76210449999999,46.573181500000004]}},{"type":"Feature","properties":{"ZIP":"G9N4H1","VERTICES":6},"geometry":{"type":"Point","coordinates":[-72.74475,46.5588555]}},{"type":"Feature","properties":{"ZIP":"G9N5T4","VERTICES":6},"geometry":{"type":"Point","coordinates":[-72.7096915,46.5898265]}},{"type":"Feature","properties":{"ZIP":"G9N6H1","VERTICES":6},"geometry":{"type":"Point","coordinates":[-72.75800749999999,46.571657]}},{"type":"Feature","properties":{"ZIP":"G9N6N1","VERTICES":6},"geometry":{"type":"Point","coordinates":[-72.761043,46.5751995]}},{"type":"Feature","properties":{"ZIP":"G9N6X7","VERTICES":6},"geometry":{"type":"Point","coordinates":[-73.6897375,45.56833]}},{"type":"Feature","properties":{"ZIP":"G9N1M7","VERTICES":5},"geometry":{"type":"Point","coordinates":[-72.74568450000001,46.5373465]}},{"type":"Feature","properties":{"ZIP":"G9N2K4","VERTICES":5},"geometry":{"type":"Point","coordinates":[-72.738129,46.5572735]}},{"type":"Feature","properties":{"ZIP":"G9N6C1","VERTICES":5},"geometry":{"type":"Point","coordinates":[-72.760168,46.5673035]}},{"type":"Feature","properties":{"ZIP":"G9N6J8","VERTICES":5},"geometry":{"type":"Point","coordinates":[-72.762891,46.570863]}},{"type":"Feature","properties":{"ZIP":"G9N6Z7","VERTICES":5},"geometry":{"type":"Point","coordinates":[-72.7069405,46.588986500000004]}},{"type":"Feature","properties":{"ZIP":"G9N7K1","VERTICES":5},"geometry":{"type":"Point","coordinates":[-72.73456350000001,46.5641515]}},{"type":"Feature","properties":{"ZIP":"G9N1R3","VERTICES":5},"geometry":{"type":"Point","coordinates":[-72.747881,46.537026499999996]}},{"type":"Feature","properties":{"ZIP":"G9N2Y4","VERTICES":5},"geometry":{"type":"Point","coordinates":[-72.74468350000001,46.559492500000005]}},{"type":"Feature","properties":{"ZIP":"G9N3M4","VERTICES":5},"geometry":{"type":"Point","coordinates":[-72.76105100000001,46.573355]}},{"type":"Feature","properties":{"ZIP":"G9N4T9","VERTICES":5},"geometry":{"type":"Point","coordinates":[-72.73579699999999,46.566922500000004]}},{"type":"Feature","properties":{"ZIP":"G9N5A2","VERTICES":5},"geometry":{"type":"Point","coordinates":[-72.73742949999999,46.5717115]}},{"type":"Feature","properties":{"ZIP":"G9N5G4","VERTICES":5},"geometry":{"type":"Point","coordinates":[-72.7356605,46.5673515]}},{"type":"Feature","properties":{"ZIP":"G9N5N8","VERTICES":5},"geometry":{"type":"Point","coordinates":[-72.707629,46.588015]}},{"type":"Feature","properties":{"ZIP":"G9N7M3","VERTICES":5},"geometry":{"type":"Point","coordinates":[-72.7117945,46.586157]}},{"type":"Feature","properties":{"ZIP":"G9N7Y1","VERTICES":5},"geometry":{"type":"Point","coordinates":[-72.741713,46.5714625]}},{"type":"Feature","properties":{"ZIP":"G9N4W8","VERTICES":5},"geometry":{"type":"Point","coordinates":[-72.720846,46.577025]}},{"type":"Feature","properties":{"ZIP":"G9N5B7","VERTICES":5},"geometry":{"type":"Point","coordinates":[-72.72843900000001,46.5662275]}},{"type":"Feature","properties":{"ZIP":"G9N5J4","VERTICES":5},"geometry":{"type":"Point","coordinates":[-72.7359425,46.565265]}},{"type":"Feature","properties":{"ZIP":"G9N5T6","VERTICES":5},"geometry":{"type":"Point","coordinates":[-72.707034,46.5865385]}},{"type":"Feature","properties":{"ZIP":"G9N6H4","VERTICES":5},"geometry":{"type":"Point","coordinates":[-72.7596455,46.571416]}},{"type":"Feature","properties":{"ZIP":"G9N6N2","VERTICES":5},"geometry":{"type":"Point","coordinates":[-72.7576975,46.568875]}},{"type":"Feature","properties":{"ZIP":"G9N7S2","VERTICES":5},"geometry":{"type":"Point","coordinates":[-72.7555965,46.5775255]}},{"type":"Feature","properties":{"ZIP":"G9N1A1","VERTICES":5},"geometry":{"type":"Point","coordinates":[-72.747242,46.546381499999995]}},{"type":"Feature","properties":{"ZIP":"G9N5E1","VERTICES":5},"geometry":{"type":"Point","coordinates":[-72.7403725,46.572232]}},{"type":"Feature","properties":{"ZIP":"G9N6C3","VERTICES":5},"geometry":{"type":"Point","coordinates":[-72.75857049999999,46.5678915]}},{"type":"Feature","properties":{"ZIP":"G9N7K3","VERTICES":5},"geometry":{"type":"Point","coordinates":[-72.7715965,46.5725125]}},{"type":"Feature","properties":{"ZIP":"G9N7V4","VERTICES":5},"geometry":{"type":"Point","coordinates":[-72.76202699999999,46.581579]}},{"type":"Feature","properties":{"ZIP":"G9N8J9","VERTICES":5},"geometry":{"type":"Point","coordinates":[-72.727712,46.624183]}},{"type":"Feature","properties":{"ZIP":"G9N5A3","VERTICES":5},"geometry":{"type":"Point","coordinates":[-72.7375185,46.5717975]}},{"type":"Feature","properties":{"ZIP":"G9N5Y7","VERTICES":5},"geometry":{"type":"Point","coordinates":[-72.727259,46.571313]}},{"type":"Feature","properties":{"ZIP":"G9N6T2","VERTICES":5},"geometry":{"type":"Point","coordinates":[-72.7645535,46.568685]}},{"type":"Feature","properties":{"ZIP":"G9N7M8","VERTICES":5},"geometry":{"type":"Point","coordinates":[-72.747414,46.577024]}},{"type":"Feature","properties":{"ZIP":"G9N1G2","VERTICES":5},"geometry":{"type":"Point","coordinates":[-72.74985000000001,46.540191]}},{"type":"Feature","properties":{"ZIP":"G9N1L1","VERTICES":5},"geometry":{"type":"Point","coordinates":[-72.750586,46.5370865]}},{"type":"Feature","properties":{"ZIP":"G9N4W9","VERTICES":5},"geometry":{"type":"Point","coordinates":[-72.720877,46.5769825]}},{"type":"Feature","properties":{"ZIP":"G9N6H6","VERTICES":5},"geometry":{"type":"Point","coordinates":[-72.7553255,46.575577499999994]}},{"type":"Feature","properties":{"ZIP":"G9N6N3","VERTICES":5},"geometry":{"type":"Point","coordinates":[-72.7576645,46.568852]}},{"type":"Feature","properties":{"ZIP":"G9N1N2","VERTICES":5},"geometry":{"type":"Point","coordinates":[-72.7459475,46.5394925]}},{"type":"Feature","properties":{"ZIP":"G9N1X3","VERTICES":5},"geometry":{"type":"Point","coordinates":[-72.7575855,46.542904]}},{"type":"Feature","properties":{"ZIP":"G9N4S7","VERTICES":5},"geometry":{"type":"Point","coordinates":[-72.73590100000001,46.5661395]}},{"type":"Feature","properties":{"ZIP":"G9N5M1","VERTICES":5},"geometry":{"type":"Point","coordinates":[-72.7421985,46.564974500000005]}},{"type":"Feature","properties":{"ZIP":"G9N6C4","VERTICES":5},"geometry":{"type":"Point","coordinates":[-72.75907749999999,46.5679205]}},{"type":"Feature","properties":{"ZIP":"G9N8K6","VERTICES":5},"geometry":{"type":"Point","coordinates":[-72.72883,46.569798]}},{"type":"Feature","properties":{"ZIP":"G9N1C4","VERTICES":5},"geometry":{"type":"Point","coordinates":[-72.746045,46.541741]}},{"type":"Feature","properties":{"ZIP":"G9N1R5","VERTICES":5},"geometry":{"type":"Point","coordinates":[-72.74802349999999,46.537949499999996]}},{"type":"Feature","properties":{"ZIP":"G9N2T1","VERTICES":5},"geometry":{"type":"Point","coordinates":[-72.746681,46.555111]}},{"type":"Feature","properties":{"ZIP":"G9N3G3","VERTICES":5},"geometry":{"type":"Point","coordinates":[-72.737461,46.56803]}},{"type":"Feature","properties":{"ZIP":"G9N4V3","VERTICES":5},"geometry":{"type":"Point","coordinates":[-72.734618,46.567901000000006]}},{"type":"Feature","properties":{"ZIP":"G9N5P7","VERTICES":5},"geometry":{"type":"Point","coordinates":[-72.71045050000001,46.589327]}},{"type":"Feature","properties":{"ZIP":"G9N6L6","VERTICES":5},"geometry":{"type":"Point","coordinates":[-72.761195,46.57683]}},{"type":"Feature","properties":{"ZIP":"G9N7C9","VERTICES":5},"geometry":{"type":"Point","coordinates":[-72.747278,46.5711855]}},{"type":"Feature","properties":{"ZIP":"G9N1T9","VERTICES":5},"geometry":{"type":"Point","coordinates":[-72.750189,46.5393445]}},{"type":"Feature","properties":{"ZIP":"G9N2J3","VERTICES":5},"geometry":{"type":"Point","coordinates":[-72.741277,46.554396999999994]}},{"type":"Feature","properties":{"ZIP":"G9N2P2","VERTICES":5},"geometry":{"type":"Point","coordinates":[-72.74011,46.5569565]}},{"type":"Feature","properties":{"ZIP":"G9N4P8","VERTICES":5},"geometry":{"type":"Point","coordinates":[-72.748188,46.5502085]}},{"type":"Feature","properties":{"ZIP":"G9N5T8","VERTICES":5},"geometry":{"type":"Point","coordinates":[-72.70720850000001,46.585725]}},{"type":"Feature","properties":{"ZIP":"G9N6N4","VERTICES":5},"geometry":{"type":"Point","coordinates":[-72.75859,46.5695135]}},{"type":"Feature","properties":{"ZIP":"G9N7S5","VERTICES":5},"geometry":{"type":"Point","coordinates":[-72.76275849999999,46.5812875]}},{"type":"Feature","properties":{"ZIP":"G9N8C2","VERTICES":5},"geometry":{"type":"Point","coordinates":[-72.707904,46.587503]}},{"type":"Feature","properties":{"ZIP":"G9N4S8","VERTICES":5},"geometry":{"type":"Point","coordinates":[-72.7362495,46.565933]}},{"type":"Feature","properties":{"ZIP":"G9N4Y8","VERTICES":5},"geometry":{"type":"Point","coordinates":[-72.742357,46.567762]}},{"type":"Feature","properties":{"ZIP":"G9N5E3","VERTICES":5},"geometry":{"type":"Point","coordinates":[-72.7342295,46.567706]}},{"type":"Feature","properties":{"ZIP":"G9N5M4","VERTICES":5},"geometry":{"type":"Point","coordinates":[-72.744382,46.566378]}},{"type":"Feature","properties":{"ZIP":"G9N6C5","VERTICES":5},"geometry":{"type":"Point","coordinates":[-72.7597865,46.5685245]}},{"type":"Feature","properties":{"ZIP":"G9N6K2","VERTICES":5},"geometry":{"type":"Point","coordinates":[-72.760209,46.573519000000005]}},{"type":"Feature","properties":{"ZIP":"G9N7A6","VERTICES":5},"geometry":{"type":"Point","coordinates":[-72.710237,46.587292500000004]}},{"type":"Feature","properties":{"ZIP":"G9N7K5","VERTICES":5},"geometry":{"type":"Point","coordinates":[-72.773426,46.5714505]}},{"type":"Feature","properties":{"ZIP":"G9N8K7","VERTICES":5},"geometry":{"type":"Point","coordinates":[-72.737019,46.5624605]}},{"type":"Feature","properties":{"ZIP":"G9N1S1","VERTICES":5},"geometry":{"type":"Point","coordinates":[-72.7482565,46.540205]}},{"type":"Feature","properties":{"ZIP":"G9N3T6","VERTICES":5},"geometry":{"type":"Point","coordinates":[-72.735381,46.555260000000004]}},{"type":"Feature","properties":{"ZIP":"G9N4M1","VERTICES":5},"geometry":{"type":"Point","coordinates":[-72.746505,46.55560199999999]}},{"type":"Feature","properties":{"ZIP":"G9N5G9","VERTICES":5},"geometry":{"type":"Point","coordinates":[-72.738173,46.5692145]}},{"type":"Feature","properties":{"ZIP":"G9N7N9","VERTICES":5},"geometry":{"type":"Point","coordinates":[-72.74993900000001,46.5665275]}},{"type":"Feature","properties":{"ZIP":"G9N1G5","VERTICES":5},"geometry":{"type":"Point","coordinates":[-72.7450745,46.539579]}},{"type":"Feature","properties":{"ZIP":"G9N1V1","VERTICES":5},"geometry":{"type":"Point","coordinates":[-72.7502475,46.539941]}},{"type":"Feature","properties":{"ZIP":"G9N2C2","VERTICES":5},"geometry":{"type":"Point","coordinates":[-72.7379495,46.5543975]}},{"type":"Feature","properties":{"ZIP":"G9N2P4","VERTICES":5},"geometry":{"type":"Point","coordinates":[-72.7391015,46.5575555]}},{"type":"Feature","properties":{"ZIP":"G9N6N6","VERTICES":5},"geometry":{"type":"Point","coordinates":[-72.7592545,46.5700035]}},{"type":"Feature","properties":{"ZIP":"G9N8E2","VERTICES":5},"geometry":{"type":"Point","coordinates":[-72.7554395,46.580068]}},{"type":"Feature","properties":{"ZIP":"G9N1N6","VERTICES":5},"geometry":{"type":"Point","coordinates":[-72.746107,46.541128]}},{"type":"Feature","properties":{"ZIP":"G9N3Y4","VERTICES":5},"geometry":{"type":"Point","coordinates":[-72.737948,46.555946]}},{"type":"Feature","properties":{"ZIP":"G9N5M5","VERTICES":5},"geometry":{"type":"Point","coordinates":[-72.7096085,46.5847755]}},{"type":"Feature","properties":{"ZIP":"G9N7K8","VERTICES":5},"geometry":{"type":"Point","coordinates":[-72.7375625,46.580183500000004]}},{"type":"Feature","properties":{"ZIP":"G9N7W3","VERTICES":5},"geometry":{"type":"Point","coordinates":[-72.75972300000001,46.572258]}},{"type":"Feature","properties":{"ZIP":"G9N2G9","VERTICES":5},"geometry":{"type":"Point","coordinates":[-72.7365385,46.5565985]}},{"type":"Feature","properties":{"ZIP":"G9N3G8","VERTICES":5},"geometry":{"type":"Point","coordinates":[-72.7424935,46.565252]}},{"type":"Feature","properties":{"ZIP":"G9N3V1","VERTICES":5},"geometry":{"type":"Point","coordinates":[-72.73653999999999,46.556095]}},{"type":"Feature","properties":{"ZIP":"G9N4M3","VERTICES":5},"geometry":{"type":"Point","coordinates":[-72.751511,46.559308]}},{"type":"Feature","properties":{"ZIP":"G9N4V5","VERTICES":5},"geometry":{"type":"Point","coordinates":[-72.733396,46.568473]}},{"type":"Feature","properties":{"ZIP":"G9N7E2","VERTICES":5},"geometry":{"type":"Point","coordinates":[-72.7502495,46.5603035]}},{"type":"Feature","properties":{"ZIP":"G9N2P5","VERTICES":5},"geometry":{"type":"Point","coordinates":[-72.738394,46.557998999999995]}},{"type":"Feature","properties":{"ZIP":"G9N4B4","VERTICES":5},"geometry":{"type":"Point","coordinates":[-72.740145,46.5565545]}},{"type":"Feature","properties":{"ZIP":"G9N6Y6","VERTICES":5},"geometry":{"type":"Point","coordinates":[-72.7752475,46.576271000000006]}},{"type":"Feature","properties":{"ZIP":"G9N1A7","VERTICES":5},"geometry":{"type":"Point","coordinates":[-72.747141,46.543144]}},{"type":"Feature","properties":{"ZIP":"G9N1H9","VERTICES":5},"geometry":{"type":"Point","coordinates":[-72.688578,46.613387]}},{"type":"Feature","properties":{"ZIP":"G9N2X4","VERTICES":5},"geometry":{"type":"Point","coordinates":[-72.74410549999999,46.558931]}},{"type":"Feature","properties":{"ZIP":"G9N3S6","VERTICES":5},"geometry":{"type":"Point","coordinates":[-72.74030099999999,46.5598605]}},{"type":"Feature","properties":{"ZIP":"G9N4T1","VERTICES":5},"geometry":{"type":"Point","coordinates":[-72.73307750000001,46.5679815]}},{"type":"Feature","properties":{"ZIP":"G9N5M6","VERTICES":5},"geometry":{"type":"Point","coordinates":[-72.70808199999999,46.5859]}},{"type":"Feature","properties":{"ZIP":"G9N5X1","VERTICES":5},"geometry":{"type":"Point","coordinates":[-72.7183085,46.5818835]}},{"type":"Feature","properties":{"ZIP":"G9N7W4","VERTICES":5},"geometry":{"type":"Point","coordinates":[-72.749007,46.566289499999996]}},{"type":"Feature","properties":{"ZIP":"G9N4M4","VERTICES":5},"geometry":{"type":"Point","coordinates":[-72.7515005,46.559298]}},{"type":"Feature","properties":{"ZIP":"G9N5R8","VERTICES":5},"geometry":{"type":"Point","coordinates":[-72.70621249999999,46.588445500000006]}},{"type":"Feature","properties":{"ZIP":"G9N6E9","VERTICES":5},"geometry":{"type":"Point","coordinates":[-72.7590045,46.5698345]}},{"type":"Feature","properties":{"ZIP":"G9N7Z9","VERTICES":5},"geometry":{"type":"Point","coordinates":[-72.7489795,46.560712]}},{"type":"Feature","properties":{"ZIP":"G9N3A7","VERTICES":5},"geometry":{"type":"Point","coordinates":[-72.74432150000001,46.561236]}},{"type":"Feature","properties":{"ZIP":"G9N3W7","VERTICES":5},"geometry":{"type":"Point","coordinates":[-72.7431335,46.560986]}},{"type":"Feature","properties":{"ZIP":"G9N4X5","VERTICES":5},"geometry":{"type":"Point","coordinates":[-72.71551149999999,46.5843895]}},{"type":"Feature","properties":{"ZIP":"G9N5L2","VERTICES":5},"geometry":{"type":"Point","coordinates":[-72.7389405,46.5642775]}},{"type":"Feature","properties":{"ZIP":"G9N6J1","VERTICES":5},"geometry":{"type":"Point","coordinates":[-72.755065,46.5758575]}},{"type":"Feature","properties":{"ZIP":"G9N6Y7","VERTICES":5},"geometry":{"type":"Point","coordinates":[-72.77496,46.576010499999995]}},{"type":"Feature","properties":{"ZIP":"G9N7J1","VERTICES":5},"geometry":{"type":"Point","coordinates":[-72.7476915,46.5749105]}},{"type":"Feature","properties":{"ZIP":"G9N1X9","VERTICES":5},"geometry":{"type":"Point","coordinates":[-72.7703925,46.543261]}},{"type":"Feature","properties":{"ZIP":"G9N2L3","VERTICES":5},"geometry":{"type":"Point","coordinates":[-72.7429375,46.554089000000005]}},{"type":"Feature","properties":{"ZIP":"G9N3C5","VERTICES":5},"geometry":{"type":"Point","coordinates":[-72.7383485,46.566462]}},{"type":"Feature","properties":{"ZIP":"G9N4T3","VERTICES":5},"geometry":{"type":"Point","coordinates":[-72.726974,46.5713975]}},{"type":"Feature","properties":{"ZIP":"G9N5M8","VERTICES":5},"geometry":{"type":"Point","coordinates":[-72.706081,46.5871625]}},{"type":"Feature","properties":{"ZIP":"G9N6S1","VERTICES":5},"geometry":{"type":"Point","coordinates":[-72.7616765,46.568450999999996]}},{"type":"Feature","properties":{"ZIP":"G9N7L4","VERTICES":5},"geometry":{"type":"Point","coordinates":[-72.710487,46.587064]}},{"type":"Feature","properties":{"ZIP":"G9N5A9","VERTICES":5},"geometry":{"type":"Point","coordinates":[-72.728238,46.568064]}},{"type":"Feature","properties":{"ZIP":"G9N6G4","VERTICES":5},"geometry":{"type":"Point","coordinates":[-72.7624175,46.568773500000006]}},{"type":"Feature","properties":{"ZIP":"G9N6M2","VERTICES":5},"geometry":{"type":"Point","coordinates":[-72.7581825,46.5763905]}},{"type":"Feature","properties":{"ZIP":"G9N7E7","VERTICES":5},"geometry":{"type":"Point","coordinates":[-72.7121975,46.5872105]}},{"type":"Feature","properties":{"ZIP":"G9N2P7","VERTICES":5},"geometry":{"type":"Point","coordinates":[-72.7405605,46.557514499999996]}},{"type":"Feature","properties":{"ZIP":"G9N2W2","VERTICES":5},"geometry":{"type":"Point","coordinates":[-72.743818,46.557674500000005]}},{"type":"Feature","properties":{"ZIP":"G9N4B9","VERTICES":5},"geometry":{"type":"Point","coordinates":[-72.741974,46.5579145]}},{"type":"Feature","properties":{"ZIP":"G9N6J2","VERTICES":5},"geometry":{"type":"Point","coordinates":[-72.7656195,46.5681455]}},{"type":"Feature","properties":{"ZIP":"G9N6Y9","VERTICES":5},"geometry":{"type":"Point","coordinates":[-72.7731725,46.5756085]}},{"type":"Feature","properties":{"ZIP":"G9N7J2","VERTICES":5},"geometry":{"type":"Point","coordinates":[-72.76604750000001,46.570111]}},{"type":"Feature","properties":{"ZIP":"G9N8H6","VERTICES":5},"geometry":{"type":"Point","coordinates":[-72.71045050000001,46.589327]}},{"type":"Feature","properties":{"ZIP":"G9N3L7","VERTICES":5},"geometry":{"type":"Point","coordinates":[-72.7577765,46.5709325]}},{"type":"Feature","properties":{"ZIP":"G9N5E8","VERTICES":5},"geometry":{"type":"Point","coordinates":[-72.738613,46.5708525]}},{"type":"Feature","properties":{"ZIP":"G9N6C9","VERTICES":5},"geometry":{"type":"Point","coordinates":[-72.7573415,46.569966]}},{"type":"Feature","properties":{"ZIP":"G9N6S2","VERTICES":5},"geometry":{"type":"Point","coordinates":[-72.76306249999999,46.5697635]}},{"type":"Feature","properties":{"ZIP":"G9N7B3","VERTICES":5},"geometry":{"type":"Point","coordinates":[-72.7568165,46.5765775]}},{"type":"Feature","properties":{"ZIP":"G9N7L8","VERTICES":5},"geometry":{"type":"Point","coordinates":[-72.70970249999999,46.5888035]}},{"type":"Feature","properties":{"ZIP":"G9N8R3","VERTICES":5},"geometry":{"type":"Point","coordinates":[-72.73333199999999,46.572195]}},{"type":"Feature","properties":{"ZIP":"G9N2Z2","VERTICES":5},"geometry":{"type":"Point","coordinates":[-72.7444365,46.559929]}},{"type":"Feature","properties":{"ZIP":"G9N4W1","VERTICES":5},"geometry":{"type":"Point","coordinates":[-72.727559,46.572469]}},{"type":"Feature","properties":{"ZIP":"G9N5S2","VERTICES":5},"geometry":{"type":"Point","coordinates":[-72.7084715,46.590124]}},{"type":"Feature","properties":{"ZIP":"G9N6G5","VERTICES":5},"geometry":{"type":"Point","coordinates":[-72.76169,46.5691985]}},{"type":"Feature","properties":{"ZIP":"G9N7E8","VERTICES":5},"geometry":{"type":"Point","coordinates":[-72.7608155,46.579809499999996]}},{"type":"Feature","properties":{"ZIP":"G9N1V7","VERTICES":5},"geometry":{"type":"Point","coordinates":[-72.75170650000001,46.538878]}},{"type":"Feature","properties":{"ZIP":"G9N3J9","VERTICES":5},"geometry":{"type":"Point","coordinates":[-72.74639450000001,46.570678]}},{"type":"Feature","properties":{"ZIP":"G9N4R9","VERTICES":5},"geometry":{"type":"Point","coordinates":[-72.734712,46.565012499999995]}},{"type":"Feature","properties":{"ZIP":"G9N5C6","VERTICES":5},"geometry":{"type":"Point","coordinates":[-72.73252550000001,46.567416]}},{"type":"Feature","properties":{"ZIP":"G9N6J4","VERTICES":5},"geometry":{"type":"Point","coordinates":[-72.764706,46.569154]}},{"type":"Feature","properties":{"ZIP":"G9N7J3","VERTICES":5},"geometry":{"type":"Point","coordinates":[-72.7747685,46.573459]}},{"type":"Feature","properties":{"ZIP":"G9N2G1","VERTICES":5},"geometry":{"type":"Point","coordinates":[-72.739948,46.554250499999995]}},{"type":"Feature","properties":{"ZIP":"G9N3L8","VERTICES":5},"geometry":{"type":"Point","coordinates":[-72.7585845,46.5715085]}},{"type":"Feature","properties":{"ZIP":"G9N5X6","VERTICES":5},"geometry":{"type":"Point","coordinates":[-72.7189745,46.5764295]}},{"type":"Feature","properties":{"ZIP":"G9N6E1","VERTICES":5},"geometry":{"type":"Point","coordinates":[-72.7573415,46.569966]}},{"type":"Feature","properties":{"ZIP":"G9N7W8","VERTICES":5},"geometry":{"type":"Point","coordinates":[-72.756034,46.581010000000006]}},{"type":"Feature","properties":{"ZIP":"G9N2H5","VERTICES":5},"geometry":{"type":"Point","coordinates":[-72.746216,46.55045749999999]}},{"type":"Feature","properties":{"ZIP":"G9N3V7","VERTICES":5},"geometry":{"type":"Point","coordinates":[-72.7390155,46.5579115]}},{"type":"Feature","properties":{"ZIP":"G9N4G8","VERTICES":5},"geometry":{"type":"Point","coordinates":[-72.7442245,46.5584725]}},{"type":"Feature","properties":{"ZIP":"G9N4W4","VERTICES":5},"geometry":{"type":"Point","coordinates":[-72.724216,46.574610500000006]}},{"type":"Feature","properties":{"ZIP":"G9N5B4","VERTICES":5},"geometry":{"type":"Point","coordinates":[-72.72831550000001,46.567038]}},{"type":"Feature","properties":{"ZIP":"G9N5S6","VERTICES":5},"geometry":{"type":"Point","coordinates":[-72.706125,46.587199999999996]}},{"type":"Feature","properties":{"ZIP":"G9N6G6","VERTICES":5},"geometry":{"type":"Point","coordinates":[-72.7616115,46.569247000000004]}},{"type":"Feature","properties":{"ZIP":"G9N6M7","VERTICES":5},"geometry":{"type":"Point","coordinates":[-72.7599315,46.574408500000004]}},{"type":"Feature","properties":{"ZIP":"G9N6X5","VERTICES":5},"geometry":{"type":"Point","coordinates":[-72.7756095,46.574428499999996]}},{"type":"Feature","properties":{"ZIP":"G9N7E9","VERTICES":5},"geometry":{"type":"Point","coordinates":[-72.760832,46.580380500000004]}},{"type":"Feature","properties":{"ZIP":"G9N1M2","VERTICES":5},"geometry":{"type":"Point","coordinates":[-72.74388400000001,46.538341]}},{"type":"Feature","properties":{"ZIP":"G9N2C7","VERTICES":5},"geometry":{"type":"Point","coordinates":[-72.735342,46.5558295]}},{"type":"Feature","properties":{"ZIP":"G9N2W4","VERTICES":5},"geometry":{"type":"Point","coordinates":[-72.7433115,46.558007]}},{"type":"Feature","properties":{"ZIP":"G9N3R5","VERTICES":5},"geometry":{"type":"Point","coordinates":[-72.735906,46.5566465]}},{"type":"Feature","properties":{"ZIP":"G9N4S1","VERTICES":5},"geometry":{"type":"Point","coordinates":[-72.73514499999999,46.5652985]}},{"type":"Feature","properties":{"ZIP":"G9N5L5","VERTICES":5},"geometry":{"type":"Point","coordinates":[-72.739598,46.5638555]}},{"type":"Feature","properties":{"ZIP":"G9N6B7","VERTICES":5},"geometry":{"type":"Point","coordinates":[-72.75002950000001,46.5728735]}},{"type":"Feature","properties":{"ZIP":"G9N6J5","VERTICES":5},"geometry":{"type":"Point","coordinates":[-72.7634865,46.570263499999996]}},{"type":"Feature","properties":{"ZIP":"G9N6Z4","VERTICES":5},"geometry":{"type":"Point","coordinates":[-72.7686295,46.573154]}},{"type":"Feature","properties":{"ZIP":"G9N1P8","VERTICES":5},"geometry":{"type":"Point","coordinates":[-72.74678399999999,46.537319999999994]}},{"type":"Feature","properties":{"ZIP":"G9N3E6","VERTICES":5},"geometry":{"type":"Point","coordinates":[-72.742041,46.564872]}},{"type":"Feature","properties":{"ZIP":"G9N3L9","VERTICES":5},"geometry":{"type":"Point","coordinates":[-72.7593755,46.5721035]}},{"type":"Feature","properties":{"ZIP":"G9N5Y2","VERTICES":5},"geometry":{"type":"Point","coordinates":[-72.7242235,46.573198000000005]}},{"type":"Feature","properties":{"ZIP":"G9N7B9","VERTICES":5},"geometry":{"type":"Point","coordinates":[-72.7413075,46.552735]}},{"type":"Feature","properties":{"ZIP":"G9N2B5","VERTICES":5},"geometry":{"type":"Point","coordinates":[-72.74071599999999,46.552677]}},{"type":"Feature","properties":{"ZIP":"G9N3H6","VERTICES":5},"geometry":{"type":"Point","coordinates":[-72.746159,46.564392]}},{"type":"Feature","properties":{"ZIP":"G9N4N4","VERTICES":5},"geometry":{"type":"Point","coordinates":[-72.745986,46.5537615]}},{"type":"Feature","properties":{"ZIP":"G9N4W6","VERTICES":5},"geometry":{"type":"Point","coordinates":[-72.722512,46.5756935]}},{"type":"Feature","properties":{"ZIP":"G9N5H9","VERTICES":5},"geometry":{"type":"Point","coordinates":[-72.73903150000001,46.569041999999996]}},{"type":"Feature","properties":{"ZIP":"G9N5T3","VERTICES":5},"geometry":{"type":"Point","coordinates":[-72.70893749999999,46.5893005]}},{"type":"Feature","properties":{"ZIP":"G9N6G7","VERTICES":5},"geometry":{"type":"Point","coordinates":[-72.7596715,46.570437999999996]}},{"type":"Feature","properties":{"ZIP":"G9N6M9","VERTICES":5},"geometry":{"type":"Point","coordinates":[-72.76092249999999,46.575115499999995]}},{"type":"Feature","properties":{"ZIP":"G9N7R4","VERTICES":5},"geometry":{"type":"Point","coordinates":[-72.711072,46.58582199999999]}},{"type":"Feature","properties":{"ZIP":"G9N8B3","VERTICES":5},"geometry":{"type":"Point","coordinates":[-72.735025,46.565836000000004]}},{"type":"Feature","properties":{"ZIP":"G9N3B3","VERTICES":5},"geometry":{"type":"Point","coordinates":[-72.741564,46.563427]}},{"type":"Feature","properties":{"ZIP":"G9N6J7","VERTICES":5},"geometry":{"type":"Point","coordinates":[-72.7626465,46.5710955]}},{"type":"Feature","properties":{"ZIP":"G9N6R3","VERTICES":5},"geometry":{"type":"Point","coordinates":[-72.763959,46.570504]}},{"type":"Feature","properties":{"ZIP":"G9N6Z5","VERTICES":5},"geometry":{"type":"Point","coordinates":[-72.7721075,46.5757155]}},{"type":"Feature","properties":{"ZIP":"G9N7J9","VERTICES":5},"geometry":{"type":"Point","coordinates":[-72.70790199999999,46.586275]}},{"type":"Feature","properties":{"ZIP":"G9N2M1","VERTICES":5},"geometry":{"type":"Point","coordinates":[-72.739886,46.555739]}},{"type":"Feature","properties":{"ZIP":"G9N2Y3","VERTICES":5},"geometry":{"type":"Point","coordinates":[-72.7446755,46.5594955]}},{"type":"Feature","properties":{"ZIP":"G9N3M2","VERTICES":5},"geometry":{"type":"Point","coordinates":[-72.760204,46.5727125]}},{"type":"Feature","properties":{"ZIP":"G9N3Z1","VERTICES":5},"geometry":{"type":"Point","coordinates":[-72.73991749999999,46.55739749999999]}},{"type":"Feature","properties":{"ZIP":"G9N5Y3","VERTICES":5},"geometry":{"type":"Point","coordinates":[-72.7240635,46.573082]}},{"type":"Feature","properties":{"ZIP":"G9N1E7","VERTICES":5},"geometry":{"type":"Point","coordinates":[-72.71995100000001,46.577687499999996]}},{"type":"Feature","properties":{"ZIP":"G9N2B6","VERTICES":5},"geometry":{"type":"Point","coordinates":[-72.7400775,46.553097]}},{"type":"Feature","properties":{"ZIP":"G9N2H7","VERTICES":5},"geometry":{"type":"Point","coordinates":[-72.74420900000001,46.552364]}},{"type":"Feature","properties":{"ZIP":"G9N3P3","VERTICES":5},"geometry":{"type":"Point","coordinates":[-72.743101,46.562675]}},{"type":"Feature","properties":{"ZIP":"G9N4A4","VERTICES":5},"geometry":{"type":"Point","coordinates":[-72.7440775,46.5604825]}},{"type":"Feature","properties":{"ZIP":"G9N5B6","VERTICES":5},"geometry":{"type":"Point","coordinates":[-72.7294215,46.5678475]}},{"type":"Feature","properties":{"ZIP":"G9N7R6","VERTICES":5},"geometry":{"type":"Point","coordinates":[-72.709046,46.587193]}},{"type":"Feature","properties":{"ZIP":"G9N3R8","VERTICES":4},"geometry":{"type":"Point","coordinates":[-72.73685850000001,46.557401]}},{"type":"Feature","properties":{"ZIP":"G9N8J6","VERTICES":4},"geometry":{"type":"Point","coordinates":[-72.7556445,46.580419000000006]}},{"type":"Feature","properties":{"ZIP":"G9N7H1","VERTICES":4},"geometry":{"type":"Point","coordinates":[-72.74706800000001,46.575317]}},{"type":"Feature","properties":{"ZIP":"G9N2W7","VERTICES":4},"geometry":{"type":"Point","coordinates":[-72.742783,46.558489]}},{"type":"Feature","properties":{"ZIP":"G9N3M8","VERTICES":4},"geometry":{"type":"Point","coordinates":[-72.738901,46.559985]}},{"type":"Feature","properties":{"ZIP":"G9N1X6","VERTICES":4},"geometry":{"type":"Point","coordinates":[-72.7678155,46.5434415]}},{"type":"Feature","properties":{"ZIP":"G9N8L7","VERTICES":4},"geometry":{"type":"Point","coordinates":[-72.72902099999999,46.569559999999996]}},{"type":"Feature","properties":{"ZIP":"G9N5S1","VERTICES":4},"geometry":{"type":"Point","coordinates":[-72.708029,46.589791500000004]}},{"type":"Feature","properties":{"ZIP":"G9N8S1","VERTICES":4},"geometry":{"type":"Point","coordinates":[-72.7545975,46.542013999999995]}},{"type":"Feature","properties":{"ZIP":"G9N1T1","VERTICES":4},"geometry":{"type":"Point","coordinates":[-72.74721600000001,46.547095999999996]}},{"type":"Feature","properties":{"ZIP":"G9N6A5","VERTICES":4},"geometry":{"type":"Point","coordinates":[-72.7462425,46.574101]}},{"type":"Feature","properties":{"ZIP":"G9N6R2","VERTICES":4},"geometry":{"type":"Point","coordinates":[-72.764623,46.570993]}},{"type":"Feature","properties":{"ZIP":"G9N1E6","VERTICES":4},"geometry":{"type":"Point","coordinates":[-72.7477335,46.5401815]}},{"type":"Feature","properties":{"ZIP":"G9N1K7","VERTICES":4},"geometry":{"type":"Point","coordinates":[-72.74825799999999,46.5371805]}},{"type":"Feature","properties":{"ZIP":"G9N4A3","VERTICES":4},"geometry":{"type":"Point","coordinates":[-72.743909,46.560356999999996]}},{"type":"Feature","properties":{"ZIP":"G9N7C1","VERTICES":4},"geometry":{"type":"Point","coordinates":[-72.7372805,46.5634055]}},{"type":"Feature","properties":{"ZIP":"G9N8S8","VERTICES":4},"geometry":{"type":"Point","coordinates":[-72.7491645,46.5540635]}},{"type":"Feature","properties":{"ZIP":"G9N1J5","VERTICES":3},"geometry":{"type":"Point","coordinates":[-72.75046900000001,46.537175000000005]}}]}