{"type":"FeatureCollection","features":[{"type":"Feature","properties":{"ZIP":"B9A2E4","VERTICES":12},"geometry":{"type":"Point","coordinates":[-61.365590499999996,45.619943]}},{"type":"Feature","properties":{"ZIP":"B9A3H4","VERTICES":12},"geometry":{"type":"Point","coordinates":[-61.337601500000005,45.6218]}},{"type":"Feature","properties":{"ZIP":"B9A3H5","VERTICES":11},"geometry":{"type":"Point","coordinates":[-61.336659499999996,45.622249]}},{"type":"Feature","properties":{"ZIP":"B9A2Z8","VERTICES":10},"geometry":{"type":"Point","coordinates":[-61.349117,45.615961]}},{"type":"Feature","properties":{"ZIP":"B9A3G5","VERTICES":10},"geometry":{"type":"Point","coordinates":[-61.337441999999996,45.618311]}},{"type":"Feature","properties":{"ZIP":"B9A1P6","VERTICES":9},"geometry":{"type":"Point","coordinates":[-61.3735595,45.6346485]}},{"type":"Feature","properties":{"ZIP":"B9A2Z7","VERTICES":9},"geometry":{"type":"Point","coordinates":[-61.349117,45.6159545]}},{"type":"Feature","properties":{"ZIP":"B9A2Z9","VERTICES":9},"geometry":{"type":"Point","coordinates":[-61.348858,45.616752000000005]}},{"type":"Feature","properties":{"ZIP":"B9A1T1","VERTICES":9},"geometry":{"type":"Point","coordinates":[-61.3748095,45.6771345]}},{"type":"Feature","properties":{"ZIP":"B9A2W8","VERTICES":8},"geometry":{"type":"Point","coordinates":[-61.350695,45.612033499999995]}},{"type":"Feature","properties":{"ZIP":"B9A2J4","VERTICES":8},"geometry":{"type":"Point","coordinates":[-61.3619125,45.616932500000004]}},{"type":"Feature","properties":{"ZIP":"B9A3N9","VERTICES":8},"geometry":{"type":"Point","coordinates":[-61.3428425,45.6104075]}},{"type":"Feature","properties":{"ZIP":"B9A3M6","VERTICES":8},"geometry":{"type":"Point","coordinates":[-61.342601,45.6093465]}},{"type":"Feature","properties":{"ZIP":"B9A2E3","VERTICES":8},"geometry":{"type":"Point","coordinates":[-61.365511,45.619848000000005]}},{"type":"Feature","properties":{"ZIP":"B9A3C1","VERTICES":8},"geometry":{"type":"Point","coordinates":[-61.3454545,45.6135735]}},{"type":"Feature","properties":{"ZIP":"B9A3C2","VERTICES":8},"geometry":{"type":"Point","coordinates":[-61.3454695,45.613549]}},{"type":"Feature","properties":{"ZIP":"B9A3M9","VERTICES":8},"geometry":{"type":"Point","coordinates":[-61.344806500000004,45.611243]}},{"type":"Feature","properties":{"ZIP":"B9A3L4","VERTICES":8},"geometry":{"type":"Point","coordinates":[-61.347699,45.612807000000004]}},{"type":"Feature","properties":{"ZIP":"B9A3E9","VERTICES":8},"geometry":{"type":"Point","coordinates":[-61.338283,45.6202635]}},{"type":"Feature","properties":{"ZIP":"B9A2K3","VERTICES":8},"geometry":{"type":"Point","coordinates":[-61.357205500000006,45.619735]}},{"type":"Feature","properties":{"ZIP":"B9A3A1","VERTICES":8},"geometry":{"type":"Point","coordinates":[-61.348858,45.616749]}},{"type":"Feature","properties":{"ZIP":"B9A2C6","VERTICES":8},"geometry":{"type":"Point","coordinates":[-61.363704999999996,45.619787]}},{"type":"Feature","properties":{"ZIP":"B9A2K6","VERTICES":8},"geometry":{"type":"Point","coordinates":[-61.352797499999994,45.6182945]}},{"type":"Feature","properties":{"ZIP":"B9A2G1","VERTICES":8},"geometry":{"type":"Point","coordinates":[-61.366380500000005,45.6220945]}},{"type":"Feature","properties":{"ZIP":"B9A2M5","VERTICES":7},"geometry":{"type":"Point","coordinates":[-61.362029,45.6141535]}},{"type":"Feature","properties":{"ZIP":"B9A3E1","VERTICES":7},"geometry":{"type":"Point","coordinates":[-61.349642,45.610472]}},{"type":"Feature","properties":{"ZIP":"B9A2B1","VERTICES":7},"geometry":{"type":"Point","coordinates":[-61.363349,45.623881999999995]}},{"type":"Feature","properties":{"ZIP":"B9A2M7","VERTICES":7},"geometry":{"type":"Point","coordinates":[-61.3633965,45.6146235]}},{"type":"Feature","properties":{"ZIP":"B9A3P1","VERTICES":7},"geometry":{"type":"Point","coordinates":[-61.342216,45.609941000000006]}},{"type":"Feature","properties":{"ZIP":"B9A2L1","VERTICES":7},"geometry":{"type":"Point","coordinates":[-61.358939,45.6211285]}},{"type":"Feature","properties":{"ZIP":"B9A2V3","VERTICES":7},"geometry":{"type":"Point","coordinates":[-61.356456,45.612485500000005]}},{"type":"Feature","properties":{"ZIP":"B9A2G5","VERTICES":7},"geometry":{"type":"Point","coordinates":[-61.3629655,45.616922]}},{"type":"Feature","properties":{"ZIP":"B9A3E7","VERTICES":7},"geometry":{"type":"Point","coordinates":[-61.337138499999995,45.6190735]}},{"type":"Feature","properties":{"ZIP":"B9A2K2","VERTICES":7},"geometry":{"type":"Point","coordinates":[-61.357149500000006,45.6197475]}},{"type":"Feature","properties":{"ZIP":"B9A2L4","VERTICES":7},"geometry":{"type":"Point","coordinates":[-61.900670500000004,45.595346000000006]}},{"type":"Feature","properties":{"ZIP":"B9A2E6","VERTICES":7},"geometry":{"type":"Point","coordinates":[-61.366277,45.6195495]}},{"type":"Feature","properties":{"ZIP":"B9A3G1","VERTICES":7},"geometry":{"type":"Point","coordinates":[-61.337213500000004,45.619659999999996]}},{"type":"Feature","properties":{"ZIP":"B9A3H6","VERTICES":7},"geometry":{"type":"Point","coordinates":[-61.336861999999996,45.619752500000004]}},{"type":"Feature","properties":{"ZIP":"B9A1R3","VERTICES":7},"geometry":{"type":"Point","coordinates":[-61.3760235,45.633523]}},{"type":"Feature","properties":{"ZIP":"B9A1N8","VERTICES":7},"geometry":{"type":"Point","coordinates":[-61.3794005,45.635451]}},{"type":"Feature","properties":{"ZIP":"B9A2C7","VERTICES":7},"geometry":{"type":"Point","coordinates":[-61.3636975,45.6198285]}},{"type":"Feature","properties":{"ZIP":"B9A2M4","VERTICES":7},"geometry":{"type":"Point","coordinates":[-61.345458,45.6243445]}},{"type":"Feature","properties":{"ZIP":"B9A3C9","VERTICES":7},"geometry":{"type":"Point","coordinates":[-61.3486495,45.6118965]}},{"type":"Feature","properties":{"ZIP":"B9A2A3","VERTICES":7},"geometry":{"type":"Point","coordinates":[-61.3648145,45.620318499999996]}},{"type":"Feature","properties":{"ZIP":"B9A2P3","VERTICES":7},"geometry":{"type":"Point","coordinates":[-61.3615485,45.6155335]}},{"type":"Feature","properties":{"ZIP":"B9A1P2","VERTICES":7},"geometry":{"type":"Point","coordinates":[-61.373848,45.6349805]}},{"type":"Feature","properties":{"ZIP":"B9A2C8","VERTICES":7},"geometry":{"type":"Point","coordinates":[-61.361442,45.617649]}},{"type":"Feature","properties":{"ZIP":"B9A1G9","VERTICES":6},"geometry":{"type":"Point","coordinates":[-61.4327325,45.6803345]}},{"type":"Feature","properties":{"ZIP":"B9A2G2","VERTICES":6},"geometry":{"type":"Point","coordinates":[-61.3677385,45.620721]}},{"type":"Feature","properties":{"ZIP":"B9A2A7","VERTICES":6},"geometry":{"type":"Point","coordinates":[-61.367487499999996,45.623872]}},{"type":"Feature","properties":{"ZIP":"B9A2P8","VERTICES":6},"geometry":{"type":"Point","coordinates":[-61.360326,45.616499000000005]}},{"type":"Feature","properties":{"ZIP":"B9A2C9","VERTICES":6},"geometry":{"type":"Point","coordinates":[-61.361038,45.617219000000006]}},{"type":"Feature","properties":{"ZIP":"B9A2K8","VERTICES":6},"geometry":{"type":"Point","coordinates":[-61.356651,45.62041]}},{"type":"Feature","properties":{"ZIP":"B9A3B5","VERTICES":6},"geometry":{"type":"Point","coordinates":[-61.347823500000004,45.61475900000001]}},{"type":"Feature","properties":{"ZIP":"B9A3J1","VERTICES":6},"geometry":{"type":"Point","coordinates":[-61.336690000000004,45.6217705]}},{"type":"Feature","properties":{"ZIP":"B9A2G3","VERTICES":6},"geometry":{"type":"Point","coordinates":[-61.3669065,45.6187385]}},{"type":"Feature","properties":{"ZIP":"B9A2M6","VERTICES":6},"geometry":{"type":"Point","coordinates":[-61.364585,45.6159025]}},{"type":"Feature","properties":{"ZIP":"B9A2W9","VERTICES":6},"geometry":{"type":"Point","coordinates":[-61.351728,45.6123535]}},{"type":"Feature","properties":{"ZIP":"B9A3E3","VERTICES":6},"geometry":{"type":"Point","coordinates":[-61.3481785,45.612695]}},{"type":"Feature","properties":{"ZIP":"B9A1L5","VERTICES":6},"geometry":{"type":"Point","coordinates":[-61.4009445,45.64825]}},{"type":"Feature","properties":{"ZIP":"B9A2P9","VERTICES":6},"geometry":{"type":"Point","coordinates":[-61.3600535,45.6162335]}},{"type":"Feature","properties":{"ZIP":"B9A3G7","VERTICES":6},"geometry":{"type":"Point","coordinates":[-61.338474500000004,45.618300500000004]}},{"type":"Feature","properties":{"ZIP":"B9A1P5","VERTICES":6},"geometry":{"type":"Point","coordinates":[-61.372566,45.635456]}},{"type":"Feature","properties":{"ZIP":"B9A2K9","VERTICES":6},"geometry":{"type":"Point","coordinates":[-61.3562285,45.620076499999996]}},{"type":"Feature","properties":{"ZIP":"B9A3B6","VERTICES":6},"geometry":{"type":"Point","coordinates":[-61.347486,45.6148665]}},{"type":"Feature","properties":{"ZIP":"B9A1H2","VERTICES":6},"geometry":{"type":"Point","coordinates":[-61.4320095,45.6799235]}},{"type":"Feature","properties":{"ZIP":"B9A2G4","VERTICES":6},"geometry":{"type":"Point","coordinates":[-61.367305,45.619314]}},{"type":"Feature","properties":{"ZIP":"B9A3E5","VERTICES":6},"geometry":{"type":"Point","coordinates":[-61.336263,45.618572]}},{"type":"Feature","properties":{"ZIP":"B9A2B2","VERTICES":6},"geometry":{"type":"Point","coordinates":[-61.363108499999996,45.6237725]}},{"type":"Feature","properties":{"ZIP":"B9A2R3","VERTICES":6},"geometry":{"type":"Point","coordinates":[-61.359145,45.617122499999994]}},{"type":"Feature","properties":{"ZIP":"B9A2E2","VERTICES":6},"geometry":{"type":"Point","coordinates":[-61.365035,45.6205875]}},{"type":"Feature","properties":{"ZIP":"B9A1H4","VERTICES":6},"geometry":{"type":"Point","coordinates":[-61.4340945,45.680619500000006]}},{"type":"Feature","properties":{"ZIP":"B9A2M8","VERTICES":6},"geometry":{"type":"Point","coordinates":[-61.362151,45.6133455]}},{"type":"Feature","properties":{"ZIP":"B9A3H1","VERTICES":6},"geometry":{"type":"Point","coordinates":[-61.337931499999996,45.618522]}},{"type":"Feature","properties":{"ZIP":"B9A3P2","VERTICES":6},"geometry":{"type":"Point","coordinates":[-61.340717999999995,45.609854999999996]}},{"type":"Feature","properties":{"ZIP":"B9A2V4","VERTICES":6},"geometry":{"type":"Point","coordinates":[-61.3571115,45.61271000000001]}},{"type":"Feature","properties":{"ZIP":"B9A3K5","VERTICES":6},"geometry":{"type":"Point","coordinates":[-61.339808500000004,45.6140175]}},{"type":"Feature","properties":{"ZIP":"B9A2M9","VERTICES":6},"geometry":{"type":"Point","coordinates":[-61.362191499999994,45.6133875]}},{"type":"Feature","properties":{"ZIP":"B9A2X6","VERTICES":6},"geometry":{"type":"Point","coordinates":[-61.351341500000004,45.6134155]}},{"type":"Feature","properties":{"ZIP":"B9A3M8","VERTICES":6},"geometry":{"type":"Point","coordinates":[-61.3452425,45.610869]}},{"type":"Feature","properties":{"ZIP":"B9A2J8","VERTICES":6},"geometry":{"type":"Point","coordinates":[-61.3614765,45.616510500000004]}},{"type":"Feature","properties":{"ZIP":"B9A3P3","VERTICES":6},"geometry":{"type":"Point","coordinates":[-61.3413905,45.60959]}},{"type":"Feature","properties":{"ZIP":"B9A2L3","VERTICES":6},"geometry":{"type":"Point","coordinates":[-61.900566,45.595807]}},{"type":"Feature","properties":{"ZIP":"B9A1J3","VERTICES":6},"geometry":{"type":"Point","coordinates":[-61.4202375,45.664676]}},{"type":"Feature","properties":{"ZIP":"B9A2C3","VERTICES":6},"geometry":{"type":"Point","coordinates":[-61.360261,45.618339000000006]}},{"type":"Feature","properties":{"ZIP":"B9A2E5","VERTICES":6},"geometry":{"type":"Point","coordinates":[-61.364196,45.6182895]}},{"type":"Feature","properties":{"ZIP":"B9A2V8","VERTICES":6},"geometry":{"type":"Point","coordinates":[-61.35288,45.6112405]}},{"type":"Feature","properties":{"ZIP":"B9A3C5","VERTICES":6},"geometry":{"type":"Point","coordinates":[-61.351549500000004,45.6114935]}},{"type":"Feature","properties":{"ZIP":"B9A1J5","VERTICES":6},"geometry":{"type":"Point","coordinates":[-61.413973,45.6556165]}},{"type":"Feature","properties":{"ZIP":"B9A1M5","VERTICES":6},"geometry":{"type":"Point","coordinates":[-61.386666,45.640059]}},{"type":"Feature","properties":{"ZIP":"B9A2T1","VERTICES":6},"geometry":{"type":"Point","coordinates":[-61.3588135,45.615842]}},{"type":"Feature","properties":{"ZIP":"B9A1R2","VERTICES":6},"geometry":{"type":"Point","coordinates":[-61.3760085,45.6334875]}},{"type":"Feature","properties":{"ZIP":"B9A2L8","VERTICES":6},"geometry":{"type":"Point","coordinates":[-61.9009265,45.594218999999995]}},{"type":"Feature","properties":{"ZIP":"B9A2V9","VERTICES":6},"geometry":{"type":"Point","coordinates":[-61.357888,45.614585]}},{"type":"Feature","properties":{"ZIP":"B9A3C6","VERTICES":6},"geometry":{"type":"Point","coordinates":[-61.3516925,45.61133100000001]}},{"type":"Feature","properties":{"ZIP":"B9A3L5","VERTICES":6},"geometry":{"type":"Point","coordinates":[-61.347772500000005,45.6129515]}},{"type":"Feature","properties":{"ZIP":"B9A1J9","VERTICES":6},"geometry":{"type":"Point","coordinates":[-61.4070325,45.648398]}},{"type":"Feature","properties":{"ZIP":"B9A2N5","VERTICES":6},"geometry":{"type":"Point","coordinates":[-61.3553835,45.610716999999994]}},{"type":"Feature","properties":{"ZIP":"B9A2X9","VERTICES":6},"geometry":{"type":"Point","coordinates":[-61.348667500000005,45.6125045]}},{"type":"Feature","properties":{"ZIP":"B9A2E7","VERTICES":6},"geometry":{"type":"Point","coordinates":[-61.3652705,45.6190215]}},{"type":"Feature","properties":{"ZIP":"B9A2L9","VERTICES":6},"geometry":{"type":"Point","coordinates":[-61.900915,45.594269999999995]}},{"type":"Feature","properties":{"ZIP":"B9A2W3","VERTICES":6},"geometry":{"type":"Point","coordinates":[-61.356132,45.6139255]}},{"type":"Feature","properties":{"ZIP":"B9A1K5","VERTICES":6},"geometry":{"type":"Point","coordinates":[-61.403183,45.6502225]}},{"type":"Feature","properties":{"ZIP":"B9A2A1","VERTICES":6},"geometry":{"type":"Point","coordinates":[-61.372213,45.627466999999996]}},{"type":"Feature","properties":{"ZIP":"B9A2Y2","VERTICES":6},"geometry":{"type":"Point","coordinates":[-61.356902500000004,45.6147705]}},{"type":"Feature","properties":{"ZIP":"B9A3N3","VERTICES":6},"geometry":{"type":"Point","coordinates":[-61.341265,45.609481]}},{"type":"Feature","properties":{"ZIP":"B9A1N7","VERTICES":6},"geometry":{"type":"Point","coordinates":[-61.3856505,45.639883499999996]}},{"type":"Feature","properties":{"ZIP":"B9A1G7","VERTICES":6},"geometry":{"type":"Point","coordinates":[-61.436285999999996,45.6833415]}},{"type":"Feature","properties":{"ZIP":"B9A2E8","VERTICES":6},"geometry":{"type":"Point","coordinates":[-61.365175,45.6186225]}},{"type":"Feature","properties":{"ZIP":"B9A2M3","VERTICES":6},"geometry":{"type":"Point","coordinates":[-61.3460655,45.6240235]}},{"type":"Feature","properties":{"ZIP":"B9A2W4","VERTICES":6},"geometry":{"type":"Point","coordinates":[-61.356132,45.6139255]}},{"type":"Feature","properties":{"ZIP":"B9A2A2","VERTICES":6},"geometry":{"type":"Point","coordinates":[-61.360005,45.6200295]}},{"type":"Feature","properties":{"ZIP":"B9A2T6","VERTICES":6},"geometry":{"type":"Point","coordinates":[-61.357811,45.615435500000004]}},{"type":"Feature","properties":{"ZIP":"B9A3B2","VERTICES":6},"geometry":{"type":"Point","coordinates":[-61.348496999999995,45.614301]}},{"type":"Feature","properties":{"ZIP":"B9A3H8","VERTICES":6},"geometry":{"type":"Point","coordinates":[-61.3372825,45.620850000000004]}},{"type":"Feature","properties":{"ZIP":"B9A1G8","VERTICES":6},"geometry":{"type":"Point","coordinates":[-61.432336,45.685736500000004]}},{"type":"Feature","properties":{"ZIP":"B9A2W5","VERTICES":6},"geometry":{"type":"Point","coordinates":[-61.3544545,45.6133495]}},{"type":"Feature","properties":{"ZIP":"B9A1L2","VERTICES":6},"geometry":{"type":"Point","coordinates":[-61.402229000000005,45.6488335]}},{"type":"Feature","properties":{"ZIP":"B9A2J3","VERTICES":6},"geometry":{"type":"Point","coordinates":[-61.3587755,45.617802499999996]}},{"type":"Feature","properties":{"ZIP":"B9A2Y4","VERTICES":6},"geometry":{"type":"Point","coordinates":[-61.357721999999995,45.6135965]}},{"type":"Feature","properties":{"ZIP":"B9A3H9","VERTICES":6},"geometry":{"type":"Point","coordinates":[-61.337137,45.621149]}},{"type":"Feature","properties":{"ZIP":"B9A1T2","VERTICES":5},"geometry":{"type":"Point","coordinates":[-61.374728000000005,45.6774655]}},{"type":"Feature","properties":{"ZIP":"B9A3M1","VERTICES":5},"geometry":{"type":"Point","coordinates":[-61.3470745,45.612188]}},{"type":"Feature","properties":{"ZIP":"B9A1L3","VERTICES":5},"geometry":{"type":"Point","coordinates":[-61.402479,45.647976]}},{"type":"Feature","properties":{"ZIP":"B9A2Z1","VERTICES":5},"geometry":{"type":"Point","coordinates":[-61.3538165,45.61215]}},{"type":"Feature","properties":{"ZIP":"B9A3G6","VERTICES":5},"geometry":{"type":"Point","coordinates":[-61.337989,45.619157]}},{"type":"Feature","properties":{"ZIP":"B9A3N8","VERTICES":5},"geometry":{"type":"Point","coordinates":[-61.344294500000004,45.610971]}},{"type":"Feature","properties":{"ZIP":"B9A1P4","VERTICES":5},"geometry":{"type":"Point","coordinates":[-61.3750845,45.6350235]}},{"type":"Feature","properties":{"ZIP":"B9A2V1","VERTICES":5},"geometry":{"type":"Point","coordinates":[-61.358863,45.613493000000005]}},{"type":"Feature","properties":{"ZIP":"B9A1H1","VERTICES":5},"geometry":{"type":"Point","coordinates":[-61.433166,45.680963]}},{"type":"Feature","properties":{"ZIP":"B9A2J5","VERTICES":5},"geometry":{"type":"Point","coordinates":[-61.361862,45.616878]}},{"type":"Feature","properties":{"ZIP":"B9A2Z2","VERTICES":5},"geometry":{"type":"Point","coordinates":[-61.3529575,45.613426000000004]}},{"type":"Feature","properties":{"ZIP":"B9A1B5","VERTICES":5},"geometry":{"type":"Point","coordinates":[-61.442668499999996,45.738948]}},{"type":"Feature","properties":{"ZIP":"B9A2E1","VERTICES":5},"geometry":{"type":"Point","coordinates":[-61.364864499999996,45.620331500000006]}},{"type":"Feature","properties":{"ZIP":"B9A2V2","VERTICES":5},"geometry":{"type":"Point","coordinates":[-61.358863,45.613493000000005]}},{"type":"Feature","properties":{"ZIP":"B9A3J8","VERTICES":5},"geometry":{"type":"Point","coordinates":[-61.3333315,45.612486000000004]}},{"type":"Feature","properties":{"ZIP":"B9A2X1","VERTICES":5},"geometry":{"type":"Point","coordinates":[-61.3499825,45.6117035]}},{"type":"Feature","properties":{"ZIP":"B9A1L6","VERTICES":5},"geometry":{"type":"Point","coordinates":[-61.4004555,45.648056499999996]}},{"type":"Feature","properties":{"ZIP":"B9A2J6","VERTICES":5},"geometry":{"type":"Point","coordinates":[-61.360084,45.6171735]}},{"type":"Feature","properties":{"ZIP":"B9A2Z4","VERTICES":5},"geometry":{"type":"Point","coordinates":[-61.352272,45.614351]}},{"type":"Feature","properties":{"ZIP":"B9A3G8","VERTICES":5},"geometry":{"type":"Point","coordinates":[-61.3375475,45.617468]}},{"type":"Feature","properties":{"ZIP":"B9A1B9","VERTICES":5},"geometry":{"type":"Point","coordinates":[-61.4583985,45.7285725]}},{"type":"Feature","properties":{"ZIP":"B9A3K4","VERTICES":5},"geometry":{"type":"Point","coordinates":[-61.338455999999994,45.614445]}},{"type":"Feature","properties":{"ZIP":"B9A1W9","VERTICES":5},"geometry":{"type":"Point","coordinates":[-61.3517515,45.6316705]}},{"type":"Feature","properties":{"ZIP":"B9A2X3","VERTICES":5},"geometry":{"type":"Point","coordinates":[-61.355510499999994,45.6148315]}},{"type":"Feature","properties":{"ZIP":"B9A3E6","VERTICES":5},"geometry":{"type":"Point","coordinates":[-61.336263,45.6185715]}},{"type":"Feature","properties":{"ZIP":"B9A3M7","VERTICES":5},"geometry":{"type":"Point","coordinates":[-61.3453495,45.610767]}},{"type":"Feature","properties":{"ZIP":"B9A1L7","VERTICES":5},"geometry":{"type":"Point","coordinates":[-61.400456500000004,45.648023]}},{"type":"Feature","properties":{"ZIP":"B9A2B9","VERTICES":5},"geometry":{"type":"Point","coordinates":[-61.361415,45.619558999999995]}},{"type":"Feature","properties":{"ZIP":"B9A2J7","VERTICES":5},"geometry":{"type":"Point","coordinates":[-61.360084,45.6171735]}},{"type":"Feature","properties":{"ZIP":"B9A2R7","VERTICES":5},"geometry":{"type":"Point","coordinates":[-61.35255,45.6153725]}},{"type":"Feature","properties":{"ZIP":"B9A1P7","VERTICES":5},"geometry":{"type":"Point","coordinates":[-61.3730215,45.635033500000006]}},{"type":"Feature","properties":{"ZIP":"B9A1J2","VERTICES":5},"geometry":{"type":"Point","coordinates":[-61.41833,45.661277999999996]}},{"type":"Feature","properties":{"ZIP":"B9A1X2","VERTICES":5},"geometry":{"type":"Point","coordinates":[-61.3320565,45.6712925]}},{"type":"Feature","properties":{"ZIP":"B9A1L8","VERTICES":5},"geometry":{"type":"Point","coordinates":[-61.401386,45.647024]}},{"type":"Feature","properties":{"ZIP":"B9A2C2","VERTICES":5},"geometry":{"type":"Point","coordinates":[-61.359763,45.6178035]}},{"type":"Feature","properties":{"ZIP":"B9A2S5","VERTICES":5},"geometry":{"type":"Point","coordinates":[-61.36227,45.6142015]}},{"type":"Feature","properties":{"ZIP":"B9A3H3","VERTICES":5},"geometry":{"type":"Point","coordinates":[-61.338208,45.621539999999996]}},{"type":"Feature","properties":{"ZIP":"B9A2V7","VERTICES":5},"geometry":{"type":"Point","coordinates":[-61.353072,45.611312]}},{"type":"Feature","properties":{"ZIP":"B9A3L2","VERTICES":5},"geometry":{"type":"Point","coordinates":[-61.348425000000006,45.611249]}},{"type":"Feature","properties":{"ZIP":"B9A1X8","VERTICES":5},"geometry":{"type":"Point","coordinates":[-61.370903999999996,45.6444525]}},{"type":"Feature","properties":{"ZIP":"B9A2G8","VERTICES":5},"geometry":{"type":"Point","coordinates":[-61.360791,45.6190795]}},{"type":"Feature","properties":{"ZIP":"B9A2N1","VERTICES":5},"geometry":{"type":"Point","coordinates":[-61.3605695,45.612313]}},{"type":"Feature","properties":{"ZIP":"B9A2X7","VERTICES":5},"geometry":{"type":"Point","coordinates":[-61.3506725,45.6131805]}},{"type":"Feature","properties":{"ZIP":"B9A3E8","VERTICES":5},"geometry":{"type":"Point","coordinates":[-61.337138499999995,45.619073]}},{"type":"Feature","properties":{"ZIP":"B9A1L9","VERTICES":5},"geometry":{"type":"Point","coordinates":[-61.402018999999996,45.647245999999996]}},{"type":"Feature","properties":{"ZIP":"B9A2S9","VERTICES":5},"geometry":{"type":"Point","coordinates":[-61.358952,45.6157795]}},{"type":"Feature","properties":{"ZIP":"B9A3P5","VERTICES":5},"geometry":{"type":"Point","coordinates":[-61.341679,45.610068999999996]}},{"type":"Feature","properties":{"ZIP":"B9A1Y7","VERTICES":5},"geometry":{"type":"Point","coordinates":[-61.3578895,45.606405]}},{"type":"Feature","properties":{"ZIP":"B9A2N2","VERTICES":5},"geometry":{"type":"Point","coordinates":[-61.3603235,45.6122085]}},{"type":"Feature","properties":{"ZIP":"B9A2X8","VERTICES":5},"geometry":{"type":"Point","coordinates":[-61.3499575,45.612939499999996]}},{"type":"Feature","properties":{"ZIP":"B9A3N1","VERTICES":5},"geometry":{"type":"Point","coordinates":[-61.344759499999995,45.610297]}},{"type":"Feature","properties":{"ZIP":"B9A2C4","VERTICES":5},"geometry":{"type":"Point","coordinates":[-61.3672035,45.620827000000006]}},{"type":"Feature","properties":{"ZIP":"B9A3P6","VERTICES":5},"geometry":{"type":"Point","coordinates":[-61.342181499999995,45.610351]}},{"type":"Feature","properties":{"ZIP":"B9A1Z9","VERTICES":5},"geometry":{"type":"Point","coordinates":[-61.372136999999995,45.6274985]}},{"type":"Feature","properties":{"ZIP":"B9A3N2","VERTICES":5},"geometry":{"type":"Point","coordinates":[-61.344759499999995,45.610297]}},{"type":"Feature","properties":{"ZIP":"B9A2C5","VERTICES":5},"geometry":{"type":"Point","coordinates":[-61.365886,45.6209865]}},{"type":"Feature","properties":{"ZIP":"B9A2T2","VERTICES":5},"geometry":{"type":"Point","coordinates":[-61.355645499999994,45.6171415]}},{"type":"Feature","properties":{"ZIP":"B9A3A5","VERTICES":5},"geometry":{"type":"Point","coordinates":[-61.354496,45.612354999999994]}},{"type":"Feature","properties":{"ZIP":"B9A3P9","VERTICES":5},"geometry":{"type":"Point","coordinates":[-61.342708,45.6105705]}},{"type":"Feature","properties":{"ZIP":"B9A1G6","VERTICES":5},"geometry":{"type":"Point","coordinates":[-61.437114,45.684956]}},{"type":"Feature","properties":{"ZIP":"B9A3C7","VERTICES":5},"geometry":{"type":"Point","coordinates":[-61.3502815,45.609615000000005]}},{"type":"Feature","properties":{"ZIP":"B9A3L7","VERTICES":5},"geometry":{"type":"Point","coordinates":[-61.3471995,45.611549999999994]}},{"type":"Feature","properties":{"ZIP":"B9A2H4","VERTICES":5},"geometry":{"type":"Point","coordinates":[-61.362381,45.618393999999995]}},{"type":"Feature","properties":{"ZIP":"B9A2N6","VERTICES":5},"geometry":{"type":"Point","coordinates":[-61.355538499999994,45.6107605]}},{"type":"Feature","properties":{"ZIP":"B9A3G3","VERTICES":5},"geometry":{"type":"Point","coordinates":[-61.336502499999995,45.61804]}},{"type":"Feature","properties":{"ZIP":"B9A2T3","VERTICES":5},"geometry":{"type":"Point","coordinates":[-61.3558715,45.6169345]}},{"type":"Feature","properties":{"ZIP":"B9A3A8","VERTICES":5},"geometry":{"type":"Point","coordinates":[-61.351670999999996,45.6129445]}},{"type":"Feature","properties":{"ZIP":"B9A3H7","VERTICES":5},"geometry":{"type":"Point","coordinates":[-61.3368625,45.619752500000004]}},{"type":"Feature","properties":{"ZIP":"B9A3R3","VERTICES":5},"geometry":{"type":"Point","coordinates":[-61.3424275,45.610091]}},{"type":"Feature","properties":{"ZIP":"B9A1S8","VERTICES":5},"geometry":{"type":"Point","coordinates":[-61.3367605,45.716781]}},{"type":"Feature","properties":{"ZIP":"B9A3C8","VERTICES":5},"geometry":{"type":"Point","coordinates":[-61.350361,45.6095075]}},{"type":"Feature","properties":{"ZIP":"B9A3L8","VERTICES":5},"geometry":{"type":"Point","coordinates":[-61.3471995,45.611549999999994]}},{"type":"Feature","properties":{"ZIP":"B9A1K6","VERTICES":5},"geometry":{"type":"Point","coordinates":[-61.4038305,45.650411]}},{"type":"Feature","properties":{"ZIP":"B9A2H9","VERTICES":5},"geometry":{"type":"Point","coordinates":[-61.3572675,45.6186055]}},{"type":"Feature","properties":{"ZIP":"B9A2N8","VERTICES":5},"geometry":{"type":"Point","coordinates":[-61.350925000000004,45.6090385]}},{"type":"Feature","properties":{"ZIP":"B9A2Y3","VERTICES":5},"geometry":{"type":"Point","coordinates":[-61.3577595,45.6135445]}},{"type":"Feature","properties":{"ZIP":"B9A3G4","VERTICES":5},"geometry":{"type":"Point","coordinates":[-61.336639000000005,45.617642000000004]}},{"type":"Feature","properties":{"ZIP":"B9A3N4","VERTICES":5},"geometry":{"type":"Point","coordinates":[-61.341508000000005,45.6093475]}},{"type":"Feature","properties":{"ZIP":"B9A3L9","VERTICES":5},"geometry":{"type":"Point","coordinates":[-61.346805,45.612199000000004]}},{"type":"Feature","properties":{"ZIP":"B9A3N7","VERTICES":5},"geometry":{"type":"Point","coordinates":[-61.3441575,45.6109255]}},{"type":"Feature","properties":{"ZIP":"B9A2K7","VERTICES":5},"geometry":{"type":"Point","coordinates":[-61.3527695,45.6174175]}},{"type":"Feature","properties":{"ZIP":"B9A3B4","VERTICES":5},"geometry":{"type":"Point","coordinates":[-61.3438835,45.6153445]}},{"type":"Feature","properties":{"ZIP":"B9A3M5","VERTICES":4},"geometry":{"type":"Point","coordinates":[-61.343582,45.6096535]}},{"type":"Feature","properties":{"ZIP":"B9A1C5","VERTICES":4},"geometry":{"type":"Point","coordinates":[-61.453244,45.726938000000004]}},{"type":"Feature","properties":{"ZIP":"B9A2L2","VERTICES":4},"geometry":{"type":"Point","coordinates":[-61.3592515,45.621245]}},{"type":"Feature","properties":{"ZIP":"B9A2G6","VERTICES":4},"geometry":{"type":"Point","coordinates":[-61.362966,45.616922]}},{"type":"Feature","properties":{"ZIP":"B9A1C6","VERTICES":4},"geometry":{"type":"Point","coordinates":[-61.454166,45.724885]}},{"type":"Feature","properties":{"ZIP":"B9A2H1","VERTICES":4},"geometry":{"type":"Point","coordinates":[-61.361515999999995,45.6187375]}},{"type":"Feature","properties":{"ZIP":"B9A1E5","VERTICES":4},"geometry":{"type":"Point","coordinates":[-61.4476985,45.710009]}},{"type":"Feature","properties":{"ZIP":"B9A2H3","VERTICES":4},"geometry":{"type":"Point","coordinates":[-61.3624155,45.6183805]}},{"type":"Feature","properties":{"ZIP":"B9A1N5","VERTICES":4},"geometry":{"type":"Point","coordinates":[-61.3985955,45.6457235]}},{"type":"Feature","properties":{"ZIP":"B9A2K4","VERTICES":4},"geometry":{"type":"Point","coordinates":[-61.357251,45.619928]}},{"type":"Feature","properties":{"ZIP":"B9A2K5","VERTICES":4},"geometry":{"type":"Point","coordinates":[-61.357251,45.619928]}},{"type":"Feature","properties":{"ZIP":"B9A2T7","VERTICES":4},"geometry":{"type":"Point","coordinates":[-61.3580755,45.6152395]}},{"type":"Feature","properties":{"ZIP":"B9A1C7","VERTICES":3},"geometry":{"type":"Point","coordinates":[-61.455873,45.724657]}}]}