{"type":"FeatureCollection","features":[{"type":"Feature","properties":{"ZIP":"E1B2W6"},"geometry":{"type":"Point","coordinates":[-64.82352900000001,46.053876]}},{"type":"Feature","properties":{"ZIP":"E1B2L6"},"geometry":{"type":"Point","coordinates":[-64.78944849999999,46.060162000000005]}},{"type":"Feature","properties":{"ZIP":"E1B0C1"},"geometry":{"type":"Point","coordinates":[-64.7599565,46.0728445]}},{"type":"Feature","properties":{"ZIP":"E1B3M3"},"geometry":{"type":"Point","coordinates":[-64.810405,46.0486735]}},{"type":"Feature","properties":{"ZIP":"E1B3R6"},"geometry":{"type":"Point","coordinates":[-64.804555,46.0484855]}},{"type":"Feature","properties":{"ZIP":"E1B3G1"},"geometry":{"type":"Point","coordinates":[-64.813053,46.0538485]}},{"type":"Feature","properties":{"ZIP":"E1B4E3"},"geometry":{"type":"Point","coordinates":[-64.8024205,46.042918]}},{"type":"Feature","properties":{"ZIP":"E1B3E3"},"geometry":{"type":"Point","coordinates":[-64.80689749999999,46.052075]}},{"type":"Feature","properties":{"ZIP":"E1B4M5"},"geometry":{"type":"Point","coordinates":[-64.7695325,46.0742255]}},{"type":"Feature","properties":{"ZIP":"E1B2N8"},"geometry":{"type":"Point","coordinates":[-64.805662,46.058491000000004]}},{"type":"Feature","properties":{"ZIP":"E1B3E6"},"geometry":{"type":"Point","coordinates":[-64.806575,46.052034000000006]}},{"type":"Feature","properties":{"ZIP":"E1B4L5"},"geometry":{"type":"Point","coordinates":[-64.80847399999999,46.041433]}},{"type":"Feature","properties":{"ZIP":"E1B3N1"},"geometry":{"type":"Point","coordinates":[-64.753547,46.074047]}},{"type":"Feature","properties":{"ZIP":"E1B4M1"},"geometry":{"type":"Point","coordinates":[-64.817992,46.052783]}},{"type":"Feature","properties":{"ZIP":"E1B3G4"},"geometry":{"type":"Point","coordinates":[-64.8118815,46.050996]}},{"type":"Feature","properties":{"ZIP":"E1B5T4"},"geometry":{"type":"Point","coordinates":[-64.82451850000001,46.060146]}},{"type":"Feature","properties":{"ZIP":"E1B4X7"},"geometry":{"type":"Point","coordinates":[-64.79340400000001,46.0605105]}},{"type":"Feature","properties":{"ZIP":"E1B3E1"},"geometry":{"type":"Point","coordinates":[-64.8087175,46.053892000000005]}},{"type":"Feature","properties":{"ZIP":"E1B2W1"},"geometry":{"type":"Point","coordinates":[-64.81966249999999,46.0556785]}},{"type":"Feature","properties":{"ZIP":"E1B4E9"},"geometry":{"type":"Point","coordinates":[-64.818406,46.044788]}},{"type":"Feature","properties":{"ZIP":"E1B4L3"},"geometry":{"type":"Point","coordinates":[-64.806945,46.041019500000004]}},{"type":"Feature","properties":{"ZIP":"E1B2V1"},"geometry":{"type":"Point","coordinates":[-64.815175,46.055966999999995]}},{"type":"Feature","properties":{"ZIP":"E1B2S4"},"geometry":{"type":"Point","coordinates":[-64.811556,46.059095]}},{"type":"Feature","properties":{"ZIP":"E1B1E1"},"geometry":{"type":"Point","coordinates":[-64.7628245,46.0738425]}},{"type":"Feature","properties":{"ZIP":"E1B5H1"},"geometry":{"type":"Point","coordinates":[-64.841208,46.04993399999999]}},{"type":"Feature","properties":{"ZIP":"E1B2Z9"},"geometry":{"type":"Point","coordinates":[-64.8119495,46.054476]}},{"type":"Feature","properties":{"ZIP":"E1B4X3"},"geometry":{"type":"Point","coordinates":[-64.8242515,46.0527815]}},{"type":"Feature","properties":{"ZIP":"E1B3P5"},"geometry":{"type":"Point","coordinates":[-64.801234,46.0496]}},{"type":"Feature","properties":{"ZIP":"E1B4B3"},"geometry":{"type":"Point","coordinates":[-64.7440695,46.067503]}},{"type":"Feature","properties":{"ZIP":"E1B3A1"},"geometry":{"type":"Point","coordinates":[-64.80979450000001,46.0546875]}},{"type":"Feature","properties":{"ZIP":"E1B5K4"},"geometry":{"type":"Point","coordinates":[-64.82051200000001,46.061047]}},{"type":"Feature","properties":{"ZIP":"E1B2R1"},"geometry":{"type":"Point","coordinates":[-64.80927299999999,46.060172]}},{"type":"Feature","properties":{"ZIP":"E1B4K2"},"geometry":{"type":"Point","coordinates":[-64.814927,46.043964]}},{"type":"Feature","properties":{"ZIP":"E1B3C7"},"geometry":{"type":"Point","coordinates":[-64.808453,46.0540255]}},{"type":"Feature","properties":{"ZIP":"E1B4E1"},"geometry":{"type":"Point","coordinates":[-64.800815,46.040857]}},{"type":"Feature","properties":{"ZIP":"E1B2X2"},"geometry":{"type":"Point","coordinates":[-64.8098745,46.050661000000005]}},{"type":"Feature","properties":{"ZIP":"E1B4K4"},"geometry":{"type":"Point","coordinates":[-64.8181935,46.044301000000004]}},{"type":"Feature","properties":{"ZIP":"E1B2H3"},"geometry":{"type":"Point","coordinates":[-64.799466,46.0585105]}},{"type":"Feature","properties":{"ZIP":"E1B1T9"},"geometry":{"type":"Point","coordinates":[-64.7896645,46.059704499999995]}},{"type":"Feature","properties":{"ZIP":"E1B3C9"},"geometry":{"type":"Point","coordinates":[-64.80857950000001,46.053539]}},{"type":"Feature","properties":{"ZIP":"E1B3G5"},"geometry":{"type":"Point","coordinates":[-64.81199950000001,46.0513555]}},{"type":"Feature","properties":{"ZIP":"E1B1V2"},"geometry":{"type":"Point","coordinates":[-64.788839,46.05797]}},{"type":"Feature","properties":{"ZIP":"E1B4R5"},"geometry":{"type":"Point","coordinates":[-64.768204,46.0740355]}},{"type":"Feature","properties":{"ZIP":"E1B2T5"},"geometry":{"type":"Point","coordinates":[-64.813614,46.057686000000004]}},{"type":"Feature","properties":{"ZIP":"E1B3A7"},"geometry":{"type":"Point","coordinates":[-64.80762250000001,46.05502]}},{"type":"Feature","properties":{"ZIP":"E1B2R7"},"geometry":{"type":"Point","coordinates":[-64.8094625,46.0579015]}},{"type":"Feature","properties":{"ZIP":"E1B2Z5"},"geometry":{"type":"Point","coordinates":[-64.8075125,46.0562255]}},{"type":"Feature","properties":{"ZIP":"E1B3E5"},"geometry":{"type":"Point","coordinates":[-64.80675450000001,46.052792499999995]}},{"type":"Feature","properties":{"ZIP":"E1B2W3"},"geometry":{"type":"Point","coordinates":[-64.8194685,46.0550515]}},{"type":"Feature","properties":{"ZIP":"E1B3G9"},"geometry":{"type":"Point","coordinates":[-64.82137399999999,46.062039]}},{"type":"Feature","properties":{"ZIP":"E1B4Y2"},"geometry":{"type":"Point","coordinates":[-64.782296,46.048794]}},{"type":"Feature","properties":{"ZIP":"E1B2P2"},"geometry":{"type":"Point","coordinates":[-64.8039775,46.0543695]}},{"type":"Feature","properties":{"ZIP":"E1B2W4"},"geometry":{"type":"Point","coordinates":[-64.820461,46.0542735]}},{"type":"Feature","properties":{"ZIP":"E1B3P3"},"geometry":{"type":"Point","coordinates":[-64.8025945,46.046240499999996]}},{"type":"Feature","properties":{"ZIP":"E1B3C4"},"geometry":{"type":"Point","coordinates":[-64.81940850000001,46.053247]}},{"type":"Feature","properties":{"ZIP":"E1B4C7"},"geometry":{"type":"Point","coordinates":[-64.79943449999999,46.0450895]}},{"type":"Feature","properties":{"ZIP":"E1B0A8"},"geometry":{"type":"Point","coordinates":[-64.7581395,46.0727185]}},{"type":"Feature","properties":{"ZIP":"E1B1J9"},"geometry":{"type":"Point","coordinates":[-64.77272450000001,46.070285999999996]}},{"type":"Feature","properties":{"ZIP":"E1B3M8"},"geometry":{"type":"Point","coordinates":[-64.80866850000001,46.0499045]}},{"type":"Feature","properties":{"ZIP":"E1B3H9"},"geometry":{"type":"Point","coordinates":[-64.80545699999999,46.0648385]}},{"type":"Feature","properties":{"ZIP":"E1B1T3"},"geometry":{"type":"Point","coordinates":[-64.7890525,46.0631155]}},{"type":"Feature","properties":{"ZIP":"E1B2P7"},"geometry":{"type":"Point","coordinates":[-64.8068455,46.058902]}},{"type":"Feature","properties":{"ZIP":"E1B4J8"},"geometry":{"type":"Point","coordinates":[-64.7908635,46.057315]}},{"type":"Feature","properties":{"ZIP":"E1B3R7"},"geometry":{"type":"Point","coordinates":[-64.80461650000001,46.048378]}},{"type":"Feature","properties":{"ZIP":"E1B5A6"},"geometry":{"type":"Point","coordinates":[-64.84482399999999,46.0494125]}},{"type":"Feature","properties":{"ZIP":"E1B0B1"},"geometry":{"type":"Point","coordinates":[-64.75815399999999,46.072801]}},{"type":"Feature","properties":{"ZIP":"E1B4H3"},"geometry":{"type":"Point","coordinates":[-64.8224745,46.0481425]}},{"type":"Feature","properties":{"ZIP":"E1B4N7"},"geometry":{"type":"Point","coordinates":[-64.785001,46.0535615]}},{"type":"Feature","properties":{"ZIP":"E1B2X1"},"geometry":{"type":"Point","coordinates":[-64.81264,46.0501105]}},{"type":"Feature","properties":{"ZIP":"E1B4P9"},"geometry":{"type":"Point","coordinates":[-64.78585849999999,46.0541745]}},{"type":"Feature","properties":{"ZIP":"E1B1A5"},"geometry":{"type":"Point","coordinates":[-64.755852,46.075022000000004]}},{"type":"Feature","properties":{"ZIP":"E1B1H9"},"geometry":{"type":"Point","coordinates":[-64.77111,46.074979]}},{"type":"Feature","properties":{"ZIP":"E1B3G2"},"geometry":{"type":"Point","coordinates":[-64.81273350000001,46.0530495]}},{"type":"Feature","properties":{"ZIP":"E1B3B5"},"geometry":{"type":"Point","coordinates":[-64.8160895,46.055479]}},{"type":"Feature","properties":{"ZIP":"E1B3P7"},"geometry":{"type":"Point","coordinates":[-64.806984,46.048443500000005]}},{"type":"Feature","properties":{"ZIP":"E1B4B7"},"geometry":{"type":"Point","coordinates":[-64.8000185,46.04401]}},{"type":"Feature","properties":{"ZIP":"E1B1A6"},"geometry":{"type":"Point","coordinates":[-64.756107,46.075979000000004]}},{"type":"Feature","properties":{"ZIP":"E1B5B1"},"geometry":{"type":"Point","coordinates":[-64.8593755,46.0457285]}},{"type":"Feature","properties":{"ZIP":"E1B5H6"},"geometry":{"type":"Point","coordinates":[-64.838768,46.051396]}},{"type":"Feature","properties":{"ZIP":"E1B4R2"},"geometry":{"type":"Point","coordinates":[-64.82128700000001,46.050399999999996]}},{"type":"Feature","properties":{"ZIP":"E1B1C2"},"geometry":{"type":"Point","coordinates":[-64.76196250000001,46.077759]}},{"type":"Feature","properties":{"ZIP":"E1B2N6"},"geometry":{"type":"Point","coordinates":[-64.8065675,46.0606925]}},{"type":"Feature","properties":{"ZIP":"E1B4A3"},"geometry":{"type":"Point","coordinates":[-64.81624099999999,46.047439]}},{"type":"Feature","properties":{"ZIP":"E1B2R5"},"geometry":{"type":"Point","coordinates":[-64.8103605,46.0599045]}},{"type":"Feature","properties":{"ZIP":"E1B3B7"},"geometry":{"type":"Point","coordinates":[-64.82126450000001,46.0570805]}},{"type":"Feature","properties":{"ZIP":"E1B5J3"},"geometry":{"type":"Point","coordinates":[-64.784506,46.041957499999995]}},{"type":"Feature","properties":{"ZIP":"E1B3G7"},"geometry":{"type":"Point","coordinates":[-64.809863,46.051759000000004]}},{"type":"Feature","properties":{"ZIP":"E1B3B8"},"geometry":{"type":"Point","coordinates":[-64.822652,46.056441500000005]}},{"type":"Feature","properties":{"ZIP":"E1B3R1"},"geometry":{"type":"Point","coordinates":[-64.800808,46.049040500000004]}},{"type":"Feature","properties":{"ZIP":"E1B4C3"},"geometry":{"type":"Point","coordinates":[-64.802292,46.0418345]}},{"type":"Feature","properties":{"ZIP":"E1B2A6"},"geometry":{"type":"Point","coordinates":[-64.79524900000001,46.0557825]}},{"type":"Feature","properties":{"ZIP":"E1B4E5"},"geometry":{"type":"Point","coordinates":[-64.80183500000001,46.0417575]}},{"type":"Feature","properties":{"ZIP":"E1B1N8"},"geometry":{"type":"Point","coordinates":[-64.7756505,46.072190500000005]}},{"type":"Feature","properties":{"ZIP":"E1B3M5"},"geometry":{"type":"Point","coordinates":[-64.8101235,46.048434]}},{"type":"Feature","properties":{"ZIP":"E1B4E6"},"geometry":{"type":"Point","coordinates":[-64.78866049999999,46.056953]}},{"type":"Feature","properties":{"ZIP":"E1B1C6"},"geometry":{"type":"Point","coordinates":[-64.762595,46.0775005]}},{"type":"Feature","properties":{"ZIP":"E1B4A7"},"geometry":{"type":"Point","coordinates":[-64.816869,46.047270499999996]}},{"type":"Feature","properties":{"ZIP":"E1B3C2"},"geometry":{"type":"Point","coordinates":[-64.8217995,46.055932]}},{"type":"Feature","properties":{"ZIP":"E1B4C5"},"geometry":{"type":"Point","coordinates":[-64.806153,46.043153000000004]}},{"type":"Feature","properties":{"ZIP":"E1B5N9"},"geometry":{"type":"Point","coordinates":[-64.82285949999999,46.0523225]}},{"type":"Feature","properties":{"ZIP":"E1B4W6"},"geometry":{"type":"Point","coordinates":[-64.8113025,46.046711]}},{"type":"Feature","properties":{"ZIP":"E1B4Y3"},"geometry":{"type":"Point","coordinates":[-64.859163,46.045395]}},{"type":"Feature","properties":{"ZIP":"E1B3R4"},"geometry":{"type":"Point","coordinates":[-64.808382,46.049279]}},{"type":"Feature","properties":{"ZIP":"E1B4C6"},"geometry":{"type":"Point","coordinates":[-64.80618799999999,46.043153000000004]}},{"type":"Feature","properties":{"ZIP":"E1B3E7"},"geometry":{"type":"Point","coordinates":[-64.80657550000001,46.052034500000005]}},{"type":"Feature","properties":{"ZIP":"E1B4W7"},"geometry":{"type":"Point","coordinates":[-64.7875085,46.0538265]}},{"type":"Feature","properties":{"ZIP":"E1B2W5"},"geometry":{"type":"Point","coordinates":[-64.82046199999999,46.054275000000004]}},{"type":"Feature","properties":{"ZIP":"E1B3R5"},"geometry":{"type":"Point","coordinates":[-64.80838800000001,46.0492955]}},{"type":"Feature","properties":{"ZIP":"E1B3X7"},"geometry":{"type":"Point","coordinates":[-64.7488415,46.067062500000006]}},{"type":"Feature","properties":{"ZIP":"E1B2L4"},"geometry":{"type":"Point","coordinates":[-64.7891455,46.0603205]}},{"type":"Feature","properties":{"ZIP":"E1B4N3"},"geometry":{"type":"Point","coordinates":[-64.81554249999999,46.041346000000004]}},{"type":"Feature","properties":{"ZIP":"E1B5B9"},"geometry":{"type":"Point","coordinates":[-64.84273350000001,46.0510115]}},{"type":"Feature","properties":{"ZIP":"E1B1S8"},"geometry":{"type":"Point","coordinates":[-64.7892305,46.067294000000004]}},{"type":"Feature","properties":{"ZIP":"E1B2C3"},"geometry":{"type":"Point","coordinates":[-64.7967945,46.057048]}},{"type":"Feature","properties":{"ZIP":"E1B2P6"},"geometry":{"type":"Point","coordinates":[-64.808083,46.059679]}},{"type":"Feature","properties":{"ZIP":"E1B4B1"},"geometry":{"type":"Point","coordinates":[-64.81619599999999,46.0473145]}},{"type":"Feature","properties":{"ZIP":"E1B5M5"},"geometry":{"type":"Point","coordinates":[-64.77015800000001,46.072785999999994]}},{"type":"Feature","properties":{"ZIP":"E1B1A2"},"geometry":{"type":"Point","coordinates":[-64.755523,46.075646000000006]}},{"type":"Feature","properties":{"ZIP":"E1B1H2"},"geometry":{"type":"Point","coordinates":[-64.7608165,46.0791325]}},{"type":"Feature","properties":{"ZIP":"E1B2E6"},"geometry":{"type":"Point","coordinates":[-64.799171,46.060585]}},{"type":"Feature","properties":{"ZIP":"E1B2S5"},"geometry":{"type":"Point","coordinates":[-64.8114485,46.0577685]}},{"type":"Feature","properties":{"ZIP":"E1B3L4"},"geometry":{"type":"Point","coordinates":[-64.818269,46.060836]}},{"type":"Feature","properties":{"ZIP":"E1B4C8"},"geometry":{"type":"Point","coordinates":[-64.8049,46.042769500000006]}},{"type":"Feature","properties":{"ZIP":"E1B3E9"},"geometry":{"type":"Point","coordinates":[-64.812824,46.053273000000004]}},{"type":"Feature","properties":{"ZIP":"E1B3B3"},"geometry":{"type":"Point","coordinates":[-64.81596049999999,46.0569335]}},{"type":"Feature","properties":{"ZIP":"E1B1A3"},"geometry":{"type":"Point","coordinates":[-64.7555215,46.0756455]}},{"type":"Feature","properties":{"ZIP":"E1B1H8"},"geometry":{"type":"Point","coordinates":[-64.77093500000001,46.075171499999996]}},{"type":"Feature","properties":{"ZIP":"E1B4S4"},"geometry":{"type":"Point","coordinates":[-64.793716,46.058698500000006]}},{"type":"Feature","properties":{"ZIP":"E1B1T4"},"geometry":{"type":"Point","coordinates":[-64.788453,46.061327500000004]}},{"type":"Feature","properties":{"ZIP":"E1B4B6"},"geometry":{"type":"Point","coordinates":[-64.80044749999999,46.0438555]}},{"type":"Feature","properties":{"ZIP":"E1B2K5"},"geometry":{"type":"Point","coordinates":[-64.790479,46.0644395]}},{"type":"Feature","properties":{"ZIP":"E1B4L9"},"geometry":{"type":"Point","coordinates":[-64.81615,46.044661500000004]}},{"type":"Feature","properties":{"ZIP":"E1B3A2"},"geometry":{"type":"Point","coordinates":[-64.8078565,46.055220500000004]}},{"type":"Feature","properties":{"ZIP":"E1B4N8"},"geometry":{"type":"Point","coordinates":[-64.809992,46.0456285]}},{"type":"Feature","properties":{"ZIP":"E1B1L7"},"geometry":{"type":"Point","coordinates":[-64.7773875,46.071404]}},{"type":"Feature","properties":{"ZIP":"E1B2C6"},"geometry":{"type":"Point","coordinates":[-64.795511,46.0535715]}},{"type":"Feature","properties":{"ZIP":"E1B2R3"},"geometry":{"type":"Point","coordinates":[-64.8090625,46.0595655]}},{"type":"Feature","properties":{"ZIP":"E1B3W7"},"geometry":{"type":"Point","coordinates":[-64.7471545,46.065351]}},{"type":"Feature","properties":{"ZIP":"E1B1W3"},"geometry":{"type":"Point","coordinates":[-64.7959745,46.066576]}},{"type":"Feature","properties":{"ZIP":"E1B2T2"},"geometry":{"type":"Point","coordinates":[-64.81294249999999,46.057691]}},{"type":"Feature","properties":{"ZIP":"E1B3C8"},"geometry":{"type":"Point","coordinates":[-64.808453,46.0540255]}},{"type":"Feature","properties":{"ZIP":"E1B4E2"},"geometry":{"type":"Point","coordinates":[-64.8012645,46.041385]}},{"type":"Feature","properties":{"ZIP":"E1B1K4"},"geometry":{"type":"Point","coordinates":[-64.775237,46.0742045]}},{"type":"Feature","properties":{"ZIP":"E1B3A3"},"geometry":{"type":"Point","coordinates":[-64.81506,46.0536925]}},{"type":"Feature","properties":{"ZIP":"E1B4H6"},"geometry":{"type":"Point","coordinates":[-64.8197585,46.047916]}},{"type":"Feature","properties":{"ZIP":"E1B4N9"},"geometry":{"type":"Point","coordinates":[-64.8086055,46.0446395]}},{"type":"Feature","properties":{"ZIP":"E1B4X6"},"geometry":{"type":"Point","coordinates":[-64.785829,46.052639]}},{"type":"Feature","properties":{"ZIP":"E1B5C5"},"geometry":{"type":"Point","coordinates":[-64.8365845,46.052181000000004]}},{"type":"Feature","properties":{"ZIP":"E1B3B6"},"geometry":{"type":"Point","coordinates":[-64.816032,46.0554905]}},{"type":"Feature","properties":{"ZIP":"E1B3P8"},"geometry":{"type":"Point","coordinates":[-64.80656200000001,46.048755]}},{"type":"Feature","properties":{"ZIP":"E1B4K5"},"geometry":{"type":"Point","coordinates":[-64.816784,46.044694]}},{"type":"Feature","properties":{"ZIP":"E1B1A7"},"geometry":{"type":"Point","coordinates":[-64.756299,46.076949]}},{"type":"Feature","properties":{"ZIP":"E1B2A4"},"geometry":{"type":"Point","coordinates":[-64.7957835,46.057227499999996]}},{"type":"Feature","properties":{"ZIP":"E1B2K7"},"geometry":{"type":"Point","coordinates":[-64.79006150000001,46.063897499999996]}},{"type":"Feature","properties":{"ZIP":"E1B3M2"},"geometry":{"type":"Point","coordinates":[-64.8053075,46.051551]}},{"type":"Feature","properties":{"ZIP":"E1B4S7"},"geometry":{"type":"Point","coordinates":[-64.7928885,46.0564335]}},{"type":"Feature","properties":{"ZIP":"E1B2V9"},"geometry":{"type":"Point","coordinates":[-64.8208355,46.058644]}},{"type":"Feature","properties":{"ZIP":"E1B3A4"},"geometry":{"type":"Point","coordinates":[-64.813091,46.054007999999996]}},{"type":"Feature","properties":{"ZIP":"E1B3N7"},"geometry":{"type":"Point","coordinates":[-64.8020155,46.049418]}},{"type":"Feature","properties":{"ZIP":"E1B1V1"},"geometry":{"type":"Point","coordinates":[-64.7914155,46.062088]}},{"type":"Feature","properties":{"ZIP":"E1B4Z5"},"geometry":{"type":"Point","coordinates":[-64.84943,46.049051000000006]}},{"type":"Feature","properties":{"ZIP":"E1B5N6"},"geometry":{"type":"Point","coordinates":[-64.7821045,46.042054]}},{"type":"Feature","properties":{"ZIP":"E1B1N5"},"geometry":{"type":"Point","coordinates":[-64.77359849999999,46.0699645]}},{"type":"Feature","properties":{"ZIP":"E1B2A5"},"geometry":{"type":"Point","coordinates":[-64.7957835,46.057227499999996]}},{"type":"Feature","properties":{"ZIP":"E1B2Z3"},"geometry":{"type":"Point","coordinates":[-64.810417,46.0567755]}},{"type":"Feature","properties":{"ZIP":"E1B3S2"},"geometry":{"type":"Point","coordinates":[-64.813705,46.061192500000004]}},{"type":"Feature","properties":{"ZIP":"E1B4E4"},"geometry":{"type":"Point","coordinates":[-64.801855,46.04182]}},{"type":"Feature","properties":{"ZIP":"E1B5B3"},"geometry":{"type":"Point","coordinates":[-64.847129,46.048497499999996]}},{"type":"Feature","properties":{"ZIP":"E1B2H5"},"geometry":{"type":"Point","coordinates":[-64.79927,46.0579275]}},{"type":"Feature","properties":{"ZIP":"E1B3A5"},"geometry":{"type":"Point","coordinates":[-64.80982449999999,46.054561]}},{"type":"Feature","properties":{"ZIP":"E1B3N8"},"geometry":{"type":"Point","coordinates":[-64.8020155,46.049418]}},{"type":"Feature","properties":{"ZIP":"E1B5C8"},"geometry":{"type":"Point","coordinates":[-64.83999349999999,46.051672499999995]}},{"type":"Feature","properties":{"ZIP":"E1B5L8"},"geometry":{"type":"Point","coordinates":[-64.7838745,46.048658]}},{"type":"Feature","properties":{"ZIP":"E1B2X6"},"geometry":{"type":"Point","coordinates":[-64.80850849999999,46.0612905]}},{"type":"Feature","properties":{"ZIP":"E1B4K7"},"geometry":{"type":"Point","coordinates":[-64.8228525,46.061533]}},{"type":"Feature","properties":{"ZIP":"E1B4Z6"},"geometry":{"type":"Point","coordinates":[-64.8494045,46.048988]}},{"type":"Feature","properties":{"ZIP":"E1B5N7"},"geometry":{"type":"Point","coordinates":[-64.785234,46.0482325]}},{"type":"Feature","properties":{"ZIP":"E1B2Z4"},"geometry":{"type":"Point","coordinates":[-64.8059765,46.056152]}},{"type":"Feature","properties":{"ZIP":"E1B4W1"},"geometry":{"type":"Point","coordinates":[-64.81291999999999,46.0466305]}},{"type":"Feature","properties":{"ZIP":"E1B1C5"},"geometry":{"type":"Point","coordinates":[-64.7618065,46.077613]}},{"type":"Feature","properties":{"ZIP":"E1B3N9"},"geometry":{"type":"Point","coordinates":[-64.788103,46.0576785]}},{"type":"Feature","properties":{"ZIP":"E1B1G2"},"geometry":{"type":"Point","coordinates":[-64.7604525,46.0757925]}},{"type":"Feature","properties":{"ZIP":"E1B3C1"},"geometry":{"type":"Point","coordinates":[-64.821901,46.0558695]}},{"type":"Feature","properties":{"ZIP":"E1B4C4"},"geometry":{"type":"Point","coordinates":[-64.8021585,46.041384]}},{"type":"Feature","properties":{"ZIP":"E1B1J6"},"geometry":{"type":"Point","coordinates":[-64.772926,46.072559]}},{"type":"Feature","properties":{"ZIP":"E1B2A7"},"geometry":{"type":"Point","coordinates":[-64.79524900000001,46.0557825]}},{"type":"Feature","properties":{"ZIP":"E1B2T6"},"geometry":{"type":"Point","coordinates":[-64.81372350000001,46.0563235]}},{"type":"Feature","properties":{"ZIP":"E1B3Z2"},"geometry":{"type":"Point","coordinates":[-64.801092,46.045443500000005]}},{"type":"Feature","properties":{"ZIP":"E1B4M6"},"geometry":{"type":"Point","coordinates":[-64.814611,46.043670500000005]}},{"type":"Feature","properties":{"ZIP":"E1B1K8"},"geometry":{"type":"Point","coordinates":[-64.7751375,46.071786]}},{"type":"Feature","properties":{"ZIP":"E1B3A8"},"geometry":{"type":"Point","coordinates":[-64.8061295,46.0553345]}},{"type":"Feature","properties":{"ZIP":"E1B3P1"},"geometry":{"type":"Point","coordinates":[-64.805582,46.0502645]}},{"type":"Feature","properties":{"ZIP":"E1B2X9"},"geometry":{"type":"Point","coordinates":[-64.8069175,46.058057]}},{"type":"Feature","properties":{"ZIP":"E1B2Z6"},"geometry":{"type":"Point","coordinates":[-64.81011799999999,46.056081]}},{"type":"Feature","properties":{"ZIP":"E1B3Z3"},"geometry":{"type":"Point","coordinates":[-64.8010895,46.04544]}},{"type":"Feature","properties":{"ZIP":"E1B1K9"},"geometry":{"type":"Point","coordinates":[-64.7752785,46.071991999999995]}},{"type":"Feature","properties":{"ZIP":"E1B3C3"},"geometry":{"type":"Point","coordinates":[-64.8220865,46.054849000000004]}},{"type":"Feature","properties":{"ZIP":"E1B0A7"},"geometry":{"type":"Point","coordinates":[-64.78547449999999,46.0466775]}},{"type":"Feature","properties":{"ZIP":"E1B1J8"},"geometry":{"type":"Point","coordinates":[-64.77272450000001,46.070285999999996]}},{"type":"Feature","properties":{"ZIP":"E1B2Z7"},"geometry":{"type":"Point","coordinates":[-64.81525500000001,46.057676]}},{"type":"Feature","properties":{"ZIP":"E1B3Z5"},"geometry":{"type":"Point","coordinates":[-64.8001055,46.046981]}},{"type":"Feature","properties":{"ZIP":"E1B4G1"},"geometry":{"type":"Point","coordinates":[-64.788524,46.055901]}},{"type":"Feature","properties":{"ZIP":"E1B4N2"},"geometry":{"type":"Point","coordinates":[-64.8168245,46.041024]}},{"type":"Feature","properties":{"ZIP":"E1B1M6"},"geometry":{"type":"Point","coordinates":[-64.7808875,46.0714375]}},{"type":"Feature","properties":{"ZIP":"E1B1V8"},"geometry":{"type":"Point","coordinates":[-64.79497549999999,46.066873]}},{"type":"Feature","properties":{"ZIP":"E1B2K2"},"geometry":{"type":"Point","coordinates":[-64.7906395,46.0657675]}},{"type":"Feature","properties":{"ZIP":"E1B4L4"},"geometry":{"type":"Point","coordinates":[-64.802499,46.040324]}},{"type":"Feature","properties":{"ZIP":"E1B5A2"},"geometry":{"type":"Point","coordinates":[-64.84881250000001,46.049083]}},{"type":"Feature","properties":{"ZIP":"E1B5G9"},"geometry":{"type":"Point","coordinates":[-64.843402,46.0487485]}},{"type":"Feature","properties":{"ZIP":"E1B1B6"},"geometry":{"type":"Point","coordinates":[-64.75943699999999,46.077975]}},{"type":"Feature","properties":{"ZIP":"E1B5S2"},"geometry":{"type":"Point","coordinates":[-64.8023815,46.0402615]}},{"type":"Feature","properties":{"ZIP":"E1B1Y6"},"geometry":{"type":"Point","coordinates":[-64.794253,46.056002]}},{"type":"Feature","properties":{"ZIP":"E1B1B7"},"geometry":{"type":"Point","coordinates":[-64.75943699999999,46.077975]}},{"type":"Feature","properties":{"ZIP":"E1B2V4"},"geometry":{"type":"Point","coordinates":[-64.8141665,46.054905500000004]}},{"type":"Feature","properties":{"ZIP":"E1B3T1"},"geometry":{"type":"Point","coordinates":[-64.78649250000001,46.0573755]}},{"type":"Feature","properties":{"ZIP":"E1B3Z7"},"geometry":{"type":"Point","coordinates":[-64.74400600000001,46.067319999999995]}},{"type":"Feature","properties":{"ZIP":"E1B5K3"},"geometry":{"type":"Point","coordinates":[-64.8205835,46.060642]}},{"type":"Feature","properties":{"ZIP":"E1B1E2"},"geometry":{"type":"Point","coordinates":[-64.76371449999999,46.07411449999999]}},{"type":"Feature","properties":{"ZIP":"E1B1L4"},"geometry":{"type":"Point","coordinates":[-64.77775650000001,46.073138]}},{"type":"Feature","properties":{"ZIP":"E1B2C4"},"geometry":{"type":"Point","coordinates":[-64.7962645,46.0556115]}},{"type":"Feature","properties":{"ZIP":"E1B5M8"},"geometry":{"type":"Point","coordinates":[-64.772232,46.073329]}},{"type":"Feature","properties":{"ZIP":"E1B2Y7"},"geometry":{"type":"Point","coordinates":[-64.812769,46.059295000000006]}},{"type":"Feature","properties":{"ZIP":"E1B3X9"},"geometry":{"type":"Point","coordinates":[-64.749335,46.0663865]}},{"type":"Feature","properties":{"ZIP":"E1B4L8"},"geometry":{"type":"Point","coordinates":[-64.8161415,46.044832]}},{"type":"Feature","properties":{"ZIP":"E1B2V5"},"geometry":{"type":"Point","coordinates":[-64.818817,46.057117500000004]}},{"type":"Feature","properties":{"ZIP":"E1B3N3"},"geometry":{"type":"Point","coordinates":[-64.75447249999999,46.075123500000004]}},{"type":"Feature","properties":{"ZIP":"E1B3Z8"},"geometry":{"type":"Point","coordinates":[-64.80382700000001,46.046491]}},{"type":"Feature","properties":{"ZIP":"E1B5S9"},"geometry":{"type":"Point","coordinates":[-64.78041300000001,46.0416065]}},{"type":"Feature","properties":{"ZIP":"E1B1L6"},"geometry":{"type":"Point","coordinates":[-64.77737400000001,46.071332]}},{"type":"Feature","properties":{"ZIP":"E1B2C5"},"geometry":{"type":"Point","coordinates":[-64.7962645,46.0556115]}},{"type":"Feature","properties":{"ZIP":"E1B2J3"},"geometry":{"type":"Point","coordinates":[-64.791791,46.067071]}},{"type":"Feature","properties":{"ZIP":"E1B3P6"},"geometry":{"type":"Point","coordinates":[-64.8023925,46.049696499999996]}},{"type":"Feature","properties":{"ZIP":"E1B2T1"},"geometry":{"type":"Point","coordinates":[-64.81295750000001,46.057698]}},{"type":"Feature","properties":{"ZIP":"E1B3R8"},"geometry":{"type":"Point","coordinates":[-64.80817350000001,46.0475085]}},{"type":"Feature","properties":{"ZIP":"E1B5H5"},"geometry":{"type":"Point","coordinates":[-64.763159,46.07318]}},{"type":"Feature","properties":{"ZIP":"E1B4R1"},"geometry":{"type":"Point","coordinates":[-64.75392450000001,46.075948499999996]}},{"type":"Feature","properties":{"ZIP":"E1B5N2"},"geometry":{"type":"Point","coordinates":[-64.82285949999999,46.052254500000004]}},{"type":"Feature","properties":{"ZIP":"E1B2A3"},"geometry":{"type":"Point","coordinates":[-64.7962455,46.0584665]}},{"type":"Feature","properties":{"ZIP":"E1B3R9"},"geometry":{"type":"Point","coordinates":[-64.8036185,46.051945]}},{"type":"Feature","properties":{"ZIP":"E1B5K6"},"geometry":{"type":"Point","coordinates":[-64.782146,46.041830000000004]}},{"type":"Feature","properties":{"ZIP":"E1B2C7"},"geometry":{"type":"Point","coordinates":[-64.795681,46.054033000000004]}},{"type":"Feature","properties":{"ZIP":"E1B1J2"},"geometry":{"type":"Point","coordinates":[-64.772037,46.07361349999999]}},{"type":"Feature","properties":{"ZIP":"E1B1W4"},"geometry":{"type":"Point","coordinates":[-64.79545350000001,46.065189000000004]}},{"type":"Feature","properties":{"ZIP":"E1B5H7"},"geometry":{"type":"Point","coordinates":[-64.83811399999999,46.051545000000004]}},{"type":"Feature","properties":{"ZIP":"E1B4H7"},"geometry":{"type":"Point","coordinates":[-64.785855,46.0574335]}},{"type":"Feature","properties":{"ZIP":"E1B5T5"},"geometry":{"type":"Point","coordinates":[-64.82426749999999,46.0589665]}},{"type":"Feature","properties":{"ZIP":"E1B4C2"},"geometry":{"type":"Point","coordinates":[-64.81756150000001,46.0475205]}},{"type":"Feature","properties":{"ZIP":"E1B4K6"},"geometry":{"type":"Point","coordinates":[-64.8120635,46.0638195]}},{"type":"Feature","properties":{"ZIP":"E1B1A8"},"geometry":{"type":"Point","coordinates":[-64.7583555,46.0754005]}},{"type":"Feature","properties":{"ZIP":"E1B2K8"},"geometry":{"type":"Point","coordinates":[-64.789436,46.0640055]}},{"type":"Feature","properties":{"ZIP":"E1B1K6"},"geometry":{"type":"Point","coordinates":[-64.776927,46.0739315]}},{"type":"Feature","properties":{"ZIP":"E1B4H9"},"geometry":{"type":"Point","coordinates":[-64.82342700000001,46.050392]}},{"type":"Feature","properties":{"ZIP":"E1B4P2"},"geometry":{"type":"Point","coordinates":[-64.811304,46.045418]}},{"type":"Feature","properties":{"ZIP":"E1B2R6"},"geometry":{"type":"Point","coordinates":[-64.8099355,46.059097]}},{"type":"Feature","properties":{"ZIP":"E1B0A2"},"geometry":{"type":"Point","coordinates":[-64.755901,46.0725105]}},{"type":"Feature","properties":{"ZIP":"E1B1N7"},"geometry":{"type":"Point","coordinates":[-64.77369100000001,46.06976]}},{"type":"Feature","properties":{"ZIP":"E1B1W6"},"geometry":{"type":"Point","coordinates":[-64.7950005,46.0639535]}},{"type":"Feature","properties":{"ZIP":"E1B2K9"},"geometry":{"type":"Point","coordinates":[-64.78919,46.062831]}},{"type":"Feature","properties":{"ZIP":"E1B3S3"},"geometry":{"type":"Point","coordinates":[-64.8136885,46.060781000000006]}},{"type":"Feature","properties":{"ZIP":"E1B3Y8"},"geometry":{"type":"Point","coordinates":[-64.814141,46.057557]}},{"type":"Feature","properties":{"ZIP":"E1B4J2"},"geometry":{"type":"Point","coordinates":[-64.8147275,46.044171]}},{"type":"Feature","properties":{"ZIP":"E1B4Y1"},"geometry":{"type":"Point","coordinates":[-64.784982,46.051453]}},{"type":"Feature","properties":{"ZIP":"E1B5C9"},"geometry":{"type":"Point","coordinates":[-64.843459,46.05062100000001]}},{"type":"Feature","properties":{"ZIP":"E1B5L9"},"geometry":{"type":"Point","coordinates":[-64.7833715,46.0412045]}},{"type":"Feature","properties":{"ZIP":"E1B5N8"},"geometry":{"type":"Point","coordinates":[-64.784374,46.0470875]}},{"type":"Feature","properties":{"ZIP":"E1B1B1"},"geometry":{"type":"Point","coordinates":[-64.7573655,46.077466]}},{"type":"Feature","properties":{"ZIP":"E1B5B5"},"geometry":{"type":"Point","coordinates":[-64.8453265,46.0495875]}},{"type":"Feature","properties":{"ZIP":"E1B4P4"},"geometry":{"type":"Point","coordinates":[-64.808919,46.043855]}},{"type":"Feature","properties":{"ZIP":"E1B0A6"},"geometry":{"type":"Point","coordinates":[-64.78305750000001,46.046735999999996]}},{"type":"Feature","properties":{"ZIP":"E1B1J7"},"geometry":{"type":"Point","coordinates":[-64.772926,46.072559]}},{"type":"Feature","properties":{"ZIP":"E1B1P1"},"geometry":{"type":"Point","coordinates":[-64.77747,46.070327000000006]}},{"type":"Feature","properties":{"ZIP":"E1B1W8"},"geometry":{"type":"Point","coordinates":[-64.7968465,46.0659505]}},{"type":"Feature","properties":{"ZIP":"E1B4M7"},"geometry":{"type":"Point","coordinates":[-64.7617025,46.073576]}},{"type":"Feature","properties":{"ZIP":"E1B5B7"},"geometry":{"type":"Point","coordinates":[-64.84876249999999,46.0494155]}},{"type":"Feature","properties":{"ZIP":"E1B3P2"},"geometry":{"type":"Point","coordinates":[-64.805419,46.049686]}},{"type":"Feature","properties":{"ZIP":"E1B4A8"},"geometry":{"type":"Point","coordinates":[-64.8172865,46.0473255]}},{"type":"Feature","properties":{"ZIP":"E1B4J5"},"geometry":{"type":"Point","coordinates":[-64.788499,46.0653155]}},{"type":"Feature","properties":{"ZIP":"E1B5M2"},"geometry":{"type":"Point","coordinates":[-64.7835915,46.041045]}},{"type":"Feature","properties":{"ZIP":"E1B5V3"},"geometry":{"type":"Point","coordinates":[-64.75041999999999,46.0688445]}},{"type":"Feature","properties":{"ZIP":"E1B2E4"},"geometry":{"type":"Point","coordinates":[-64.7996235,46.061824]}},{"type":"Feature","properties":{"ZIP":"E1B2Y1"},"geometry":{"type":"Point","coordinates":[-64.80663,46.058168]}},{"type":"Feature","properties":{"ZIP":"E1B2G7"},"geometry":{"type":"Point","coordinates":[-64.801253,46.063399000000004]}},{"type":"Feature","properties":{"ZIP":"E1B3M7"},"geometry":{"type":"Point","coordinates":[-64.80864600000001,46.0499255]}},{"type":"Feature","properties":{"ZIP":"E1B3S8"},"geometry":{"type":"Point","coordinates":[-64.8223115,46.058154]}},{"type":"Feature","properties":{"ZIP":"E1B5B8"},"geometry":{"type":"Point","coordinates":[-64.8483765,46.0492475]}},{"type":"Feature","properties":{"ZIP":"E1B5J8"},"geometry":{"type":"Point","coordinates":[-64.760209,46.0756905]}},{"type":"Feature","properties":{"ZIP":"E1B1C9"},"geometry":{"type":"Point","coordinates":[-64.7626895,46.073983]}},{"type":"Feature","properties":{"ZIP":"E1B1Y5"},"geometry":{"type":"Point","coordinates":[-64.795214,46.0586435]}},{"type":"Feature","properties":{"ZIP":"E1B2C2"},"geometry":{"type":"Point","coordinates":[-64.7967945,46.057048]}},{"type":"Feature","properties":{"ZIP":"E1B3B1"},"geometry":{"type":"Point","coordinates":[-64.815753,46.0573465]}},{"type":"Feature","properties":{"ZIP":"E1B5E4"},"geometry":{"type":"Point","coordinates":[-64.81681449999999,46.061071999999996]}},{"type":"Feature","properties":{"ZIP":"E1B1G8"},"geometry":{"type":"Point","coordinates":[-64.758951,46.076955999999996]}},{"type":"Feature","properties":{"ZIP":"E1B2E5"},"geometry":{"type":"Point","coordinates":[-64.799252,46.0608035]}},{"type":"Feature","properties":{"ZIP":"E1B2B1"},"geometry":{"type":"Point","coordinates":[-64.7991515,46.063501]}},{"type":"Feature","properties":{"ZIP":"E1B2G8"},"geometry":{"type":"Point","coordinates":[-64.801017,46.062715]}},{"type":"Feature","properties":{"ZIP":"E1B3E8"},"geometry":{"type":"Point","coordinates":[-64.8128815,46.0532645]}},{"type":"Feature","properties":{"ZIP":"E1B3Z6"},"geometry":{"type":"Point","coordinates":[-64.8002185,46.046980000000005]}},{"type":"Feature","properties":{"ZIP":"E1B4G3"},"geometry":{"type":"Point","coordinates":[-64.822236,46.0579755]}},{"type":"Feature","properties":{"ZIP":"E1B5K2"},"geometry":{"type":"Point","coordinates":[-64.78901,46.0605365]}},{"type":"Feature","properties":{"ZIP":"E1B2J1"},"geometry":{"type":"Point","coordinates":[-64.791004,46.0679625]}},{"type":"Feature","properties":{"ZIP":"E1B3P4"},"geometry":{"type":"Point","coordinates":[-64.804897,46.0484165]}},{"type":"Feature","properties":{"ZIP":"E1B1M7"},"geometry":{"type":"Point","coordinates":[-64.78099850000001,46.071798]}},{"type":"Feature","properties":{"ZIP":"E1B1V9"},"geometry":{"type":"Point","coordinates":[-64.7942645,46.064936]}},{"type":"Feature","properties":{"ZIP":"E1B1Z9"},"geometry":{"type":"Point","coordinates":[-64.79669949999999,46.059707]}},{"type":"Feature","properties":{"ZIP":"E1B2Y5"},"geometry":{"type":"Point","coordinates":[-64.8133525,46.060031499999994]}},{"type":"Feature","properties":{"ZIP":"E1B3C5"},"geometry":{"type":"Point","coordinates":[-64.819806,46.053135999999995]}},{"type":"Feature","properties":{"ZIP":"E1B3X8"},"geometry":{"type":"Point","coordinates":[-64.74874249999999,46.06702]}},{"type":"Feature","properties":{"ZIP":"E1B5C1"},"geometry":{"type":"Point","coordinates":[-64.842582,46.050272]}},{"type":"Feature","properties":{"ZIP":"E1B5S6"},"geometry":{"type":"Point","coordinates":[-64.823538,46.053975]}},{"type":"Feature","properties":{"ZIP":"E1B1Y7"},"geometry":{"type":"Point","coordinates":[-64.79476149999999,46.057402999999994]}},{"type":"Feature","properties":{"ZIP":"E1B2J2"},"geometry":{"type":"Point","coordinates":[-64.792431,46.066953999999996]}},{"type":"Feature","properties":{"ZIP":"E1B2W8"},"geometry":{"type":"Point","coordinates":[-64.82422199999999,46.055317]}},{"type":"Feature","properties":{"ZIP":"E1B4P8"},"geometry":{"type":"Point","coordinates":[-64.78613250000001,46.055248]}},{"type":"Feature","properties":{"ZIP":"E1B4Y8"},"geometry":{"type":"Point","coordinates":[-64.836153,46.0511645]}},{"type":"Feature","properties":{"ZIP":"E1B1M9"},"geometry":{"type":"Point","coordinates":[-64.774926,46.069643]}},{"type":"Feature","properties":{"ZIP":"E1B1W1"},"geometry":{"type":"Point","coordinates":[-64.7938235,46.0637035]}},{"type":"Feature","properties":{"ZIP":"E1B2E7"},"geometry":{"type":"Point","coordinates":[-64.79871700000001,46.059341]}},{"type":"Feature","properties":{"ZIP":"E1B2S6"},"geometry":{"type":"Point","coordinates":[-64.81179800000001,46.057173500000005]}},{"type":"Feature","properties":{"ZIP":"E1B3C6"},"geometry":{"type":"Point","coordinates":[-64.821166,46.053619]}},{"type":"Feature","properties":{"ZIP":"E1B5P4"},"geometry":{"type":"Point","coordinates":[-64.808389,46.0413995]}},{"type":"Feature","properties":{"ZIP":"E1B1B8"},"geometry":{"type":"Point","coordinates":[-64.76052849999999,46.0782685]}},{"type":"Feature","properties":{"ZIP":"E1B1K2"},"geometry":{"type":"Point","coordinates":[-64.7740555,46.074424500000006]}},{"type":"Feature","properties":{"ZIP":"E1B2H1"},"geometry":{"type":"Point","coordinates":[-64.7995975,46.058737]}},{"type":"Feature","properties":{"ZIP":"E1B4X4"},"geometry":{"type":"Point","coordinates":[-64.788348,46.0509385]}},{"type":"Feature","properties":{"ZIP":"E1B5C3"},"geometry":{"type":"Point","coordinates":[-64.84122550000001,46.050124499999995]}},{"type":"Feature","properties":{"ZIP":"E1B1E3"},"geometry":{"type":"Point","coordinates":[-64.762389,46.0748835]}},{"type":"Feature","properties":{"ZIP":"E1B1Y8"},"geometry":{"type":"Point","coordinates":[-64.7940515,46.0554535]}},{"type":"Feature","properties":{"ZIP":"E1B4Z1"},"geometry":{"type":"Point","coordinates":[-64.8348505,46.051473]}},{"type":"Feature","properties":{"ZIP":"E1B2A2"},"geometry":{"type":"Point","coordinates":[-64.7960975,46.058062500000005]}},{"type":"Feature","properties":{"ZIP":"E1B2Y9"},"geometry":{"type":"Point","coordinates":[-64.8105215,46.0576795]}},{"type":"Feature","properties":{"ZIP":"E1B3Y1"},"geometry":{"type":"Point","coordinates":[-64.7497965,46.0665885]}},{"type":"Feature","properties":{"ZIP":"E1B4S5"},"geometry":{"type":"Point","coordinates":[-64.79347250000001,46.0583755]}},{"type":"Feature","properties":{"ZIP":"E1B5P6"},"geometry":{"type":"Point","coordinates":[-64.784374,46.0470875]}},{"type":"Feature","properties":{"ZIP":"E1B0B2"},"geometry":{"type":"Point","coordinates":[-64.8215645,46.0619455]}},{"type":"Feature","properties":{"ZIP":"E1B1K3"},"geometry":{"type":"Point","coordinates":[-64.775265,46.0741705]}},{"type":"Feature","properties":{"ZIP":"E1B1X6"},"geometry":{"type":"Point","coordinates":[-64.79786949999999,46.0659155]}},{"type":"Feature","properties":{"ZIP":"E1B2B4"},"geometry":{"type":"Point","coordinates":[-64.79860099999999,46.061963]}},{"type":"Feature","properties":{"ZIP":"E1B3N4"},"geometry":{"type":"Point","coordinates":[-64.7544755,46.075125]}},{"type":"Feature","properties":{"ZIP":"E1B4H4"},"geometry":{"type":"Point","coordinates":[-64.804134,46.046692]}},{"type":"Feature","properties":{"ZIP":"E1B4X5"},"geometry":{"type":"Point","coordinates":[-64.78748949999999,46.052535]}},{"type":"Feature","properties":{"ZIP":"E1B5T2"},"geometry":{"type":"Point","coordinates":[-64.7820945,46.04043]}},{"type":"Feature","properties":{"ZIP":"E1B1E6"},"geometry":{"type":"Point","coordinates":[-64.7607965,46.0763125]}},{"type":"Feature","properties":{"ZIP":"E1B1T7"},"geometry":{"type":"Point","coordinates":[-64.7916905,46.063046]}},{"type":"Feature","properties":{"ZIP":"E1B1Y9"},"geometry":{"type":"Point","coordinates":[-64.793755,46.0546455]}},{"type":"Feature","properties":{"ZIP":"E1B3L9"},"geometry":{"type":"Point","coordinates":[-64.816458,46.051672499999995]}},{"type":"Feature","properties":{"ZIP":"E1B4S6"},"geometry":{"type":"Point","coordinates":[-64.793541,46.057368499999995]}},{"type":"Feature","properties":{"ZIP":"E1B1C1"},"geometry":{"type":"Point","coordinates":[-64.761792,46.076852]}},{"type":"Feature","properties":{"ZIP":"E1B2V8"},"geometry":{"type":"Point","coordinates":[-64.8208695,46.058747499999996]}},{"type":"Feature","properties":{"ZIP":"E1B3V2"},"geometry":{"type":"Point","coordinates":[-64.786597,46.0572445]}},{"type":"Feature","properties":{"ZIP":"E1B0G7"},"geometry":{"type":"Point","coordinates":[-64.757688,46.0730135]}},{"type":"Feature","properties":{"ZIP":"E1B1E7"},"geometry":{"type":"Point","coordinates":[-64.7606165,46.076338]}},{"type":"Feature","properties":{"ZIP":"E1B1Z1"},"geometry":{"type":"Point","coordinates":[-64.798641,46.064958000000004]}},{"type":"Feature","properties":{"ZIP":"E1B2J5"},"geometry":{"type":"Point","coordinates":[-64.7910785,46.0671965]}},{"type":"Feature","properties":{"ZIP":"E1B2X4"},"geometry":{"type":"Point","coordinates":[-64.8092365,46.061893]}},{"type":"Feature","properties":{"ZIP":"E1B4Z4"},"geometry":{"type":"Point","coordinates":[-64.85267250000001,46.0467015]}},{"type":"Feature","properties":{"ZIP":"E1B5N5"},"geometry":{"type":"Point","coordinates":[-64.78345,46.042653]}},{"type":"Feature","properties":{"ZIP":"E1B2G1"},"geometry":{"type":"Point","coordinates":[-64.798236,46.0580035]}},{"type":"Feature","properties":{"ZIP":"E1B2Z2"},"geometry":{"type":"Point","coordinates":[-64.8108025,46.056691]}},{"type":"Feature","properties":{"ZIP":"E1B3S1"},"geometry":{"type":"Point","coordinates":[-64.757361,46.0775365]}},{"type":"Feature","properties":{"ZIP":"E1B3Y5"},"geometry":{"type":"Point","coordinates":[-64.754232,46.073498]}},{"type":"Feature","properties":{"ZIP":"E1B0B5"},"geometry":{"type":"Point","coordinates":[-64.753701,46.069809500000005]}},{"type":"Feature","properties":{"ZIP":"E1B2H4"},"geometry":{"type":"Point","coordinates":[-64.799713,46.059167]}},{"type":"Feature","properties":{"ZIP":"E1B3V3"},"geometry":{"type":"Point","coordinates":[-64.7437465,46.067134]}},{"type":"Feature","properties":{"ZIP":"E1B4P1"},"geometry":{"type":"Point","coordinates":[-64.809202,46.045466000000005]}},{"type":"Feature","properties":{"ZIP":"E1B5C6"},"geometry":{"type":"Point","coordinates":[-64.8352455,46.052426499999996]}},{"type":"Feature","properties":{"ZIP":"E1B5L5"},"geometry":{"type":"Point","coordinates":[-64.7847,46.0485695]}},{"type":"Feature","properties":{"ZIP":"E1B0G8"},"geometry":{"type":"Point","coordinates":[-64.7576555,46.072810000000004]}},{"type":"Feature","properties":{"ZIP":"E1B1E8"},"geometry":{"type":"Point","coordinates":[-64.759676,46.0760845]}},{"type":"Feature","properties":{"ZIP":"E1B1L9"},"geometry":{"type":"Point","coordinates":[-64.7785535,46.073216]}},{"type":"Feature","properties":{"ZIP":"E1B1Z2"},"geometry":{"type":"Point","coordinates":[-64.7983935,46.064366]}},{"type":"Feature","properties":{"ZIP":"E1B2X5"},"geometry":{"type":"Point","coordinates":[-64.80824949999999,46.061395000000005]}},{"type":"Feature","properties":{"ZIP":"E1B1J4"},"geometry":{"type":"Point","coordinates":[-64.773101,46.0744655]}},{"type":"Feature","properties":{"ZIP":"E1B2G2"},"geometry":{"type":"Point","coordinates":[-64.7977315,46.056623]}},{"type":"Feature","properties":{"ZIP":"E1B2T4"},"geometry":{"type":"Point","coordinates":[-64.814313,46.059882]}},{"type":"Feature","properties":{"ZIP":"E1B3Y7"},"geometry":{"type":"Point","coordinates":[-64.80035000000001,46.0480815]}},{"type":"Feature","properties":{"ZIP":"E1B4M4"},"geometry":{"type":"Point","coordinates":[-64.8238655,46.0579865]}},{"type":"Feature","properties":{"ZIP":"E1B5R4"},"geometry":{"type":"Point","coordinates":[-64.78158300000001,46.041225]}},{"type":"Feature","properties":{"ZIP":"E1B0B6"},"geometry":{"type":"Point","coordinates":[-64.757019,46.0709635]}},{"type":"Feature","properties":{"ZIP":"E1B1C3"},"geometry":{"type":"Point","coordinates":[-64.7614625,46.0787655]}},{"type":"Feature","properties":{"ZIP":"E1B1X9"},"geometry":{"type":"Point","coordinates":[-64.797021,46.063572]}},{"type":"Feature","properties":{"ZIP":"E1B2N7"},"geometry":{"type":"Point","coordinates":[-64.80658700000001,46.060739999999996]}},{"type":"Feature","properties":{"ZIP":"E1B3V6"},"geometry":{"type":"Point","coordinates":[-64.75208549999999,46.071984]}},{"type":"Feature","properties":{"ZIP":"E1B5T6"},"geometry":{"type":"Point","coordinates":[-64.823836,46.059414000000004]}},{"type":"Feature","properties":{"ZIP":"E1B0J7"},"geometry":{"type":"Point","coordinates":[-64.75876199999999,46.069273499999994]}},{"type":"Feature","properties":{"ZIP":"E1B1M1"},"geometry":{"type":"Point","coordinates":[-64.780247,46.0729015]}},{"type":"Feature","properties":{"ZIP":"E1B2E1"},"geometry":{"type":"Point","coordinates":[-64.8000745,46.0630875]}},{"type":"Feature","properties":{"ZIP":"E1B2J7"},"geometry":{"type":"Point","coordinates":[-64.7922275,46.0662345]}},{"type":"Feature","properties":{"ZIP":"E1B3X1"},"geometry":{"type":"Point","coordinates":[-64.745645,46.066239]}},{"type":"Feature","properties":{"ZIP":"E1B1A9"},"geometry":{"type":"Point","coordinates":[-64.7576935,46.076412000000005]}},{"type":"Feature","properties":{"ZIP":"E1B1J5"},"geometry":{"type":"Point","coordinates":[-64.773147,46.0748945]}},{"type":"Feature","properties":{"ZIP":"E1B2G3"},"geometry":{"type":"Point","coordinates":[-64.797677,46.056476]}},{"type":"Feature","properties":{"ZIP":"E1B5J4"},"geometry":{"type":"Point","coordinates":[-64.78403,46.0425625]}},{"type":"Feature","properties":{"ZIP":"E1B5R7"},"geometry":{"type":"Point","coordinates":[-64.7704945,46.074989]}},{"type":"Feature","properties":{"ZIP":"E1B1Y1"},"geometry":{"type":"Point","coordinates":[-64.7974545,46.064731]}},{"type":"Feature","properties":{"ZIP":"E1B2B8"},"geometry":{"type":"Point","coordinates":[-64.79776150000001,46.059692999999996]}},{"type":"Feature","properties":{"ZIP":"E1B2H6"},"geometry":{"type":"Point","coordinates":[-64.79882649999999,46.056703999999996]}},{"type":"Feature","properties":{"ZIP":"E1B3G8"},"geometry":{"type":"Point","coordinates":[-64.81165,46.051013499999996]}},{"type":"Feature","properties":{"ZIP":"E1B3V7"},"geometry":{"type":"Point","coordinates":[-64.7517135,46.0721845]}},{"type":"Feature","properties":{"ZIP":"E1B4A6"},"geometry":{"type":"Point","coordinates":[-64.75269349999999,46.074147999999994]}},{"type":"Feature","properties":{"ZIP":"E1B4P3"},"geometry":{"type":"Point","coordinates":[-64.8098345,46.043309]}},{"type":"Feature","properties":{"ZIP":"E1B5T8"},"geometry":{"type":"Point","coordinates":[-64.8242845,46.053871]}},{"type":"Feature","properties":{"ZIP":"E1B2E2"},"geometry":{"type":"Point","coordinates":[-64.800063,46.063055]}},{"type":"Feature","properties":{"ZIP":"E1B3K7"},"geometry":{"type":"Point","coordinates":[-64.8104615,46.062653499999996]}},{"type":"Feature","properties":{"ZIP":"E1B4R7"},"geometry":{"type":"Point","coordinates":[-64.7673825,46.0741895]}},{"type":"Feature","properties":{"ZIP":"E1B4Z7"},"geometry":{"type":"Point","coordinates":[-64.83774,46.051306]}},{"type":"Feature","properties":{"ZIP":"E1B0A5"},"geometry":{"type":"Point","coordinates":[-64.7551165,46.072351]}},{"type":"Feature","properties":{"ZIP":"E1B1W7"},"geometry":{"type":"Point","coordinates":[-64.7950265,46.064024]}},{"type":"Feature","properties":{"ZIP":"E1B2G4"},"geometry":{"type":"Point","coordinates":[-64.7969215,46.0540405]}},{"type":"Feature","properties":{"ZIP":"E1B2L1"},"geometry":{"type":"Point","coordinates":[-64.79018049999999,46.063005000000004]}},{"type":"Feature","properties":{"ZIP":"E1B5R8"},"geometry":{"type":"Point","coordinates":[-64.8225885,46.0535805]}},{"type":"Feature","properties":{"ZIP":"E1B1Y2"},"geometry":{"type":"Point","coordinates":[-64.79585499999999,46.0603745]}},{"type":"Feature","properties":{"ZIP":"E1B2B9"},"geometry":{"type":"Point","coordinates":[-64.7973015,46.058428]}},{"type":"Feature","properties":{"ZIP":"E1B2H7"},"geometry":{"type":"Point","coordinates":[-64.79299449999999,46.0676365]}},{"type":"Feature","properties":{"ZIP":"E1B5E1"},"geometry":{"type":"Point","coordinates":[-64.81839149999999,46.060745499999996]}},{"type":"Feature","properties":{"ZIP":"E1B5T9"},"geometry":{"type":"Point","coordinates":[-64.82671149999999,46.056621]}},{"type":"Feature","properties":{"ZIP":"E1B1G4"},"geometry":{"type":"Point","coordinates":[-64.7610195,46.077372999999994]}},{"type":"Feature","properties":{"ZIP":"E1B1V6"},"geometry":{"type":"Point","coordinates":[-64.79210499999999,46.060939000000005]}},{"type":"Feature","properties":{"ZIP":"E1B1Z5"},"geometry":{"type":"Point","coordinates":[-64.797742,46.0625085]}},{"type":"Feature","properties":{"ZIP":"E1B2E3"},"geometry":{"type":"Point","coordinates":[-64.7997135,46.0620725]}},{"type":"Feature","properties":{"ZIP":"E1B2S1"},"geometry":{"type":"Point","coordinates":[-64.812115,46.061216]}},{"type":"Feature","properties":{"ZIP":"E1B3K9"},"geometry":{"type":"Point","coordinates":[-64.81437249999999,46.061758499999996]}},{"type":"Feature","properties":{"ZIP":"E1B3R3"},"geometry":{"type":"Point","coordinates":[-64.80103249999999,46.049649]}},{"type":"Feature","properties":{"ZIP":"E1B3X3"},"geometry":{"type":"Point","coordinates":[-64.749786,46.069975]}},{"type":"Feature","properties":{"ZIP":"E1B4L1"},"geometry":{"type":"Point","coordinates":[-64.8082795,46.0414705]}},{"type":"Feature","properties":{"ZIP":"E1B4R8"},"geometry":{"type":"Point","coordinates":[-64.768622,46.074692]}},{"type":"Feature","properties":{"ZIP":"E1B1B2"},"geometry":{"type":"Point","coordinates":[-64.7583645,46.0778345]}},{"type":"Feature","properties":{"ZIP":"E1B2A8"},"geometry":{"type":"Point","coordinates":[-64.79467650000001,46.054216]}},{"type":"Feature","properties":{"ZIP":"E1B2G5"},"geometry":{"type":"Point","coordinates":[-64.79679,46.053793999999996]}},{"type":"Feature","properties":{"ZIP":"E1B2L2"},"geometry":{"type":"Point","coordinates":[-64.788014,46.062160500000005]}},{"type":"Feature","properties":{"ZIP":"E1B2T8"},"geometry":{"type":"Point","coordinates":[-64.81303750000001,46.054488]}},{"type":"Feature","properties":{"ZIP":"E1B5J7"},"geometry":{"type":"Point","coordinates":[-64.76070200000001,46.070751]}},{"type":"Feature","properties":{"ZIP":"E1B1C7"},"geometry":{"type":"Point","coordinates":[-64.7617655,46.073576]}},{"type":"Feature","properties":{"ZIP":"E1B1Y4"},"geometry":{"type":"Point","coordinates":[-64.795599,46.059760999999995]}},{"type":"Feature","properties":{"ZIP":"E1B2C1"},"geometry":{"type":"Point","coordinates":[-64.7971765,46.058089]}},{"type":"Feature","properties":{"ZIP":"E1B2H8"},"geometry":{"type":"Point","coordinates":[-64.79296450000001,46.067617]}},{"type":"Feature","properties":{"ZIP":"E1B4P5"},"geometry":{"type":"Point","coordinates":[-64.811133,46.043282500000004]}},{"type":"Feature","properties":{"ZIP":"E1B1M4"},"geometry":{"type":"Point","coordinates":[-64.7788045,46.070577]}},{"type":"Feature","properties":{"ZIP":"E1B1Z7"},"geometry":{"type":"Point","coordinates":[-64.7972705,46.0612645]}},{"type":"Feature","properties":{"ZIP":"E1B2K1"},"geometry":{"type":"Point","coordinates":[-64.7924985,46.06545]}},{"type":"Feature","properties":{"ZIP":"E1B2S2"},"geometry":{"type":"Point","coordinates":[-64.812115,46.061216]}},{"type":"Feature","properties":{"ZIP":"E1B3L1"},"geometry":{"type":"Point","coordinates":[-64.8142395,46.0617075]}},{"type":"Feature","properties":{"ZIP":"E1B3X6"},"geometry":{"type":"Point","coordinates":[-64.75084749999999,46.065942]}},{"type":"Feature","properties":{"ZIP":"E1B4S1"},"geometry":{"type":"Point","coordinates":[-64.82135149999999,46.049414999999996]}},{"type":"Feature","properties":{"ZIP":"E1B5P1"},"geometry":{"type":"Point","coordinates":[-64.81091649999999,46.0417805]}},{"type":"Feature","properties":{"ZIP":"E1B1B3"},"geometry":{"type":"Point","coordinates":[-64.7583475,46.077872]}},{"type":"Feature","properties":{"ZIP":"E1B1P2"},"geometry":{"type":"Point","coordinates":[-64.77372299999999,46.0712645]}},{"type":"Feature","properties":{"ZIP":"E1B1X1"},"geometry":{"type":"Point","coordinates":[-64.796447,46.065021]}},{"type":"Feature","properties":{"ZIP":"E1B2L3"},"geometry":{"type":"Point","coordinates":[-64.789935,46.0622625]}},{"type":"Feature","properties":{"ZIP":"E1B1L1"},"geometry":{"type":"Point","coordinates":[-64.776601,46.0733155]}},{"type":"Feature","properties":{"ZIP":"E1B2P4"},"geometry":{"type":"Point","coordinates":[-64.803811,46.053944]}},{"type":"Feature","properties":{"ZIP":"E1B3H6"},"geometry":{"type":"Point","coordinates":[-64.8239245,46.0596185]}},{"type":"Feature","properties":{"ZIP":"E1B4A9"},"geometry":{"type":"Point","coordinates":[-64.817185,46.0470895]}},{"type":"Feature","properties":{"ZIP":"E1B4P6"},"geometry":{"type":"Point","coordinates":[-64.811976,46.044764]}},{"type":"Feature","properties":{"ZIP":"E1B5M4"},"geometry":{"type":"Point","coordinates":[-64.7860305,46.049344000000005]}},{"type":"Feature","properties":{"ZIP":"E1B0P8"},"geometry":{"type":"Point","coordinates":[-64.77786449999999,46.073582]}},{"type":"Feature","properties":{"ZIP":"E1B1Z8"},"geometry":{"type":"Point","coordinates":[-64.79715350000001,46.060951]}},{"type":"Feature","properties":{"ZIP":"E1B2Y4"},"geometry":{"type":"Point","coordinates":[-64.8134235,46.060015]}},{"type":"Feature","properties":{"ZIP":"E1B3L2"},"geometry":{"type":"Point","coordinates":[-64.817969,46.0599945]}},{"type":"Feature","properties":{"ZIP":"E1B4S2"},"geometry":{"type":"Point","coordinates":[-64.7936205,46.0582315]}},{"type":"Feature","properties":{"ZIP":"E1B5P2"},"geometry":{"type":"Point","coordinates":[-64.8080625,46.041328]}},{"type":"Feature","properties":{"ZIP":"E1B1P5"},"geometry":{"type":"Point","coordinates":[-64.779521,46.071152]}},{"type":"Feature","properties":{"ZIP":"E1B1X2"},"geometry":{"type":"Point","coordinates":[-64.79646650000001,46.065074499999994]}},{"type":"Feature","properties":{"ZIP":"E1B2V2"},"geometry":{"type":"Point","coordinates":[-64.816558,46.056132500000004]}},{"type":"Feature","properties":{"ZIP":"E1B2Z8"},"geometry":{"type":"Point","coordinates":[-64.81266,46.055528]}},{"type":"Feature","properties":{"ZIP":"E1B3S9"},"geometry":{"type":"Point","coordinates":[-64.7862375,46.058657499999995]}},{"type":"Feature","properties":{"ZIP":"E1B4X2"},"geometry":{"type":"Point","coordinates":[-64.787838,46.0472885]}},{"type":"Feature","properties":{"ZIP":"E1B0E3"},"geometry":{"type":"Point","coordinates":[-64.7586665,46.070364999999995]}},{"type":"Feature","properties":{"ZIP":"E1B1L3"},"geometry":{"type":"Point","coordinates":[-64.777851,46.0735595]}},{"type":"Feature","properties":{"ZIP":"E1B3B2"},"geometry":{"type":"Point","coordinates":[-64.816064,46.057366]}},{"type":"Feature","properties":{"ZIP":"E1B4J7"},"geometry":{"type":"Point","coordinates":[-64.79181550000001,46.0596095]}},{"type":"Feature","properties":{"ZIP":"E1B4P7"},"geometry":{"type":"Point","coordinates":[-64.786248,46.05580500000001]}},{"type":"Feature","properties":{"ZIP":"E1B4Y7"},"geometry":{"type":"Point","coordinates":[-64.8464915,46.049955499999996]}},{"type":"Feature","properties":{"ZIP":"E1B2K3"},"geometry":{"type":"Point","coordinates":[-64.79071099999999,46.06575]}},{"type":"Feature","properties":{"ZIP":"E1B4S3"},"geometry":{"type":"Point","coordinates":[-64.79374999999999,46.058726]}},{"type":"Feature","properties":{"ZIP":"E1B5A4"},"geometry":{"type":"Point","coordinates":[-64.844764,46.0483945]}},{"type":"Feature","properties":{"ZIP":"E1B5P3"},"geometry":{"type":"Point","coordinates":[-64.80753,46.041422]}},{"type":"Feature","properties":{"ZIP":"E1B0A9"},"geometry":{"type":"Point","coordinates":[-64.757649,46.071305]}},{"type":"Feature","properties":{"ZIP":"E1B1K1"},"geometry":{"type":"Point","coordinates":[-64.774051,46.074385]}},{"type":"Feature","properties":{"ZIP":"E1B1P6"},"geometry":{"type":"Point","coordinates":[-64.77965599999999,46.071188]}},{"type":"Feature","properties":{"ZIP":"E1B1X3"},"geometry":{"type":"Point","coordinates":[-64.7959915,46.063767]}},{"type":"Feature","properties":{"ZIP":"E1B2B2"},"geometry":{"type":"Point","coordinates":[-64.799214,46.063591]}},{"type":"Feature","properties":{"ZIP":"E1B2G9"},"geometry":{"type":"Point","coordinates":[-64.8005545,46.06144]}},{"type":"Feature","properties":{"ZIP":"E1B4H1"},"geometry":{"type":"Point","coordinates":[-64.78867650000001,46.056769]}},{"type":"Feature","properties":{"ZIP":"E1B4N6"},"geometry":{"type":"Point","coordinates":[-64.78418249999999,46.052820499999996]}},{"type":"Feature","properties":{"ZIP":"E1B3J1"},"geometry":{"type":"Point","coordinates":[-64.7912185,46.0692175]}},{"type":"Feature","properties":{"ZIP":"E1B2A1"},"geometry":{"type":"Point","coordinates":[-64.7966995,46.059707]}},{"type":"Feature","properties":{"ZIP":"E1B2K4"},"geometry":{"type":"Point","coordinates":[-64.790586,46.064454999999995]}},{"type":"Feature","properties":{"ZIP":"E1B3L5"},"geometry":{"type":"Point","coordinates":[-64.817296,46.0608655]}},{"type":"Feature","properties":{"ZIP":"E1B4C9"},"geometry":{"type":"Point","coordinates":[-64.8048095,46.043219500000006]}},{"type":"Feature","properties":{"ZIP":"E1B5H4"},"geometry":{"type":"Point","coordinates":[-64.7635425,46.074151]}},{"type":"Feature","properties":{"ZIP":"E1B1P8"},"geometry":{"type":"Point","coordinates":[-64.77830900000001,46.0721735]}},{"type":"Feature","properties":{"ZIP":"E1B1X4"},"geometry":{"type":"Point","coordinates":[-64.795963,46.0636385]}},{"type":"Feature","properties":{"ZIP":"E1B2M2"},"geometry":{"type":"Point","coordinates":[-64.799219,46.0639235]}},{"type":"Feature","properties":{"ZIP":"E1B0E8"},"geometry":{"type":"Point","coordinates":[-64.802866,46.040181000000004]}},{"type":"Feature","properties":{"ZIP":"E1B3B4"},"geometry":{"type":"Point","coordinates":[-64.8160685,46.0568165]}},{"type":"Feature","properties":{"ZIP":"E1B1N1"},"geometry":{"type":"Point","coordinates":[-64.7747745,46.069162000000006]}},{"type":"Feature","properties":{"ZIP":"E1B1W2"},"geometry":{"type":"Point","coordinates":[-64.7959745,46.0665755]}},{"type":"Feature","properties":{"ZIP":"E1B2E8"},"geometry":{"type":"Point","coordinates":[-64.7985725,46.0589435]}},{"type":"Feature","properties":{"ZIP":"E1B3L6"},"geometry":{"type":"Point","coordinates":[-64.8155615,46.061319499999996]}},{"type":"Feature","properties":{"ZIP":"E1B1B9"},"geometry":{"type":"Point","coordinates":[-64.7604285,46.078422]}},{"type":"Feature","properties":{"ZIP":"E1B1P9"},"geometry":{"type":"Point","coordinates":[-64.7766555,46.072351999999995]}},{"type":"Feature","properties":{"ZIP":"E1B2H2"},"geometry":{"type":"Point","coordinates":[-64.8001665,46.0604045]}},{"type":"Feature","properties":{"ZIP":"E1B2M8"},"geometry":{"type":"Point","coordinates":[-64.804447,46.060019]}},{"type":"Feature","properties":{"ZIP":"E1B2V7"},"geometry":{"type":"Point","coordinates":[-64.8182325,46.055763999999996]}},{"type":"Feature","properties":{"ZIP":"E1B3Z9"},"geometry":{"type":"Point","coordinates":[-64.80371,46.046397]}},{"type":"Feature","properties":{"ZIP":"E1B5C4"},"geometry":{"type":"Point","coordinates":[-64.8411665,46.0500745]}},{"type":"Feature","properties":{"ZIP":"E1B0E9"},"geometry":{"type":"Point","coordinates":[-64.8043255,46.0406775]}},{"type":"Feature","properties":{"ZIP":"E1B2J4"},"geometry":{"type":"Point","coordinates":[-64.7907515,46.0673855]}},{"type":"Feature","properties":{"ZIP":"E1B4Z2"},"geometry":{"type":"Point","coordinates":[-64.84472249999999,46.048379499999996]}},{"type":"Feature","properties":{"ZIP":"E1B1J1"},"geometry":{"type":"Point","coordinates":[-64.77208250000001,46.075127499999994]}},{"type":"Feature","properties":{"ZIP":"E1B2E9"},"geometry":{"type":"Point","coordinates":[-64.7981265,46.057696]}},{"type":"Feature","properties":{"ZIP":"E1B2K6"},"geometry":{"type":"Point","coordinates":[-64.79137349999999,46.0636625]}},{"type":"Feature","properties":{"ZIP":"E1B2Z1"},"geometry":{"type":"Point","coordinates":[-64.81045499999999,46.057722999999996]}},{"type":"Feature","properties":{"ZIP":"E1B3Y4"},"geometry":{"type":"Point","coordinates":[-64.754324,46.073416]}},{"type":"Feature","properties":{"ZIP":"E1B5P7"},"geometry":{"type":"Point","coordinates":[-64.7855965,46.047607]}},{"type":"Feature","properties":{"ZIP":"E1B0B3"},"geometry":{"type":"Point","coordinates":[-64.8068385,46.04132]}},{"type":"Feature","properties":{"ZIP":"E1B1X7"},"geometry":{"type":"Point","coordinates":[-64.7974855,46.0648345]}},{"type":"Feature","properties":{"ZIP":"E1B2B5"},"geometry":{"type":"Point","coordinates":[-64.798209,46.0609145]}},{"type":"Feature","properties":{"ZIP":"E1B4A1"},"geometry":{"type":"Point","coordinates":[-64.7881185,46.057454]}},{"type":"Feature","properties":{"ZIP":"E1B1L8"},"geometry":{"type":"Point","coordinates":[-64.778537,46.0731485]}},{"type":"Feature","properties":{"ZIP":"E1B3K3"},"geometry":{"type":"Point","coordinates":[-64.8004035,46.065260499999994]}},{"type":"Feature","properties":{"ZIP":"E1B3W8"},"geometry":{"type":"Point","coordinates":[-64.7461615,46.066455500000004]}},{"type":"Feature","properties":{"ZIP":"E1B2T3"},"geometry":{"type":"Point","coordinates":[-64.8146,46.0601165]}},{"type":"Feature","properties":{"ZIP":"E1B4M2"},"geometry":{"type":"Point","coordinates":[-64.8185695,46.056543000000005]}},{"type":"Feature","properties":{"ZIP":"E1B5B2"},"geometry":{"type":"Point","coordinates":[-64.84776400000001,46.048486499999996]}},{"type":"Feature","properties":{"ZIP":"E1B5P8"},"geometry":{"type":"Point","coordinates":[-64.7855965,46.047607]}},{"type":"Feature","properties":{"ZIP":"E1B1K5"},"geometry":{"type":"Point","coordinates":[-64.7771465,46.0741965]}},{"type":"Feature","properties":{"ZIP":"E1B1X8"},"geometry":{"type":"Point","coordinates":[-64.7974855,46.0648345]}},{"type":"Feature","properties":{"ZIP":"E1B2B6"},"geometry":{"type":"Point","coordinates":[-64.7981825,46.060843000000006]}},{"type":"Feature","properties":{"ZIP":"E1B2C9"},"geometry":{"type":"Point","coordinates":[-64.800498,46.0642885]}},{"type":"Feature","properties":{"ZIP":"E1B2J6"},"geometry":{"type":"Point","coordinates":[-64.792889,46.0661615]}},{"type":"Feature","properties":{"ZIP":"E1B3K4"},"geometry":{"type":"Point","coordinates":[-64.811842,46.062118]}},{"type":"Feature","properties":{"ZIP":"E1B3P9"},"geometry":{"type":"Point","coordinates":[-64.789072,46.058353]}},{"type":"Feature","properties":{"ZIP":"E1B3W9"},"geometry":{"type":"Point","coordinates":[-64.7476685,46.064489]}},{"type":"Feature","properties":{"ZIP":"E1B1W5"},"geometry":{"type":"Point","coordinates":[-64.7953785,46.064985]}},{"type":"Feature","properties":{"ZIP":"E1B2B7"},"geometry":{"type":"Point","coordinates":[-64.7977535,46.0596715]}},{"type":"Feature","properties":{"ZIP":"E1B4A5"},"geometry":{"type":"Point","coordinates":[-64.752612,46.0749115]}},{"type":"Feature","properties":{"ZIP":"E1B1E9"},"geometry":{"type":"Point","coordinates":[-64.76303250000001,46.0762585]}},{"type":"Feature","properties":{"ZIP":"E1B1Z3"},"geometry":{"type":"Point","coordinates":[-64.7981945,46.0637915]}},{"type":"Feature","properties":{"ZIP":"E1B3K5"},"geometry":{"type":"Point","coordinates":[-64.811984,46.0622215]}},{"type":"Feature","properties":{"ZIP":"E1B3M4"},"geometry":{"type":"Point","coordinates":[-64.8123335,46.0495305]}},{"type":"Feature","properties":{"ZIP":"E1B0B7"},"geometry":{"type":"Point","coordinates":[-64.757365,46.0703875]}},{"type":"Feature","properties":{"ZIP":"E1B2W2"},"geometry":{"type":"Point","coordinates":[-64.820218,46.056818]}},{"type":"Feature","properties":{"ZIP":"E1B0K2"},"geometry":{"type":"Point","coordinates":[-64.7580145,46.069085]}},{"type":"Feature","properties":{"ZIP":"E1B1M2"},"geometry":{"type":"Point","coordinates":[-64.7800905,46.0729655]}},{"type":"Feature","properties":{"ZIP":"E1B1Z4"},"geometry":{"type":"Point","coordinates":[-64.7979915,46.063278499999996]}},{"type":"Feature","properties":{"ZIP":"E1B2J8"},"geometry":{"type":"Point","coordinates":[-64.789957,46.066629]}},{"type":"Feature","properties":{"ZIP":"E1B2X7"},"geometry":{"type":"Point","coordinates":[-64.80572849999999,46.0609035]}},{"type":"Feature","properties":{"ZIP":"E1B3R2"},"geometry":{"type":"Point","coordinates":[-64.8015935,46.0513585]}},{"type":"Feature","properties":{"ZIP":"E1B3X2"},"geometry":{"type":"Point","coordinates":[-64.74702400000001,46.067066499999996]}},{"type":"Feature","properties":{"ZIP":"E1B4K8"},"geometry":{"type":"Point","coordinates":[-64.787974,46.063230000000004]}},{"type":"Feature","properties":{"ZIP":"E1B3S4"},"geometry":{"type":"Point","coordinates":[-64.818793,46.057574]}},{"type":"Feature","properties":{"ZIP":"E1B4W4"},"geometry":{"type":"Point","coordinates":[-64.772261,46.073987]}},{"type":"Feature","properties":{"ZIP":"E1B5J6"},"geometry":{"type":"Point","coordinates":[-64.761049,46.070757]}},{"type":"Feature","properties":{"ZIP":"E1B2P1"},"geometry":{"type":"Point","coordinates":[-64.8050995,46.057198]}},{"type":"Feature","properties":{"ZIP":"E1B4J3"},"geometry":{"type":"Point","coordinates":[-64.771389,46.07237]}},{"type":"Feature","properties":{"ZIP":"E1B1M3"},"geometry":{"type":"Point","coordinates":[-64.7790035,46.071698]}},{"type":"Feature","properties":{"ZIP":"E1B2J9"},"geometry":{"type":"Point","coordinates":[-64.79057499999999,46.066523000000004]}},{"type":"Feature","properties":{"ZIP":"E1B4Z8"},"geometry":{"type":"Point","coordinates":[-64.83869899999999,46.051013]}},{"type":"Feature","properties":{"ZIP":"E1B3M6"},"geometry":{"type":"Point","coordinates":[-64.8107675,46.049478]}},{"type":"Feature","properties":{"ZIP":"E1B5R9"},"geometry":{"type":"Point","coordinates":[-64.8233625,46.0537555]}},{"type":"Feature","properties":{"ZIP":"E1B3A9"},"geometry":{"type":"Point","coordinates":[-64.805082,46.055499]}},{"type":"Feature","properties":{"ZIP":"E1B3H1"},"geometry":{"type":"Point","coordinates":[-64.8106855,46.063922]}},{"type":"Feature","properties":{"ZIP":"E1B1G6"},"geometry":{"type":"Point","coordinates":[-64.760387,46.077357500000005]}},{"type":"Feature","properties":{"ZIP":"E1B1V7"},"geometry":{"type":"Point","coordinates":[-64.7948885,46.0666325]}},{"type":"Feature","properties":{"ZIP":"E1B4Z9"},"geometry":{"type":"Point","coordinates":[-64.8460465,46.049533]}},{"type":"Feature","properties":{"ZIP":"E1B2A9"},"geometry":{"type":"Point","coordinates":[-64.7946225,46.054069999999996]}},{"type":"Feature","properties":{"ZIP":"E1B5S1"},"geometry":{"type":"Point","coordinates":[-64.823857,46.054088]}},{"type":"Feature","properties":{"ZIP":"E1B2H9"},"geometry":{"type":"Point","coordinates":[-64.7904345,46.0680615]}},{"type":"Feature","properties":{"ZIP":"E1B4J6"},"geometry":{"type":"Point","coordinates":[-64.7912135,46.0580765]}},{"type":"Feature","properties":{"ZIP":"E1B4Y6"},"geometry":{"type":"Point","coordinates":[-64.8464915,46.049955499999996]}},{"type":"Feature","properties":{"ZIP":"E1B2B3"},"geometry":{"type":"Point","coordinates":[-64.798708,46.0622815]}},{"type":"Feature","properties":{"ZIP":"E1B5M9"},"geometry":{"type":"Point","coordinates":[-64.78201899999999,46.048102]}},{"type":"Feature","properties":{"ZIP":"E1B5A9"},"geometry":{"type":"Point","coordinates":[-64.847118,46.0505235]}},{"type":"Feature","properties":{"ZIP":"E1B1N3"},"geometry":{"type":"Point","coordinates":[-64.7747845,46.069446]}},{"type":"Feature","properties":{"ZIP":"E1B2N4"},"geometry":{"type":"Point","coordinates":[-64.8067805,46.061228]}},{"type":"Feature","properties":{"ZIP":"E1B3N5"},"geometry":{"type":"Point","coordinates":[-64.75455500000001,46.076361]}},{"type":"Feature","properties":{"ZIP":"E1B2R4"},"geometry":{"type":"Point","coordinates":[-64.8085155,46.0581895]}},{"type":"Feature","properties":{"ZIP":"E1B4B9"},"geometry":{"type":"Point","coordinates":[-64.79942199999999,46.043583999999996]}},{"type":"Feature","properties":{"ZIP":"E1B1N4"},"geometry":{"type":"Point","coordinates":[-64.7747845,46.069446]}},{"type":"Feature","properties":{"ZIP":"E1B4R3"},"geometry":{"type":"Point","coordinates":[-64.77016900000001,46.074653]}},{"type":"Feature","properties":{"ZIP":"E1B4V5"},"geometry":{"type":"Point","coordinates":[-64.81697600000001,46.0608125]}},{"type":"Feature","properties":{"ZIP":"E1B4X9"},"geometry":{"type":"Point","coordinates":[-64.785946,46.052512]}},{"type":"Feature","properties":{"ZIP":"E1B5B4"},"geometry":{"type":"Point","coordinates":[-64.8459435,46.048520499999995]}},{"type":"Feature","properties":{"ZIP":"E1B1K7"},"geometry":{"type":"Point","coordinates":[-64.7762745,46.073124]}},{"type":"Feature","properties":{"ZIP":"E1B1V3"},"geometry":{"type":"Point","coordinates":[-64.793947,46.0666005]}},{"type":"Feature","properties":{"ZIP":"E1B0B9"},"geometry":{"type":"Point","coordinates":[-64.781057,46.0412815]}},{"type":"Feature","properties":{"ZIP":"E1B5M1"},"geometry":{"type":"Point","coordinates":[-64.78469899999999,46.040467]}},{"type":"Feature","properties":{"ZIP":"E1B0L6"},"geometry":{"type":"Point","coordinates":[-64.7546375,46.0706695]}},{"type":"Feature","properties":{"ZIP":"E1B3S5"},"geometry":{"type":"Point","coordinates":[-64.822608,46.0546775]}}]}