{"type":"FeatureCollection","features":[{"type":"Feature","properties":{"ZIP":"E8C2G7"},"geometry":{"type":"Point","coordinates":[-66.3936745,48.066591]}},{"type":"Feature","properties":{"ZIP":"E8C2V6"},"geometry":{"type":"Point","coordinates":[-66.3683465,48.063633499999995]}},{"type":"Feature","properties":{"ZIP":"E8C2N8"},"geometry":{"type":"Point","coordinates":[-66.38897800000001,48.045651]}},{"type":"Feature","properties":{"ZIP":"E8C2M1"},"geometry":{"type":"Point","coordinates":[-66.419372,48.0412495]}},{"type":"Feature","properties":{"ZIP":"E8C1S5"},"geometry":{"type":"Point","coordinates":[-66.3602545,48.059198499999994]}},{"type":"Feature","properties":{"ZIP":"E8C2L4"},"geometry":{"type":"Point","coordinates":[-66.3724735,48.061927999999995]}},{"type":"Feature","properties":{"ZIP":"E8C1W3"},"geometry":{"type":"Point","coordinates":[-66.3686305,48.062495999999996]}},{"type":"Feature","properties":{"ZIP":"E8C2Y4"},"geometry":{"type":"Point","coordinates":[-66.372262,48.0349325]}},{"type":"Feature","properties":{"ZIP":"E8C1M8"},"geometry":{"type":"Point","coordinates":[-66.391863,48.046718999999996]}},{"type":"Feature","properties":{"ZIP":"E8C2S8"},"geometry":{"type":"Point","coordinates":[-66.37871200000001,48.063962000000004]}},{"type":"Feature","properties":{"ZIP":"E8C2M3"},"geometry":{"type":"Point","coordinates":[-66.41983300000001,48.0412225]}},{"type":"Feature","properties":{"ZIP":"E8C2A7"},"geometry":{"type":"Point","coordinates":[-66.389399,48.0643465]}},{"type":"Feature","properties":{"ZIP":"E8C1V3"},"geometry":{"type":"Point","coordinates":[-66.36558249999999,48.059691]}},{"type":"Feature","properties":{"ZIP":"E8C1A2"},"geometry":{"type":"Point","coordinates":[-66.378499,48.065528]}},{"type":"Feature","properties":{"ZIP":"E8C2V5"},"geometry":{"type":"Point","coordinates":[-66.37647050000001,48.064189999999996]}},{"type":"Feature","properties":{"ZIP":"E8C2L1"},"geometry":{"type":"Point","coordinates":[-66.37371,48.062059500000004]}},{"type":"Feature","properties":{"ZIP":"E8C2T5"},"geometry":{"type":"Point","coordinates":[-66.36999850000001,48.0637495]}},{"type":"Feature","properties":{"ZIP":"E8C1M3"},"geometry":{"type":"Point","coordinates":[-66.38267350000001,48.0493125]}},{"type":"Feature","properties":{"ZIP":"E8C1J1"},"geometry":{"type":"Point","coordinates":[-66.3921505,48.0638455]}},{"type":"Feature","properties":{"ZIP":"E8C2R7"},"geometry":{"type":"Point","coordinates":[-66.35973200000001,48.0619065]}},{"type":"Feature","properties":{"ZIP":"E8C1A8"},"geometry":{"type":"Point","coordinates":[-66.375427,48.065236999999996]}},{"type":"Feature","properties":{"ZIP":"E8C1K5"},"geometry":{"type":"Point","coordinates":[-66.38812899999999,48.051965499999994]}},{"type":"Feature","properties":{"ZIP":"E8C1Z8"},"geometry":{"type":"Point","coordinates":[-66.3583525,48.0598385]}},{"type":"Feature","properties":{"ZIP":"E8C1B2"},"geometry":{"type":"Point","coordinates":[-66.378105,48.0655045]}},{"type":"Feature","properties":{"ZIP":"E8C2E9"},"geometry":{"type":"Point","coordinates":[-66.365685,48.060475999999994]}},{"type":"Feature","properties":{"ZIP":"E8C2G1"},"geometry":{"type":"Point","coordinates":[-66.363482,48.0601535]}},{"type":"Feature","properties":{"ZIP":"E8C2P2"},"geometry":{"type":"Point","coordinates":[-66.38999849999999,48.045412]}},{"type":"Feature","properties":{"ZIP":"E8C2V2"},"geometry":{"type":"Point","coordinates":[-66.378989,48.063978500000005]}},{"type":"Feature","properties":{"ZIP":"E8C2P4"},"geometry":{"type":"Point","coordinates":[-66.3600905,48.0609315]}},{"type":"Feature","properties":{"ZIP":"E8C2W6"},"geometry":{"type":"Point","coordinates":[-66.3656465,48.057861]}},{"type":"Feature","properties":{"ZIP":"E8C1N4"},"geometry":{"type":"Point","coordinates":[-66.368593,48.058606999999995]}},{"type":"Feature","properties":{"ZIP":"E8C1Y7"},"geometry":{"type":"Point","coordinates":[-66.3608155,48.0595335]}},{"type":"Feature","properties":{"ZIP":"E8C2G5"},"geometry":{"type":"Point","coordinates":[-66.387653,48.0656685]}},{"type":"Feature","properties":{"ZIP":"E8C2B2"},"geometry":{"type":"Point","coordinates":[-66.393471,48.064809499999996]}},{"type":"Feature","properties":{"ZIP":"E8C1V5"},"geometry":{"type":"Point","coordinates":[-66.3688415,48.0601035]}},{"type":"Feature","properties":{"ZIP":"E8C1A7"},"geometry":{"type":"Point","coordinates":[-66.372495,48.0652125]}},{"type":"Feature","properties":{"ZIP":"E8C2B3"},"geometry":{"type":"Point","coordinates":[-66.3907385,48.0645075]}},{"type":"Feature","properties":{"ZIP":"E8C2B4"},"geometry":{"type":"Point","coordinates":[-66.388319,48.0641545]}},{"type":"Feature","properties":{"ZIP":"E8C2T6"},"geometry":{"type":"Point","coordinates":[-66.36196699999999,48.062546]}},{"type":"Feature","properties":{"ZIP":"E8C1M5"},"geometry":{"type":"Point","coordinates":[-66.397497,48.043274999999994]}},{"type":"Feature","properties":{"ZIP":"E8C2E7"},"geometry":{"type":"Point","coordinates":[-66.36513199999999,48.0604025]}},{"type":"Feature","properties":{"ZIP":"E8C2V9"},"geometry":{"type":"Point","coordinates":[-66.367179,48.058871499999995]}},{"type":"Feature","properties":{"ZIP":"E8C1Z7"},"geometry":{"type":"Point","coordinates":[-66.35824099999999,48.060094500000005]}},{"type":"Feature","properties":{"ZIP":"E8C2T7"},"geometry":{"type":"Point","coordinates":[-66.368604,48.062595]}},{"type":"Feature","properties":{"ZIP":"E8C2W1"},"geometry":{"type":"Point","coordinates":[-66.37494749999999,48.064747]}},{"type":"Feature","properties":{"ZIP":"E8C2S4"},"geometry":{"type":"Point","coordinates":[-66.3710605,48.0635025]}},{"type":"Feature","properties":{"ZIP":"E8C3C3"},"geometry":{"type":"Point","coordinates":[-66.387678,48.0464275]}},{"type":"Feature","properties":{"ZIP":"E8C2Y6"},"geometry":{"type":"Point","coordinates":[-66.376306,48.027767]}},{"type":"Feature","properties":{"ZIP":"E8C1L1"},"geometry":{"type":"Point","coordinates":[-66.356766,48.059619999999995]}},{"type":"Feature","properties":{"ZIP":"E8C2V1"},"geometry":{"type":"Point","coordinates":[-66.37557799999999,48.0637635]}},{"type":"Feature","properties":{"ZIP":"E8C1N1"},"geometry":{"type":"Point","coordinates":[-66.4016555,48.0403345]}},{"type":"Feature","properties":{"ZIP":"E8C2A6"},"geometry":{"type":"Point","coordinates":[-66.3929795,48.0647545]}},{"type":"Feature","properties":{"ZIP":"E8C1B7"},"geometry":{"type":"Point","coordinates":[-66.370924,48.065118]}},{"type":"Feature","properties":{"ZIP":"E8C2G3"},"geometry":{"type":"Point","coordinates":[-66.38396800000001,48.065217000000004]}},{"type":"Feature","properties":{"ZIP":"E8C2T1"},"geometry":{"type":"Point","coordinates":[-66.384657,48.064335]}},{"type":"Feature","properties":{"ZIP":"E8C1V2"},"geometry":{"type":"Point","coordinates":[-66.3635375,48.0594295]}},{"type":"Feature","properties":{"ZIP":"E8C2W7"},"geometry":{"type":"Point","coordinates":[-66.36809500000001,48.057942999999995]}},{"type":"Feature","properties":{"ZIP":"E8C2T2"},"geometry":{"type":"Point","coordinates":[-66.379219,48.06436]}},{"type":"Feature","properties":{"ZIP":"E8C2N1"},"geometry":{"type":"Point","coordinates":[-66.3770265,48.049179]}},{"type":"Feature","properties":{"ZIP":"E8C1N5"},"geometry":{"type":"Point","coordinates":[-66.36827,48.0585855]}},{"type":"Feature","properties":{"ZIP":"E8C1Y8"},"geometry":{"type":"Point","coordinates":[-66.36082049999999,48.059541499999995]}},{"type":"Feature","properties":{"ZIP":"E8C2K7"},"geometry":{"type":"Point","coordinates":[-66.3896695,48.063193]}},{"type":"Feature","properties":{"ZIP":"E8C2T3"},"geometry":{"type":"Point","coordinates":[-66.375838,48.0641565]}},{"type":"Feature","properties":{"ZIP":"E8C1A3"},"geometry":{"type":"Point","coordinates":[-66.376453,48.0654165]}},{"type":"Feature","properties":{"ZIP":"E8C3A8"},"geometry":{"type":"Point","coordinates":[-66.380771,48.0416875]}},{"type":"Feature","properties":{"ZIP":"E8C1C6"},"geometry":{"type":"Point","coordinates":[-66.3739585,48.0634055]}},{"type":"Feature","properties":{"ZIP":"E8C2E5"},"geometry":{"type":"Point","coordinates":[-66.3684725,48.061753499999995]}},{"type":"Feature","properties":{"ZIP":"E8C1N8"},"geometry":{"type":"Point","coordinates":[-66.36438899999999,48.062701000000004]}},{"type":"Feature","properties":{"ZIP":"E8C1K4"},"geometry":{"type":"Point","coordinates":[-66.3824025,48.052797999999996]}},{"type":"Feature","properties":{"ZIP":"E8C1S9"},"geometry":{"type":"Point","coordinates":[-66.367144,48.059902]}},{"type":"Feature","properties":{"ZIP":"E8C2L3"},"geometry":{"type":"Point","coordinates":[-66.375809,48.062169499999996]}},{"type":"Feature","properties":{"ZIP":"E8C2V8"},"geometry":{"type":"Point","coordinates":[-66.367222,48.058766500000004]}},{"type":"Feature","properties":{"ZIP":"E8C1C8"},"geometry":{"type":"Point","coordinates":[-66.3675935,48.0638665]}},{"type":"Feature","properties":{"ZIP":"E8C1K6"},"geometry":{"type":"Point","coordinates":[-66.36700450000001,48.061454]}},{"type":"Feature","properties":{"ZIP":"E8C1T5"},"geometry":{"type":"Point","coordinates":[-66.35537500000001,48.059151]}},{"type":"Feature","properties":{"ZIP":"E8C2B5"},"geometry":{"type":"Point","coordinates":[-66.38565550000001,48.063986]}},{"type":"Feature","properties":{"ZIP":"E8C1M7"},"geometry":{"type":"Point","coordinates":[-66.41152550000001,48.032916]}},{"type":"Feature","properties":{"ZIP":"E8C2E8"},"geometry":{"type":"Point","coordinates":[-66.3629185,48.0600795]}},{"type":"Feature","properties":{"ZIP":"E8C2N9"},"geometry":{"type":"Point","coordinates":[-66.38463999999999,48.0463525]}},{"type":"Feature","properties":{"ZIP":"E8C1J3"},"geometry":{"type":"Point","coordinates":[-66.385223,48.063305]}},{"type":"Feature","properties":{"ZIP":"E8C2B8"},"geometry":{"type":"Point","coordinates":[-66.377246,48.0593935]}},{"type":"Feature","properties":{"ZIP":"E8C2L9"},"geometry":{"type":"Point","coordinates":[-66.3707655,48.0628385]}},{"type":"Feature","properties":{"ZIP":"E8C2T8"},"geometry":{"type":"Point","coordinates":[-66.3686785,48.063362999999995]}},{"type":"Feature","properties":{"ZIP":"E8C1E7"},"geometry":{"type":"Point","coordinates":[-66.3808815,48.054269]}},{"type":"Feature","properties":{"ZIP":"E8C1W7"},"geometry":{"type":"Point","coordinates":[-66.3690095,48.062518499999996]}},{"type":"Feature","properties":{"ZIP":"E8C2P1"},"geometry":{"type":"Point","coordinates":[-66.3856945,48.04609000000001]}},{"type":"Feature","properties":{"ZIP":"E8C2W2"},"geometry":{"type":"Point","coordinates":[-66.375637,48.0647735]}},{"type":"Feature","properties":{"ZIP":"E8C1J5"},"geometry":{"type":"Point","coordinates":[-66.390254,48.0636425]}},{"type":"Feature","properties":{"ZIP":"E8C2S7"},"geometry":{"type":"Point","coordinates":[-66.37557799999999,48.0637635]}},{"type":"Feature","properties":{"ZIP":"E8C1T8"},"geometry":{"type":"Point","coordinates":[-66.360742,48.0591235]}},{"type":"Feature","properties":{"ZIP":"E8C2T9"},"geometry":{"type":"Point","coordinates":[-66.371061,48.0635025]}},{"type":"Feature","properties":{"ZIP":"E8C2W3"},"geometry":{"type":"Point","coordinates":[-66.3779195,48.06583500000001]}},{"type":"Feature","properties":{"ZIP":"E8C1B5"},"geometry":{"type":"Point","coordinates":[-66.374458,48.065325]}},{"type":"Feature","properties":{"ZIP":"E8C1T9"},"geometry":{"type":"Point","coordinates":[-66.3621265,48.0592745]}},{"type":"Feature","properties":{"ZIP":"E8C1G1"},"geometry":{"type":"Point","coordinates":[-66.3810465,48.055752999999996]}},{"type":"Feature","properties":{"ZIP":"E8C2G2"},"geometry":{"type":"Point","coordinates":[-66.3786415,48.061192500000004]}},{"type":"Feature","properties":{"ZIP":"E8C2P3"},"geometry":{"type":"Point","coordinates":[-66.3595235,48.060631]}},{"type":"Feature","properties":{"ZIP":"E8C2W4"},"geometry":{"type":"Point","coordinates":[-66.3773715,48.065847]}},{"type":"Feature","properties":{"ZIP":"E8C1J7"},"geometry":{"type":"Point","coordinates":[-66.3849735,48.063308000000006]}},{"type":"Feature","properties":{"ZIP":"E8C1R4"},"geometry":{"type":"Point","coordinates":[-66.375781,48.0605085]}},{"type":"Feature","properties":{"ZIP":"E8C1V1"},"geometry":{"type":"Point","coordinates":[-66.36247499999999,48.0593075]}},{"type":"Feature","properties":{"ZIP":"E8C1G5"},"geometry":{"type":"Point","coordinates":[-66.3719485,48.063227]}},{"type":"Feature","properties":{"ZIP":"E8C1N2"},"geometry":{"type":"Point","coordinates":[-66.41123999999999,48.033223500000005]}},{"type":"Feature","properties":{"ZIP":"E8C1J8"},"geometry":{"type":"Point","coordinates":[-66.37178449999999,48.060939]}},{"type":"Feature","properties":{"ZIP":"E8C2M9"},"geometry":{"type":"Point","coordinates":[-66.3770275,48.0491805]}},{"type":"Feature","properties":{"ZIP":"E8C2V3"},"geometry":{"type":"Point","coordinates":[-66.382218,48.064177]}},{"type":"Feature","properties":{"ZIP":"E8C2P9"},"geometry":{"type":"Point","coordinates":[-66.35845549999999,48.06068500000001]}},{"type":"Feature","properties":{"ZIP":"E8C1C3"},"geometry":{"type":"Point","coordinates":[-66.3591045,48.060746]}},{"type":"Feature","properties":{"ZIP":"E8C1H2"},"geometry":{"type":"Point","coordinates":[-66.37182200000001,48.0645285]}},{"type":"Feature","properties":{"ZIP":"E8C2G6"},"geometry":{"type":"Point","coordinates":[-66.400772,48.0673575]}},{"type":"Feature","properties":{"ZIP":"E8C2W8"},"geometry":{"type":"Point","coordinates":[-66.3655095,48.057857]}},{"type":"Feature","properties":{"ZIP":"E8C1K2"},"geometry":{"type":"Point","coordinates":[-66.3712265,48.060873]}},{"type":"Feature","properties":{"ZIP":"E8C2Z5"},"geometry":{"type":"Point","coordinates":[-66.37724750000001,48.0299865]}},{"type":"Feature","properties":{"ZIP":"E8C1C5"},"geometry":{"type":"Point","coordinates":[-66.3739475,48.063513]}},{"type":"Feature","properties":{"ZIP":"E8C1M1"},"geometry":{"type":"Point","coordinates":[-66.3666785,48.0610175]}},{"type":"Feature","properties":{"ZIP":"E8C2N2"},"geometry":{"type":"Point","coordinates":[-66.3792385,48.0488295]}},{"type":"Feature","properties":{"ZIP":"E8C1H4"},"geometry":{"type":"Point","coordinates":[-66.36511949999999,48.0609925]}},{"type":"Feature","properties":{"ZIP":"E8C1N6"},"geometry":{"type":"Point","coordinates":[-66.365591,48.058509]}},{"type":"Feature","properties":{"ZIP":"E8C1Z2"},"geometry":{"type":"Point","coordinates":[-66.387539,48.046462500000004]}},{"type":"Feature","properties":{"ZIP":"E8C2R4"},"geometry":{"type":"Point","coordinates":[-66.35267049999999,48.06088]}},{"type":"Feature","properties":{"ZIP":"E8C1S6"},"geometry":{"type":"Point","coordinates":[-66.363216,48.0593885]}},{"type":"Feature","properties":{"ZIP":"E8C1M2"},"geometry":{"type":"Point","coordinates":[-66.3666525,48.061555]}},{"type":"Feature","properties":{"ZIP":"E8C2N3"},"geometry":{"type":"Point","coordinates":[-66.3793905,48.0491995]}},{"type":"Feature","properties":{"ZIP":"E8C1H7"},"geometry":{"type":"Point","coordinates":[-66.365252,48.061758999999995]}},{"type":"Feature","properties":{"ZIP":"E8C1Z4"},"geometry":{"type":"Point","coordinates":[-66.373707,48.049864]}},{"type":"Feature","properties":{"ZIP":"E8C2H1"},"geometry":{"type":"Point","coordinates":[-66.3762055,48.065098]}},{"type":"Feature","properties":{"ZIP":"E8C3B1"},"geometry":{"type":"Point","coordinates":[-66.37250900000001,48.0360645]}},{"type":"Feature","properties":{"ZIP":"E8C1C7"},"geometry":{"type":"Point","coordinates":[-66.3689125,48.0641725]}},{"type":"Feature","properties":{"ZIP":"E8C2E6"},"geometry":{"type":"Point","coordinates":[-66.3684725,48.0617535]}},{"type":"Feature","properties":{"ZIP":"E8C2N5"},"geometry":{"type":"Point","coordinates":[-66.37774250000001,48.05027]}},{"type":"Feature","properties":{"ZIP":"E8C1N9"},"geometry":{"type":"Point","coordinates":[-66.364259,48.062762]}},{"type":"Feature","properties":{"ZIP":"E8C1Z5"},"geometry":{"type":"Point","coordinates":[-66.373223,48.060833]}},{"type":"Feature","properties":{"ZIP":"E8C2H3"},"geometry":{"type":"Point","coordinates":[-66.37624600000001,48.0647975]}},{"type":"Feature","properties":{"ZIP":"E8C1T2"},"geometry":{"type":"Point","coordinates":[-66.368938,48.0601135]}},{"type":"Feature","properties":{"ZIP":"E8C3B5"},"geometry":{"type":"Point","coordinates":[-66.3760015,48.0312915]}},{"type":"Feature","properties":{"ZIP":"E8C1J2"},"geometry":{"type":"Point","coordinates":[-66.3878065,48.0634005]}},{"type":"Feature","properties":{"ZIP":"E8C1P3"},"geometry":{"type":"Point","coordinates":[-66.3893545,48.063598999999996]}},{"type":"Feature","properties":{"ZIP":"E8C2S1"},"geometry":{"type":"Point","coordinates":[-66.3642365,48.0629045]}},{"type":"Feature","properties":{"ZIP":"E8C2Y2"},"geometry":{"type":"Point","coordinates":[-66.3718065,48.0364]}},{"type":"Feature","properties":{"ZIP":"E8C1B1"},"geometry":{"type":"Point","coordinates":[-66.36696,48.064398999999995]}},{"type":"Feature","properties":{"ZIP":"E8C3B8"},"geometry":{"type":"Point","coordinates":[-66.375823,48.031474]}},{"type":"Feature","properties":{"ZIP":"E8C1W4"},"geometry":{"type":"Point","coordinates":[-66.366376,48.0624015]}},{"type":"Feature","properties":{"ZIP":"E8C1K7"},"geometry":{"type":"Point","coordinates":[-66.365898,48.061389500000004]}},{"type":"Feature","properties":{"ZIP":"E8C1T7"},"geometry":{"type":"Point","coordinates":[-66.3592755,48.059038]}},{"type":"Feature","properties":{"ZIP":"E8C1Z9"},"geometry":{"type":"Point","coordinates":[-66.379487,48.064988]}},{"type":"Feature","properties":{"ZIP":"E8C2C2"},"geometry":{"type":"Point","coordinates":[-66.36792,48.061519000000004]}},{"type":"Feature","properties":{"ZIP":"E8C1E8"},"geometry":{"type":"Point","coordinates":[-66.3614225,48.0550455]}},{"type":"Feature","properties":{"ZIP":"E8C1M9"},"geometry":{"type":"Point","coordinates":[-66.393992,48.045521]}},{"type":"Feature","properties":{"ZIP":"E8C1J6"},"geometry":{"type":"Point","coordinates":[-66.3886415,48.0634795]}},{"type":"Feature","properties":{"ZIP":"E8C2A2"},"geometry":{"type":"Point","coordinates":[-66.391793,48.040097]}},{"type":"Feature","properties":{"ZIP":"E8C1L2"},"geometry":{"type":"Point","coordinates":[-66.35692750000001,48.059487000000004]}},{"type":"Feature","properties":{"ZIP":"E8C2C3"},"geometry":{"type":"Point","coordinates":[-66.3680825,48.060308]}},{"type":"Feature","properties":{"ZIP":"E8C2M2"},"geometry":{"type":"Point","coordinates":[-66.4053385,48.043223499999996]}},{"type":"Feature","properties":{"ZIP":"E8C2S9"},"geometry":{"type":"Point","coordinates":[-66.3818715,48.0641545]}},{"type":"Feature","properties":{"ZIP":"E8C2Y8"},"geometry":{"type":"Point","coordinates":[-66.3753485,48.0323775]}},{"type":"Feature","properties":{"ZIP":"E8C1L5"},"geometry":{"type":"Point","coordinates":[-66.36686599999999,48.063122]}},{"type":"Feature","properties":{"ZIP":"E8C2C4"},"geometry":{"type":"Point","coordinates":[-66.36792,48.061519000000004]}},{"type":"Feature","properties":{"ZIP":"E8C1Y4"},"geometry":{"type":"Point","coordinates":[-66.3725695,48.05969]}},{"type":"Feature","properties":{"ZIP":"E8C2Z1"},"geometry":{"type":"Point","coordinates":[-66.3746165,48.0326125]}},{"type":"Feature","properties":{"ZIP":"E8C1C1"},"geometry":{"type":"Point","coordinates":[-66.35940550000001,48.060418]}},{"type":"Feature","properties":{"ZIP":"E8C1L6"},"geometry":{"type":"Point","coordinates":[-66.3666135,48.0631465]}},{"type":"Feature","properties":{"ZIP":"E8C1H1"},"geometry":{"type":"Point","coordinates":[-66.3724035,48.0617265]}},{"type":"Feature","properties":{"ZIP":"E8C1K1"},"geometry":{"type":"Point","coordinates":[-66.36871450000001,48.06102]}},{"type":"Feature","properties":{"ZIP":"E8C1S3"},"geometry":{"type":"Point","coordinates":[-66.380889,48.063163]}},{"type":"Feature","properties":{"ZIP":"E8C2A8"},"geometry":{"type":"Point","coordinates":[-66.386167,48.06402]}},{"type":"Feature","properties":{"ZIP":"E8C2Z4"},"geometry":{"type":"Point","coordinates":[-66.37740500000001,48.0340275]}},{"type":"Feature","properties":{"ZIP":"E8C1L8"},"geometry":{"type":"Point","coordinates":[-66.3667725,48.060244999999995]}},{"type":"Feature","properties":{"ZIP":"E8C2E3"},"geometry":{"type":"Point","coordinates":[-66.3739865,48.060047]}},{"type":"Feature","properties":{"ZIP":"E8C2V4"},"geometry":{"type":"Point","coordinates":[-66.384657,48.064335]}},{"type":"Feature","properties":{"ZIP":"E8C2R2"},"geometry":{"type":"Point","coordinates":[-66.358543,48.060696500000006]}},{"type":"Feature","properties":{"ZIP":"E8C2A9"},"geometry":{"type":"Point","coordinates":[-66.38475,48.063927500000005]}},{"type":"Feature","properties":{"ZIP":"E8C1V4"},"geometry":{"type":"Point","coordinates":[-66.3673245,48.059928]}},{"type":"Feature","properties":{"ZIP":"E8C1K3"},"geometry":{"type":"Point","coordinates":[-66.369483,48.061063000000004]}},{"type":"Feature","properties":{"ZIP":"E8C2T4"},"geometry":{"type":"Point","coordinates":[-66.3728975,48.0639605]}},{"type":"Feature","properties":{"ZIP":"E8C2L6"},"geometry":{"type":"Point","coordinates":[-66.3748435,48.059847500000004]}},{"type":"Feature","properties":{"ZIP":"E8C1P5"},"geometry":{"type":"Point","coordinates":[-66.382843,48.0648215]}},{"type":"Feature","properties":{"ZIP":"E8C1P7"},"geometry":{"type":"Point","coordinates":[-66.382843,48.0649175]}},{"type":"Feature","properties":{"ZIP":"E8C1B3"},"geometry":{"type":"Point","coordinates":[-66.37593050000001,48.065397000000004]}},{"type":"Feature","properties":{"ZIP":"E8C1X1"},"geometry":{"type":"Point","coordinates":[-66.3812275,48.065045]}},{"type":"Feature","properties":{"ZIP":"E8C1R3"},"geometry":{"type":"Point","coordinates":[-66.356629,48.058141]}},{"type":"Feature","properties":{"ZIP":"E8C2Y7"},"geometry":{"type":"Point","coordinates":[-66.376666,48.029363000000004]}},{"type":"Feature","properties":{"ZIP":"E8C1X4"},"geometry":{"type":"Point","coordinates":[-66.36808500000001,48.069539000000006]}},{"type":"Feature","properties":{"ZIP":"E8C1R9"},"geometry":{"type":"Point","coordinates":[-66.38043,48.0651625]}},{"type":"Feature","properties":{"ZIP":"E8C2E4"},"geometry":{"type":"Point","coordinates":[-66.374011,48.059848]}}]}