{"type":"FeatureCollection","features":[{"type":"Feature","properties":{"ZIP":"R2N1K1","VERTICES":16},"geometry":{"type":"Point","coordinates":[-97.10426,49.815869]}},{"type":"Feature","properties":{"ZIP":"R2N3Y3","VERTICES":14},"geometry":{"type":"Point","coordinates":[-97.083213,49.815121500000004]}},{"type":"Feature","properties":{"ZIP":"R2N1J2","VERTICES":13},"geometry":{"type":"Point","coordinates":[-97.10292,49.821830000000006]}},{"type":"Feature","properties":{"ZIP":"R2N1K7","VERTICES":13},"geometry":{"type":"Point","coordinates":[-97.0986035,49.812937500000004]}},{"type":"Feature","properties":{"ZIP":"R2N4M5","VERTICES":12},"geometry":{"type":"Point","coordinates":[-97.082854,49.8114895]}},{"type":"Feature","properties":{"ZIP":"R2N1S2","VERTICES":12},"geometry":{"type":"Point","coordinates":[-97.098822,49.811537]}},{"type":"Feature","properties":{"ZIP":"R2N3W7","VERTICES":12},"geometry":{"type":"Point","coordinates":[-97.08363,49.8171275]}},{"type":"Feature","properties":{"ZIP":"R2N1E7","VERTICES":12},"geometry":{"type":"Point","coordinates":[-97.0989215,49.825022000000004]}},{"type":"Feature","properties":{"ZIP":"R2N4N3","VERTICES":12},"geometry":{"type":"Point","coordinates":[-97.075841,49.812084]}},{"type":"Feature","properties":{"ZIP":"R2N1B5","VERTICES":12},"geometry":{"type":"Point","coordinates":[-97.08773049999999,49.821938]}},{"type":"Feature","properties":{"ZIP":"R2N1G4","VERTICES":11},"geometry":{"type":"Point","coordinates":[-97.10403600000001,49.8220965]}},{"type":"Feature","properties":{"ZIP":"R2N4M4","VERTICES":11},"geometry":{"type":"Point","coordinates":[-97.0794975,49.8127875]}},{"type":"Feature","properties":{"ZIP":"R2N3C8","VERTICES":11},"geometry":{"type":"Point","coordinates":[-97.118314,49.801227]}},{"type":"Feature","properties":{"ZIP":"R2N4H5","VERTICES":11},"geometry":{"type":"Point","coordinates":[-97.08994899999999,49.812244500000006]}},{"type":"Feature","properties":{"ZIP":"R2N2S2","VERTICES":11},"geometry":{"type":"Point","coordinates":[-97.104601,49.804204]}},{"type":"Feature","properties":{"ZIP":"R2N3W6","VERTICES":11},"geometry":{"type":"Point","coordinates":[-97.08817049999999,49.8158605]}},{"type":"Feature","properties":{"ZIP":"R2N2L5","VERTICES":11},"geometry":{"type":"Point","coordinates":[-97.0914475,49.824648499999995]}},{"type":"Feature","properties":{"ZIP":"R2N4R3","VERTICES":11},"geometry":{"type":"Point","coordinates":[-97.101734,49.8014345]}},{"type":"Feature","properties":{"ZIP":"R2N4H9","VERTICES":11},"geometry":{"type":"Point","coordinates":[-97.09132,49.811507500000005]}},{"type":"Feature","properties":{"ZIP":"R2N1N9","VERTICES":11},"geometry":{"type":"Point","coordinates":[-97.1053755,49.810135]}},{"type":"Feature","properties":{"ZIP":"R2N2R4","VERTICES":11},"geometry":{"type":"Point","coordinates":[-97.10223500000001,49.806903]}},{"type":"Feature","properties":{"ZIP":"R2N4L7","VERTICES":11},"geometry":{"type":"Point","coordinates":[-97.08464950000001,49.810325]}},{"type":"Feature","properties":{"ZIP":"R2N4N2","VERTICES":11},"geometry":{"type":"Point","coordinates":[-97.0767115,49.810912]}},{"type":"Feature","properties":{"ZIP":"R2N1C5","VERTICES":11},"geometry":{"type":"Point","coordinates":[-97.0901905,49.819961000000006]}},{"type":"Feature","properties":{"ZIP":"R2N4J3","VERTICES":11},"geometry":{"type":"Point","coordinates":[-97.090694,49.81035]}},{"type":"Feature","properties":{"ZIP":"R2N1H2","VERTICES":11},"geometry":{"type":"Point","coordinates":[-97.108327,49.811891]}},{"type":"Feature","properties":{"ZIP":"R2N1V3","VERTICES":11},"geometry":{"type":"Point","coordinates":[-97.1087035,49.809037000000004]}},{"type":"Feature","properties":{"ZIP":"R2N3Y2","VERTICES":11},"geometry":{"type":"Point","coordinates":[-97.08621600000001,49.8140985]}},{"type":"Feature","properties":{"ZIP":"R2N2L2","VERTICES":11},"geometry":{"type":"Point","coordinates":[-97.0884645,49.823784]}},{"type":"Feature","properties":{"ZIP":"R2N2T3","VERTICES":10},"geometry":{"type":"Point","coordinates":[-97.1046145,49.8056085]}},{"type":"Feature","properties":{"ZIP":"R2N3R8","VERTICES":10},"geometry":{"type":"Point","coordinates":[-97.086315,49.8061485]}},{"type":"Feature","properties":{"ZIP":"R2N1H6","VERTICES":10},"geometry":{"type":"Point","coordinates":[-97.09891999999999,49.825025499999995]}},{"type":"Feature","properties":{"ZIP":"R2N1J8","VERTICES":10},"geometry":{"type":"Point","coordinates":[-97.1017275,49.816479]}},{"type":"Feature","properties":{"ZIP":"R2N3Y5","VERTICES":10},"geometry":{"type":"Point","coordinates":[-97.080951,49.8142175]}},{"type":"Feature","properties":{"ZIP":"R2N1M6","VERTICES":10},"geometry":{"type":"Point","coordinates":[-97.104631,49.8098495]}},{"type":"Feature","properties":{"ZIP":"R2N3V4","VERTICES":10},"geometry":{"type":"Point","coordinates":[-97.096316,49.822323999999995]}},{"type":"Feature","properties":{"ZIP":"R2N4A5","VERTICES":10},"geometry":{"type":"Point","coordinates":[-97.14556150000001,49.774765]}},{"type":"Feature","properties":{"ZIP":"R2N1T4","VERTICES":10},"geometry":{"type":"Point","coordinates":[-97.091317,49.82676549999999]}},{"type":"Feature","properties":{"ZIP":"R2N3K9","VERTICES":10},"geometry":{"type":"Point","coordinates":[-97.082414,49.819694]}},{"type":"Feature","properties":{"ZIP":"R2N1A9","VERTICES":10},"geometry":{"type":"Point","coordinates":[-97.0875135,49.8207205]}},{"type":"Feature","properties":{"ZIP":"R2N2K4","VERTICES":10},"geometry":{"type":"Point","coordinates":[-97.08680050000001,49.8245535]}},{"type":"Feature","properties":{"ZIP":"R2N1M7","VERTICES":10},"geometry":{"type":"Point","coordinates":[-97.1044755,49.8096775]}},{"type":"Feature","properties":{"ZIP":"R2N3N6","VERTICES":10},"geometry":{"type":"Point","coordinates":[-97.093852,49.8027115]}},{"type":"Feature","properties":{"ZIP":"R2N4P2","VERTICES":10},"geometry":{"type":"Point","coordinates":[-97.08708,49.8089915]}},{"type":"Feature","properties":{"ZIP":"R2N3W8","VERTICES":10},"geometry":{"type":"Point","coordinates":[-97.08542650000001,49.8164]}},{"type":"Feature","properties":{"ZIP":"R2N4L5","VERTICES":10},"geometry":{"type":"Point","coordinates":[-97.082284,49.8096465]}},{"type":"Feature","properties":{"ZIP":"R2N2K6","VERTICES":10},"geometry":{"type":"Point","coordinates":[-97.08671,49.826062]}},{"type":"Feature","properties":{"ZIP":"R2N4N1","VERTICES":10},"geometry":{"type":"Point","coordinates":[-97.08139600000001,49.809163999999996]}},{"type":"Feature","properties":{"ZIP":"R2N2A7","VERTICES":10},"geometry":{"type":"Point","coordinates":[-97.1074135,49.821017499999996]}},{"type":"Feature","properties":{"ZIP":"R2N1A1","VERTICES":10},"geometry":{"type":"Point","coordinates":[-97.09091649999999,49.819625]}},{"type":"Feature","properties":{"ZIP":"R2N3R2","VERTICES":10},"geometry":{"type":"Point","coordinates":[-97.088549,49.806144]}},{"type":"Feature","properties":{"ZIP":"R2N1G9","VERTICES":10},"geometry":{"type":"Point","coordinates":[-97.099058,49.825445]}},{"type":"Feature","properties":{"ZIP":"R2N1N1","VERTICES":10},"geometry":{"type":"Point","coordinates":[-97.104894,49.8123935]}},{"type":"Feature","properties":{"ZIP":"R2N1A2","VERTICES":10},"geometry":{"type":"Point","coordinates":[-97.0927925,49.819058]}},{"type":"Feature","properties":{"ZIP":"R2N1E8","VERTICES":10},"geometry":{"type":"Point","coordinates":[-97.104392,49.815094]}},{"type":"Feature","properties":{"ZIP":"R2N1P3","VERTICES":10},"geometry":{"type":"Point","coordinates":[-97.1009885,49.821724]}},{"type":"Feature","properties":{"ZIP":"R2N1W2","VERTICES":10},"geometry":{"type":"Point","coordinates":[-97.098867,49.8224235]}},{"type":"Feature","properties":{"ZIP":"R2N2T9","VERTICES":10},"geometry":{"type":"Point","coordinates":[-97.10847749999999,49.80444]}},{"type":"Feature","properties":{"ZIP":"R2N1J3","VERTICES":10},"geometry":{"type":"Point","coordinates":[-97.1016545,49.8224075]}},{"type":"Feature","properties":{"ZIP":"R2N1E9","VERTICES":10},"geometry":{"type":"Point","coordinates":[-97.0981195,49.823169]}},{"type":"Feature","properties":{"ZIP":"R2N1W3","VERTICES":10},"geometry":{"type":"Point","coordinates":[-97.11053150000001,49.8154465]}},{"type":"Feature","properties":{"ZIP":"R2N2K9","VERTICES":10},"geometry":{"type":"Point","coordinates":[-97.09059,49.825182999999996]}},{"type":"Feature","properties":{"ZIP":"R2N1J4","VERTICES":10},"geometry":{"type":"Point","coordinates":[-97.1097745,49.81473149999999]}},{"type":"Feature","properties":{"ZIP":"R2N1N3","VERTICES":10},"geometry":{"type":"Point","coordinates":[-97.104894,49.8123935]}},{"type":"Feature","properties":{"ZIP":"R2N1S8","VERTICES":10},"geometry":{"type":"Point","coordinates":[-97.1081765,49.815608]}},{"type":"Feature","properties":{"ZIP":"R2N2W3","VERTICES":10},"geometry":{"type":"Point","coordinates":[-97.1139845,49.8022275]}},{"type":"Feature","properties":{"ZIP":"R2N3K4","VERTICES":10},"geometry":{"type":"Point","coordinates":[-97.087965,49.819233499999996]}},{"type":"Feature","properties":{"ZIP":"R2N1P5","VERTICES":10},"geometry":{"type":"Point","coordinates":[-97.09633,49.8243955]}},{"type":"Feature","properties":{"ZIP":"R2N1R7","VERTICES":10},"geometry":{"type":"Point","coordinates":[-97.0973085,49.8123965]}},{"type":"Feature","properties":{"ZIP":"R2N2V2","VERTICES":10},"geometry":{"type":"Point","coordinates":[-97.10710399999999,49.806292]}},{"type":"Feature","properties":{"ZIP":"R2N4P8","VERTICES":10},"geometry":{"type":"Point","coordinates":[-97.09901049999999,49.802956]}},{"type":"Feature","properties":{"ZIP":"R2N3N1","VERTICES":10},"geometry":{"type":"Point","coordinates":[-97.09382,49.8077755]}},{"type":"Feature","properties":{"ZIP":"R2N1J6","VERTICES":10},"geometry":{"type":"Point","coordinates":[-97.10525,49.821028]}},{"type":"Feature","properties":{"ZIP":"R2N4P9","VERTICES":10},"geometry":{"type":"Point","coordinates":[-97.1015835,49.802564000000004]}},{"type":"Feature","properties":{"ZIP":"R2N1K9","VERTICES":10},"geometry":{"type":"Point","coordinates":[-97.0955415,49.8243085]}},{"type":"Feature","properties":{"ZIP":"R2N2X7","VERTICES":10},"geometry":{"type":"Point","coordinates":[-97.11163099999999,49.799655]}},{"type":"Feature","properties":{"ZIP":"R2N4M3","VERTICES":10},"geometry":{"type":"Point","coordinates":[-97.0786,49.8129045]}},{"type":"Feature","properties":{"ZIP":"R2N1H5","VERTICES":10},"geometry":{"type":"Point","coordinates":[-97.10439249999999,49.815094]}},{"type":"Feature","properties":{"ZIP":"R2N2L3","VERTICES":10},"geometry":{"type":"Point","coordinates":[-97.088772,49.824094]}},{"type":"Feature","properties":{"ZIP":"R2N1J7","VERTICES":10},"geometry":{"type":"Point","coordinates":[-97.10212849999999,49.8164045]}},{"type":"Feature","properties":{"ZIP":"R2N3K7","VERTICES":10},"geometry":{"type":"Point","coordinates":[-97.08352500000001,49.8186245]}},{"type":"Feature","properties":{"ZIP":"R2N4R1","VERTICES":10},"geometry":{"type":"Point","coordinates":[-97.0991425,49.802040000000005]}},{"type":"Feature","properties":{"ZIP":"R2N1P8","VERTICES":9},"geometry":{"type":"Point","coordinates":[-97.10762299999999,49.8205845]}},{"type":"Feature","properties":{"ZIP":"R2N2X8","VERTICES":9},"geometry":{"type":"Point","coordinates":[-97.1103435,49.8005965]}},{"type":"Feature","properties":{"ZIP":"R2N1T3","VERTICES":9},"geometry":{"type":"Point","coordinates":[-97.091317,49.82676549999999]}},{"type":"Feature","properties":{"ZIP":"R2N3G2","VERTICES":9},"geometry":{"type":"Point","coordinates":[-97.09424999999999,49.815301000000005]}},{"type":"Feature","properties":{"ZIP":"R2N3P7","VERTICES":9},"geometry":{"type":"Point","coordinates":[-97.0882325,49.8044525]}},{"type":"Feature","properties":{"ZIP":"R2N1H7","VERTICES":9},"geometry":{"type":"Point","coordinates":[-97.1012655,49.8246795]}},{"type":"Feature","properties":{"ZIP":"R2N1E4","VERTICES":9},"geometry":{"type":"Point","coordinates":[-97.094566,49.8260355]}},{"type":"Feature","properties":{"ZIP":"R2N2S3","VERTICES":9},"geometry":{"type":"Point","coordinates":[-97.1033245,49.804271]}},{"type":"Feature","properties":{"ZIP":"R2N2W8","VERTICES":9},"geometry":{"type":"Point","coordinates":[-97.110228,49.803186]}},{"type":"Feature","properties":{"ZIP":"R2N3P8","VERTICES":9},"geometry":{"type":"Point","coordinates":[-97.0880885,49.804747]}},{"type":"Feature","properties":{"ZIP":"R2N4L3","VERTICES":9},"geometry":{"type":"Point","coordinates":[-97.0838315,49.809256]}},{"type":"Feature","properties":{"ZIP":"R2N1R1","VERTICES":9},"geometry":{"type":"Point","coordinates":[-97.1080345,49.8108915]}},{"type":"Feature","properties":{"ZIP":"R2N1V7","VERTICES":9},"geometry":{"type":"Point","coordinates":[-97.0990055,49.823068]}},{"type":"Feature","properties":{"ZIP":"R2N4M6","VERTICES":9},"geometry":{"type":"Point","coordinates":[-97.08382900000001,49.812978]}},{"type":"Feature","properties":{"ZIP":"R2N1S3","VERTICES":9},"geometry":{"type":"Point","coordinates":[-97.09870950000001,49.811868000000004]}},{"type":"Feature","properties":{"ZIP":"R2N3V5","VERTICES":9},"geometry":{"type":"Point","coordinates":[-97.096695,49.8219795]}},{"type":"Feature","properties":{"ZIP":"R2N4A6","VERTICES":9},"geometry":{"type":"Point","coordinates":[-97.124717,49.7800105]}},{"type":"Feature","properties":{"ZIP":"R2N1T6","VERTICES":9},"geometry":{"type":"Point","coordinates":[-97.11109450000001,49.8122385]}},{"type":"Feature","properties":{"ZIP":"R2N3A7","VERTICES":9},"geometry":{"type":"Point","coordinates":[-97.0940455,49.815376]}},{"type":"Feature","properties":{"ZIP":"R2N2Y2","VERTICES":9},"geometry":{"type":"Point","coordinates":[-97.109337,49.800627500000004]}},{"type":"Feature","properties":{"ZIP":"R2N3V6","VERTICES":9},"geometry":{"type":"Point","coordinates":[-97.0837205,49.8063975]}},{"type":"Feature","properties":{"ZIP":"R2N4P3","VERTICES":9},"geometry":{"type":"Point","coordinates":[-97.0846065,49.8100135]}},{"type":"Feature","properties":{"ZIP":"R2N3W9","VERTICES":9},"geometry":{"type":"Point","coordinates":[-97.084296,49.816787000000005]}},{"type":"Feature","properties":{"ZIP":"R2N1G8","VERTICES":9},"geometry":{"type":"Point","coordinates":[-97.1151485,49.816792500000005]}},{"type":"Feature","properties":{"ZIP":"R2N1R3","VERTICES":9},"geometry":{"type":"Point","coordinates":[-97.10051200000001,49.810362999999995]}},{"type":"Feature","properties":{"ZIP":"R2N2P2","VERTICES":9},"geometry":{"type":"Point","coordinates":[-97.096832,49.808807]}},{"type":"Feature","properties":{"ZIP":"R2N3H8","VERTICES":9},"geometry":{"type":"Point","coordinates":[-97.0913715,49.8180205]}},{"type":"Feature","properties":{"ZIP":"R2N3N9","VERTICES":9},"geometry":{"type":"Point","coordinates":[-97.091959,49.8042045]}},{"type":"Feature","properties":{"ZIP":"R2N3V7","VERTICES":9},"geometry":{"type":"Point","coordinates":[-97.0838005,49.807053499999995]}},{"type":"Feature","properties":{"ZIP":"R2N1K3","VERTICES":9},"geometry":{"type":"Point","coordinates":[-97.107043,49.813370500000005]}},{"type":"Feature","properties":{"ZIP":"R2N3E5","VERTICES":9},"geometry":{"type":"Point","coordinates":[-97.09767,49.818895]}},{"type":"Feature","properties":{"ZIP":"R2N3K2","VERTICES":9},"geometry":{"type":"Point","coordinates":[-97.0868045,49.819660999999996]}},{"type":"Feature","properties":{"ZIP":"R2N1K4","VERTICES":9},"geometry":{"type":"Point","coordinates":[-97.104694,49.815766999999994]}},{"type":"Feature","properties":{"ZIP":"R2N2N2","VERTICES":9},"geometry":{"type":"Point","coordinates":[-97.0974895,49.805730499999996]}},{"type":"Feature","properties":{"ZIP":"R2N3B1","VERTICES":9},"geometry":{"type":"Point","coordinates":[-97.0953375,49.808552]}},{"type":"Feature","properties":{"ZIP":"R2N3J1","VERTICES":9},"geometry":{"type":"Point","coordinates":[-97.090776,49.8184755]}},{"type":"Feature","properties":{"ZIP":"R2N4G9","VERTICES":9},"geometry":{"type":"Point","coordinates":[-97.08729199999999,49.811789]}},{"type":"Feature","properties":{"ZIP":"R2N3K3","VERTICES":9},"geometry":{"type":"Point","coordinates":[-97.08719350000001,49.81917]}},{"type":"Feature","properties":{"ZIP":"R2N1P4","VERTICES":9},"geometry":{"type":"Point","coordinates":[-97.1010245,49.821711]}},{"type":"Feature","properties":{"ZIP":"R2N2J7","VERTICES":9},"geometry":{"type":"Point","coordinates":[-97.087507,49.826396]}},{"type":"Feature","properties":{"ZIP":"R2N1M1","VERTICES":9},"geometry":{"type":"Point","coordinates":[-97.110253,49.813219000000004]}},{"type":"Feature","properties":{"ZIP":"R2N1R6","VERTICES":9},"geometry":{"type":"Point","coordinates":[-97.0981705,49.8127825]}},{"type":"Feature","properties":{"ZIP":"R2N1A4","VERTICES":9},"geometry":{"type":"Point","coordinates":[-97.0928855,49.819985]}},{"type":"Feature","properties":{"ZIP":"R2N4M1","VERTICES":9},"geometry":{"type":"Point","coordinates":[-97.0795085,49.8107885]}},{"type":"Feature","properties":{"ZIP":"R2N3J3","VERTICES":9},"geometry":{"type":"Point","coordinates":[-97.089744,49.8185895]}},{"type":"Feature","properties":{"ZIP":"R2N3T9","VERTICES":9},"geometry":{"type":"Point","coordinates":[-97.117598,49.801131999999996]}},{"type":"Feature","properties":{"ZIP":"R2N2M3","VERTICES":9},"geometry":{"type":"Point","coordinates":[-97.099448,49.8091065]}},{"type":"Feature","properties":{"ZIP":"R2N2T1","VERTICES":9},"geometry":{"type":"Point","coordinates":[-97.1047775,49.805575000000005]}},{"type":"Feature","properties":{"ZIP":"R2N3B4","VERTICES":9},"geometry":{"type":"Point","coordinates":[-97.11689050000001,49.803844999999995]}},{"type":"Feature","properties":{"ZIP":"R2N1R8","VERTICES":9},"geometry":{"type":"Point","coordinates":[-97.10065349999999,49.8110335]}},{"type":"Feature","properties":{"ZIP":"R2N3C6","VERTICES":9},"geometry":{"type":"Point","coordinates":[-97.12015099999999,49.802342499999995]}},{"type":"Feature","properties":{"ZIP":"R2N1E1","VERTICES":9},"geometry":{"type":"Point","coordinates":[-97.090289,49.8272635]}},{"type":"Feature","properties":{"ZIP":"R2N1N5","VERTICES":9},"geometry":{"type":"Point","coordinates":[-97.103733,49.8116165]}},{"type":"Feature","properties":{"ZIP":"R2N2W5","VERTICES":9},"geometry":{"type":"Point","coordinates":[-97.1129195,49.801772]}},{"type":"Feature","properties":{"ZIP":"R2N3A3","VERTICES":9},"geometry":{"type":"Point","coordinates":[-97.10578749999999,49.806987]}},{"type":"Feature","properties":{"ZIP":"R2N1G3","VERTICES":9},"geometry":{"type":"Point","coordinates":[-97.104075,49.8220855]}},{"type":"Feature","properties":{"ZIP":"R2N1B8","VERTICES":9},"geometry":{"type":"Point","coordinates":[-97.0870895,49.8208725]}},{"type":"Feature","properties":{"ZIP":"R2N4H4","VERTICES":9},"geometry":{"type":"Point","coordinates":[-97.10977,49.7992605]}},{"type":"Feature","properties":{"ZIP":"R2N4N7","VERTICES":9},"geometry":{"type":"Point","coordinates":[-97.07624899999999,49.810351499999996]}},{"type":"Feature","properties":{"ZIP":"R2N1N6","VERTICES":9},"geometry":{"type":"Point","coordinates":[-97.103578,49.811049499999996]}},{"type":"Feature","properties":{"ZIP":"R2N3L9","VERTICES":8},"geometry":{"type":"Point","coordinates":[-97.08353650000001,49.8209955]}},{"type":"Feature","properties":{"ZIP":"R2N2Z1","VERTICES":8},"geometry":{"type":"Point","coordinates":[-97.118426,49.804579000000004]}},{"type":"Feature","properties":{"ZIP":"R2N3J6","VERTICES":8},"geometry":{"type":"Point","coordinates":[-97.087876,49.8175545]}},{"type":"Feature","properties":{"ZIP":"R2N4N8","VERTICES":8},"geometry":{"type":"Point","coordinates":[-97.07854900000001,49.8095905]}},{"type":"Feature","properties":{"ZIP":"R2N1N7","VERTICES":8},"geometry":{"type":"Point","coordinates":[-97.10534050000001,49.809627000000006]}},{"type":"Feature","properties":{"ZIP":"R2N2M6","VERTICES":8},"geometry":{"type":"Point","coordinates":[-97.10000600000001,49.8068745]}},{"type":"Feature","properties":{"ZIP":"R2N3A5","VERTICES":8},"geometry":{"type":"Point","coordinates":[-97.088728,49.8269195]}},{"type":"Feature","properties":{"ZIP":"R2N4L2","VERTICES":8},"geometry":{"type":"Point","coordinates":[-97.084274,49.809445499999995]}},{"type":"Feature","properties":{"ZIP":"R2N4R2","VERTICES":8},"geometry":{"type":"Point","coordinates":[-97.0991405,49.801016000000004]}},{"type":"Feature","properties":{"ZIP":"R2N2N8","VERTICES":8},"geometry":{"type":"Point","coordinates":[-97.09662349999999,49.808638]}},{"type":"Feature","properties":{"ZIP":"R2N2T4","VERTICES":8},"geometry":{"type":"Point","coordinates":[-97.1067045,49.806263]}},{"type":"Feature","properties":{"ZIP":"R2N2R1","VERTICES":8},"geometry":{"type":"Point","coordinates":[-97.102045,49.804987]}},{"type":"Feature","properties":{"ZIP":"R2N2V6","VERTICES":8},"geometry":{"type":"Point","coordinates":[-97.111155,49.8050255]}},{"type":"Feature","properties":{"ZIP":"R2N3N4","VERTICES":8},"geometry":{"type":"Point","coordinates":[-97.0934095,49.8042225]}},{"type":"Feature","properties":{"ZIP":"R2N1J9","VERTICES":8},"geometry":{"type":"Point","coordinates":[-97.106086,49.813276]}},{"type":"Feature","properties":{"ZIP":"R2N1N8","VERTICES":8},"geometry":{"type":"Point","coordinates":[-97.1046515,49.8106925]}},{"type":"Feature","properties":{"ZIP":"R2N3A6","VERTICES":8},"geometry":{"type":"Point","coordinates":[-97.0891495,49.8274715]}},{"type":"Feature","properties":{"ZIP":"R2N3G3","VERTICES":8},"geometry":{"type":"Point","coordinates":[-97.093764,49.815901]}},{"type":"Feature","properties":{"ZIP":"R2N1L5","VERTICES":8},"geometry":{"type":"Point","coordinates":[-97.103996,49.814651999999995]}},{"type":"Feature","properties":{"ZIP":"R2N2N9","VERTICES":8},"geometry":{"type":"Point","coordinates":[-97.096915,49.8090995]}},{"type":"Feature","properties":{"ZIP":"R2N2T5","VERTICES":8},"geometry":{"type":"Point","coordinates":[-97.107069,49.805651999999995]}},{"type":"Feature","properties":{"ZIP":"R2N3H6","VERTICES":8},"geometry":{"type":"Point","coordinates":[-97.093937,49.817772500000004]}},{"type":"Feature","properties":{"ZIP":"R2N3M2","VERTICES":8},"geometry":{"type":"Point","coordinates":[-97.111594,49.8070165]}},{"type":"Feature","properties":{"ZIP":"R2N3S1","VERTICES":8},"geometry":{"type":"Point","coordinates":[-97.12109699999999,49.803741]}},{"type":"Feature","properties":{"ZIP":"R2N2R2","VERTICES":8},"geometry":{"type":"Point","coordinates":[-97.102198,49.8065]}},{"type":"Feature","properties":{"ZIP":"R2N2V7","VERTICES":8},"geometry":{"type":"Point","coordinates":[-97.10149050000001,49.809769]}},{"type":"Feature","properties":{"ZIP":"R2N2Z3","VERTICES":8},"geometry":{"type":"Point","coordinates":[-97.111753,49.7980235]}},{"type":"Feature","properties":{"ZIP":"R2N3E1","VERTICES":8},"geometry":{"type":"Point","coordinates":[-97.09713099999999,49.8179135]}},{"type":"Feature","properties":{"ZIP":"R2N0E3","VERTICES":8},"geometry":{"type":"Point","coordinates":[-97.119015,49.806138000000004]}},{"type":"Feature","properties":{"ZIP":"R2N3P9","VERTICES":8},"geometry":{"type":"Point","coordinates":[-97.08834200000001,49.805806000000004]}},{"type":"Feature","properties":{"ZIP":"R2N1L6","VERTICES":8},"geometry":{"type":"Point","coordinates":[-97.1040265,49.8146715]}},{"type":"Feature","properties":{"ZIP":"R2N1R2","VERTICES":8},"geometry":{"type":"Point","coordinates":[-97.10993,49.811398499999996]}},{"type":"Feature","properties":{"ZIP":"R2N2P1","VERTICES":8},"geometry":{"type":"Point","coordinates":[-97.09679700000001,49.8087765]}},{"type":"Feature","properties":{"ZIP":"R2N2T6","VERTICES":8},"geometry":{"type":"Point","coordinates":[-97.107173,49.805664]}},{"type":"Feature","properties":{"ZIP":"R2N3B9","VERTICES":8},"geometry":{"type":"Point","coordinates":[-97.11863249999999,49.803972]}},{"type":"Feature","properties":{"ZIP":"R2N3M3","VERTICES":8},"geometry":{"type":"Point","coordinates":[-97.11136350000001,49.8071035]}},{"type":"Feature","properties":{"ZIP":"R2N3S2","VERTICES":8},"geometry":{"type":"Point","coordinates":[-97.1209405,49.803940499999996]}},{"type":"Feature","properties":{"ZIP":"R2N4M9","VERTICES":8},"geometry":{"type":"Point","coordinates":[-97.08086650000001,49.809653]}},{"type":"Feature","properties":{"ZIP":"R2N1H9","VERTICES":8},"geometry":{"type":"Point","coordinates":[-97.0960575,49.82407]}},{"type":"Feature","properties":{"ZIP":"R2N1S4","VERTICES":8},"geometry":{"type":"Point","coordinates":[-97.09821600000001,49.812081]}},{"type":"Feature","properties":{"ZIP":"R2N2Z4","VERTICES":8},"geometry":{"type":"Point","coordinates":[-97.11148449999999,49.797743]}},{"type":"Feature","properties":{"ZIP":"R2N4J1","VERTICES":8},"geometry":{"type":"Point","coordinates":[-97.087665,49.810734499999995]}},{"type":"Feature","properties":{"ZIP":"R2N1K2","VERTICES":8},"geometry":{"type":"Point","coordinates":[-97.1011335,49.8153885]}},{"type":"Feature","properties":{"ZIP":"R2N2J4","VERTICES":8},"geometry":{"type":"Point","coordinates":[-97.107958,49.819351]}},{"type":"Feature","properties":{"ZIP":"R2N2M9","VERTICES":8},"geometry":{"type":"Point","coordinates":[-97.097794,49.805915]}},{"type":"Feature","properties":{"ZIP":"R2N2S5","VERTICES":8},"geometry":{"type":"Point","coordinates":[-97.10588,49.804347]}},{"type":"Feature","properties":{"ZIP":"R2N2X1","VERTICES":8},"geometry":{"type":"Point","coordinates":[-97.111887,49.80302450000001]}},{"type":"Feature","properties":{"ZIP":"R2N3R1","VERTICES":8},"geometry":{"type":"Point","coordinates":[-97.08788799999999,49.806205500000004]}},{"type":"Feature","properties":{"ZIP":"R2N1B2","VERTICES":8},"geometry":{"type":"Point","coordinates":[-97.091971,49.8200765]}},{"type":"Feature","properties":{"ZIP":"R2N1V9","VERTICES":8},"geometry":{"type":"Point","coordinates":[-97.09870649999999,49.8155555]}},{"type":"Feature","properties":{"ZIP":"R2N0B4","VERTICES":8},"geometry":{"type":"Point","coordinates":[-97.10511299999999,49.8015395]}},{"type":"Feature","properties":{"ZIP":"R2N1J1","VERTICES":8},"geometry":{"type":"Point","coordinates":[-97.10292,49.8218295]}},{"type":"Feature","properties":{"ZIP":"R2N1M9","VERTICES":8},"geometry":{"type":"Point","coordinates":[-97.1044525,49.8108795]}},{"type":"Feature","properties":{"ZIP":"R2N2L8","VERTICES":8},"geometry":{"type":"Point","coordinates":[-97.0921685,49.8246235]}},{"type":"Feature","properties":{"ZIP":"R2N1P2","VERTICES":8},"geometry":{"type":"Point","coordinates":[-97.1013545,49.823846]}},{"type":"Feature","properties":{"ZIP":"R2N2J5","VERTICES":8},"geometry":{"type":"Point","coordinates":[-97.108007,49.819334]}},{"type":"Feature","properties":{"ZIP":"R2N2N1","VERTICES":8},"geometry":{"type":"Point","coordinates":[-97.0981015,49.8060285]}},{"type":"Feature","properties":{"ZIP":"R2N3A9","VERTICES":8},"geometry":{"type":"Point","coordinates":[-97.093231,49.8083915]}},{"type":"Feature","properties":{"ZIP":"R2N3X1","VERTICES":8},"geometry":{"type":"Point","coordinates":[-97.083713,49.817401000000004]}},{"type":"Feature","properties":{"ZIP":"R2N1B3","VERTICES":8},"geometry":{"type":"Point","coordinates":[-97.0921385,49.819612]}},{"type":"Feature","properties":{"ZIP":"R2N1R4","VERTICES":8},"geometry":{"type":"Point","coordinates":[-97.099279,49.81551949999999]}},{"type":"Feature","properties":{"ZIP":"R2N1W1","VERTICES":8},"geometry":{"type":"Point","coordinates":[-97.099401,49.8222915]}},{"type":"Feature","properties":{"ZIP":"R2N1S6","VERTICES":8},"geometry":{"type":"Point","coordinates":[-97.108465,49.8161685]}},{"type":"Feature","properties":{"ZIP":"R2N2L9","VERTICES":8},"geometry":{"type":"Point","coordinates":[-97.093592,49.824148]}},{"type":"Feature","properties":{"ZIP":"R2N2W1","VERTICES":8},"geometry":{"type":"Point","coordinates":[-97.1135265,49.802686]}},{"type":"Feature","properties":{"ZIP":"R2N2Z6","VERTICES":8},"geometry":{"type":"Point","coordinates":[-97.1091,49.799892]}},{"type":"Feature","properties":{"ZIP":"R2N3P1","VERTICES":8},"geometry":{"type":"Point","coordinates":[-97.09121400000001,49.8051545]}},{"type":"Feature","properties":{"ZIP":"R2N1T9","VERTICES":8},"geometry":{"type":"Point","coordinates":[-97.1115495,49.811508]}},{"type":"Feature","properties":{"ZIP":"R2N2J6","VERTICES":8},"geometry":{"type":"Point","coordinates":[-97.08707150000001,49.826432999999994]}},{"type":"Feature","properties":{"ZIP":"R2N2X3","VERTICES":8},"geometry":{"type":"Point","coordinates":[-97.11224200000001,49.803379500000005]}},{"type":"Feature","properties":{"ZIP":"R2N3L4","VERTICES":8},"geometry":{"type":"Point","coordinates":[-97.08242849999999,49.820235499999995]}},{"type":"Feature","properties":{"ZIP":"R2N3R3","VERTICES":8},"geometry":{"type":"Point","coordinates":[-97.086389,49.805488499999996]}},{"type":"Feature","properties":{"ZIP":"R2N1B4","VERTICES":8},"geometry":{"type":"Point","coordinates":[-97.0881415,49.822413999999995]}},{"type":"Feature","properties":{"ZIP":"R2N1L9","VERTICES":8},"geometry":{"type":"Point","coordinates":[-97.1100815,49.8124995]}},{"type":"Feature","properties":{"ZIP":"R2N1R5","VERTICES":8},"geometry":{"type":"Point","coordinates":[-97.10846649999999,49.814744]}},{"type":"Feature","properties":{"ZIP":"R2N2Y5","VERTICES":8},"geometry":{"type":"Point","coordinates":[-97.11053849999999,49.8014005]}},{"type":"Feature","properties":{"ZIP":"R2N3T4","VERTICES":8},"geometry":{"type":"Point","coordinates":[-97.094357,49.823887]}},{"type":"Feature","properties":{"ZIP":"R2N1C6","VERTICES":8},"geometry":{"type":"Point","coordinates":[-97.0903955,49.8201965]}},{"type":"Feature","properties":{"ZIP":"R2N1S7","VERTICES":8},"geometry":{"type":"Point","coordinates":[-97.1080465,49.8170015]}},{"type":"Feature","properties":{"ZIP":"R2N2M1","VERTICES":8},"geometry":{"type":"Point","coordinates":[-97.099849,49.8092845]}},{"type":"Feature","properties":{"ZIP":"R2N2R6","VERTICES":8},"geometry":{"type":"Point","coordinates":[-97.10217,49.8053405]}},{"type":"Feature","properties":{"ZIP":"R2N2Z7","VERTICES":8},"geometry":{"type":"Point","coordinates":[-97.10970950000001,49.799640499999995]}},{"type":"Feature","properties":{"ZIP":"R2N3P2","VERTICES":8},"geometry":{"type":"Point","coordinates":[-97.0924165,49.8047125]}},{"type":"Feature","properties":{"ZIP":"R2N3V9","VERTICES":8},"geometry":{"type":"Point","coordinates":[-97.095357,49.823545]}},{"type":"Feature","properties":{"ZIP":"R2N1V1","VERTICES":8},"geometry":{"type":"Point","coordinates":[-97.10873050000001,49.8083715]}},{"type":"Feature","properties":{"ZIP":"R2N2S8","VERTICES":8},"geometry":{"type":"Point","coordinates":[-97.1067305,49.804844]}},{"type":"Feature","properties":{"ZIP":"R2N4C7","VERTICES":8},"geometry":{"type":"Point","coordinates":[-97.119932,49.775174]}},{"type":"Feature","properties":{"ZIP":"R2N4L9","VERTICES":8},"geometry":{"type":"Point","coordinates":[-97.080253,49.810738]}},{"type":"Feature","properties":{"ZIP":"R2N2P5","VERTICES":8},"geometry":{"type":"Point","coordinates":[-97.10250099999999,49.808288000000005]}},{"type":"Feature","properties":{"ZIP":"R2N2V1","VERTICES":8},"geometry":{"type":"Point","coordinates":[-97.108756,49.8059235]}},{"type":"Feature","properties":{"ZIP":"R2N2H6","VERTICES":8},"geometry":{"type":"Point","coordinates":[-97.1154775,49.8126675]}},{"type":"Feature","properties":{"ZIP":"R2N2M2","VERTICES":8},"geometry":{"type":"Point","coordinates":[-97.0986735,49.808531]}},{"type":"Feature","properties":{"ZIP":"R2N3E7","VERTICES":8},"geometry":{"type":"Point","coordinates":[-97.096919,49.819512]}},{"type":"Feature","properties":{"ZIP":"R2N3P3","VERTICES":8},"geometry":{"type":"Point","coordinates":[-97.091875,49.8037655]}},{"type":"Feature","properties":{"ZIP":"R2N4P7","VERTICES":8},"geometry":{"type":"Point","coordinates":[-97.097069,49.8026165]}},{"type":"Feature","properties":{"ZIP":"R2N2S9","VERTICES":8},"geometry":{"type":"Point","coordinates":[-97.10637349999999,49.804761]}},{"type":"Feature","properties":{"ZIP":"R2N2X5","VERTICES":8},"geometry":{"type":"Point","coordinates":[-97.112168,49.8020245]}},{"type":"Feature","properties":{"ZIP":"R2N3G9","VERTICES":8},"geometry":{"type":"Point","coordinates":[-97.0959875,49.8181845]}},{"type":"Feature","properties":{"ZIP":"R2N3L6","VERTICES":8},"geometry":{"type":"Point","coordinates":[-97.085399,49.820291]}},{"type":"Feature","properties":{"ZIP":"R2N1B6","VERTICES":8},"geometry":{"type":"Point","coordinates":[-97.08565,49.822286500000004]}},{"type":"Feature","properties":{"ZIP":"R2N2Y7","VERTICES":8},"geometry":{"type":"Point","coordinates":[-97.1102935,49.801401]}},{"type":"Feature","properties":{"ZIP":"R2N4H2","VERTICES":8},"geometry":{"type":"Point","coordinates":[-97.080355,49.815764]}},{"type":"Feature","properties":{"ZIP":"R2N1J5","VERTICES":8},"geometry":{"type":"Point","coordinates":[-97.105249,49.821028]}},{"type":"Feature","properties":{"ZIP":"R2N2W4","VERTICES":8},"geometry":{"type":"Point","coordinates":[-97.11439999999999,49.8013505]}},{"type":"Feature","properties":{"ZIP":"R2N3W3","VERTICES":8},"geometry":{"type":"Point","coordinates":[-97.092278,49.8137295]}},{"type":"Feature","properties":{"ZIP":"R2N2J9","VERTICES":8},"geometry":{"type":"Point","coordinates":[-97.08889049999999,49.825258500000004]}},{"type":"Feature","properties":{"ZIP":"R2N2N5","VERTICES":8},"geometry":{"type":"Point","coordinates":[-97.0961065,49.8058525]}},{"type":"Feature","properties":{"ZIP":"R2N3H1","VERTICES":8},"geometry":{"type":"Point","coordinates":[-97.094448,49.818169]}},{"type":"Feature","properties":{"ZIP":"R2N1B7","VERTICES":8},"geometry":{"type":"Point","coordinates":[-97.086978,49.821703]}},{"type":"Feature","properties":{"ZIP":"R2N1H4","VERTICES":8},"geometry":{"type":"Point","coordinates":[-97.10649599999999,49.8145255]}},{"type":"Feature","properties":{"ZIP":"R2N1M3","VERTICES":8},"geometry":{"type":"Point","coordinates":[-97.100604,49.814313]}},{"type":"Feature","properties":{"ZIP":"R2N2V3","VERTICES":8},"geometry":{"type":"Point","coordinates":[-97.1084075,49.805715500000005]}},{"type":"Feature","properties":{"ZIP":"R2N4N6","VERTICES":8},"geometry":{"type":"Point","coordinates":[-97.0743085,49.810696]}},{"type":"Feature","properties":{"ZIP":"R2N1T1","VERTICES":8},"geometry":{"type":"Point","coordinates":[-97.109888,49.8098775]}},{"type":"Feature","properties":{"ZIP":"R2N3E9","VERTICES":8},"geometry":{"type":"Point","coordinates":[-97.0955875,49.815236]}},{"type":"Feature","properties":{"ZIP":"R2N4B5","VERTICES":8},"geometry":{"type":"Point","coordinates":[-97.101748,49.772656999999995]}},{"type":"Feature","properties":{"ZIP":"R2N1A6","VERTICES":8},"geometry":{"type":"Point","coordinates":[-97.08609849999999,49.8218515]}},{"type":"Feature","properties":{"ZIP":"R2N2N6","VERTICES":8},"geometry":{"type":"Point","coordinates":[-97.096765,49.8084385]}},{"type":"Feature","properties":{"ZIP":"R2N3B5","VERTICES":8},"geometry":{"type":"Point","coordinates":[-97.117782,49.8047835]}},{"type":"Feature","properties":{"ZIP":"R2N3R7","VERTICES":8},"geometry":{"type":"Point","coordinates":[-97.086503,49.8057755]}},{"type":"Feature","properties":{"ZIP":"R2N1R9","VERTICES":8},"geometry":{"type":"Point","coordinates":[-97.098172,49.8127835]}},{"type":"Feature","properties":{"ZIP":"R2N1W6","VERTICES":8},"geometry":{"type":"Point","coordinates":[-97.1091935,49.816743]}},{"type":"Feature","properties":{"ZIP":"R2N2P8","VERTICES":8},"geometry":{"type":"Point","coordinates":[-97.103905,49.8065575]}},{"type":"Feature","properties":{"ZIP":"R2N2Y9","VERTICES":8},"geometry":{"type":"Point","coordinates":[-97.1134605,49.79861]}},{"type":"Feature","properties":{"ZIP":"R2N2M5","VERTICES":8},"geometry":{"type":"Point","coordinates":[-97.098746,49.8075835]}},{"type":"Feature","properties":{"ZIP":"R2N2W6","VERTICES":8},"geometry":{"type":"Point","coordinates":[-97.1105365,49.802362]}},{"type":"Feature","properties":{"ZIP":"R2N4B6","VERTICES":8},"geometry":{"type":"Point","coordinates":[-97.0988615,49.779538]}},{"type":"Feature","properties":{"ZIP":"R2N1A7","VERTICES":7},"geometry":{"type":"Point","coordinates":[-97.0861515,49.821787]}},{"type":"Feature","properties":{"ZIP":"R2N1V5","VERTICES":7},"geometry":{"type":"Point","coordinates":[-97.111885,49.8101485]}},{"type":"Feature","properties":{"ZIP":"R2N2K2","VERTICES":7},"geometry":{"type":"Point","coordinates":[-97.0877925,49.8249585]}},{"type":"Feature","properties":{"ZIP":"R2N2N7","VERTICES":7},"geometry":{"type":"Point","coordinates":[-97.0967665,49.808409499999996]}},{"type":"Feature","properties":{"ZIP":"R2N3B6","VERTICES":7},"geometry":{"type":"Point","coordinates":[-97.0960455,49.819909499999994]}},{"type":"Feature","properties":{"ZIP":"R2N3H3","VERTICES":7},"geometry":{"type":"Point","coordinates":[-97.095251,49.818686]}},{"type":"Feature","properties":{"ZIP":"R2N3Y4","VERTICES":7},"geometry":{"type":"Point","coordinates":[-97.081503,49.8155905]}},{"type":"Feature","properties":{"ZIP":"R2N2P9","VERTICES":7},"geometry":{"type":"Point","coordinates":[-97.1036315,49.8076865]}},{"type":"Feature","properties":{"ZIP":"R2N4A4","VERTICES":7},"geometry":{"type":"Point","coordinates":[-97.1322625,49.778076999999996]}},{"type":"Feature","properties":{"ZIP":"R2N3K8","VERTICES":7},"geometry":{"type":"Point","coordinates":[-97.083133,49.819123000000005]}},{"type":"Feature","properties":{"ZIP":"R2N4B7","VERTICES":7},"geometry":{"type":"Point","coordinates":[-97.06873999999999,49.789654]}},{"type":"Feature","properties":{"ZIP":"R2N1A8","VERTICES":7},"geometry":{"type":"Point","coordinates":[-97.08527000000001,49.821481500000004]}},{"type":"Feature","properties":{"ZIP":"R2N1P9","VERTICES":7},"geometry":{"type":"Point","coordinates":[-97.10105899999999,49.823489]}},{"type":"Feature","properties":{"ZIP":"R2N3B7","VERTICES":7},"geometry":{"type":"Point","coordinates":[-97.095674,49.820406000000006]}},{"type":"Feature","properties":{"ZIP":"R2N3M1","VERTICES":7},"geometry":{"type":"Point","coordinates":[-97.111216,49.807253]}},{"type":"Feature","properties":{"ZIP":"R2N2Z2","VERTICES":7},"geometry":{"type":"Point","coordinates":[-97.11216200000001,49.797714]}},{"type":"Feature","properties":{"ZIP":"R2N4N9","VERTICES":7},"geometry":{"type":"Point","coordinates":[-97.05077700000001,49.78024]}},{"type":"Feature","properties":{"ZIP":"R2N0E2","VERTICES":7},"geometry":{"type":"Point","coordinates":[-97.120299,49.8063805]}},{"type":"Feature","properties":{"ZIP":"R2N2J2","VERTICES":7},"geometry":{"type":"Point","coordinates":[-97.1100335,49.818805499999996]}},{"type":"Feature","properties":{"ZIP":"R2N2M7","VERTICES":7},"geometry":{"type":"Point","coordinates":[-97.0993165,49.8069775]}},{"type":"Feature","properties":{"ZIP":"R2N2Y1","VERTICES":7},"geometry":{"type":"Point","coordinates":[-97.10986,49.799693500000004]}},{"type":"Feature","properties":{"ZIP":"R2N3B8","VERTICES":7},"geometry":{"type":"Point","coordinates":[-97.1187545,49.803726]}},{"type":"Feature","properties":{"ZIP":"R2N0A2","VERTICES":7},"geometry":{"type":"Point","coordinates":[-97.0829155,49.823331]}},{"type":"Feature","properties":{"ZIP":"R2N1H8","VERTICES":7},"geometry":{"type":"Point","coordinates":[-97.0955385,49.82431750000001]}},{"type":"Feature","properties":{"ZIP":"R2N2L6","VERTICES":7},"geometry":{"type":"Point","coordinates":[-97.091137,49.824254999999994]}},{"type":"Feature","properties":{"ZIP":"R2N3J8","VERTICES":7},"geometry":{"type":"Point","coordinates":[-97.086704,49.818439999999995]}},{"type":"Feature","properties":{"ZIP":"R2N1E5","VERTICES":7},"geometry":{"type":"Point","coordinates":[-97.09452999999999,49.8261785]}},{"type":"Feature","properties":{"ZIP":"R2N2W9","VERTICES":7},"geometry":{"type":"Point","coordinates":[-97.10955200000001,49.803540999999996]}},{"type":"Feature","properties":{"ZIP":"R2N4B9","VERTICES":7},"geometry":{"type":"Point","coordinates":[-97.056213,49.7930035]}},{"type":"Feature","properties":{"ZIP":"R2N1B1","VERTICES":7},"geometry":{"type":"Point","coordinates":[-97.08794599999999,49.8207415]}},{"type":"Feature","properties":{"ZIP":"R2N1V8","VERTICES":7},"geometry":{"type":"Point","coordinates":[-97.09672499999999,49.8174135]}},{"type":"Feature","properties":{"ZIP":"R2N3H7","VERTICES":7},"geometry":{"type":"Point","coordinates":[-97.091623,49.817998]}},{"type":"Feature","properties":{"ZIP":"R2N3Y9","VERTICES":7},"geometry":{"type":"Point","coordinates":[-97.0930615,49.807814]}},{"type":"Feature","properties":{"ZIP":"R2N0B2","VERTICES":7},"geometry":{"type":"Point","coordinates":[-97.1034805,49.802068]}},{"type":"Feature","properties":{"ZIP":"R2N1C3","VERTICES":7},"geometry":{"type":"Point","coordinates":[-97.08962299999999,49.8210865]}},{"type":"Feature","properties":{"ZIP":"R2N1M8","VERTICES":7},"geometry":{"type":"Point","coordinates":[-97.09608499999999,49.825657500000005]}},{"type":"Feature","properties":{"ZIP":"R2N2R3","VERTICES":7},"geometry":{"type":"Point","coordinates":[-97.10157799999999,49.8070335]}},{"type":"Feature","properties":{"ZIP":"R2N2V8","VERTICES":7},"geometry":{"type":"Point","coordinates":[-97.101571,49.809118]}},{"type":"Feature","properties":{"ZIP":"R2N4A8","VERTICES":7},"geometry":{"type":"Point","coordinates":[-97.1328035,49.767482]}},{"type":"Feature","properties":{"ZIP":"R2N1E6","VERTICES":7},"geometry":{"type":"Point","coordinates":[-97.094588,49.8260285]}},{"type":"Feature","properties":{"ZIP":"R2N1T7","VERTICES":7},"geometry":{"type":"Point","coordinates":[-97.11071799999999,49.810334]}},{"type":"Feature","properties":{"ZIP":"R2N3G5","VERTICES":7},"geometry":{"type":"Point","coordinates":[-97.0946625,49.817161999999996]}},{"type":"Feature","properties":{"ZIP":"R2N3L2","VERTICES":7},"geometry":{"type":"Point","coordinates":[-97.0840685,49.819903499999995]}},{"type":"Feature","properties":{"ZIP":"R2N2T7","VERTICES":7},"geometry":{"type":"Point","coordinates":[-97.10837749999999,49.8041405]}},{"type":"Feature","properties":{"ZIP":"R2N2Y3","VERTICES":7},"geometry":{"type":"Point","coordinates":[-97.10862,49.799949]}},{"type":"Feature","properties":{"ZIP":"R2N3C1","VERTICES":7},"geometry":{"type":"Point","coordinates":[-97.118008,49.8036675]}},{"type":"Feature","properties":{"ZIP":"R2N1C4","VERTICES":7},"geometry":{"type":"Point","coordinates":[-97.0896305,49.821099000000004]}},{"type":"Feature","properties":{"ZIP":"R2N2V9","VERTICES":7},"geometry":{"type":"Point","coordinates":[-97.1121705,49.8041125]}},{"type":"Feature","properties":{"ZIP":"R2N2Z5","VERTICES":7},"geometry":{"type":"Point","coordinates":[-97.110558,49.7992895]}},{"type":"Feature","properties":{"ZIP":"R2N3E4","VERTICES":7},"geometry":{"type":"Point","coordinates":[-97.09766,49.818968]}},{"type":"Feature","properties":{"ZIP":"R2N3K1","VERTICES":7},"geometry":{"type":"Point","coordinates":[-97.087078,49.8198665]}},{"type":"Feature","properties":{"ZIP":"R2N4J2","VERTICES":7},"geometry":{"type":"Point","coordinates":[-97.08598549999999,49.810969]}},{"type":"Feature","properties":{"ZIP":"R2N4P4","VERTICES":7},"geometry":{"type":"Point","coordinates":[-97.07329250000001,49.8100215]}},{"type":"Feature","properties":{"ZIP":"R2N2X2","VERTICES":7},"geometry":{"type":"Point","coordinates":[-97.111174,49.803292]}},{"type":"Feature","properties":{"ZIP":"R2N3L3","VERTICES":7},"geometry":{"type":"Point","coordinates":[-97.0821465,49.8202975]}},{"type":"Feature","properties":{"ZIP":"R2N4C2","VERTICES":7},"geometry":{"type":"Point","coordinates":[-97.081041,49.813021]}},{"type":"Feature","properties":{"ZIP":"R2N1L8","VERTICES":7},"geometry":{"type":"Point","coordinates":[-97.11523399999999,49.817136500000004]}},{"type":"Feature","properties":{"ZIP":"R2N2Y4","VERTICES":7},"geometry":{"type":"Point","coordinates":[-97.1185435,49.80387]}},{"type":"Feature","properties":{"ZIP":"R2N3C2","VERTICES":7},"geometry":{"type":"Point","coordinates":[-97.118097,49.8028245]}},{"type":"Feature","properties":{"ZIP":"R2N0B7","VERTICES":7},"geometry":{"type":"Point","coordinates":[-97.1060045,49.7993245]}},{"type":"Feature","properties":{"ZIP":"R2N2E4","VERTICES":7},"geometry":{"type":"Point","coordinates":[-97.114479,49.8014615]}},{"type":"Feature","properties":{"ZIP":"R2N3V8","VERTICES":7},"geometry":{"type":"Point","coordinates":[-97.096851,49.823311000000004]}},{"type":"Feature","properties":{"ZIP":"R2N2S7","VERTICES":7},"geometry":{"type":"Point","coordinates":[-97.105405,49.8053525]}},{"type":"Feature","properties":{"ZIP":"R2N4L8","VERTICES":7},"geometry":{"type":"Point","coordinates":[-97.0828075,49.8106595]}},{"type":"Feature","properties":{"ZIP":"R2N1H1","VERTICES":7},"geometry":{"type":"Point","coordinates":[-97.107538,49.813875499999995]}},{"type":"Feature","properties":{"ZIP":"R2N2K8","VERTICES":7},"geometry":{"type":"Point","coordinates":[-97.089102,49.825725000000006]}},{"type":"Feature","properties":{"ZIP":"R2N3C3","VERTICES":7},"geometry":{"type":"Point","coordinates":[-97.12035750000001,49.8025405]}},{"type":"Feature","properties":{"ZIP":"R2N0C3","VERTICES":7},"geometry":{"type":"Point","coordinates":[-97.107524,49.798770000000005]}},{"type":"Feature","properties":{"ZIP":"R2N2E9","VERTICES":7},"geometry":{"type":"Point","coordinates":[-97.1114855,49.8165665]}},{"type":"Feature","properties":{"ZIP":"R2N2W2","VERTICES":7},"geometry":{"type":"Point","coordinates":[-97.1141195,49.802538]}},{"type":"Feature","properties":{"ZIP":"R2N1K5","VERTICES":7},"geometry":{"type":"Point","coordinates":[-97.0989455,49.8137755]}},{"type":"Feature","properties":{"ZIP":"R2N3C4","VERTICES":7},"geometry":{"type":"Point","coordinates":[-97.12030949999999,49.8029125]}},{"type":"Feature","properties":{"ZIP":"R2N3M7","VERTICES":7},"geometry":{"type":"Point","coordinates":[-97.0940885,49.807533]}},{"type":"Feature","properties":{"ZIP":"R2N4H1","VERTICES":7},"geometry":{"type":"Point","coordinates":[-97.085419,49.8122515]}},{"type":"Feature","properties":{"ZIP":"R2N0C6","VERTICES":7},"geometry":{"type":"Point","coordinates":[-97.11883900000001,49.805729]}},{"type":"Feature","properties":{"ZIP":"R2N4B3","VERTICES":7},"geometry":{"type":"Point","coordinates":[-97.13295450000001,49.762080999999995]}},{"type":"Feature","properties":{"ZIP":"R2N1G1","VERTICES":7},"geometry":{"type":"Point","coordinates":[-97.102036,49.822271]}},{"type":"Feature","properties":{"ZIP":"R2N1V2","VERTICES":7},"geometry":{"type":"Point","coordinates":[-97.109092,49.808806000000004]}},{"type":"Feature","properties":{"ZIP":"R2N2J8","VERTICES":7},"geometry":{"type":"Point","coordinates":[-97.0889975,49.825027500000004]}},{"type":"Feature","properties":{"ZIP":"R2N3B3","VERTICES":7},"geometry":{"type":"Point","coordinates":[-97.1174075,49.8044815]}},{"type":"Feature","properties":{"ZIP":"R2N3Y1","VERTICES":7},"geometry":{"type":"Point","coordinates":[-97.087253,49.813458499999996]}},{"type":"Feature","properties":{"ZIP":"R2N4C8","VERTICES":7},"geometry":{"type":"Point","coordinates":[-97.102562,49.781038499999994]}},{"type":"Feature","properties":{"ZIP":"R2N1H3","VERTICES":7},"geometry":{"type":"Point","coordinates":[-97.10680099999999,49.81276]}},{"type":"Feature","properties":{"ZIP":"R2N2L1","VERTICES":7},"geometry":{"type":"Point","coordinates":[-97.0893155,49.823775999999995]}},{"type":"Feature","properties":{"ZIP":"R2N2P6","VERTICES":7},"geometry":{"type":"Point","coordinates":[-97.1017665,49.8084855]}},{"type":"Feature","properties":{"ZIP":"R2N4N5","VERTICES":7},"geometry":{"type":"Point","coordinates":[-97.075034,49.811276]}},{"type":"Feature","properties":{"ZIP":"R2N0C7","VERTICES":7},"geometry":{"type":"Point","coordinates":[-97.1211025,49.805689]}},{"type":"Feature","properties":{"ZIP":"R2N1N4","VERTICES":7},"geometry":{"type":"Point","coordinates":[-97.1068405,49.8082455]}},{"type":"Feature","properties":{"ZIP":"R2N1S9","VERTICES":7},"geometry":{"type":"Point","coordinates":[-97.111642,49.80928350000001]}},{"type":"Feature","properties":{"ZIP":"R2N2H7","VERTICES":7},"geometry":{"type":"Point","coordinates":[-97.109896,49.8196835]}},{"type":"Feature","properties":{"ZIP":"R2N3A2","VERTICES":7},"geometry":{"type":"Point","coordinates":[-97.1059465,49.8071775]}},{"type":"Feature","properties":{"ZIP":"R2N4B4","VERTICES":7},"geometry":{"type":"Point","coordinates":[-97.1188035,49.766912500000004]}},{"type":"Feature","properties":{"ZIP":"R2N1P6","VERTICES":7},"geometry":{"type":"Point","coordinates":[-97.104842,49.809942500000005]}},{"type":"Feature","properties":{"ZIP":"R2N2X6","VERTICES":7},"geometry":{"type":"Point","coordinates":[-97.1122795,49.800948500000004]}},{"type":"Feature","properties":{"ZIP":"R2N3L7","VERTICES":7},"geometry":{"type":"Point","coordinates":[-97.0847845,49.820567]}},{"type":"Feature","properties":{"ZIP":"R2N4M2","VERTICES":7},"geometry":{"type":"Point","coordinates":[-97.079955,49.811936]}},{"type":"Feature","properties":{"ZIP":"R2N1W5","VERTICES":7},"geometry":{"type":"Point","coordinates":[-97.10910150000001,49.815478]}},{"type":"Feature","properties":{"ZIP":"R2N2P7","VERTICES":7},"geometry":{"type":"Point","coordinates":[-97.102101,49.808443999999994]}},{"type":"Feature","properties":{"ZIP":"R2N2Y8","VERTICES":7},"geometry":{"type":"Point","coordinates":[-97.11268150000001,49.799819]}},{"type":"Feature","properties":{"ZIP":"R2N3V1","VERTICES":7},"geometry":{"type":"Point","coordinates":[-97.09147899999999,49.822390999999996]}},{"type":"Feature","properties":{"ZIP":"R2N4A2","VERTICES":7},"geometry":{"type":"Point","coordinates":[-97.12445149999999,49.7845815]}},{"type":"Feature","properties":{"ZIP":"R2N4H3","VERTICES":7},"geometry":{"type":"Point","coordinates":[-97.0793685,49.8149305]}},{"type":"Feature","properties":{"ZIP":"R2N0C8","VERTICES":7},"geometry":{"type":"Point","coordinates":[-97.121902,49.806255]}},{"type":"Feature","properties":{"ZIP":"R2N3K6","VERTICES":7},"geometry":{"type":"Point","coordinates":[-97.084705,49.81857]}},{"type":"Feature","properties":{"ZIP":"R2N3P5","VERTICES":7},"geometry":{"type":"Point","coordinates":[-97.0908165,49.8033705]}},{"type":"Feature","properties":{"ZIP":"R2N3W4","VERTICES":7},"geometry":{"type":"Point","coordinates":[-97.09217000000001,49.8141745]}},{"type":"Feature","properties":{"ZIP":"R2N2K1","VERTICES":7},"geometry":{"type":"Point","coordinates":[-97.088177,49.8249785]}},{"type":"Feature","properties":{"ZIP":"R2N2T2","VERTICES":7},"geometry":{"type":"Point","coordinates":[-97.1042305,49.80564]}},{"type":"Feature","properties":{"ZIP":"R2N3H2","VERTICES":7},"geometry":{"type":"Point","coordinates":[-97.094716,49.818926]}},{"type":"Feature","properties":{"ZIP":"R2N1M4","VERTICES":7},"geometry":{"type":"Point","coordinates":[-97.098334,49.8139205]}},{"type":"Feature","properties":{"ZIP":"R2N2V4","VERTICES":7},"geometry":{"type":"Point","coordinates":[-97.1107955,49.804435]}},{"type":"Feature","properties":{"ZIP":"R2N3C7","VERTICES":7},"geometry":{"type":"Point","coordinates":[-97.11885050000001,49.801983500000006]}},{"type":"Feature","properties":{"ZIP":"R2N1E2","VERTICES":7},"geometry":{"type":"Point","coordinates":[-97.09148400000001,49.8267945]}},{"type":"Feature","properties":{"ZIP":"R2N2S1","VERTICES":7},"geometry":{"type":"Point","coordinates":[-97.1041845,49.8033055]}},{"type":"Feature","properties":{"ZIP":"R2N3A4","VERTICES":7},"geometry":{"type":"Point","coordinates":[-97.089497,49.827002]}},{"type":"Feature","properties":{"ZIP":"R2N3G1","VERTICES":7},"geometry":{"type":"Point","coordinates":[-97.095201,49.8155815]}},{"type":"Feature","properties":{"ZIP":"R2N3P6","VERTICES":7},"geometry":{"type":"Point","coordinates":[-97.088549,49.804758]}},{"type":"Feature","properties":{"ZIP":"R2N3W5","VERTICES":7},"geometry":{"type":"Point","coordinates":[-97.0891355,49.814937]}},{"type":"Feature","properties":{"ZIP":"R2N4L1","VERTICES":7},"geometry":{"type":"Point","coordinates":[-97.078603,49.8137415]}},{"type":"Feature","properties":{"ZIP":"R2N4E3","VERTICES":6},"geometry":{"type":"Point","coordinates":[-97.125629,49.761581]}},{"type":"Feature","properties":{"ZIP":"R2N2L4","VERTICES":6},"geometry":{"type":"Point","coordinates":[-97.0901435,49.8247765]}},{"type":"Feature","properties":{"ZIP":"R2N2V5","VERTICES":6},"geometry":{"type":"Point","coordinates":[-97.11133799999999,49.8043195]}},{"type":"Feature","properties":{"ZIP":"R2N3N3","VERTICES":6},"geometry":{"type":"Point","coordinates":[-97.09570249999999,49.807238]}},{"type":"Feature","properties":{"ZIP":"R2N3V3","VERTICES":6},"geometry":{"type":"Point","coordinates":[-97.095536,49.821197]}},{"type":"Feature","properties":{"ZIP":"R2N0E1","VERTICES":6},"geometry":{"type":"Point","coordinates":[-97.1239245,49.804926]}},{"type":"Feature","properties":{"ZIP":"R2N1E3","VERTICES":6},"geometry":{"type":"Point","coordinates":[-97.092472,49.825802]}},{"type":"Feature","properties":{"ZIP":"R2N2J1","VERTICES":6},"geometry":{"type":"Point","coordinates":[-97.1104535,49.818765]}},{"type":"Feature","properties":{"ZIP":"R2N1G5","VERTICES":6},"geometry":{"type":"Point","coordinates":[-97.106168,49.821191999999996]}},{"type":"Feature","properties":{"ZIP":"R2N1L3","VERTICES":6},"geometry":{"type":"Point","coordinates":[-97.1188995,49.809797]}},{"type":"Feature","properties":{"ZIP":"R2N1V6","VERTICES":6},"geometry":{"type":"Point","coordinates":[-97.11097749999999,49.809681499999996]}},{"type":"Feature","properties":{"ZIP":"R2N2K3","VERTICES":6},"geometry":{"type":"Point","coordinates":[-97.0869705,49.824433]}},{"type":"Feature","properties":{"ZIP":"R2N2X9","VERTICES":6},"geometry":{"type":"Point","coordinates":[-97.1091145,49.7995715]}},{"type":"Feature","properties":{"ZIP":"R2N3H5","VERTICES":6},"geometry":{"type":"Point","coordinates":[-97.09437750000001,49.817772500000004]}},{"type":"Feature","properties":{"ZIP":"R2N3R9","VERTICES":6},"geometry":{"type":"Point","coordinates":[-97.086615,49.8060715]}},{"type":"Feature","properties":{"ZIP":"R2N4E4","VERTICES":6},"geometry":{"type":"Point","coordinates":[-97.085026,49.784195499999996]}},{"type":"Feature","properties":{"ZIP":"R2N3C9","VERTICES":6},"geometry":{"type":"Point","coordinates":[-97.09190849999999,49.8178635]}},{"type":"Feature","properties":{"ZIP":"R2N3J7","VERTICES":6},"geometry":{"type":"Point","coordinates":[-97.0868605,49.817834500000004]}},{"type":"Feature","properties":{"ZIP":"R2N4H7","VERTICES":6},"geometry":{"type":"Point","coordinates":[-97.09026700000001,49.811977999999996]}},{"type":"Feature","properties":{"ZIP":"R2N1G6","VERTICES":6},"geometry":{"type":"Point","coordinates":[-97.10598949999999,49.821076000000005]}},{"type":"Feature","properties":{"ZIP":"R2N3Y6","VERTICES":6},"geometry":{"type":"Point","coordinates":[-97.1128885,49.8011515]}},{"type":"Feature","properties":{"ZIP":"R2N4E5","VERTICES":6},"geometry":{"type":"Point","coordinates":[-97.0892735,49.785525500000006]}},{"type":"Feature","properties":{"ZIP":"R2N2J3","VERTICES":6},"geometry":{"type":"Point","coordinates":[-97.1089365,49.81901]}},{"type":"Feature","properties":{"ZIP":"R2N2M8","VERTICES":6},"geometry":{"type":"Point","coordinates":[-97.0999355,49.806487000000004]}},{"type":"Feature","properties":{"ZIP":"R2N2S4","VERTICES":6},"geometry":{"type":"Point","coordinates":[-97.105545,49.8038325]}},{"type":"Feature","properties":{"ZIP":"R2N3G4","VERTICES":6},"geometry":{"type":"Point","coordinates":[-97.094427,49.816343]}},{"type":"Feature","properties":{"ZIP":"R2N3L1","VERTICES":6},"geometry":{"type":"Point","coordinates":[-97.08316049999999,49.820043999999996]}},{"type":"Feature","properties":{"ZIP":"R2N4L4","VERTICES":6},"geometry":{"type":"Point","coordinates":[-97.0809675,49.810836]}},{"type":"Feature","properties":{"ZIP":"R2N1G7","VERTICES":6},"geometry":{"type":"Point","coordinates":[-97.1072155,49.820947000000004]}},{"type":"Feature","properties":{"ZIP":"R2N2K5","VERTICES":6},"geometry":{"type":"Point","coordinates":[-97.08791049999999,49.826143]}},{"type":"Feature","properties":{"ZIP":"R2N2L7","VERTICES":6},"geometry":{"type":"Point","coordinates":[-97.090598,49.823603500000004]}},{"type":"Feature","properties":{"ZIP":"R2N3E2","VERTICES":6},"geometry":{"type":"Point","coordinates":[-97.097634,49.818323]}},{"type":"Feature","properties":{"ZIP":"R2N3J9","VERTICES":6},"geometry":{"type":"Point","coordinates":[-97.08721700000001,49.8189615]}},{"type":"Feature","properties":{"ZIP":"R2N3N8","VERTICES":6},"geometry":{"type":"Point","coordinates":[-97.0920815,49.803823]}},{"type":"Feature","properties":{"ZIP":"R2N3A8","VERTICES":6},"geometry":{"type":"Point","coordinates":[-97.0956855,49.813523]}},{"type":"Feature","properties":{"ZIP":"R2N4C1","VERTICES":6},"geometry":{"type":"Point","coordinates":[-97.0801845,49.81373000000001]}},{"type":"Feature","properties":{"ZIP":"R2N1L7","VERTICES":6},"geometry":{"type":"Point","coordinates":[-97.1047705,49.813364]}},{"type":"Feature","properties":{"ZIP":"R2N3M4","VERTICES":6},"geometry":{"type":"Point","coordinates":[-97.1112625,49.8079695]}},{"type":"Feature","properties":{"ZIP":"R2N3S3","VERTICES":6},"geometry":{"type":"Point","coordinates":[-97.12238450000001,49.8033785]}},{"type":"Feature","properties":{"ZIP":"R2N4A9","VERTICES":6},"geometry":{"type":"Point","coordinates":[-97.1296735,49.7704645]}},{"type":"Feature","properties":{"ZIP":"R2N1T8","VERTICES":6},"geometry":{"type":"Point","coordinates":[-97.110668,49.810393000000005]}},{"type":"Feature","properties":{"ZIP":"R2N2S6","VERTICES":6},"geometry":{"type":"Point","coordinates":[-97.105703,49.8036435]}},{"type":"Feature","properties":{"ZIP":"R2N3G6","VERTICES":6},"geometry":{"type":"Point","coordinates":[-97.0946775,49.8170765]}},{"type":"Feature","properties":{"ZIP":"R2N2K7","VERTICES":6},"geometry":{"type":"Point","coordinates":[-97.08659399999999,49.825288]}},{"type":"Feature","properties":{"ZIP":"R2N2P3","VERTICES":6},"geometry":{"type":"Point","coordinates":[-97.100697,49.8080545]}},{"type":"Feature","properties":{"ZIP":"R2N2T8","VERTICES":6},"geometry":{"type":"Point","coordinates":[-97.1085495,49.8049045]}},{"type":"Feature","properties":{"ZIP":"R2N3H9","VERTICES":6},"geometry":{"type":"Point","coordinates":[-97.09059,49.8184075]}},{"type":"Feature","properties":{"ZIP":"R2N3M5","VERTICES":6},"geometry":{"type":"Point","coordinates":[-97.111111,49.807346]}},{"type":"Feature","properties":{"ZIP":"R2N3S4","VERTICES":6},"geometry":{"type":"Point","coordinates":[-97.122382,49.803551]}},{"type":"Feature","properties":{"ZIP":"R2N3Z2","VERTICES":6},"geometry":{"type":"Point","coordinates":[-97.11414400000001,49.809139]}},{"type":"Feature","properties":{"ZIP":"R2N4G8","VERTICES":6},"geometry":{"type":"Point","coordinates":[-97.1190215,49.809242]}},{"type":"Feature","properties":{"ZIP":"R2N2R5","VERTICES":6},"geometry":{"type":"Point","coordinates":[-97.102866,49.805642]}},{"type":"Feature","properties":{"ZIP":"R2N4B1","VERTICES":6},"geometry":{"type":"Point","coordinates":[-97.121287,49.770955]}},{"type":"Feature","properties":{"ZIP":"R2N3G7","VERTICES":6},"geometry":{"type":"Point","coordinates":[-97.0959995,49.818901]}},{"type":"Feature","properties":{"ZIP":"R2N2P4","VERTICES":6},"geometry":{"type":"Point","coordinates":[-97.10066,49.807700499999996]}},{"type":"Feature","properties":{"ZIP":"R2N3M6","VERTICES":6},"geometry":{"type":"Point","coordinates":[-97.0847915,49.8264105]}},{"type":"Feature","properties":{"ZIP":"R2N1N2","VERTICES":6},"geometry":{"type":"Point","coordinates":[-97.0961945,49.825806]}},{"type":"Feature","properties":{"ZIP":"R2N3E6","VERTICES":6},"geometry":{"type":"Point","coordinates":[-97.0970425,49.8193025]}},{"type":"Feature","properties":{"ZIP":"R2N4B2","VERTICES":6},"geometry":{"type":"Point","coordinates":[-97.108975,49.776139]}},{"type":"Feature","properties":{"ZIP":"R2N4P6","VERTICES":6},"geometry":{"type":"Point","coordinates":[-97.0791255,49.8104655]}},{"type":"Feature","properties":{"ZIP":"R2N1A3","VERTICES":6},"geometry":{"type":"Point","coordinates":[-97.091508,49.821278500000005]}},{"type":"Feature","properties":{"ZIP":"R2N2N3","VERTICES":6},"geometry":{"type":"Point","coordinates":[-97.0960975,49.806874500000006]}},{"type":"Feature","properties":{"ZIP":"R2N2X4","VERTICES":6},"geometry":{"type":"Point","coordinates":[-97.1105055,49.802456]}},{"type":"Feature","properties":{"ZIP":"R2N3B2","VERTICES":6},"geometry":{"type":"Point","coordinates":[-97.1172865,49.8042075]}},{"type":"Feature","properties":{"ZIP":"R2N3G8","VERTICES":6},"geometry":{"type":"Point","coordinates":[-97.095947,49.818149000000005]}},{"type":"Feature","properties":{"ZIP":"R2N3R4","VERTICES":6},"geometry":{"type":"Point","coordinates":[-97.08749850000001,49.805172]}},{"type":"Feature","properties":{"ZIP":"R2N2Y6","VERTICES":6},"geometry":{"type":"Point","coordinates":[-97.109759,49.8013185]}},{"type":"Feature","properties":{"ZIP":"R2N4N4","VERTICES":6},"geometry":{"type":"Point","coordinates":[-97.0753565,49.811100499999995]}},{"type":"Feature","properties":{"ZIP":"R2N1C7","VERTICES":6},"geometry":{"type":"Point","coordinates":[-97.08619250000001,49.8231915]}},{"type":"Feature","properties":{"ZIP":"R2N2R7","VERTICES":6},"geometry":{"type":"Point","coordinates":[-97.10245950000001,49.805449]}},{"type":"Feature","properties":{"ZIP":"R2N3W2","VERTICES":6},"geometry":{"type":"Point","coordinates":[-97.092833,49.813601000000006]}},{"type":"Feature","properties":{"ZIP":"R2N2N4","VERTICES":6},"geometry":{"type":"Point","coordinates":[-97.096497,49.806526500000004]}},{"type":"Feature","properties":{"ZIP":"R2N1M2","VERTICES":6},"geometry":{"type":"Point","coordinates":[-97.109654,49.8133865]}},{"type":"Feature","properties":{"ZIP":"R2N3C5","VERTICES":6},"geometry":{"type":"Point","coordinates":[-97.1203715,49.802336]}},{"type":"Feature","properties":{"ZIP":"R2N3M9","VERTICES":6},"geometry":{"type":"Point","coordinates":[-97.0952285,49.80721]}},{"type":"Feature","properties":{"ZIP":"R2N1C8","VERTICES":6},"geometry":{"type":"Point","coordinates":[-97.09113400000001,49.8194635]}},{"type":"Feature","properties":{"ZIP":"R2N2R8","VERTICES":6},"geometry":{"type":"Point","coordinates":[-97.10217399999999,49.804455000000004]}},{"type":"Feature","properties":{"ZIP":"R2N3E8","VERTICES":6},"geometry":{"type":"Point","coordinates":[-97.0957945,49.815926000000005]}},{"type":"Feature","properties":{"ZIP":"R2N3K5","VERTICES":6},"geometry":{"type":"Point","coordinates":[-97.08525800000001,49.818518]}},{"type":"Feature","properties":{"ZIP":"R2N3P4","VERTICES":6},"geometry":{"type":"Point","coordinates":[-97.0919965,49.804100500000004]}},{"type":"Feature","properties":{"ZIP":"R2N4J9","VERTICES":6},"geometry":{"type":"Point","coordinates":[-97.08982449999999,49.776674]}},{"type":"Feature","properties":{"ZIP":"R2N1A5","VERTICES":6},"geometry":{"type":"Point","coordinates":[-97.092879,49.8188915]}},{"type":"Feature","properties":{"ZIP":"R2N1G2","VERTICES":6},"geometry":{"type":"Point","coordinates":[-97.1151715,49.818807]}},{"type":"Feature","properties":{"ZIP":"R2N1K8","VERTICES":6},"geometry":{"type":"Point","coordinates":[-97.09843000000001,49.814111499999996]}},{"type":"Feature","properties":{"ZIP":"R2N3R6","VERTICES":6},"geometry":{"type":"Point","coordinates":[-97.08509699999999,49.804748000000004]}},{"type":"Feature","properties":{"ZIP":"R2N4C9","VERTICES":6},"geometry":{"type":"Point","coordinates":[-97.097576,49.782722]}},{"type":"Feature","properties":{"ZIP":"R2N2H8","VERTICES":6},"geometry":{"type":"Point","coordinates":[-97.110514,49.8193135]}},{"type":"Feature","properties":{"ZIP":"R2N2M4","VERTICES":6},"geometry":{"type":"Point","coordinates":[-97.0980895,49.807950500000004]}},{"type":"Feature","properties":{"ZIP":"R2N2R9","VERTICES":6},"geometry":{"type":"Point","coordinates":[-97.101805,49.804424999999995]}},{"type":"Feature","properties":{"ZIP":"R2N1P7","VERTICES":6},"geometry":{"type":"Point","coordinates":[-97.101786,49.815304499999996]}},{"type":"Feature","properties":{"ZIP":"R2N1V4","VERTICES":6},"geometry":{"type":"Point","coordinates":[-97.11044,49.8205655]}},{"type":"Feature","properties":{"ZIP":"R2N3L8","VERTICES":6},"geometry":{"type":"Point","coordinates":[-97.082391,49.8207225]}},{"type":"Feature","properties":{"ZIP":"R2N3J5","VERTICES":6},"geometry":{"type":"Point","coordinates":[-97.08769050000001,49.817554]}},{"type":"Feature","properties":{"ZIP":"R2N3N2","VERTICES":6},"geometry":{"type":"Point","coordinates":[-97.09581600000001,49.8068475]}},{"type":"Feature","properties":{"ZIP":"R2N3V2","VERTICES":6},"geometry":{"type":"Point","coordinates":[-97.093953,49.8217455]}},{"type":"Feature","properties":{"ZIP":"R2N4A3","VERTICES":6},"geometry":{"type":"Point","coordinates":[-97.126622,49.782945]}},{"type":"Feature","properties":{"ZIP":"R2N1T2","VERTICES":6},"geometry":{"type":"Point","coordinates":[-97.09229500000001,49.825548999999995]}},{"type":"Feature","properties":{"ZIP":"R2N1L2","VERTICES":5},"geometry":{"type":"Point","coordinates":[-97.102844,49.815659]}},{"type":"Feature","properties":{"ZIP":"R2N1B9","VERTICES":5},"geometry":{"type":"Point","coordinates":[-97.0861265,49.821106]}},{"type":"Feature","properties":{"ZIP":"R2N1M5","VERTICES":5},"geometry":{"type":"Point","coordinates":[-97.10292050000001,49.815892]}},{"type":"Feature","properties":{"ZIP":"R2N1S1","VERTICES":5},"geometry":{"type":"Point","coordinates":[-97.108176,49.812537000000006]}},{"type":"Feature","properties":{"ZIP":"R2N1C1","VERTICES":5},"geometry":{"type":"Point","coordinates":[-97.088994,49.8210045]}},{"type":"Feature","properties":{"ZIP":"R2N1Z4","VERTICES":5},"geometry":{"type":"Point","coordinates":[-97.113088,49.820117999999994]}},{"type":"Feature","properties":{"ZIP":"R2N1C2","VERTICES":5},"geometry":{"type":"Point","coordinates":[-97.090164,49.8215955]}},{"type":"Feature","properties":{"ZIP":"R2N1Z5","VERTICES":5},"geometry":{"type":"Point","coordinates":[-97.1071695,49.820845000000006]}},{"type":"Feature","properties":{"ZIP":"R2N4E7","VERTICES":5},"geometry":{"type":"Point","coordinates":[-97.072012,49.8045905]}},{"type":"Feature","properties":{"ZIP":"R2N1Z6","VERTICES":5},"geometry":{"type":"Point","coordinates":[-97.108303,49.8206555]}},{"type":"Feature","properties":{"ZIP":"R2N0G1","VERTICES":5},"geometry":{"type":"Point","coordinates":[-97.068083,49.813288]}},{"type":"Feature","properties":{"ZIP":"R2N1P1","VERTICES":5},"geometry":{"type":"Point","coordinates":[-97.1066595,49.814443]}},{"type":"Feature","properties":{"ZIP":"R2N3Z1","VERTICES":5},"geometry":{"type":"Point","coordinates":[-97.124494,49.794087000000005]}},{"type":"Feature","properties":{"ZIP":"R2N1S5","VERTICES":5},"geometry":{"type":"Point","coordinates":[-97.1002885,49.812158]}},{"type":"Feature","properties":{"ZIP":"R2N4P5","VERTICES":5},"geometry":{"type":"Point","coordinates":[-97.0801765,49.8118445]}},{"type":"Feature","properties":{"ZIP":"R2N4C3","VERTICES":5},"geometry":{"type":"Point","coordinates":[-97.0831835,49.8121785]}},{"type":"Feature","properties":{"ZIP":"R2N3Z3","VERTICES":5},"geometry":{"type":"Point","coordinates":[-97.11930899999999,49.8079375]}},{"type":"Feature","properties":{"ZIP":"R2N4J4","VERTICES":5},"geometry":{"type":"Point","coordinates":[-97.085658,49.8240115]}},{"type":"Feature","properties":{"ZIP":"R2N3L5","VERTICES":5},"geometry":{"type":"Point","coordinates":[-97.08462850000001,49.818828499999995]}},{"type":"Feature","properties":{"ZIP":"R2N3J2","VERTICES":5},"geometry":{"type":"Point","coordinates":[-97.089492,49.8188655]}},{"type":"Feature","properties":{"ZIP":"R2N3T8","VERTICES":5},"geometry":{"type":"Point","coordinates":[-97.1012155,49.823047]}},{"type":"Feature","properties":{"ZIP":"R2N4J6","VERTICES":5},"geometry":{"type":"Point","coordinates":[-97.12631999999999,49.7753985]}},{"type":"Feature","properties":{"ZIP":"R2N3R5","VERTICES":5},"geometry":{"type":"Point","coordinates":[-97.0857875,49.8053405]}},{"type":"Feature","properties":{"ZIP":"R2N1W4","VERTICES":5},"geometry":{"type":"Point","coordinates":[-97.1094665,49.815068499999995]}},{"type":"Feature","properties":{"ZIP":"R2N4A1","VERTICES":5},"geometry":{"type":"Point","coordinates":[-97.12401,49.7847005]}},{"type":"Feature","properties":{"ZIP":"R2N3J4","VERTICES":5},"geometry":{"type":"Point","coordinates":[-97.08861250000001,49.81783]}},{"type":"Feature","properties":{"ZIP":"R2N4K9","VERTICES":5},"geometry":{"type":"Point","coordinates":[-97.120626,49.7638225]}},{"type":"Feature","properties":{"ZIP":"R2N4E1","VERTICES":5},"geometry":{"type":"Point","coordinates":[-97.127058,49.772740999999996]}},{"type":"Feature","properties":{"ZIP":"R2N0C9","VERTICES":5},"geometry":{"type":"Point","coordinates":[-97.1239795,49.805237]}},{"type":"Feature","properties":{"ZIP":"R2N2H9","VERTICES":5},"geometry":{"type":"Point","coordinates":[-97.1094775,49.819652000000005]}},{"type":"Feature","properties":{"ZIP":"R2N1Z3","VERTICES":4},"geometry":{"type":"Point","coordinates":[-97.1129365,49.819653]}},{"type":"Feature","properties":{"ZIP":"R2N2W7","VERTICES":4},"geometry":{"type":"Point","coordinates":[-97.1092295,49.8030205]}},{"type":"Feature","properties":{"ZIP":"R2N4B8","VERTICES":4},"geometry":{"type":"Point","coordinates":[-97.062176,49.795888500000004]}},{"type":"Feature","properties":{"ZIP":"R2N4G5","VERTICES":4},"geometry":{"type":"Point","coordinates":[-97.078596,49.81642]}},{"type":"Feature","properties":{"ZIP":"R2N3X7","VERTICES":4},"geometry":{"type":"Point","coordinates":[-97.114937,49.804574]}},{"type":"Feature","properties":{"ZIP":"R2N2Z9","VERTICES":4},"geometry":{"type":"Point","coordinates":[-97.11139,49.799708]}},{"type":"Feature","properties":{"ZIP":"R2N3Z4","VERTICES":3},"geometry":{"type":"Point","coordinates":[-97.11766800000001,49.804806]}}]}