{"type":"FeatureCollection","crs":{"type":"name","properties":{"name":"urn:ogc:def:crs:OGC:1.3:CRS84"}},"features":[{"type":"Feature","properties":{"ZIP":"V2Y0A4","VERTICES":15},"geometry":{"type":"Point","coordinates":[-122.643745,49.156041]}},{"type":"Feature","properties":{"ZIP":"V2Y3H7","VERTICES":14},"geometry":{"type":"Point","coordinates":[-122.673431,49.134921]}},{"type":"Feature","properties":{"ZIP":"V2Y3E1","VERTICES":13},"geometry":{"type":"Point","coordinates":[-122.6533625,49.1248695]}},{"type":"Feature","properties":{"ZIP":"V2Y0C6","VERTICES":12},"geometry":{"type":"Point","coordinates":[-122.6759705,49.128870500000005]}},{"type":"Feature","properties":{"ZIP":"V2Y3E6","VERTICES":12},"geometry":{"type":"Point","coordinates":[-122.67662949999999,49.1345285]}},{"type":"Feature","properties":{"ZIP":"V2Y2Y4","VERTICES":12},"geometry":{"type":"Point","coordinates":[-122.6500075,49.122997]}},{"type":"Feature","properties":{"ZIP":"V2Y3C5","VERTICES":12},"geometry":{"type":"Point","coordinates":[-122.677572,49.135422000000005]}},{"type":"Feature","properties":{"ZIP":"V2Y0C3","VERTICES":12},"geometry":{"type":"Point","coordinates":[-122.6349465,49.153484500000005]}},{"type":"Feature","properties":{"ZIP":"V2Y1B8","VERTICES":11},"geometry":{"type":"Point","coordinates":[-122.6751675,49.121315499999994]}},{"type":"Feature","properties":{"ZIP":"V2Y3G5","VERTICES":11},"geometry":{"type":"Point","coordinates":[-122.666564,49.1363415]}},{"type":"Feature","properties":{"ZIP":"V2Y1E6","VERTICES":11},"geometry":{"type":"Point","coordinates":[-122.672534,49.1253705]}},{"type":"Feature","properties":{"ZIP":"V2Y2Y2","VERTICES":11},"geometry":{"type":"Point","coordinates":[-122.662836,49.128735500000005]}},{"type":"Feature","properties":{"ZIP":"V2Y2Z4","VERTICES":11},"geometry":{"type":"Point","coordinates":[-122.665382,49.131682]}},{"type":"Feature","properties":{"ZIP":"V2Y0L8","VERTICES":11},"geometry":{"type":"Point","coordinates":[-122.6417885,49.14305]}},{"type":"Feature","properties":{"ZIP":"V2Y0A3","VERTICES":11},"geometry":{"type":"Point","coordinates":[-122.6433835,49.1556355]}},{"type":"Feature","properties":{"ZIP":"V2Y2Y6","VERTICES":11},"geometry":{"type":"Point","coordinates":[-122.660897,49.130112499999996]}},{"type":"Feature","properties":{"ZIP":"V2Y2V2","VERTICES":11},"geometry":{"type":"Point","coordinates":[-122.6052565,49.09433]}},{"type":"Feature","properties":{"ZIP":"V2Y2V3","VERTICES":11},"geometry":{"type":"Point","coordinates":[-122.60437250000001,49.094295]}},{"type":"Feature","properties":{"ZIP":"V2Y0J4","VERTICES":11},"geometry":{"type":"Point","coordinates":[-122.639079,49.148142]}},{"type":"Feature","properties":{"ZIP":"V2Y1B6","VERTICES":11},"geometry":{"type":"Point","coordinates":[-122.674201,49.123312999999996]}},{"type":"Feature","properties":{"ZIP":"V2Y1B7","VERTICES":11},"geometry":{"type":"Point","coordinates":[-122.6745095,49.122972000000004]}},{"type":"Feature","properties":{"ZIP":"V2Y3G6","VERTICES":10},"geometry":{"type":"Point","coordinates":[-122.665035,49.1369295]}},{"type":"Feature","properties":{"ZIP":"V2Y2M5","VERTICES":10},"geometry":{"type":"Point","coordinates":[-122.6044945,49.095102]}},{"type":"Feature","properties":{"ZIP":"V2Y1L3","VERTICES":10},"geometry":{"type":"Point","coordinates":[-122.618933,49.097476]}},{"type":"Feature","properties":{"ZIP":"V2Y2W6","VERTICES":10},"geometry":{"type":"Point","coordinates":[-122.677109,49.126236500000005]}},{"type":"Feature","properties":{"ZIP":"V2Y1H5","VERTICES":10},"geometry":{"type":"Point","coordinates":[-122.674721,49.1208305]}},{"type":"Feature","properties":{"ZIP":"V2Y2Y3","VERTICES":10},"geometry":{"type":"Point","coordinates":[-122.662575,49.1297175]}},{"type":"Feature","properties":{"ZIP":"V2Y2G3","VERTICES":10},"geometry":{"type":"Point","coordinates":[-122.55727300000001,49.115027999999995]}},{"type":"Feature","properties":{"ZIP":"V2Y3E7","VERTICES":10},"geometry":{"type":"Point","coordinates":[-122.67423149999999,49.135427]}},{"type":"Feature","properties":{"ZIP":"V2Y3B1","VERTICES":10},"geometry":{"type":"Point","coordinates":[-122.673696,49.128992]}},{"type":"Feature","properties":{"ZIP":"V2Y0B9","VERTICES":10},"geometry":{"type":"Point","coordinates":[-122.638912,49.154718]}},{"type":"Feature","properties":{"ZIP":"V2Y1C5","VERTICES":10},"geometry":{"type":"Point","coordinates":[-122.6712555,49.1234045]}},{"type":"Feature","properties":{"ZIP":"V2Y3H5","VERTICES":10},"geometry":{"type":"Point","coordinates":[-122.6756895,49.1283855]}},{"type":"Feature","properties":{"ZIP":"V2Y1B4","VERTICES":10},"geometry":{"type":"Point","coordinates":[-122.6740035,49.123745]}},{"type":"Feature","properties":{"ZIP":"V2Y0A5","VERTICES":10},"geometry":{"type":"Point","coordinates":[-122.6415295,49.153901000000005]}},{"type":"Feature","properties":{"ZIP":"V2Y3G1","VERTICES":10},"geometry":{"type":"Point","coordinates":[-122.6709805,49.1323635]}},{"type":"Feature","properties":{"ZIP":"V2Y1S9","VERTICES":10},"geometry":{"type":"Point","coordinates":[-122.6551905,49.131198999999995]}},{"type":"Feature","properties":{"ZIP":"V2Y1C8","VERTICES":10},"geometry":{"type":"Point","coordinates":[-122.674418,49.1231415]}},{"type":"Feature","properties":{"ZIP":"V2Y1T1","VERTICES":10},"geometry":{"type":"Point","coordinates":[-122.6521035,49.1322015]}},{"type":"Feature","properties":{"ZIP":"V2Y2J9","VERTICES":10},"geometry":{"type":"Point","coordinates":[-122.584503,49.1310055]}},{"type":"Feature","properties":{"ZIP":"V2Y1T2","VERTICES":10},"geometry":{"type":"Point","coordinates":[-122.65643299999999,49.133425]}},{"type":"Feature","properties":{"ZIP":"V2Y2X8","VERTICES":10},"geometry":{"type":"Point","coordinates":[-122.6529195,49.123108]}},{"type":"Feature","properties":{"ZIP":"V2Y3B7","VERTICES":10},"geometry":{"type":"Point","coordinates":[-122.6692765,49.12661]}},{"type":"Feature","properties":{"ZIP":"V2Y1J4","VERTICES":10},"geometry":{"type":"Point","coordinates":[-122.67757399999999,49.1235465]}},{"type":"Feature","properties":{"ZIP":"V2Y0C4","VERTICES":10},"geometry":{"type":"Point","coordinates":[-122.636606,49.154054]}},{"type":"Feature","properties":{"ZIP":"V2Y3G4","VERTICES":10},"geometry":{"type":"Point","coordinates":[-122.662536,49.133836]}},{"type":"Feature","properties":{"ZIP":"V2Y1J6","VERTICES":9},"geometry":{"type":"Point","coordinates":[-122.677927,49.1254]}},{"type":"Feature","properties":{"ZIP":"V2Y2E9","VERTICES":9},"geometry":{"type":"Point","coordinates":[-122.629062,49.1438885]}},{"type":"Feature","properties":{"ZIP":"V2Y1E5","VERTICES":9},"geometry":{"type":"Point","coordinates":[-122.6739035,49.123014999999995]}},{"type":"Feature","properties":{"ZIP":"V2Y1T4","VERTICES":9},"geometry":{"type":"Point","coordinates":[-122.6486385,49.1292535]}},{"type":"Feature","properties":{"ZIP":"V2Y1V8","VERTICES":9},"geometry":{"type":"Point","coordinates":[-122.650424,49.135508]}},{"type":"Feature","properties":{"ZIP":"V2Y2Z3","VERTICES":9},"geometry":{"type":"Point","coordinates":[-122.665077,49.1307915]}},{"type":"Feature","properties":{"ZIP":"V2Y1A8","VERTICES":9},"geometry":{"type":"Point","coordinates":[-122.6768605,49.122833]}},{"type":"Feature","properties":{"ZIP":"V2Y3E5","VERTICES":9},"geometry":{"type":"Point","coordinates":[-122.6761355,49.134409500000004]}},{"type":"Feature","properties":{"ZIP":"V2Y2E1","VERTICES":9},"geometry":{"type":"Point","coordinates":[-122.637276,49.1477675]}},{"type":"Feature","properties":{"ZIP":"V2Y2R8","VERTICES":9},"geometry":{"type":"Point","coordinates":[-122.642211,49.12778]}},{"type":"Feature","properties":{"ZIP":"V2Y2S1","VERTICES":9},"geometry":{"type":"Point","coordinates":[-122.586442,49.1350855]}},{"type":"Feature","properties":{"ZIP":"V2Y0B8","VERTICES":9},"geometry":{"type":"Point","coordinates":[-122.638684,49.153209000000004]}},{"type":"Feature","properties":{"ZIP":"V2Y0E4","VERTICES":9},"geometry":{"type":"Point","coordinates":[-122.63789,49.1513465]}},{"type":"Feature","properties":{"ZIP":"V2Y2E4","VERTICES":9},"geometry":{"type":"Point","coordinates":[-122.6415665,49.13557]}},{"type":"Feature","properties":{"ZIP":"V2Y2A9","VERTICES":9},"geometry":{"type":"Point","coordinates":[-122.655449,49.151743999999994]}},{"type":"Feature","properties":{"ZIP":"V2Y2Z8","VERTICES":9},"geometry":{"type":"Point","coordinates":[-122.66468,49.129346999999996]}},{"type":"Feature","properties":{"ZIP":"V2Y2L4","VERTICES":9},"geometry":{"type":"Point","coordinates":[-122.5983215,49.115462]}},{"type":"Feature","properties":{"ZIP":"V2Y0C1","VERTICES":9},"geometry":{"type":"Point","coordinates":[-122.6393555,49.153867500000004]}},{"type":"Feature","properties":{"ZIP":"V2Y2C4","VERTICES":9},"geometry":{"type":"Point","coordinates":[-122.643095,49.1528165]}},{"type":"Feature","properties":{"ZIP":"V2Y0A7","VERTICES":9},"geometry":{"type":"Point","coordinates":[-122.6439885,49.154666]}},{"type":"Feature","properties":{"ZIP":"V2Y2H1","VERTICES":9},"geometry":{"type":"Point","coordinates":[-122.55439899999999,49.120551500000005]}},{"type":"Feature","properties":{"ZIP":"V2Y1Z9","VERTICES":9},"geometry":{"type":"Point","coordinates":[-122.6719375,49.1631385]}},{"type":"Feature","properties":{"ZIP":"V2Y2S6","VERTICES":9},"geometry":{"type":"Point","coordinates":[-122.624128,49.143454500000004]}},{"type":"Feature","properties":{"ZIP":"V2Y0A8","VERTICES":9},"geometry":{"type":"Point","coordinates":[-122.6620565,49.1359015]}},{"type":"Feature","properties":{"ZIP":"V2Y1E4","VERTICES":9},"geometry":{"type":"Point","coordinates":[-122.671987,49.123318499999996]}},{"type":"Feature","properties":{"ZIP":"V2Y2N6","VERTICES":9},"geometry":{"type":"Point","coordinates":[-122.6243695,49.111582]}},{"type":"Feature","properties":{"ZIP":"V2Y1G8","VERTICES":9},"geometry":{"type":"Point","coordinates":[-122.67774399999999,49.1226255]}},{"type":"Feature","properties":{"ZIP":"V2Y3B8","VERTICES":9},"geometry":{"type":"Point","coordinates":[-122.6729875,49.126918]}},{"type":"Feature","properties":{"ZIP":"V2Y1V7","VERTICES":8},"geometry":{"type":"Point","coordinates":[-122.64762999999999,49.1376085]}},{"type":"Feature","properties":{"ZIP":"V2Y1Y7","VERTICES":8},"geometry":{"type":"Point","coordinates":[-122.6734125,49.151990999999995]}},{"type":"Feature","properties":{"ZIP":"V2Y1P8","VERTICES":8},"geometry":{"type":"Point","coordinates":[-122.6570815,49.127855]}},{"type":"Feature","properties":{"ZIP":"V2Y1J8","VERTICES":8},"geometry":{"type":"Point","coordinates":[-122.6782565,49.126413]}},{"type":"Feature","properties":{"ZIP":"V2Y2H5","VERTICES":8},"geometry":{"type":"Point","coordinates":[-122.56486050000001,49.123638]}},{"type":"Feature","properties":{"ZIP":"V2Y1A9","VERTICES":8},"geometry":{"type":"Point","coordinates":[-122.676794,49.1253275]}},{"type":"Feature","properties":{"ZIP":"V2Y1Y9","VERTICES":8},"geometry":{"type":"Point","coordinates":[-122.6778775,49.1546105]}},{"type":"Feature","properties":{"ZIP":"V2Y0B5","VERTICES":8},"geometry":{"type":"Point","coordinates":[-122.63570949999999,49.1520105]}},{"type":"Feature","properties":{"ZIP":"V2Y1R1","VERTICES":8},"geometry":{"type":"Point","coordinates":[-122.64736049999999,49.125142]}},{"type":"Feature","properties":{"ZIP":"V2Y1W2","VERTICES":8},"geometry":{"type":"Point","coordinates":[-122.6546005,49.140474]}},{"type":"Feature","properties":{"ZIP":"V2Y3H1","VERTICES":8},"geometry":{"type":"Point","coordinates":[-122.69573199999999,49.127108]}},{"type":"Feature","properties":{"ZIP":"V2Y2E2","VERTICES":8},"geometry":{"type":"Point","coordinates":[-122.62835150000001,49.1475175]}},{"type":"Feature","properties":{"ZIP":"V2Y0B7","VERTICES":8},"geometry":{"type":"Point","coordinates":[-122.664323,49.126197]}},{"type":"Feature","properties":{"ZIP":"V2Y1K1","VERTICES":8},"geometry":{"type":"Point","coordinates":[-122.678669,49.1214625]}},{"type":"Feature","properties":{"ZIP":"V2Y2P2","VERTICES":8},"geometry":{"type":"Point","coordinates":[-122.61623349999999,49.113906]}},{"type":"Feature","properties":{"ZIP":"V2Y2Y5","VERTICES":8},"geometry":{"type":"Point","coordinates":[-122.650644,49.1225875]}},{"type":"Feature","properties":{"ZIP":"V2Y1C4","VERTICES":8},"geometry":{"type":"Point","coordinates":[-122.67003650000001,49.122175]}},{"type":"Feature","properties":{"ZIP":"V2Y2A8","VERTICES":8},"geometry":{"type":"Point","coordinates":[-122.664584,49.151874]}},{"type":"Feature","properties":{"ZIP":"V2Y2T9","VERTICES":8},"geometry":{"type":"Point","coordinates":[-122.606458,49.0958585]}},{"type":"Feature","properties":{"ZIP":"V2Y2Z7","VERTICES":8},"geometry":{"type":"Point","coordinates":[-122.6770305,49.131479]}},{"type":"Feature","properties":{"ZIP":"V2Y3E8","VERTICES":8},"geometry":{"type":"Point","coordinates":[-122.676065,49.1298455]}},{"type":"Feature","properties":{"ZIP":"V2Y1G1","VERTICES":8},"geometry":{"type":"Point","coordinates":[-122.6726675,49.125187499999996]}},{"type":"Feature","properties":{"ZIP":"V2Y2L3","VERTICES":8},"geometry":{"type":"Point","coordinates":[-122.592829,49.116065500000005]}},{"type":"Feature","properties":{"ZIP":"V2Y1G2","VERTICES":8},"geometry":{"type":"Point","coordinates":[-122.669921,49.12347]}},{"type":"Feature","properties":{"ZIP":"V2Y1M2","VERTICES":8},"geometry":{"type":"Point","coordinates":[-122.56631200000001,49.1153365]}},{"type":"Feature","properties":{"ZIP":"V2Y2X6","VERTICES":8},"geometry":{"type":"Point","coordinates":[-122.60289900000001,49.0924895]}},{"type":"Feature","properties":{"ZIP":"V2Y2L7","VERTICES":8},"geometry":{"type":"Point","coordinates":[-122.592851,49.1027115]}},{"type":"Feature","properties":{"ZIP":"V2Y0C2","VERTICES":8},"geometry":{"type":"Point","coordinates":[-122.6352455,49.15299]}},{"type":"Feature","properties":{"ZIP":"V2Y1K5","VERTICES":8},"geometry":{"type":"Point","coordinates":[-122.677979,49.122832]}},{"type":"Feature","properties":{"ZIP":"V2Y0R3","VERTICES":8},"geometry":{"type":"Point","coordinates":[-122.64389750000001,49.1486695]}},{"type":"Feature","properties":{"ZIP":"V2Y2S5","VERTICES":8},"geometry":{"type":"Point","coordinates":[-122.6217635,49.1407285]}},{"type":"Feature","properties":{"ZIP":"V2Y1X1","VERTICES":8},"geometry":{"type":"Point","coordinates":[-122.64620400000001,49.146405]}},{"type":"Feature","properties":{"ZIP":"V2Y1V6","VERTICES":8},"geometry":{"type":"Point","coordinates":[-122.6534785,49.13836]}},{"type":"Feature","properties":{"ZIP":"V2Y2E8","VERTICES":8},"geometry":{"type":"Point","coordinates":[-122.627804,49.1403385]}},{"type":"Feature","properties":{"ZIP":"V2Y1S1","VERTICES":8},"geometry":{"type":"Point","coordinates":[-122.670223,49.1392565]}},{"type":"Feature","properties":{"ZIP":"V2Y1X3","VERTICES":8},"geometry":{"type":"Point","coordinates":[-122.65335250000001,49.144456000000005]}},{"type":"Feature","properties":{"ZIP":"V2Y2B5","VERTICES":8},"geometry":{"type":"Point","coordinates":[-122.65131600000001,49.156573]}},{"type":"Feature","properties":{"ZIP":"V2Y2R4","VERTICES":8},"geometry":{"type":"Point","coordinates":[-122.631478,49.132935]}},{"type":"Feature","properties":{"ZIP":"V2Y2X9","VERTICES":8},"geometry":{"type":"Point","coordinates":[-122.653941,49.123779]}},{"type":"Feature","properties":{"ZIP":"V2Y1P7","VERTICES":7},"geometry":{"type":"Point","coordinates":[-122.659266,49.126763499999996]}},{"type":"Feature","properties":{"ZIP":"V2Y2A3","VERTICES":7},"geometry":{"type":"Point","coordinates":[-122.665133,49.1482295]}},{"type":"Feature","properties":{"ZIP":"V2Y2S9","VERTICES":7},"geometry":{"type":"Point","coordinates":[-122.6087205,49.140298]}},{"type":"Feature","properties":{"ZIP":"V2Y0C5","VERTICES":7},"geometry":{"type":"Point","coordinates":[-122.6733145,49.132557000000006]}},{"type":"Feature","properties":{"ZIP":"V2Y1S2","VERTICES":7},"geometry":{"type":"Point","coordinates":[-122.672224,49.141428000000005]}},{"type":"Feature","properties":{"ZIP":"V2Y2H3","VERTICES":7},"geometry":{"type":"Point","coordinates":[-122.5591315,49.124178]}},{"type":"Feature","properties":{"ZIP":"V2Y2K3","VERTICES":7},"geometry":{"type":"Point","coordinates":[-122.5923185,49.1336725]}},{"type":"Feature","properties":{"ZIP":"V2Y2R5","VERTICES":7},"geometry":{"type":"Point","coordinates":[-122.641239,49.133328500000005]}},{"type":"Feature","properties":{"ZIP":"V2Y2Y1","VERTICES":7},"geometry":{"type":"Point","coordinates":[-122.66195450000001,49.129104999999996]}},{"type":"Feature","properties":{"ZIP":"V2Y3J2","VERTICES":7},"geometry":{"type":"Point","coordinates":[-122.670906,49.133843999999996]}},{"type":"Feature","properties":{"ZIP":"V2Y2M3","VERTICES":7},"geometry":{"type":"Point","coordinates":[-122.6035315,49.0913075]}},{"type":"Feature","properties":{"ZIP":"V2Y1S3","VERTICES":7},"geometry":{"type":"Point","coordinates":[-122.67022449999999,49.146581]}},{"type":"Feature","properties":{"ZIP":"V2Y3A6","VERTICES":7},"geometry":{"type":"Point","coordinates":[-122.6771895,49.128801499999994]}},{"type":"Feature","properties":{"ZIP":"V2Y0H2","VERTICES":7},"geometry":{"type":"Point","coordinates":[-122.637329,49.147769]}},{"type":"Feature","properties":{"ZIP":"V2Y1N1","VERTICES":7},"geometry":{"type":"Point","coordinates":[-122.6632625,49.116757500000006]}},{"type":"Feature","properties":{"ZIP":"V2Y2C9","VERTICES":7},"geometry":{"type":"Point","coordinates":[-122.634663,49.150783]}},{"type":"Feature","properties":{"ZIP":"V2Y3J3","VERTICES":7},"geometry":{"type":"Point","coordinates":[-122.670199,49.135137]}},{"type":"Feature","properties":{"ZIP":"V2Y1C1","VERTICES":7},"geometry":{"type":"Point","coordinates":[-122.6717035,49.12235200000001]}},{"type":"Feature","properties":{"ZIP":"V2Y1P9","VERTICES":7},"geometry":{"type":"Point","coordinates":[-122.65136100000001,49.1268235]}},{"type":"Feature","properties":{"ZIP":"V2Y2G2","VERTICES":7},"geometry":{"type":"Point","coordinates":[-122.5510625,49.113144500000004]}},{"type":"Feature","properties":{"ZIP":"V2Y1C2","VERTICES":7},"geometry":{"type":"Point","coordinates":[-122.67397,49.1251345]}},{"type":"Feature","properties":{"ZIP":"V2Y1J9","VERTICES":7},"geometry":{"type":"Point","coordinates":[-122.67760100000001,49.1235475]}},{"type":"Feature","properties":{"ZIP":"V2Y2Z5","VERTICES":7},"geometry":{"type":"Point","coordinates":[-122.66632899999999,49.1307015]}},{"type":"Feature","properties":{"ZIP":"V2Y0M2","VERTICES":7},"geometry":{"type":"Point","coordinates":[-122.6533445,49.126892]}},{"type":"Feature","properties":{"ZIP":"V2Y1L5","VERTICES":7},"geometry":{"type":"Point","coordinates":[-122.606341,49.097187500000004]}},{"type":"Feature","properties":{"ZIP":"V2Y1S5","VERTICES":7},"geometry":{"type":"Point","coordinates":[-122.6636235,49.1334655]}},{"type":"Feature","properties":{"ZIP":"V2Y2P1","VERTICES":7},"geometry":{"type":"Point","coordinates":[-122.607493,49.113932]}},{"type":"Feature","properties":{"ZIP":"V2Y1H6","VERTICES":7},"geometry":{"type":"Point","coordinates":[-122.6749505,49.126324499999996]}},{"type":"Feature","properties":{"ZIP":"V2Y3C4","VERTICES":7},"geometry":{"type":"Point","coordinates":[-122.663092,49.136264499999996]}},{"type":"Feature","properties":{"ZIP":"V2Y1E9","VERTICES":7},"geometry":{"type":"Point","coordinates":[-122.67011600000001,49.1248055]}},{"type":"Feature","properties":{"ZIP":"V2Y3H2","VERTICES":7},"geometry":{"type":"Point","coordinates":[-122.688069,49.126941]}},{"type":"Feature","properties":{"ZIP":"V2Y1H7","VERTICES":7},"geometry":{"type":"Point","coordinates":[-122.673355,49.1263]}},{"type":"Feature","properties":{"ZIP":"V2Y1T9","VERTICES":7},"geometry":{"type":"Point","coordinates":[-122.6605365,49.135336]}},{"type":"Feature","properties":{"ZIP":"V2Y2L2","VERTICES":7},"geometry":{"type":"Point","coordinates":[-122.58722499999999,49.115339000000006]}},{"type":"Feature","properties":{"ZIP":"V2Y2G5","VERTICES":7},"geometry":{"type":"Point","coordinates":[-122.563306,49.1171345]}},{"type":"Feature","properties":{"ZIP":"V2Y2C2","VERTICES":7},"geometry":{"type":"Point","coordinates":[-122.659382,49.1581395]}},{"type":"Feature","properties":{"ZIP":"V2Y2H8","VERTICES":7},"geometry":{"type":"Point","coordinates":[-122.570459,49.1293475]}},{"type":"Feature","properties":{"ZIP":"V2Y2P6","VERTICES":7},"geometry":{"type":"Point","coordinates":[-122.6242885,49.122311499999995]}},{"type":"Feature","properties":{"ZIP":"V2Y0J1","VERTICES":7},"geometry":{"type":"Point","coordinates":[-122.643936,49.1327945]}},{"type":"Feature","properties":{"ZIP":"V2Y1B3","VERTICES":7},"geometry":{"type":"Point","coordinates":[-122.672189,49.122829]}},{"type":"Feature","properties":{"ZIP":"V2Y1V1","VERTICES":7},"geometry":{"type":"Point","coordinates":[-122.656333,49.136606]}},{"type":"Feature","properties":{"ZIP":"V2Y2S2","VERTICES":7},"geometry":{"type":"Point","coordinates":[-122.587681,49.137888000000004]}},{"type":"Feature","properties":{"ZIP":"V2Y1K3","VERTICES":7},"geometry":{"type":"Point","coordinates":[-122.67748399999999,49.1215925]}},{"type":"Feature","properties":{"ZIP":"V2Y2J7","VERTICES":7},"geometry":{"type":"Point","coordinates":[-122.585005,49.126295]}},{"type":"Feature","properties":{"ZIP":"V2Y2X5","VERTICES":7},"geometry":{"type":"Point","coordinates":[-122.65504999999999,49.1251385]}},{"type":"Feature","properties":{"ZIP":"V2Y3B4","VERTICES":7},"geometry":{"type":"Point","coordinates":[-122.6676595,49.1285865]}},{"type":"Feature","properties":{"ZIP":"V2Y1H9","VERTICES":7},"geometry":{"type":"Point","coordinates":[-122.67689899999999,49.120309]}},{"type":"Feature","properties":{"ZIP":"V2Y1Z4","VERTICES":7},"geometry":{"type":"Point","coordinates":[-122.67590150000001,49.156262]}},{"type":"Feature","properties":{"ZIP":"V2Y3C7","VERTICES":7},"geometry":{"type":"Point","coordinates":[-122.66287,49.136210000000005]}},{"type":"Feature","properties":{"ZIP":"V2Y0K7","VERTICES":7},"geometry":{"type":"Point","coordinates":[-122.637259,49.1429305]}},{"type":"Feature","properties":{"ZIP":"V2Y1C6","VERTICES":7},"geometry":{"type":"Point","coordinates":[-122.6728635,49.1240455]}},{"type":"Feature","properties":{"ZIP":"V2Y1K4","VERTICES":7},"geometry":{"type":"Point","coordinates":[-122.6775235,49.121798]}},{"type":"Feature","properties":{"ZIP":"V2Y1R5","VERTICES":7},"geometry":{"type":"Point","coordinates":[-122.6749545,49.131688499999996]}},{"type":"Feature","properties":{"ZIP":"V2Y0E8","VERTICES":7},"geometry":{"type":"Point","coordinates":[-122.637057,49.149373499999996]}},{"type":"Feature","properties":{"ZIP":"V2Y1B5","VERTICES":7},"geometry":{"type":"Point","coordinates":[-122.674815,49.123451]}},{"type":"Feature","properties":{"ZIP":"V2Y0A6","VERTICES":7},"geometry":{"type":"Point","coordinates":[-122.640963,49.154968499999995]}},{"type":"Feature","properties":{"ZIP":"V2Y2E7","VERTICES":7},"geometry":{"type":"Point","coordinates":[-122.6330955,49.140853]}},{"type":"Feature","properties":{"ZIP":"V2Y3C9","VERTICES":7},"geometry":{"type":"Point","coordinates":[-122.654786,49.125083000000004]}},{"type":"Feature","properties":{"ZIP":"V2Y0L1","VERTICES":7},"geometry":{"type":"Point","coordinates":[-122.6400285,49.139073999999994]}},{"type":"Feature","properties":{"ZIP":"V2Y1R9","VERTICES":7},"geometry":{"type":"Point","coordinates":[-122.671978,49.1352545]}},{"type":"Feature","properties":{"ZIP":"V2Y0G2","VERTICES":7},"geometry":{"type":"Point","coordinates":[-122.645711,49.1278035]}},{"type":"Feature","properties":{"ZIP":"V2Y1M5","VERTICES":7},"geometry":{"type":"Point","coordinates":[-122.556371,49.114082499999995]}},{"type":"Feature","properties":{"ZIP":"V2Y3H8","VERTICES":7},"geometry":{"type":"Point","coordinates":[-122.66991150000001,49.1326555]}},{"type":"Feature","properties":{"ZIP":"V2Y1P5","VERTICES":7},"geometry":{"type":"Point","coordinates":[-122.665562,49.1272125]}},{"type":"Feature","properties":{"ZIP":"V2Y2H2","VERTICES":7},"geometry":{"type":"Point","coordinates":[-122.5551045,49.122406999999995]}},{"type":"Feature","properties":{"ZIP":"V2Y1T3","VERTICES":7},"geometry":{"type":"Point","coordinates":[-122.6466705,49.1304085]}},{"type":"Feature","properties":{"ZIP":"V2Y2K2","VERTICES":7},"geometry":{"type":"Point","coordinates":[-122.58472,49.130598000000006]}},{"type":"Feature","properties":{"ZIP":"V2Y2M2","VERTICES":6},"geometry":{"type":"Point","coordinates":[-122.603916,49.098293]}},{"type":"Feature","properties":{"ZIP":"V2Y2B6","VERTICES":6},"geometry":{"type":"Point","coordinates":[-122.65194299999999,49.1578825]}},{"type":"Feature","properties":{"ZIP":"V2Y2N7","VERTICES":6},"geometry":{"type":"Point","coordinates":[-122.61406149999999,49.1191945]}},{"type":"Feature","properties":{"ZIP":"V2Y2W3","VERTICES":6},"geometry":{"type":"Point","coordinates":[-122.677854,49.125377]}},{"type":"Feature","properties":{"ZIP":"V2Y1G9","VERTICES":6},"geometry":{"type":"Point","coordinates":[-122.672128,49.1190785]}},{"type":"Feature","properties":{"ZIP":"V2Y1M9","VERTICES":6},"geometry":{"type":"Point","coordinates":[-122.66500049999999,49.1189405]}},{"type":"Feature","properties":{"ZIP":"V2Y1J7","VERTICES":6},"geometry":{"type":"Point","coordinates":[-122.678831,49.124584999999996]}},{"type":"Feature","properties":{"ZIP":"V2Y2A4","VERTICES":6},"geometry":{"type":"Point","coordinates":[-122.658211,49.148124]}},{"type":"Feature","properties":{"ZIP":"V2Y2H4","VERTICES":6},"geometry":{"type":"Point","coordinates":[-122.56076300000001,49.126204]}},{"type":"Feature","properties":{"ZIP":"V2Y2W5","VERTICES":6},"geometry":{"type":"Point","coordinates":[-122.672039,49.126292500000005]}},{"type":"Feature","properties":{"ZIP":"V2Y1T5","VERTICES":6},"geometry":{"type":"Point","coordinates":[-122.675883,49.145526000000004]}},{"type":"Feature","properties":{"ZIP":"V2Y2K4","VERTICES":6},"geometry":{"type":"Point","coordinates":[-122.600629,49.131604499999995]}},{"type":"Feature","properties":{"ZIP":"V2Y2R7","VERTICES":6},"geometry":{"type":"Point","coordinates":[-122.6426735,49.106718]}},{"type":"Feature","properties":{"ZIP":"V2Y3C2","VERTICES":6},"geometry":{"type":"Point","coordinates":[-122.668047,49.154914500000004]}},{"type":"Feature","properties":{"ZIP":"V2Y2A5","VERTICES":6},"geometry":{"type":"Point","coordinates":[-122.64703499999999,49.1490385]}},{"type":"Feature","properties":{"ZIP":"V2Y0C8","VERTICES":6},"geometry":{"type":"Point","coordinates":[-122.66436049999999,49.1638365]}},{"type":"Feature","properties":{"ZIP":"V2Y1E7","VERTICES":6},"geometry":{"type":"Point","coordinates":[-122.67556300000001,49.1243345]}},{"type":"Feature","properties":{"ZIP":"V2Y1X6","VERTICES":6},"geometry":{"type":"Point","coordinates":[-122.65176249999999,49.148011]}},{"type":"Feature","properties":{"ZIP":"V2Y3A7","VERTICES":6},"geometry":{"type":"Point","coordinates":[-122.6781015,49.129484000000005]}},{"type":"Feature","properties":{"ZIP":"V2Y3G8","VERTICES":6},"geometry":{"type":"Point","coordinates":[-122.67477600000001,49.1322725]}},{"type":"Feature","properties":{"ZIP":"V2Y2K5","VERTICES":6},"geometry":{"type":"Point","coordinates":[-122.6032145,49.1275995]}},{"type":"Feature","properties":{"ZIP":"V2Y0K2","VERTICES":6},"geometry":{"type":"Point","coordinates":[-122.6385265,49.1475005]}},{"type":"Feature","properties":{"ZIP":"V2Y2A6","VERTICES":6},"geometry":{"type":"Point","coordinates":[-122.650796,49.148055]}},{"type":"Feature","properties":{"ZIP":"V2Y2M6","VERTICES":6},"geometry":{"type":"Point","coordinates":[-122.61096950000001,49.097057]}},{"type":"Feature","properties":{"ZIP":"V2Y1E8","VERTICES":6},"geometry":{"type":"Point","coordinates":[-122.671862,49.1243765]}},{"type":"Feature","properties":{"ZIP":"V2Y1X7","VERTICES":6},"geometry":{"type":"Point","coordinates":[-122.650272,49.123948]}},{"type":"Feature","properties":{"ZIP":"V2Y2H6","VERTICES":6},"geometry":{"type":"Point","coordinates":[-122.564768,49.127683000000005]}},{"type":"Feature","properties":{"ZIP":"V2Y3A8","VERTICES":6},"geometry":{"type":"Point","coordinates":[-122.67227550000001,49.1292]}},{"type":"Feature","properties":{"ZIP":"V2Y1B1","VERTICES":6},"geometry":{"type":"Point","coordinates":[-122.673854,49.124206]}},{"type":"Feature","properties":{"ZIP":"V2Y1Z1","VERTICES":6},"geometry":{"type":"Point","coordinates":[-122.675939,49.1526535]}},{"type":"Feature","properties":{"ZIP":"V2Y1C3","VERTICES":6},"geometry":{"type":"Point","coordinates":[-122.674745,49.125291000000004]}},{"type":"Feature","properties":{"ZIP":"V2Y1R2","VERTICES":6},"geometry":{"type":"Point","coordinates":[-122.65297050000001,49.1287255]}},{"type":"Feature","properties":{"ZIP":"V2Y1W3","VERTICES":6},"geometry":{"type":"Point","coordinates":[-122.6545275,49.140798000000004]}},{"type":"Feature","properties":{"ZIP":"V2Y2A7","VERTICES":6},"geometry":{"type":"Point","coordinates":[-122.667868,49.1541945]}},{"type":"Feature","properties":{"ZIP":"V2Y2G4","VERTICES":6},"geometry":{"type":"Point","coordinates":[-122.5515535,49.116693]}},{"type":"Feature","properties":{"ZIP":"V2Y2M7","VERTICES":6},"geometry":{"type":"Point","coordinates":[-122.6165645,49.0969845]}},{"type":"Feature","properties":{"ZIP":"V2Y2Z6","VERTICES":6},"geometry":{"type":"Point","coordinates":[-122.66187,49.128038000000004]}},{"type":"Feature","properties":{"ZIP":"V2Y1L7","VERTICES":6},"geometry":{"type":"Point","coordinates":[-122.6229965,49.096748500000004]}},{"type":"Feature","properties":{"ZIP":"V2Y1S6","VERTICES":6},"geometry":{"type":"Point","coordinates":[-122.6256065,49.126127]}},{"type":"Feature","properties":{"ZIP":"V2Y2C1","VERTICES":6},"geometry":{"type":"Point","coordinates":[-122.665654,49.1591385]}},{"type":"Feature","properties":{"ZIP":"V2Y2H7","VERTICES":6},"geometry":{"type":"Point","coordinates":[-122.566283,49.126056500000004]}},{"type":"Feature","properties":{"ZIP":"V2Y0H7","VERTICES":6},"geometry":{"type":"Point","coordinates":[-122.6398085,49.139872499999996]}},{"type":"Feature","properties":{"ZIP":"V2Y1N5","VERTICES":6},"geometry":{"type":"Point","coordinates":[-122.65819450000001,49.118887]}},{"type":"Feature","properties":{"ZIP":"V2Y1K2","VERTICES":6},"geometry":{"type":"Point","coordinates":[-122.67895200000001,49.121350500000005]}},{"type":"Feature","properties":{"ZIP":"V2Y1S7","VERTICES":6},"geometry":{"type":"Point","coordinates":[-122.6669285,49.1347655]}},{"type":"Feature","properties":{"ZIP":"V2Y1X9","VERTICES":6},"geometry":{"type":"Point","coordinates":[-122.62080449999999,49.129119]}},{"type":"Feature","properties":{"ZIP":"V2Y3H4","VERTICES":6},"geometry":{"type":"Point","coordinates":[-122.674665,49.127934]}},{"type":"Feature","properties":{"ZIP":"V2Y1H8","VERTICES":6},"geometry":{"type":"Point","coordinates":[-122.6702435,49.1262945]}},{"type":"Feature","properties":{"ZIP":"V2Y1N7","VERTICES":6},"geometry":{"type":"Point","coordinates":[-122.6545555,49.115308]}},{"type":"Feature","properties":{"ZIP":"V2Y1Z3","VERTICES":6},"geometry":{"type":"Point","coordinates":[-122.66920999999999,49.153784]}},{"type":"Feature","properties":{"ZIP":"V2Y1W5","VERTICES":6},"geometry":{"type":"Point","coordinates":[-122.6613805,49.140381500000004]}},{"type":"Feature","properties":{"ZIP":"V2Y1S8","VERTICES":6},"geometry":{"type":"Point","coordinates":[-122.65909450000001,49.13027]}},{"type":"Feature","properties":{"ZIP":"V2Y0J2","VERTICES":6},"geometry":{"type":"Point","coordinates":[-122.64581150000001,49.132346]}},{"type":"Feature","properties":{"ZIP":"V2Y2E5","VERTICES":6},"geometry":{"type":"Point","coordinates":[-122.640079,49.133885]}},{"type":"Feature","properties":{"ZIP":"V2Y2S3","VERTICES":6},"geometry":{"type":"Point","coordinates":[-122.624212,49.1323345]}},{"type":"Feature","properties":{"ZIP":"V2Y1W6","VERTICES":6},"geometry":{"type":"Point","coordinates":[-122.6569705,49.1418015]}},{"type":"Feature","properties":{"ZIP":"V2Y2B1","VERTICES":6},"geometry":{"type":"Point","coordinates":[-122.647494,49.1516315]}},{"type":"Feature","properties":{"ZIP":"V2Y2G8","VERTICES":6},"geometry":{"type":"Point","coordinates":[-122.562922,49.118718]}},{"type":"Feature","properties":{"ZIP":"V2Y2Z9","VERTICES":6},"geometry":{"type":"Point","coordinates":[-122.67795050000001,49.1320135]}},{"type":"Feature","properties":{"ZIP":"V2Y1G3","VERTICES":6},"geometry":{"type":"Point","coordinates":[-122.6707435,49.1252225]}},{"type":"Feature","properties":{"ZIP":"V2Y2P9","VERTICES":6},"geometry":{"type":"Point","coordinates":[-122.618397,49.126049]}},{"type":"Feature","properties":{"ZIP":"V2Y3H6","VERTICES":6},"geometry":{"type":"Point","coordinates":[-122.6733555,49.130187]}},{"type":"Feature","properties":{"ZIP":"V2Y1J1","VERTICES":6},"geometry":{"type":"Point","coordinates":[-122.67621600000001,49.121387999999996]}},{"type":"Feature","properties":{"ZIP":"V2Y1V4","VERTICES":6},"geometry":{"type":"Point","coordinates":[-122.6592245,49.1383065]}},{"type":"Feature","properties":{"ZIP":"V2Y1Z5","VERTICES":6},"geometry":{"type":"Point","coordinates":[-122.67454699999999,49.1589915]}},{"type":"Feature","properties":{"ZIP":"V2Y3C8","VERTICES":6},"geometry":{"type":"Point","coordinates":[-122.6541355,49.1260995]}},{"type":"Feature","properties":{"ZIP":"V2Y1W8","VERTICES":6},"geometry":{"type":"Point","coordinates":[-122.661371,49.142026]}},{"type":"Feature","properties":{"ZIP":"V2Y2B2","VERTICES":6},"geometry":{"type":"Point","coordinates":[-122.64570599999999,49.1530625]}},{"type":"Feature","properties":{"ZIP":"V2Y2G9","VERTICES":6},"geometry":{"type":"Point","coordinates":[-122.559075,49.1214995]}},{"type":"Feature","properties":{"ZIP":"V2Y2N3","VERTICES":6},"geometry":{"type":"Point","coordinates":[-122.62448499999999,49.0964075]}},{"type":"Feature","properties":{"ZIP":"V2Y3G2","VERTICES":6},"geometry":{"type":"Point","coordinates":[-122.66544400000001,49.1354195]}},{"type":"Feature","properties":{"ZIP":"V2Y0G1","VERTICES":6},"geometry":{"type":"Point","coordinates":[-122.6456945,49.128658]}},{"type":"Feature","properties":{"ZIP":"V2Y1M4","VERTICES":6},"geometry":{"type":"Point","coordinates":[-122.631073,49.1202435]}},{"type":"Feature","properties":{"ZIP":"V2Y2C5","VERTICES":6},"geometry":{"type":"Point","coordinates":[-122.636221,49.152608]}},{"type":"Feature","properties":{"ZIP":"V2Y2R1","VERTICES":6},"geometry":{"type":"Point","coordinates":[-122.6177215,49.131232]}},{"type":"Feature","properties":{"ZIP":"V2Y1P3","VERTICES":6},"geometry":{"type":"Point","coordinates":[-122.673055,49.122981499999995]}},{"type":"Feature","properties":{"ZIP":"V2Y1V5","VERTICES":6},"geometry":{"type":"Point","coordinates":[-122.65312750000001,49.138358499999995]}},{"type":"Feature","properties":{"ZIP":"V2Y2L9","VERTICES":6},"geometry":{"type":"Point","coordinates":[-122.6055225,49.107476500000004]}},{"type":"Feature","properties":{"ZIP":"V2Y3G3","VERTICES":6},"geometry":{"type":"Point","coordinates":[-122.664395,49.1348275]}},{"type":"Feature","properties":{"ZIP":"V2Y1G6","VERTICES":6},"geometry":{"type":"Point","coordinates":[-122.6707375,49.1248735]}},{"type":"Feature","properties":{"ZIP":"V2Y1Y4","VERTICES":6},"geometry":{"type":"Point","coordinates":[-122.6763155,49.149534]}},{"type":"Feature","properties":{"ZIP":"V2Y2C6","VERTICES":6},"geometry":{"type":"Point","coordinates":[-122.62856450000001,49.1521735]}},{"type":"Feature","properties":{"ZIP":"V2Y2K1","VERTICES":6},"geometry":{"type":"Point","coordinates":[-122.5861465,49.132121999999995]}},{"type":"Feature","properties":{"ZIP":"V2Y2R3","VERTICES":6},"geometry":{"type":"Point","coordinates":[-122.6285575,49.1284975]}},{"type":"Feature","properties":{"ZIP":"V2Y1K9","VERTICES":6},"geometry":{"type":"Point","coordinates":[-122.67362800000001,49.1168335]}},{"type":"Feature","properties":{"ZIP":"V2Y2C7","VERTICES":6},"geometry":{"type":"Point","coordinates":[-122.6241,49.147127499999996]}},{"type":"Feature","properties":{"ZIP":"V2Y0J6","VERTICES":5},"geometry":{"type":"Point","coordinates":[-122.647653,49.15498]}},{"type":"Feature","properties":{"ZIP":"V2Y2Z2","VERTICES":5},"geometry":{"type":"Point","coordinates":[-122.6599795,49.123348500000006]}},{"type":"Feature","properties":{"ZIP":"V2Y3E2","VERTICES":5},"geometry":{"type":"Point","coordinates":[-122.65267850000001,49.1255235]}},{"type":"Feature","properties":{"ZIP":"V2Y1X4","VERTICES":5},"geometry":{"type":"Point","coordinates":[-122.656902,49.1461685]}},{"type":"Feature","properties":{"ZIP":"V2Y1A7","VERTICES":5},"geometry":{"type":"Point","coordinates":[-122.67215949999999,49.114933]}},{"type":"Feature","properties":{"ZIP":"V2Y2C8","VERTICES":5},"geometry":{"type":"Point","coordinates":[-122.644386,49.147967]}},{"type":"Feature","properties":{"ZIP":"V2Y1B9","VERTICES":5},"geometry":{"type":"Point","coordinates":[-122.671187,49.122597]}},{"type":"Feature","properties":{"ZIP":"V2Y2G1","VERTICES":5},"geometry":{"type":"Point","coordinates":[-122.637654,49.142936]}},{"type":"Feature","properties":{"ZIP":"V2Y1X5","VERTICES":5},"geometry":{"type":"Point","coordinates":[-122.6596615,49.148134999999996]}},{"type":"Feature","properties":{"ZIP":"V2Y2B7","VERTICES":5},"geometry":{"type":"Point","coordinates":[-122.6583825,49.155548499999995]}},{"type":"Feature","properties":{"ZIP":"V2Y1H3","VERTICES":5},"geometry":{"type":"Point","coordinates":[-122.679169,49.119006999999996]}},{"type":"Feature","properties":{"ZIP":"V2Y1V9","VERTICES":5},"geometry":{"type":"Point","coordinates":[-122.6436505,49.141072]}},{"type":"Feature","properties":{"ZIP":"V2Y2T2","VERTICES":5},"geometry":{"type":"Point","coordinates":[-122.67686900000001,49.1182425]}},{"type":"Feature","properties":{"ZIP":"V2Y1S4","VERTICES":5},"geometry":{"type":"Point","coordinates":[-122.6681155,49.1445265]}},{"type":"Feature","properties":{"ZIP":"V2Y2B8","VERTICES":5},"geometry":{"type":"Point","coordinates":[-122.663572,49.155572]}},{"type":"Feature","properties":{"ZIP":"V2Y2N9","VERTICES":5},"geometry":{"type":"Point","coordinates":[-122.6243125,49.11911]}},{"type":"Feature","properties":{"ZIP":"V2Y0H5","VERTICES":5},"geometry":{"type":"Point","coordinates":[-122.63595649999999,49.1449985]}},{"type":"Feature","properties":{"ZIP":"V2Y1N2","VERTICES":5},"geometry":{"type":"Point","coordinates":[-122.66328899999999,49.116765]}},{"type":"Feature","properties":{"ZIP":"V2Y1T6","VERTICES":5},"geometry":{"type":"Point","coordinates":[-122.64654949999999,49.1347775]}},{"type":"Feature","properties":{"ZIP":"V2Y2B9","VERTICES":5},"geometry":{"type":"Point","coordinates":[-122.66794999999999,49.1579545]}},{"type":"Feature","properties":{"ZIP":"V2Y1N4","VERTICES":5},"geometry":{"type":"Point","coordinates":[-122.65829199999999,49.1214145]}},{"type":"Feature","properties":{"ZIP":"V2Y0M4","VERTICES":5},"geometry":{"type":"Point","coordinates":[-122.64266549999999,49.144325499999994]}},{"type":"Feature","properties":{"ZIP":"V2Y3A9","VERTICES":5},"geometry":{"type":"Point","coordinates":[-122.66857350000001,49.128344999999996]}},{"type":"Feature","properties":{"ZIP":"V2Y1B2","VERTICES":5},"geometry":{"type":"Point","coordinates":[-122.673069,49.123687000000004]}},{"type":"Feature","properties":{"ZIP":"V2Y1Z2","VERTICES":5},"geometry":{"type":"Point","coordinates":[-122.6735035,49.1537665]}},{"type":"Feature","properties":{"ZIP":"V2Y2E3","VERTICES":5},"geometry":{"type":"Point","coordinates":[-122.674612,49.117874]}},{"type":"Feature","properties":{"ZIP":"V2Y1W4","VERTICES":5},"geometry":{"type":"Point","coordinates":[-122.661381,49.140279500000005]}},{"type":"Feature","properties":{"ZIP":"V2Y2M8","VERTICES":5},"geometry":{"type":"Point","coordinates":[-122.615568,49.104345]}},{"type":"Feature","properties":{"ZIP":"V2Y3C6","VERTICES":5},"geometry":{"type":"Point","coordinates":[-122.671375,49.1298075]}},{"type":"Feature","properties":{"ZIP":"V2Y0K6","VERTICES":5},"geometry":{"type":"Point","coordinates":[-122.6359355,49.1438135]}},{"type":"Feature","properties":{"ZIP":"V2Y1R4","VERTICES":5},"geometry":{"type":"Point","coordinates":[-122.6709455,49.1296205]}},{"type":"Feature","properties":{"ZIP":"V2Y2G6","VERTICES":5},"geometry":{"type":"Point","coordinates":[-122.568828,49.117823]}},{"type":"Feature","properties":{"ZIP":"V2Y2C3","VERTICES":5},"geometry":{"type":"Point","coordinates":[-122.645689,49.149786500000005]}},{"type":"Feature","properties":{"ZIP":"V2Y2P7","VERTICES":5},"geometry":{"type":"Point","coordinates":[-122.624289,49.1222575]}},{"type":"Feature","properties":{"ZIP":"V2Y1N8","VERTICES":5},"geometry":{"type":"Point","coordinates":[-122.648868,49.1159895]}},{"type":"Feature","properties":{"ZIP":"V2Y1Y2","VERTICES":5},"geometry":{"type":"Point","coordinates":[-122.6252345,49.0981615]}},{"type":"Feature","properties":{"ZIP":"V2Y2E6","VERTICES":5},"geometry":{"type":"Point","coordinates":[-122.6441545,49.1429925]}},{"type":"Feature","properties":{"ZIP":"V2Y2S4","VERTICES":5},"geometry":{"type":"Point","coordinates":[-122.6241885,49.1354455]}},{"type":"Feature","properties":{"ZIP":"V2Y2Y8","VERTICES":5},"geometry":{"type":"Point","coordinates":[-122.65305599999999,49.1187855]}},{"type":"Feature","properties":{"ZIP":"V2Y1R6","VERTICES":5},"geometry":{"type":"Point","coordinates":[-122.6761185,49.132706]}},{"type":"Feature","properties":{"ZIP":"V2Y2V4","VERTICES":5},"geometry":{"type":"Point","coordinates":[-122.59977599999999,49.093924]}},{"type":"Feature","properties":{"ZIP":"V2Y1G5","VERTICES":5},"geometry":{"type":"Point","coordinates":[-122.671547,49.1254965]}},{"type":"Feature","properties":{"ZIP":"V2Y1Y3","VERTICES":5},"geometry":{"type":"Point","coordinates":[-122.672509,49.1489635]}},{"type":"Feature","properties":{"ZIP":"V2Y3B6","VERTICES":5},"geometry":{"type":"Point","coordinates":[-122.65560099999999,49.122577500000006]}},{"type":"Feature","properties":{"ZIP":"V2Y1Z6","VERTICES":5},"geometry":{"type":"Point","coordinates":[-122.66870349999999,49.159151]}},{"type":"Feature","properties":{"ZIP":"V2Y2B3","VERTICES":5},"geometry":{"type":"Point","coordinates":[-122.646849,49.156491]}},{"type":"Feature","properties":{"ZIP":"V2Y2N5","VERTICES":5},"geometry":{"type":"Point","coordinates":[-122.624465,49.106729]}},{"type":"Feature","properties":{"ZIP":"V2Y1A2","VERTICES":5},"geometry":{"type":"Point","coordinates":[-122.67306400000001,49.108717999999996]}},{"type":"Feature","properties":{"ZIP":"V2Y0J5","VERTICES":5},"geometry":{"type":"Point","coordinates":[-122.63668050000001,49.14879]}},{"type":"Feature","properties":{"ZIP":"V2Y2M1","VERTICES":5},"geometry":{"type":"Point","coordinates":[-122.60410250000001,49.109156]}},{"type":"Feature","properties":{"ZIP":"V2Y2W1","VERTICES":5},"geometry":{"type":"Point","coordinates":[-122.677979,49.1228515]}},{"type":"Feature","properties":{"ZIP":"V2Y3A4","VERTICES":5},"geometry":{"type":"Point","coordinates":[-122.6774335,49.132978]}},{"type":"Feature","properties":{"ZIP":"V2Y1A5","VERTICES":5},"geometry":{"type":"Point","coordinates":[-122.6790635,49.115016499999996]}},{"type":"Feature","properties":{"ZIP":"V2Y1Y6","VERTICES":5},"geometry":{"type":"Point","coordinates":[-122.672492,49.151118499999995]}},{"type":"Feature","properties":{"ZIP":"V2Y3H9","VERTICES":5},"geometry":{"type":"Point","coordinates":[-122.663159,49.1262235]}},{"type":"Feature","properties":{"ZIP":"V2Y0B3","VERTICES":4},"geometry":{"type":"Point","coordinates":[-122.6680165,49.160151]}},{"type":"Feature","properties":{"ZIP":"V2Y2T1","VERTICES":4},"geometry":{"type":"Point","coordinates":[-122.680722,49.11912]}},{"type":"Feature","properties":{"ZIP":"V2Y3E4","VERTICES":4},"geometry":{"type":"Point","coordinates":[-122.6517565,49.1226195]}},{"type":"Feature","properties":{"ZIP":"V2Y0L7","VERTICES":4},"geometry":{"type":"Point","coordinates":[-122.67415399999999,49.122889]}},{"type":"Feature","properties":{"ZIP":"V2Y2N8","VERTICES":4},"geometry":{"type":"Point","coordinates":[-122.60335699999999,49.118911499999996]}},{"type":"Feature","properties":{"ZIP":"V2Y1Y8","VERTICES":4},"geometry":{"type":"Point","coordinates":[-122.6690585,49.1519315]}},{"type":"Feature","properties":{"ZIP":"V2Y3C3","VERTICES":4},"geometry":{"type":"Point","coordinates":[-122.681951,49.1440715]}},{"type":"Feature","properties":{"ZIP":"V2Y0H6","VERTICES":4},"geometry":{"type":"Point","coordinates":[-122.64061699999999,49.1478615]}},{"type":"Feature","properties":{"ZIP":"V2Y1T8","VERTICES":4},"geometry":{"type":"Point","coordinates":[-122.6763365,49.148512]}},{"type":"Feature","properties":{"ZIP":"V2Y2K6","VERTICES":4},"geometry":{"type":"Point","coordinates":[-122.6081445,49.1334285]}},{"type":"Feature","properties":{"ZIP":"V2Y2R9","VERTICES":4},"geometry":{"type":"Point","coordinates":[-122.58403000000001,49.1335165]}},{"type":"Feature","properties":{"ZIP":"V2Y0K3","VERTICES":4},"geometry":{"type":"Point","coordinates":[-122.63628,49.148503500000004]}},{"type":"Feature","properties":{"ZIP":"V2Y0E1","VERTICES":4},"geometry":{"type":"Point","coordinates":[-122.67235149999999,49.1320745]}},{"type":"Feature","properties":{"ZIP":"V2Y1R3","VERTICES":4},"geometry":{"type":"Point","coordinates":[-122.67963,49.122226999999995]}},{"type":"Feature","properties":{"ZIP":"V2Y2X4","VERTICES":4},"geometry":{"type":"Point","coordinates":[-122.66558749999999,49.1197585]}},{"type":"Feature","properties":{"ZIP":"V2Y0E6","VERTICES":4},"geometry":{"type":"Point","coordinates":[-122.63435,49.15343]}},{"type":"Feature","properties":{"ZIP":"V2Y0N8","VERTICES":4},"geometry":{"type":"Point","coordinates":[-122.64789999999999,49.156751]}},{"type":"Feature","properties":{"ZIP":"V2Y1Y1","VERTICES":4},"geometry":{"type":"Point","coordinates":[-122.6057855,49.140432000000004]}},{"type":"Feature","properties":{"ZIP":"V2Y1V3","VERTICES":4},"geometry":{"type":"Point","coordinates":[-122.669794,49.148917]}},{"type":"Feature","properties":{"ZIP":"V2Y2Y7","VERTICES":4},"geometry":{"type":"Point","coordinates":[-122.65286,49.122788]}},{"type":"Feature","properties":{"ZIP":"V2Y2J8","VERTICES":4},"geometry":{"type":"Point","coordinates":[-122.58291600000001,49.130208999999994]}},{"type":"Feature","properties":{"ZIP":"V2Y3B5","VERTICES":4},"geometry":{"type":"Point","coordinates":[-122.660019,49.122118]}},{"type":"Feature","properties":{"ZIP":"V2Y2Y9","VERTICES":4},"geometry":{"type":"Point","coordinates":[-122.66500049999999,49.1293655]}},{"type":"Feature","properties":{"ZIP":"V2Y1E1","VERTICES":4},"geometry":{"type":"Point","coordinates":[-122.675704,49.124063]}},{"type":"Feature","properties":{"ZIP":"V2Y1K7","VERTICES":4},"geometry":{"type":"Point","coordinates":[-122.6768195,49.1202725]}},{"type":"Feature","properties":{"ZIP":"V2Y2Z1","VERTICES":4},"geometry":{"type":"Point","coordinates":[-122.6599785,49.123637]}},{"type":"Feature","properties":{"ZIP":"V2Y1M6","VERTICES":4},"geometry":{"type":"Point","coordinates":[-122.668644,49.122754]}},{"type":"Feature","properties":{"ZIP":"V2Y1M1","VERTICES":3},"geometry":{"type":"Point","coordinates":[-122.6329485,49.126153]}}]}