{"type":"FeatureCollection","features":[{"type":"Feature","properties":{"ZIP":"K1Z7R7","VERTICES":14},"geometry":{"type":"Point","coordinates":[-75.7274965,45.384913]}},{"type":"Feature","properties":{"ZIP":"K1Z7G3","VERTICES":14},"geometry":{"type":"Point","coordinates":[-75.7438855,45.38807]}},{"type":"Feature","properties":{"ZIP":"K1Z7W8","VERTICES":14},"geometry":{"type":"Point","coordinates":[-75.72646,45.383604]}},{"type":"Feature","properties":{"ZIP":"K1Z6E3","VERTICES":12},"geometry":{"type":"Point","coordinates":[-75.740949,45.387218000000004]}},{"type":"Feature","properties":{"ZIP":"K1Z8E8","VERTICES":12},"geometry":{"type":"Point","coordinates":[-75.731063,45.3773705]}},{"type":"Feature","properties":{"ZIP":"K1Z1E3","VERTICES":11},"geometry":{"type":"Point","coordinates":[-75.747438,45.3978645]}},{"type":"Feature","properties":{"ZIP":"K1Z7P2","VERTICES":11},"geometry":{"type":"Point","coordinates":[-75.7286575,45.385324]}},{"type":"Feature","properties":{"ZIP":"K1Z5V6","VERTICES":11},"geometry":{"type":"Point","coordinates":[-75.744879,45.391562]}},{"type":"Feature","properties":{"ZIP":"K1Z7V1","VERTICES":11},"geometry":{"type":"Point","coordinates":[-75.7270445,45.383701]}},{"type":"Feature","properties":{"ZIP":"K1Z5P7","VERTICES":10},"geometry":{"type":"Point","coordinates":[-75.74459999999999,45.3843315]}},{"type":"Feature","properties":{"ZIP":"K1Z7P3","VERTICES":10},"geometry":{"type":"Point","coordinates":[-75.7311395,45.384276]}},{"type":"Feature","properties":{"ZIP":"K1Z7P4","VERTICES":10},"geometry":{"type":"Point","coordinates":[-75.7290725,45.385301]}},{"type":"Feature","properties":{"ZIP":"K1Z8G4","VERTICES":10},"geometry":{"type":"Point","coordinates":[-75.72506,45.3788]}},{"type":"Feature","properties":{"ZIP":"K1Z1E7","VERTICES":10},"geometry":{"type":"Point","coordinates":[-75.75074649999999,45.398591499999995]}},{"type":"Feature","properties":{"ZIP":"K1Z7H1","VERTICES":10},"geometry":{"type":"Point","coordinates":[-75.747607,45.385702]}},{"type":"Feature","properties":{"ZIP":"K1Z8C2","VERTICES":10},"geometry":{"type":"Point","coordinates":[-75.7255625,45.380266500000005]}},{"type":"Feature","properties":{"ZIP":"K1Z1A6","VERTICES":10},"geometry":{"type":"Point","coordinates":[-75.755356,45.395859]}},{"type":"Feature","properties":{"ZIP":"K1Z8M8","VERTICES":10},"geometry":{"type":"Point","coordinates":[-75.7351685,45.376799]}},{"type":"Feature","properties":{"ZIP":"K1Z1G1","VERTICES":10},"geometry":{"type":"Point","coordinates":[-75.749675,45.398578]}},{"type":"Feature","properties":{"ZIP":"K1Z8C5","VERTICES":10},"geometry":{"type":"Point","coordinates":[-75.72949750000001,45.378797000000006]}},{"type":"Feature","properties":{"ZIP":"K1Z8B3","VERTICES":10},"geometry":{"type":"Point","coordinates":[-75.74010050000001,45.3756365]}},{"type":"Feature","properties":{"ZIP":"K1Z5K8","VERTICES":9},"geometry":{"type":"Point","coordinates":[-75.750359,45.389554000000004]}},{"type":"Feature","properties":{"ZIP":"K1Z7W9","VERTICES":9},"geometry":{"type":"Point","coordinates":[-75.72657749999999,45.383589]}},{"type":"Feature","properties":{"ZIP":"K1Z5N3","VERTICES":9},"geometry":{"type":"Point","coordinates":[-75.750721,45.395514500000004]}},{"type":"Feature","properties":{"ZIP":"K1Z7H7","VERTICES":9},"geometry":{"type":"Point","coordinates":[-75.7470965,45.384328999999994]}},{"type":"Feature","properties":{"ZIP":"K1Z5K9","VERTICES":9},"geometry":{"type":"Point","coordinates":[-75.749271,45.389069500000005]}},{"type":"Feature","properties":{"ZIP":"K1Z6E2","VERTICES":9},"geometry":{"type":"Point","coordinates":[-75.740898,45.387634]}},{"type":"Feature","properties":{"ZIP":"K1Z7X1","VERTICES":9},"geometry":{"type":"Point","coordinates":[-75.72996599999999,45.3818695]}},{"type":"Feature","properties":{"ZIP":"K1Z7M8","VERTICES":9},"geometry":{"type":"Point","coordinates":[-75.730453,45.3870615]}},{"type":"Feature","properties":{"ZIP":"K1Z7Y4","VERTICES":9},"geometry":{"type":"Point","coordinates":[-75.736366,45.3776575]}},{"type":"Feature","properties":{"ZIP":"K1Z5B2","VERTICES":9},"geometry":{"type":"Point","coordinates":[-75.7575735,45.397401]}},{"type":"Feature","properties":{"ZIP":"K1Z5M3","VERTICES":9},"geometry":{"type":"Point","coordinates":[-75.7517065,45.3949795]}},{"type":"Feature","properties":{"ZIP":"K1Z5X2","VERTICES":9},"geometry":{"type":"Point","coordinates":[-75.7433875,45.3899945]}},{"type":"Feature","properties":{"ZIP":"K1Z6J7","VERTICES":9},"geometry":{"type":"Point","coordinates":[-75.742483,45.395772]}},{"type":"Feature","properties":{"ZIP":"K1Z6E5","VERTICES":9},"geometry":{"type":"Point","coordinates":[-75.7401215,45.387693]}},{"type":"Feature","properties":{"ZIP":"K1Z7K7","VERTICES":9},"geometry":{"type":"Point","coordinates":[-75.7305285,45.387292]}},{"type":"Feature","properties":{"ZIP":"K1Z7Y7","VERTICES":9},"geometry":{"type":"Point","coordinates":[-75.7383365,45.3767595]}},{"type":"Feature","properties":{"ZIP":"K1Z7P6","VERTICES":9},"geometry":{"type":"Point","coordinates":[-75.735567,45.382985000000005]}},{"type":"Feature","properties":{"ZIP":"K1Z8G5","VERTICES":9},"geometry":{"type":"Point","coordinates":[-75.727554,45.377618999999996]}},{"type":"Feature","properties":{"ZIP":"K1Z1C5","VERTICES":9},"geometry":{"type":"Point","coordinates":[-75.750588,45.399747500000004]}},{"type":"Feature","properties":{"ZIP":"K1Z7S1","VERTICES":9},"geometry":{"type":"Point","coordinates":[-75.73504349999999,45.380784]}},{"type":"Feature","properties":{"ZIP":"K1Z8E4","VERTICES":9},"geometry":{"type":"Point","coordinates":[-75.725606,45.3793595]}},{"type":"Feature","properties":{"ZIP":"K1Z7W3","VERTICES":9},"geometry":{"type":"Point","coordinates":[-75.73943449999999,45.3780305]}},{"type":"Feature","properties":{"ZIP":"K1Z1E8","VERTICES":9},"geometry":{"type":"Point","coordinates":[-75.750784,45.3990665]}},{"type":"Feature","properties":{"ZIP":"K1Z7H2","VERTICES":9},"geometry":{"type":"Point","coordinates":[-75.7434435,45.385600999999994]}},{"type":"Feature","properties":{"ZIP":"K1Z7J5","VERTICES":9},"geometry":{"type":"Point","coordinates":[-75.74493799999999,45.3833735]}},{"type":"Feature","properties":{"ZIP":"K1Z7J6","VERTICES":9},"geometry":{"type":"Point","coordinates":[-75.745776,45.382863]}},{"type":"Feature","properties":{"ZIP":"K1Z6L8","VERTICES":9},"geometry":{"type":"Point","coordinates":[-75.728274,45.3819975]}},{"type":"Feature","properties":{"ZIP":"K1Z7S6","VERTICES":9},"geometry":{"type":"Point","coordinates":[-75.73994450000001,45.378687]}},{"type":"Feature","properties":{"ZIP":"K1Z5P2","VERTICES":9},"geometry":{"type":"Point","coordinates":[-75.74677750000001,45.387323499999994]}},{"type":"Feature","properties":{"ZIP":"K1Z7Z4","VERTICES":9},"geometry":{"type":"Point","coordinates":[-75.726568,45.3813175]}},{"type":"Feature","properties":{"ZIP":"K1Z8E7","VERTICES":9},"geometry":{"type":"Point","coordinates":[-75.730323,45.37737]}},{"type":"Feature","properties":{"ZIP":"K1Z6C8","VERTICES":9},"geometry":{"type":"Point","coordinates":[-75.74241599999999,45.390442500000006]}},{"type":"Feature","properties":{"ZIP":"K1Z7A9","VERTICES":9},"geometry":{"type":"Point","coordinates":[-75.7471045,45.3909525]}},{"type":"Feature","properties":{"ZIP":"K1Z7H5","VERTICES":9},"geometry":{"type":"Point","coordinates":[-75.74721650000001,45.3847375]}},{"type":"Feature","properties":{"ZIP":"K1Z6P6","VERTICES":9},"geometry":{"type":"Point","coordinates":[-75.722243,45.38055799999999]}},{"type":"Feature","properties":{"ZIP":"K1Z5P4","VERTICES":8},"geometry":{"type":"Point","coordinates":[-75.7457895,45.386773]}},{"type":"Feature","properties":{"ZIP":"K1Z5W6","VERTICES":8},"geometry":{"type":"Point","coordinates":[-75.74857800000001,45.399730500000004]}},{"type":"Feature","properties":{"ZIP":"K1Z7H6","VERTICES":8},"geometry":{"type":"Point","coordinates":[-75.7468235,45.383985]}},{"type":"Feature","properties":{"ZIP":"K1Z8K9","VERTICES":8},"geometry":{"type":"Point","coordinates":[-75.72880699999999,45.375686]}},{"type":"Feature","properties":{"ZIP":"K1Z8H2","VERTICES":8},"geometry":{"type":"Point","coordinates":[-75.7362205,45.374652]}},{"type":"Feature","properties":{"ZIP":"K1Z7M7","VERTICES":8},"geometry":{"type":"Point","coordinates":[-75.7293115,45.3873205]}},{"type":"Feature","properties":{"ZIP":"K1Z5J3","VERTICES":8},"geometry":{"type":"Point","coordinates":[-75.75069049999999,45.389331]}},{"type":"Feature","properties":{"ZIP":"K1Z8L1","VERTICES":8},"geometry":{"type":"Point","coordinates":[-75.73111499999999,45.374606]}},{"type":"Feature","properties":{"ZIP":"K1Z1B8","VERTICES":8},"geometry":{"type":"Point","coordinates":[-75.748986,45.401650000000004]}},{"type":"Feature","properties":{"ZIP":"K1Z8P3","VERTICES":8},"geometry":{"type":"Point","coordinates":[-75.73601400000001,45.375885]}},{"type":"Feature","properties":{"ZIP":"K1Z8C8","VERTICES":8},"geometry":{"type":"Point","coordinates":[-75.7375025,45.3758805]}},{"type":"Feature","properties":{"ZIP":"K1Z7H8","VERTICES":8},"geometry":{"type":"Point","coordinates":[-75.74234200000001,45.385442499999996]}},{"type":"Feature","properties":{"ZIP":"K1Z8P6","VERTICES":8},"geometry":{"type":"Point","coordinates":[-75.7491315,45.398877]}},{"type":"Feature","properties":{"ZIP":"K1Z7G7","VERTICES":8},"geometry":{"type":"Point","coordinates":[-75.748446,45.3862115]}},{"type":"Feature","properties":{"ZIP":"K1Z8C9","VERTICES":8},"geometry":{"type":"Point","coordinates":[-75.738314,45.375136499999996]}},{"type":"Feature","properties":{"ZIP":"K1Z7H9","VERTICES":8},"geometry":{"type":"Point","coordinates":[-75.742355,45.385052]}},{"type":"Feature","properties":{"ZIP":"K1Z8G3","VERTICES":8},"geometry":{"type":"Point","coordinates":[-75.724941,45.3789055]}},{"type":"Feature","properties":{"ZIP":"K1Z8H6","VERTICES":8},"geometry":{"type":"Point","coordinates":[-75.7341775,45.374837]}},{"type":"Feature","properties":{"ZIP":"K1Z5G5","VERTICES":8},"geometry":{"type":"Point","coordinates":[-75.74809350000001,45.382359]}},{"type":"Feature","properties":{"ZIP":"K1Z5N6","VERTICES":8},"geometry":{"type":"Point","coordinates":[-75.74961400000001,45.3931815]}},{"type":"Feature","properties":{"ZIP":"K1Z7G8","VERTICES":8},"geometry":{"type":"Point","coordinates":[-75.74780100000001,45.3860185]}},{"type":"Feature","properties":{"ZIP":"K1Z8K2","VERTICES":8},"geometry":{"type":"Point","coordinates":[-75.729312,45.376234]}},{"type":"Feature","properties":{"ZIP":"K1Z6N9","VERTICES":8},"geometry":{"type":"Point","coordinates":[-75.72292,45.3798415]}},{"type":"Feature","properties":{"ZIP":"K1Z7W1","VERTICES":8},"geometry":{"type":"Point","coordinates":[-75.73734300000001,45.3789615]}},{"type":"Feature","properties":{"ZIP":"K1Z5E1","VERTICES":8},"geometry":{"type":"Point","coordinates":[-75.7523285,45.390037500000005]}},{"type":"Feature","properties":{"ZIP":"K1Z5S6","VERTICES":8},"geometry":{"type":"Point","coordinates":[-75.7458135,45.391220000000004]}},{"type":"Feature","properties":{"ZIP":"K1Z6R2","VERTICES":8},"geometry":{"type":"Point","coordinates":[-75.756541,45.3989565]}},{"type":"Feature","properties":{"ZIP":"K1Z8H7","VERTICES":8},"geometry":{"type":"Point","coordinates":[-75.734531,45.374266]}},{"type":"Feature","properties":{"ZIP":"K1Z5G6","VERTICES":8},"geometry":{"type":"Point","coordinates":[-75.7476365,45.3822555]}},{"type":"Feature","properties":{"ZIP":"K1Z7G9","VERTICES":8},"geometry":{"type":"Point","coordinates":[-75.74754250000001,45.38539]}},{"type":"Feature","properties":{"ZIP":"K1Z8E3","VERTICES":8},"geometry":{"type":"Point","coordinates":[-75.72535500000001,45.379918]}},{"type":"Feature","properties":{"ZIP":"K1Z8K3","VERTICES":8},"geometry":{"type":"Point","coordinates":[-75.731507,45.375356]}},{"type":"Feature","properties":{"ZIP":"K1Z5P9","VERTICES":8},"geometry":{"type":"Point","coordinates":[-75.744157,45.3831685]}},{"type":"Feature","properties":{"ZIP":"K1Z5E2","VERTICES":8},"geometry":{"type":"Point","coordinates":[-75.75241299999999,45.389559500000004]}},{"type":"Feature","properties":{"ZIP":"K1Z5V9","VERTICES":8},"geometry":{"type":"Point","coordinates":[-75.7444635,45.3896465]}},{"type":"Feature","properties":{"ZIP":"K1Z7Y8","VERTICES":8},"geometry":{"type":"Point","coordinates":[-75.7403295,45.3758995]}},{"type":"Feature","properties":{"ZIP":"K1Z8K4","VERTICES":8},"geometry":{"type":"Point","coordinates":[-75.73123949999999,45.3749775]}},{"type":"Feature","properties":{"ZIP":"K1Z5X4","VERTICES":8},"geometry":{"type":"Point","coordinates":[-75.742966,45.388396]}},{"type":"Feature","properties":{"ZIP":"K1Z6X6","VERTICES":8},"geometry":{"type":"Point","coordinates":[-75.7530945,45.392258999999996]}},{"type":"Feature","properties":{"ZIP":"K1Z5E3","VERTICES":8},"geometry":{"type":"Point","coordinates":[-75.75153750000001,45.3878785]}},{"type":"Feature","properties":{"ZIP":"K1Z6R4","VERTICES":8},"geometry":{"type":"Point","coordinates":[-75.756192,45.398212]}},{"type":"Feature","properties":{"ZIP":"K1Z7X6","VERTICES":8},"geometry":{"type":"Point","coordinates":[-75.7370935,45.3786415]}},{"type":"Feature","properties":{"ZIP":"K1Z5X5","VERTICES":8},"geometry":{"type":"Point","coordinates":[-75.741551,45.387228]}},{"type":"Feature","properties":{"ZIP":"K1Z6C6","VERTICES":8},"geometry":{"type":"Point","coordinates":[-75.743067,45.3920615]}},{"type":"Feature","properties":{"ZIP":"K1Z7W4","VERTICES":8},"geometry":{"type":"Point","coordinates":[-75.7398105,45.3783765]}},{"type":"Feature","properties":{"ZIP":"K1Z8G7","VERTICES":8},"geometry":{"type":"Point","coordinates":[-75.7305515,45.376630500000005]}},{"type":"Feature","properties":{"ZIP":"K1Z5E4","VERTICES":8},"geometry":{"type":"Point","coordinates":[-75.7510585,45.38816]}},{"type":"Feature","properties":{"ZIP":"K1Z6R5","VERTICES":8},"geometry":{"type":"Point","coordinates":[-75.75389899999999,45.397963000000004]}},{"type":"Feature","properties":{"ZIP":"K1Z8C3","VERTICES":8},"geometry":{"type":"Point","coordinates":[-75.7257645,45.380630499999995]}},{"type":"Feature","properties":{"ZIP":"K1Z7H3","VERTICES":8},"geometry":{"type":"Point","coordinates":[-75.74346349999999,45.385986]}},{"type":"Feature","properties":{"ZIP":"K1Z7N5","VERTICES":8},"geometry":{"type":"Point","coordinates":[-75.728683,45.386288]}},{"type":"Feature","properties":{"ZIP":"K1Z7V2","VERTICES":8},"geometry":{"type":"Point","coordinates":[-75.728111,45.383553500000005]}},{"type":"Feature","properties":{"ZIP":"K1Z7Z3","VERTICES":8},"geometry":{"type":"Point","coordinates":[-75.7253135,45.3822995]}},{"type":"Feature","properties":{"ZIP":"K1Z5M8","VERTICES":8},"geometry":{"type":"Point","coordinates":[-75.749128,45.3899495]}},{"type":"Feature","properties":{"ZIP":"K1Z6A1","VERTICES":8},"geometry":{"type":"Point","coordinates":[-75.733053,45.3819995]}},{"type":"Feature","properties":{"ZIP":"K1Z8S3","VERTICES":8},"geometry":{"type":"Point","coordinates":[-75.743752,45.3845955]}},{"type":"Feature","properties":{"ZIP":"K1Z7W6","VERTICES":8},"geometry":{"type":"Point","coordinates":[-75.741479,45.3772915]}},{"type":"Feature","properties":{"ZIP":"K1Z8B2","VERTICES":8},"geometry":{"type":"Point","coordinates":[-75.738025,45.376532499999996]}},{"type":"Feature","properties":{"ZIP":"K1Z5E6","VERTICES":8},"geometry":{"type":"Point","coordinates":[-75.750076,45.386498]}},{"type":"Feature","properties":{"ZIP":"K1Z5M9","VERTICES":8},"geometry":{"type":"Point","coordinates":[-75.74860799999999,45.390075499999995]}},{"type":"Feature","properties":{"ZIP":"K1Z8S4","VERTICES":8},"geometry":{"type":"Point","coordinates":[-75.7436305,45.384643]}},{"type":"Feature","properties":{"ZIP":"K1Z7V4","VERTICES":8},"geometry":{"type":"Point","coordinates":[-75.729328,45.384287]}},{"type":"Feature","properties":{"ZIP":"K1Z1B6","VERTICES":8},"geometry":{"type":"Point","coordinates":[-75.752678,45.400208]}},{"type":"Feature","properties":{"ZIP":"K1Z8C6","VERTICES":8},"geometry":{"type":"Point","coordinates":[-75.730793,45.37807]}},{"type":"Feature","properties":{"ZIP":"K1Z5J2","VERTICES":7},"geometry":{"type":"Point","coordinates":[-75.75175250000001,45.3900395]}},{"type":"Feature","properties":{"ZIP":"K1Z7B1","VERTICES":7},"geometry":{"type":"Point","coordinates":[-75.74703600000001,45.390993]}},{"type":"Feature","properties":{"ZIP":"K1Z6E1","VERTICES":7},"geometry":{"type":"Point","coordinates":[-75.741737,45.38895]}},{"type":"Feature","properties":{"ZIP":"K1Z7J9","VERTICES":7},"geometry":{"type":"Point","coordinates":[-75.746544,45.381935]}},{"type":"Feature","properties":{"ZIP":"K1Z1E2","VERTICES":7},"geometry":{"type":"Point","coordinates":[-75.74802700000001,45.397737500000005]}},{"type":"Feature","properties":{"ZIP":"K1Z7G5","VERTICES":7},"geometry":{"type":"Point","coordinates":[-75.743301,45.387204]}},{"type":"Feature","properties":{"ZIP":"K1Z7T1","VERTICES":7},"geometry":{"type":"Point","coordinates":[-75.7435945,45.377668]}},{"type":"Feature","properties":{"ZIP":"K1Z7Y3","VERTICES":7},"geometry":{"type":"Point","coordinates":[-75.734511,45.3788885]}},{"type":"Feature","properties":{"ZIP":"K1Z8C7","VERTICES":7},"geometry":{"type":"Point","coordinates":[-75.7306885,45.3782355]}},{"type":"Feature","properties":{"ZIP":"K1Z8J8","VERTICES":7},"geometry":{"type":"Point","coordinates":[-75.72733550000001,45.377328]}},{"type":"Feature","properties":{"ZIP":"K1Z7P1","VERTICES":7},"geometry":{"type":"Point","coordinates":[-75.7283345,45.385804]}},{"type":"Feature","properties":{"ZIP":"K1Z7V6","VERTICES":7},"geometry":{"type":"Point","coordinates":[-75.7310215,45.3824645]}},{"type":"Feature","properties":{"ZIP":"K1Z8G1","VERTICES":7},"geometry":{"type":"Point","coordinates":[-75.73760300000001,45.374477]}},{"type":"Feature","properties":{"ZIP":"K1Z5N4","VERTICES":7},"geometry":{"type":"Point","coordinates":[-75.751069,45.395203499999994]}},{"type":"Feature","properties":{"ZIP":"K1Z6A6","VERTICES":7},"geometry":{"type":"Point","coordinates":[-75.73319699999999,45.37957]}},{"type":"Feature","properties":{"ZIP":"K1Z7T2","VERTICES":7},"geometry":{"type":"Point","coordinates":[-75.745715,45.376344]}},{"type":"Feature","properties":{"ZIP":"K1Z8J9","VERTICES":7},"geometry":{"type":"Point","coordinates":[-75.7269775,45.376993999999996]}},{"type":"Feature","properties":{"ZIP":"K1Z5P6","VERTICES":7},"geometry":{"type":"Point","coordinates":[-75.744652,45.3844355]}},{"type":"Feature","properties":{"ZIP":"K1Z6J5","VERTICES":7},"geometry":{"type":"Point","coordinates":[-75.7280205,45.376235]}},{"type":"Feature","properties":{"ZIP":"K1Z8A1","VERTICES":7},"geometry":{"type":"Point","coordinates":[-75.730018,45.380225]}},{"type":"Feature","properties":{"ZIP":"K1Z8L2","VERTICES":7},"geometry":{"type":"Point","coordinates":[-75.729828,45.374761]}},{"type":"Feature","properties":{"ZIP":"K1Z6P9","VERTICES":7},"geometry":{"type":"Point","coordinates":[-75.75682549999999,45.399684]}},{"type":"Feature","properties":{"ZIP":"K1Z7C9","VERTICES":7},"geometry":{"type":"Point","coordinates":[-75.74539150000001,45.3883195]}},{"type":"Feature","properties":{"ZIP":"K1Z8B6","VERTICES":7},"geometry":{"type":"Point","coordinates":[-75.7420695,45.374652]}},{"type":"Feature","properties":{"ZIP":"K1Z8H5","VERTICES":7},"geometry":{"type":"Point","coordinates":[-75.73614549999999,45.3742855]}},{"type":"Feature","properties":{"ZIP":"K1Z1E4","VERTICES":7},"geometry":{"type":"Point","coordinates":[-75.74774049999999,45.397831]}},{"type":"Feature","properties":{"ZIP":"K1Z6G9","VERTICES":7},"geometry":{"type":"Point","coordinates":[-75.74207200000001,45.392689000000004]}},{"type":"Feature","properties":{"ZIP":"K1Z7M9","VERTICES":7},"geometry":{"type":"Point","coordinates":[-75.7307455,45.386393999999996]}},{"type":"Feature","properties":{"ZIP":"K1Z7T4","VERTICES":7},"geometry":{"type":"Point","coordinates":[-75.7281155,45.387001999999995]}},{"type":"Feature","properties":{"ZIP":"K1Z7Y5","VERTICES":7},"geometry":{"type":"Point","coordinates":[-75.7361545,45.3781475]}},{"type":"Feature","properties":{"ZIP":"K1Z8K1","VERTICES":7},"geometry":{"type":"Point","coordinates":[-75.72894600000001,45.376016500000006]}},{"type":"Feature","properties":{"ZIP":"K1Z5X1","VERTICES":7},"geometry":{"type":"Point","coordinates":[-75.743796,45.389713]}},{"type":"Feature","properties":{"ZIP":"K1Z7V8","VERTICES":7},"geometry":{"type":"Point","coordinates":[-75.73460299999999,45.380196]}},{"type":"Feature","properties":{"ZIP":"K1Z8A2","VERTICES":7},"geometry":{"type":"Point","coordinates":[-75.7297745,45.379892]}},{"type":"Feature","properties":{"ZIP":"K1Z1C1","VERTICES":7},"geometry":{"type":"Point","coordinates":[-75.750315,45.399515]}},{"type":"Feature","properties":{"ZIP":"K1Z6L2","VERTICES":7},"geometry":{"type":"Point","coordinates":[-75.726564,45.378609]}},{"type":"Feature","properties":{"ZIP":"K1Z5V7","VERTICES":7},"geometry":{"type":"Point","coordinates":[-75.7454195,45.391354500000006]}},{"type":"Feature","properties":{"ZIP":"K1Z6T6","VERTICES":7},"geometry":{"type":"Point","coordinates":[-75.7537715,45.394683]}},{"type":"Feature","properties":{"ZIP":"K1Z7T5","VERTICES":7},"geometry":{"type":"Point","coordinates":[-75.727768,45.3872175]}},{"type":"Feature","properties":{"ZIP":"K1Z7Y6","VERTICES":7},"geometry":{"type":"Point","coordinates":[-75.7386815,45.37705750000001]}},{"type":"Feature","properties":{"ZIP":"K1Z8E1","VERTICES":7},"geometry":{"type":"Point","coordinates":[-75.7392175,45.3749875]}},{"type":"Feature","properties":{"ZIP":"K1Z6Y9","VERTICES":7},"geometry":{"type":"Point","coordinates":[-75.743409,45.3939245]}},{"type":"Feature","properties":{"ZIP":"K1Z8B8","VERTICES":7},"geometry":{"type":"Point","coordinates":[-75.7309775,45.3786655]}},{"type":"Feature","properties":{"ZIP":"K1Z1E6","VERTICES":7},"geometry":{"type":"Point","coordinates":[-75.7498815,45.3987765]}},{"type":"Feature","properties":{"ZIP":"K1Z5N7","VERTICES":7},"geometry":{"type":"Point","coordinates":[-75.74892750000001,45.3918825]}},{"type":"Feature","properties":{"ZIP":"K1Z7N2","VERTICES":7},"geometry":{"type":"Point","coordinates":[-75.73567700000001,45.383782499999995]}},{"type":"Feature","properties":{"ZIP":"K1Z7T8","VERTICES":7},"geometry":{"type":"Point","coordinates":[-75.7265805,45.38491]}},{"type":"Feature","properties":{"ZIP":"K1Z5B6","VERTICES":7},"geometry":{"type":"Point","coordinates":[-75.75652450000001,45.3958045]}},{"type":"Feature","properties":{"ZIP":"K1Z6J9","VERTICES":7},"geometry":{"type":"Point","coordinates":[-75.74106599999999,45.393896]}},{"type":"Feature","properties":{"ZIP":"K1Z6P2","VERTICES":7},"geometry":{"type":"Point","coordinates":[-75.726252,45.387445]}},{"type":"Feature","properties":{"ZIP":"K1Z7B8","VERTICES":7},"geometry":{"type":"Point","coordinates":[-75.744426,45.3902415]}},{"type":"Feature","properties":{"ZIP":"K1Z7J3","VERTICES":7},"geometry":{"type":"Point","coordinates":[-75.742366,45.384685000000005]}},{"type":"Feature","properties":{"ZIP":"K1Z8G6","VERTICES":7},"geometry":{"type":"Point","coordinates":[-75.727562,45.3778035]}},{"type":"Feature","properties":{"ZIP":"K1Z5M6","VERTICES":7},"geometry":{"type":"Point","coordinates":[-75.75042400000001,45.3925115]}},{"type":"Feature","properties":{"ZIP":"K1Z5Z7","VERTICES":7},"geometry":{"type":"Point","coordinates":[-75.732234,45.385296999999994]}},{"type":"Feature","properties":{"ZIP":"K1Z8J1","VERTICES":7},"geometry":{"type":"Point","coordinates":[-75.7336195,45.373937]}},{"type":"Feature","properties":{"ZIP":"K1Z5H4","VERTICES":7},"geometry":{"type":"Point","coordinates":[-75.75420600000001,45.3944065]}},{"type":"Feature","properties":{"ZIP":"K1Z5N9","VERTICES":7},"geometry":{"type":"Point","coordinates":[-75.748149,45.389792]}},{"type":"Feature","properties":{"ZIP":"K1Z7N4","VERTICES":7},"geometry":{"type":"Point","coordinates":[-75.7357425,45.3834475]}},{"type":"Feature","properties":{"ZIP":"K1Z8E5","VERTICES":7},"geometry":{"type":"Point","coordinates":[-75.728096,45.378754]}},{"type":"Feature","properties":{"ZIP":"K1Z5B7","VERTICES":7},"geometry":{"type":"Point","coordinates":[-75.756152,45.396054]}},{"type":"Feature","properties":{"ZIP":"K1Z7P9","VERTICES":7},"geometry":{"type":"Point","coordinates":[-75.7394865,45.380635999999996]}},{"type":"Feature","properties":{"ZIP":"K1Z8A9","VERTICES":7},"geometry":{"type":"Point","coordinates":[-75.7357885,45.3775005]}},{"type":"Feature","properties":{"ZIP":"K1Z5Z8","VERTICES":7},"geometry":{"type":"Point","coordinates":[-75.73282449999999,45.3836175]}},{"type":"Feature","properties":{"ZIP":"K1Z6E9","VERTICES":7},"geometry":{"type":"Point","coordinates":[-75.732433,45.3781345]}},{"type":"Feature","properties":{"ZIP":"K1Z7E9","VERTICES":7},"geometry":{"type":"Point","coordinates":[-75.7408795,45.388566999999995]}},{"type":"Feature","properties":{"ZIP":"K1Z7X7","VERTICES":7},"geometry":{"type":"Point","coordinates":[-75.7368515,45.378350999999995]}},{"type":"Feature","properties":{"ZIP":"K1Z8S2","VERTICES":7},"geometry":{"type":"Point","coordinates":[-75.7433225,45.3840625]}},{"type":"Feature","properties":{"ZIP":"K1Z5P1","VERTICES":7},"geometry":{"type":"Point","coordinates":[-75.7477715,45.390007]}},{"type":"Feature","properties":{"ZIP":"K1Z6B3","VERTICES":7},"geometry":{"type":"Point","coordinates":[-75.733128,45.3753695]}},{"type":"Feature","properties":{"ZIP":"K1Z6H8","VERTICES":7},"geometry":{"type":"Point","coordinates":[-75.726811,45.380540999999994]}},{"type":"Feature","properties":{"ZIP":"K1Z6M9","VERTICES":7},"geometry":{"type":"Point","coordinates":[-75.7268345,45.3875925]}},{"type":"Feature","properties":{"ZIP":"K1Z8K6","VERTICES":7},"geometry":{"type":"Point","coordinates":[-75.7257455,45.3766255]}},{"type":"Feature","properties":{"ZIP":"K1Z6X9","VERTICES":7},"geometry":{"type":"Point","coordinates":[-75.7457795,45.394986]}},{"type":"Feature","properties":{"ZIP":"K1Z7R1","VERTICES":7},"geometry":{"type":"Point","coordinates":[-75.734199,45.3821895]}},{"type":"Feature","properties":{"ZIP":"K1Z7W5","VERTICES":7},"geometry":{"type":"Point","coordinates":[-75.7417345,45.3775455]}},{"type":"Feature","properties":{"ZIP":"K1Z8B1","VERTICES":7},"geometry":{"type":"Point","coordinates":[-75.73771500000001,45.37638]}},{"type":"Feature","properties":{"ZIP":"K1Z8G8","VERTICES":7},"geometry":{"type":"Point","coordinates":[-75.729634,45.376639]}},{"type":"Feature","properties":{"ZIP":"K1Z7X8","VERTICES":7},"geometry":{"type":"Point","coordinates":[-75.7386195,45.377762000000004]}},{"type":"Feature","properties":{"ZIP":"K1Z8C4","VERTICES":7},"geometry":{"type":"Point","coordinates":[-75.7286935,45.379254]}},{"type":"Feature","properties":{"ZIP":"K1Z8K7","VERTICES":7},"geometry":{"type":"Point","coordinates":[-75.724769,45.3770965]}},{"type":"Feature","properties":{"ZIP":"K1Z8G9","VERTICES":7},"geometry":{"type":"Point","coordinates":[-75.732009,45.376007]}},{"type":"Feature","properties":{"ZIP":"K1Z1C9","VERTICES":7},"geometry":{"type":"Point","coordinates":[-75.74749750000001,45.3971965]}},{"type":"Feature","properties":{"ZIP":"K1Z7Y1","VERTICES":7},"geometry":{"type":"Point","coordinates":[-75.7411045,45.376948999999996]}},{"type":"Feature","properties":{"ZIP":"K1Z5W5","VERTICES":7},"geometry":{"type":"Point","coordinates":[-75.7490995,45.399587]}},{"type":"Feature","properties":{"ZIP":"K1Z6V8","VERTICES":7},"geometry":{"type":"Point","coordinates":[-75.7419365,45.397275]}},{"type":"Feature","properties":{"ZIP":"K1Z7N7","VERTICES":7},"geometry":{"type":"Point","coordinates":[-75.7307745,45.385903]}},{"type":"Feature","properties":{"ZIP":"K1Z8K8","VERTICES":7},"geometry":{"type":"Point","coordinates":[-75.7266635,45.376582]}},{"type":"Feature","properties":{"ZIP":"K1Z5Y3","VERTICES":7},"geometry":{"type":"Point","coordinates":[-75.737585,45.380654]}},{"type":"Feature","properties":{"ZIP":"K1Z6C9","VERTICES":7},"geometry":{"type":"Point","coordinates":[-75.74173,45.3900025]}},{"type":"Feature","properties":{"ZIP":"K1Z6K5","VERTICES":7},"geometry":{"type":"Point","coordinates":[-75.7292095,45.3799545]}},{"type":"Feature","properties":{"ZIP":"K1Z6Y2","VERTICES":7},"geometry":{"type":"Point","coordinates":[-75.74520949999999,45.3940635]}},{"type":"Feature","properties":{"ZIP":"K1Z8H1","VERTICES":7},"geometry":{"type":"Point","coordinates":[-75.73180550000001,45.375568]}},{"type":"Feature","properties":{"ZIP":"K1Z1E1","VERTICES":7},"geometry":{"type":"Point","coordinates":[-75.7465885,45.3977935]}},{"type":"Feature","properties":{"ZIP":"K1Z5N2","VERTICES":7},"geometry":{"type":"Point","coordinates":[-75.74716649999999,45.387275]}},{"type":"Feature","properties":{"ZIP":"K1Z6S2","VERTICES":7},"geometry":{"type":"Point","coordinates":[-75.74995949999999,45.401419000000004]}},{"type":"Feature","properties":{"ZIP":"K1Z7S9","VERTICES":7},"geometry":{"type":"Point","coordinates":[-75.74206899999999,45.3777615]}},{"type":"Feature","properties":{"ZIP":"K1Z5A2","VERTICES":6},"geometry":{"type":"Point","coordinates":[-75.7491155,45.377145]}},{"type":"Feature","properties":{"ZIP":"K1Z6N4","VERTICES":6},"geometry":{"type":"Point","coordinates":[-75.7243555,45.383301]}},{"type":"Feature","properties":{"ZIP":"K1Z7N8","VERTICES":6},"geometry":{"type":"Point","coordinates":[-75.7304475,45.385441]}},{"type":"Feature","properties":{"ZIP":"K1Z7V5","VERTICES":6},"geometry":{"type":"Point","coordinates":[-75.732077,45.381515]}},{"type":"Feature","properties":{"ZIP":"K1Z8E9","VERTICES":6},"geometry":{"type":"Point","coordinates":[-75.732073,45.3764585]}},{"type":"Feature","properties":{"ZIP":"K1Z1B7","VERTICES":6},"geometry":{"type":"Point","coordinates":[-75.6612585,45.3743155]}},{"type":"Feature","properties":{"ZIP":"K1Z5S2","VERTICES":6},"geometry":{"type":"Point","coordinates":[-75.746588,45.392613]}},{"type":"Feature","properties":{"ZIP":"K1Z5Y4","VERTICES":6},"geometry":{"type":"Point","coordinates":[-75.73785699999999,45.380636]}},{"type":"Feature","properties":{"ZIP":"K1Z6Y3","VERTICES":6},"geometry":{"type":"Point","coordinates":[-75.744913,45.3944175]}},{"type":"Feature","properties":{"ZIP":"K1Z7C5","VERTICES":6},"geometry":{"type":"Point","coordinates":[-75.7436625,45.3891025]}},{"type":"Feature","properties":{"ZIP":"K1Z8B4","VERTICES":6},"geometry":{"type":"Point","coordinates":[-75.73979700000001,45.3754005]}},{"type":"Feature","properties":{"ZIP":"K1Z6A5","VERTICES":6},"geometry":{"type":"Point","coordinates":[-75.7335065,45.3793555]}},{"type":"Feature","properties":{"ZIP":"K1Z6M2","VERTICES":6},"geometry":{"type":"Point","coordinates":[-75.727142,45.382058]}},{"type":"Feature","properties":{"ZIP":"K1Z6T1","VERTICES":6},"geometry":{"type":"Point","coordinates":[-75.75313750000001,45.3955165]}},{"type":"Feature","properties":{"ZIP":"K1Z6Z7","VERTICES":6},"geometry":{"type":"Point","coordinates":[-75.743142,45.3933485]}},{"type":"Feature","properties":{"ZIP":"K1Z5P5","VERTICES":6},"geometry":{"type":"Point","coordinates":[-75.745739,45.3857305]}},{"type":"Feature","properties":{"ZIP":"K1Z5W8","VERTICES":6},"geometry":{"type":"Point","coordinates":[-75.744135,45.391738000000004]}},{"type":"Feature","properties":{"ZIP":"K1Z6B9","VERTICES":6},"geometry":{"type":"Point","coordinates":[-75.744327,45.394754000000006]}},{"type":"Feature","properties":{"ZIP":"K1Z6J4","VERTICES":6},"geometry":{"type":"Point","coordinates":[-75.72765100000001,45.376324]}},{"type":"Feature","properties":{"ZIP":"K1Z6N5","VERTICES":6},"geometry":{"type":"Point","coordinates":[-75.7248845,45.382908]}},{"type":"Feature","properties":{"ZIP":"K1Z7B2","VERTICES":6},"geometry":{"type":"Point","coordinates":[-75.7437495,45.391692]}},{"type":"Feature","properties":{"ZIP":"K1Z6P8","VERTICES":6},"geometry":{"type":"Point","coordinates":[-75.75660049999999,45.399549]}},{"type":"Feature","properties":{"ZIP":"K1Z7C8","VERTICES":6},"geometry":{"type":"Point","coordinates":[-75.747045,45.388256]}},{"type":"Feature","properties":{"ZIP":"K1Z7K1","VERTICES":6},"geometry":{"type":"Point","coordinates":[-75.74302700000001,45.3864745]}},{"type":"Feature","properties":{"ZIP":"K1Z7R5","VERTICES":6},"geometry":{"type":"Point","coordinates":[-75.7255395,45.3853005]}},{"type":"Feature","properties":{"ZIP":"K1Z8H4","VERTICES":6},"geometry":{"type":"Point","coordinates":[-75.736867,45.374245]}},{"type":"Feature","properties":{"ZIP":"K1Z5V5","VERTICES":6},"geometry":{"type":"Point","coordinates":[-75.7456735,45.392887]}},{"type":"Feature","properties":{"ZIP":"K1Z6G8","VERTICES":6},"geometry":{"type":"Point","coordinates":[-75.7427265,45.3937805]}},{"type":"Feature","properties":{"ZIP":"K1Z6T4","VERTICES":6},"geometry":{"type":"Point","coordinates":[-75.747479,45.398877999999996]}},{"type":"Feature","properties":{"ZIP":"K1Z6Z8","VERTICES":6},"geometry":{"type":"Point","coordinates":[-75.742914,45.39297]}},{"type":"Feature","properties":{"ZIP":"K1Z7G6","VERTICES":6},"geometry":{"type":"Point","coordinates":[-75.743533,45.3874495]}},{"type":"Feature","properties":{"ZIP":"K1Z5J4","VERTICES":6},"geometry":{"type":"Point","coordinates":[-75.7505615,45.388277]}},{"type":"Feature","properties":{"ZIP":"K1Z8G2","VERTICES":6},"geometry":{"type":"Point","coordinates":[-75.73807550000001,45.374761]}},{"type":"Feature","properties":{"ZIP":"K1Z1B9","VERTICES":6},"geometry":{"type":"Point","coordinates":[-75.750249,45.399868]}},{"type":"Feature","properties":{"ZIP":"K1Z5C4","VERTICES":6},"geometry":{"type":"Point","coordinates":[-75.7543665,45.3930285]}},{"type":"Feature","properties":{"ZIP":"K1Z5S4","VERTICES":6},"geometry":{"type":"Point","coordinates":[-75.7468935,45.391849]}},{"type":"Feature","properties":{"ZIP":"K1Z6L1","VERTICES":6},"geometry":{"type":"Point","coordinates":[-75.726811,45.3786385]}},{"type":"Feature","properties":{"ZIP":"K1Z6Y6","VERTICES":6},"geometry":{"type":"Point","coordinates":[-75.743277,45.393995000000004]}},{"type":"Feature","properties":{"ZIP":"K1Z7K5","VERTICES":6},"geometry":{"type":"Point","coordinates":[-75.7322585,45.3868405]}},{"type":"Feature","properties":{"ZIP":"K1Z6M4","VERTICES":6},"geometry":{"type":"Point","coordinates":[-75.72627399999999,45.382422]}},{"type":"Feature","properties":{"ZIP":"K1Z6T5","VERTICES":6},"geometry":{"type":"Point","coordinates":[-75.7536015,45.3948945]}},{"type":"Feature","properties":{"ZIP":"K1Z6Z9","VERTICES":6},"geometry":{"type":"Point","coordinates":[-75.744798,45.393008]}},{"type":"Feature","properties":{"ZIP":"K1Z5J5","VERTICES":6},"geometry":{"type":"Point","coordinates":[-75.74941150000001,45.385253]}},{"type":"Feature","properties":{"ZIP":"K1Z6C2","VERTICES":6},"geometry":{"type":"Point","coordinates":[-75.7435535,45.3933325]}},{"type":"Feature","properties":{"ZIP":"K1Z6J6","VERTICES":6},"geometry":{"type":"Point","coordinates":[-75.74250599999999,45.395514000000006]}},{"type":"Feature","properties":{"ZIP":"K1Z6N7","VERTICES":6},"geometry":{"type":"Point","coordinates":[-75.723714,45.382054999999994]}},{"type":"Feature","properties":{"ZIP":"K1Z7B5","VERTICES":6},"geometry":{"type":"Point","coordinates":[-75.7413615,45.3915885]}},{"type":"Feature","properties":{"ZIP":"K1Z8L3","VERTICES":6},"geometry":{"type":"Point","coordinates":[-75.73395099999999,45.3731875]}},{"type":"Feature","properties":{"ZIP":"K1Z5S5","VERTICES":6},"geometry":{"type":"Point","coordinates":[-75.746366,45.391180500000004]}},{"type":"Feature","properties":{"ZIP":"K1Z5Z4","VERTICES":6},"geometry":{"type":"Point","coordinates":[-75.73227650000001,45.3855475]}},{"type":"Feature","properties":{"ZIP":"K1Z6R1","VERTICES":6},"geometry":{"type":"Point","coordinates":[-75.7561855,45.3986935]}},{"type":"Feature","properties":{"ZIP":"K1Z6Y8","VERTICES":6},"geometry":{"type":"Point","coordinates":[-75.7420545,45.3940965]}},{"type":"Feature","properties":{"ZIP":"K1Z7K6","VERTICES":6},"geometry":{"type":"Point","coordinates":[-75.7289075,45.3881415]}},{"type":"Feature","properties":{"ZIP":"K1Z8B7","VERTICES":6},"geometry":{"type":"Point","coordinates":[-75.73120349999999,45.3790385]}},{"type":"Feature","properties":{"ZIP":"K1Z6M5","VERTICES":6},"geometry":{"type":"Point","coordinates":[-75.726584,45.382183]}},{"type":"Feature","properties":{"ZIP":"K1Z7N1","VERTICES":6},"geometry":{"type":"Point","coordinates":[-75.7338735,45.384761]}},{"type":"Feature","properties":{"ZIP":"K1Z6X3","VERTICES":6},"geometry":{"type":"Point","coordinates":[-75.75194049999999,45.393099]}},{"type":"Feature","properties":{"ZIP":"K1Z7B6","VERTICES":6},"geometry":{"type":"Point","coordinates":[-75.7394195,45.392632]}},{"type":"Feature","properties":{"ZIP":"K1Z8A4","VERTICES":6},"geometry":{"type":"Point","coordinates":[-75.7313215,45.379242500000004]}},{"type":"Feature","properties":{"ZIP":"K1Z1C3","VERTICES":6},"geometry":{"type":"Point","coordinates":[-75.75162499999999,45.3981865]}},{"type":"Feature","properties":{"ZIP":"K1Z5M4","VERTICES":6},"geometry":{"type":"Point","coordinates":[-75.7517355,45.3946215]}},{"type":"Feature","properties":{"ZIP":"K1Z7X4","VERTICES":6},"geometry":{"type":"Point","coordinates":[-75.73476500000001,45.379615]}},{"type":"Feature","properties":{"ZIP":"K1Z5V8","VERTICES":6},"geometry":{"type":"Point","coordinates":[-75.745101,45.389525500000005]}},{"type":"Feature","properties":{"ZIP":"K1Z6A9","VERTICES":6},"geometry":{"type":"Point","coordinates":[-75.7327805,45.377903]}},{"type":"Feature","properties":{"ZIP":"K1Z6H2","VERTICES":6},"geometry":{"type":"Point","coordinates":[-75.7351015,45.384744999999995]}},{"type":"Feature","properties":{"ZIP":"K1Z6M6","VERTICES":6},"geometry":{"type":"Point","coordinates":[-75.7234195,45.37978699999999]}},{"type":"Feature","properties":{"ZIP":"K1Z6V1","VERTICES":6},"geometry":{"type":"Point","coordinates":[-75.753018,45.394059]}},{"type":"Feature","properties":{"ZIP":"K1Z7T6","VERTICES":6},"geometry":{"type":"Point","coordinates":[-75.727301,45.385732000000004]}},{"type":"Feature","properties":{"ZIP":"K1Z5B4","VERTICES":6},"geometry":{"type":"Point","coordinates":[-75.75747000000001,45.398069]}},{"type":"Feature","properties":{"ZIP":"K1Z5J7","VERTICES":6},"geometry":{"type":"Point","coordinates":[-75.748921,45.387001999999995]}},{"type":"Feature","properties":{"ZIP":"K1Z6C4","VERTICES":6},"geometry":{"type":"Point","coordinates":[-75.7439265,45.392642499999994]}},{"type":"Feature","properties":{"ZIP":"K1Z7J2","VERTICES":6},"geometry":{"type":"Point","coordinates":[-75.74692,45.383443]}},{"type":"Feature","properties":{"ZIP":"K1Z7W2","VERTICES":6},"geometry":{"type":"Point","coordinates":[-75.7378335,45.3792315]}},{"type":"Feature","properties":{"ZIP":"K1Z5M5","VERTICES":6},"geometry":{"type":"Point","coordinates":[-75.75061,45.392621000000005]}},{"type":"Feature","properties":{"ZIP":"K1Z5S7","VERTICES":6},"geometry":{"type":"Point","coordinates":[-75.7458005,45.390476]}},{"type":"Feature","properties":{"ZIP":"K1Z5Z6","VERTICES":6},"geometry":{"type":"Point","coordinates":[-75.7323665,45.384495]}},{"type":"Feature","properties":{"ZIP":"K1Z6E6","VERTICES":6},"geometry":{"type":"Point","coordinates":[-75.73953599999999,45.387718]}},{"type":"Feature","properties":{"ZIP":"K1Z6R3","VERTICES":6},"geometry":{"type":"Point","coordinates":[-75.755967,45.397874]}},{"type":"Feature","properties":{"ZIP":"K1Z6Z1","VERTICES":6},"geometry":{"type":"Point","coordinates":[-75.7450235,45.393260999999995]}},{"type":"Feature","properties":{"ZIP":"K1Z7E4","VERTICES":6},"geometry":{"type":"Point","coordinates":[-75.74794700000001,45.3876485]}},{"type":"Feature","properties":{"ZIP":"K1Z8H9","VERTICES":6},"geometry":{"type":"Point","coordinates":[-75.7341835,45.3735305]}},{"type":"Feature","properties":{"ZIP":"K1Z5N8","VERTICES":6},"geometry":{"type":"Point","coordinates":[-75.74840499999999,45.3915645]}},{"type":"Feature","properties":{"ZIP":"K1Z6V2","VERTICES":6},"geometry":{"type":"Point","coordinates":[-75.7530965,45.394225500000005]}},{"type":"Feature","properties":{"ZIP":"K1Z7N3","VERTICES":6},"geometry":{"type":"Point","coordinates":[-75.73726400000001,45.38292]}},{"type":"Feature","properties":{"ZIP":"K1Z5J8","VERTICES":6},"geometry":{"type":"Point","coordinates":[-75.74867,45.3866655]}},{"type":"Feature","properties":{"ZIP":"K1Z8A8","VERTICES":6},"geometry":{"type":"Point","coordinates":[-75.73562899999999,45.3770565]}},{"type":"Feature","properties":{"ZIP":"K1Z6L6","VERTICES":6},"geometry":{"type":"Point","coordinates":[-75.72946400000001,45.384158]}},{"type":"Feature","properties":{"ZIP":"K1Z7E6","VERTICES":6},"geometry":{"type":"Point","coordinates":[-75.74899450000001,45.3875735]}},{"type":"Feature","properties":{"ZIP":"K1Z7S2","VERTICES":6},"geometry":{"type":"Point","coordinates":[-75.7360585,45.380877]}},{"type":"Feature","properties":{"ZIP":"K1Z6M8","VERTICES":6},"geometry":{"type":"Point","coordinates":[-75.723564,45.3790655]}},{"type":"Feature","properties":{"ZIP":"K1Z7A6","VERTICES":6},"geometry":{"type":"Point","coordinates":[-75.7503135,45.3912445]}},{"type":"Feature","properties":{"ZIP":"K1Z7Y9","VERTICES":6},"geometry":{"type":"Point","coordinates":[-75.742209,45.375203]}},{"type":"Feature","properties":{"ZIP":"K1Z8K5","VERTICES":6},"geometry":{"type":"Point","coordinates":[-75.7237615,45.377915]}},{"type":"Feature","properties":{"ZIP":"K1Z5K3","VERTICES":6},"geometry":{"type":"Point","coordinates":[-75.739905,45.37481]}},{"type":"Feature","properties":{"ZIP":"K1Z7B9","VERTICES":6},"geometry":{"type":"Point","coordinates":[-75.74562549999999,45.389772]}},{"type":"Feature","properties":{"ZIP":"K1Z1C7","VERTICES":6},"geometry":{"type":"Point","coordinates":[-75.747197,45.397493]}},{"type":"Feature","properties":{"ZIP":"K1Z5T9","VERTICES":6},"geometry":{"type":"Point","coordinates":[-75.7492615,45.396823999999995]}},{"type":"Feature","properties":{"ZIP":"K1Z6L7","VERTICES":6},"geometry":{"type":"Point","coordinates":[-75.729691,45.38387]}},{"type":"Feature","properties":{"ZIP":"K1Z7S5","VERTICES":6},"geometry":{"type":"Point","coordinates":[-75.73799149999999,45.379528500000006]}},{"type":"Feature","properties":{"ZIP":"K1Z8J4","VERTICES":6},"geometry":{"type":"Point","coordinates":[-75.722076,45.3790295]}},{"type":"Feature","properties":{"ZIP":"K1Z5H7","VERTICES":6},"geometry":{"type":"Point","coordinates":[-75.753686,45.3933205]}},{"type":"Feature","properties":{"ZIP":"K1Z5W2","VERTICES":6},"geometry":{"type":"Point","coordinates":[-75.75101,45.4010695]}},{"type":"Feature","properties":{"ZIP":"K1Z6V5","VERTICES":6},"geometry":{"type":"Point","coordinates":[-75.744189,45.3973995]}},{"type":"Feature","properties":{"ZIP":"K1Z7A7","VERTICES":6},"geometry":{"type":"Point","coordinates":[-75.7445855,45.392242499999995]}},{"type":"Feature","properties":{"ZIP":"K1Z8E6","VERTICES":6},"geometry":{"type":"Point","coordinates":[-75.727855,45.378434]}},{"type":"Feature","properties":{"ZIP":"K1Z5B8","VERTICES":6},"geometry":{"type":"Point","coordinates":[-75.754649,45.394020499999996]}},{"type":"Feature","properties":{"ZIP":"K1Z5Y1","VERTICES":6},"geometry":{"type":"Point","coordinates":[-75.7386765,45.382383000000004]}},{"type":"Feature","properties":{"ZIP":"K1Z6K2","VERTICES":6},"geometry":{"type":"Point","coordinates":[-75.72976349999999,45.380724]}},{"type":"Feature","properties":{"ZIP":"K1Z6P4","VERTICES":6},"geometry":{"type":"Point","coordinates":[-75.7244015,45.3842165]}},{"type":"Feature","properties":{"ZIP":"K1Z7C1","VERTICES":6},"geometry":{"type":"Point","coordinates":[-75.74580499999999,45.389997]}},{"type":"Feature","properties":{"ZIP":"K1Z5E5","VERTICES":6},"geometry":{"type":"Point","coordinates":[-75.75064900000001,45.3864135]}},{"type":"Feature","properties":{"ZIP":"K1Z5V1","VERTICES":6},"geometry":{"type":"Point","coordinates":[-75.7484585,45.3967095]}},{"type":"Feature","properties":{"ZIP":"K1Z6R6","VERTICES":6},"geometry":{"type":"Point","coordinates":[-75.755679,45.39756]}},{"type":"Feature","properties":{"ZIP":"K1Z8J5","VERTICES":6},"geometry":{"type":"Point","coordinates":[-75.722519,45.379106]}},{"type":"Feature","properties":{"ZIP":"K1Z5W3","VERTICES":6},"geometry":{"type":"Point","coordinates":[-75.7497285,45.399936]}},{"type":"Feature","properties":{"ZIP":"K1Z6N1","VERTICES":6},"geometry":{"type":"Point","coordinates":[-75.7274185,45.387354]}},{"type":"Feature","properties":{"ZIP":"K1Z7H4","VERTICES":6},"geometry":{"type":"Point","coordinates":[-75.747171,45.3851265]}},{"type":"Feature","properties":{"ZIP":"K1Z7N6","VERTICES":6},"geometry":{"type":"Point","coordinates":[-75.72876099999999,45.386728500000004]}},{"type":"Feature","properties":{"ZIP":"K1Z7V3","VERTICES":6},"geometry":{"type":"Point","coordinates":[-75.728692,45.382743500000004]}},{"type":"Feature","properties":{"ZIP":"K1Z5B9","VERTICES":6},"geometry":{"type":"Point","coordinates":[-75.75537,45.3945845]}},{"type":"Feature","properties":{"ZIP":"K1Z5K5","VERTICES":6},"geometry":{"type":"Point","coordinates":[-75.75116700000001,45.3922865]}},{"type":"Feature","properties":{"ZIP":"K1Z5R9","VERTICES":6},"geometry":{"type":"Point","coordinates":[-75.7457015,45.389089]}},{"type":"Feature","properties":{"ZIP":"K1Z5Y2","VERTICES":6},"geometry":{"type":"Point","coordinates":[-75.73886999999999,45.382352]}},{"type":"Feature","properties":{"ZIP":"K1Z6P5","VERTICES":6},"geometry":{"type":"Point","coordinates":[-75.7231625,45.382133499999995]}},{"type":"Feature","properties":{"ZIP":"K1Z7C3","VERTICES":6},"geometry":{"type":"Point","coordinates":[-75.7424455,45.389618999999996]}},{"type":"Feature","properties":{"ZIP":"K1Z7J7","VERTICES":6},"geometry":{"type":"Point","coordinates":[-75.7466405,45.3828605]}},{"type":"Feature","properties":{"ZIP":"K1Z7R2","VERTICES":6},"geometry":{"type":"Point","coordinates":[-75.734431,45.382487]}},{"type":"Feature","properties":{"ZIP":"K1Z5V2","VERTICES":6},"geometry":{"type":"Point","coordinates":[-75.7478285,45.3957405]}},{"type":"Feature","properties":{"ZIP":"K1Z6A3","VERTICES":6},"geometry":{"type":"Point","coordinates":[-75.73301649999999,45.3815925]}},{"type":"Feature","properties":{"ZIP":"K1Z6G2","VERTICES":6},"geometry":{"type":"Point","coordinates":[-75.7311435,45.3767155]}},{"type":"Feature","properties":{"ZIP":"K1Z6L9","VERTICES":6},"geometry":{"type":"Point","coordinates":[-75.7282895,45.381238499999995]}},{"type":"Feature","properties":{"ZIP":"K1Z6Z5","VERTICES":6},"geometry":{"type":"Point","coordinates":[-75.75157300000001,45.391216]}},{"type":"Feature","properties":{"ZIP":"K1Z8J6","VERTICES":6},"geometry":{"type":"Point","coordinates":[-75.725426,45.3780335]}},{"type":"Feature","properties":{"ZIP":"K1Z5P3","VERTICES":6},"geometry":{"type":"Point","coordinates":[-75.74626549999999,45.3864755]}},{"type":"Feature","properties":{"ZIP":"K1Z6B5","VERTICES":6},"geometry":{"type":"Point","coordinates":[-75.732828,45.374249500000005]}},{"type":"Feature","properties":{"ZIP":"K1Z5K6","VERTICES":6},"geometry":{"type":"Point","coordinates":[-75.7509885,45.392424500000004]}},{"type":"Feature","properties":{"ZIP":"K1Z5S1","VERTICES":6},"geometry":{"type":"Point","coordinates":[-75.74604149999999,45.3889485]}},{"type":"Feature","properties":{"ZIP":"K1Z7J8","VERTICES":6},"geometry":{"type":"Point","coordinates":[-75.74646050000001,45.3816245]}},{"type":"Feature","properties":{"ZIP":"K1Z7R3","VERTICES":6},"geometry":{"type":"Point","coordinates":[-75.7361365,45.3815395]}},{"type":"Feature","properties":{"ZIP":"K1Z8N8","VERTICES":6},"geometry":{"type":"Point","coordinates":[-75.70601049999999,45.3984595]}},{"type":"Feature","properties":{"ZIP":"K1Z5E8","VERTICES":6},"geometry":{"type":"Point","coordinates":[-75.749792,45.384909]}},{"type":"Feature","properties":{"ZIP":"K1Z5V3","VERTICES":6},"geometry":{"type":"Point","coordinates":[-75.748221,45.395419000000004]}},{"type":"Feature","properties":{"ZIP":"K1Z6M1","VERTICES":6},"geometry":{"type":"Point","coordinates":[-75.7244735,45.3776975]}},{"type":"Feature","properties":{"ZIP":"K1Z6Z6","VERTICES":6},"geometry":{"type":"Point","coordinates":[-75.7526055,45.390994500000005]}},{"type":"Feature","properties":{"ZIP":"K1Z7G4","VERTICES":6},"geometry":{"type":"Point","coordinates":[-75.74383800000001,45.388339]}},{"type":"Feature","properties":{"ZIP":"K1Z7M4","VERTICES":6},"geometry":{"type":"Point","coordinates":[-75.7594575,45.374874]}},{"type":"Feature","properties":{"ZIP":"K1Z7Y2","VERTICES":6},"geometry":{"type":"Point","coordinates":[-75.734312,45.3785015]}},{"type":"Feature","properties":{"ZIP":"K1Z8J7","VERTICES":6},"geometry":{"type":"Point","coordinates":[-75.72521950000001,45.377779000000004]}},{"type":"Feature","properties":{"ZIP":"K1Z6B6","VERTICES":5},"geometry":{"type":"Point","coordinates":[-75.7327895,45.373949499999995]}},{"type":"Feature","properties":{"ZIP":"K1Z6J3","VERTICES":5},"geometry":{"type":"Point","coordinates":[-75.728535,45.3768685]}},{"type":"Feature","properties":{"ZIP":"K1Z6W4","VERTICES":5},"geometry":{"type":"Point","coordinates":[-75.748413,45.3947085]}},{"type":"Feature","properties":{"ZIP":"K1Z7Z6","VERTICES":5},"geometry":{"type":"Point","coordinates":[-75.727519,45.3813885]}},{"type":"Feature","properties":{"ZIP":"K1Z5C2","VERTICES":5},"geometry":{"type":"Point","coordinates":[-75.75530549999999,45.394211999999996]}},{"type":"Feature","properties":{"ZIP":"K1Z6K6","VERTICES":5},"geometry":{"type":"Point","coordinates":[-75.72883250000001,45.38127]}},{"type":"Feature","properties":{"ZIP":"K1Z6P7","VERTICES":5},"geometry":{"type":"Point","coordinates":[-75.7217755,45.3786465]}},{"type":"Feature","properties":{"ZIP":"K1Z7R4","VERTICES":5},"geometry":{"type":"Point","coordinates":[-75.736433,45.381606500000004]}},{"type":"Feature","properties":{"ZIP":"K1Z8P2","VERTICES":5},"geometry":{"type":"Point","coordinates":[-75.73300449999999,45.372485999999995]}},{"type":"Feature","properties":{"ZIP":"K1Z5E9","VERTICES":5},"geometry":{"type":"Point","coordinates":[-75.74900600000001,45.384766]}},{"type":"Feature","properties":{"ZIP":"K1Z5V4","VERTICES":5},"geometry":{"type":"Point","coordinates":[-75.74623,45.392720999999995]}},{"type":"Feature","properties":{"ZIP":"K1Z6G7","VERTICES":5},"geometry":{"type":"Point","coordinates":[-75.745218,45.3977055]}},{"type":"Feature","properties":{"ZIP":"K1Z5A5","VERTICES":5},"geometry":{"type":"Point","coordinates":[-75.747974,45.375184000000004]}},{"type":"Feature","properties":{"ZIP":"K1Z6W6","VERTICES":5},"geometry":{"type":"Point","coordinates":[-75.7485165,45.394566499999996]}},{"type":"Feature","properties":{"ZIP":"K1Z7Z9","VERTICES":5},"geometry":{"type":"Point","coordinates":[-75.729236,45.380634]}},{"type":"Feature","properties":{"ZIP":"K1Z5C3","VERTICES":5},"geometry":{"type":"Point","coordinates":[-75.75506050000001,45.393862999999996]}},{"type":"Feature","properties":{"ZIP":"K1Z5S3","VERTICES":5},"geometry":{"type":"Point","coordinates":[-75.747186,45.392518]}},{"type":"Feature","properties":{"ZIP":"K1Z5Y5","VERTICES":5},"geometry":{"type":"Point","coordinates":[-75.737315,45.379658]}},{"type":"Feature","properties":{"ZIP":"K1Z6K7","VERTICES":5},"geometry":{"type":"Point","coordinates":[-75.728181,45.37993]}},{"type":"Feature","properties":{"ZIP":"K1Z6Y4","VERTICES":5},"geometry":{"type":"Point","coordinates":[-75.75252649999999,45.3917225]}},{"type":"Feature","properties":{"ZIP":"K1Z8B5","VERTICES":5},"geometry":{"type":"Point","coordinates":[-75.741478,45.3746745]}},{"type":"Feature","properties":{"ZIP":"K1Z5G1","VERTICES":5},"geometry":{"type":"Point","coordinates":[-75.749145,45.3838375]}},{"type":"Feature","properties":{"ZIP":"K1Z6M3","VERTICES":5},"geometry":{"type":"Point","coordinates":[-75.7276645,45.381819]}},{"type":"Feature","properties":{"ZIP":"K1Z5A6","VERTICES":5},"geometry":{"type":"Point","coordinates":[-75.7474005,45.3745405]}},{"type":"Feature","properties":{"ZIP":"K1Z5W9","VERTICES":5},"geometry":{"type":"Point","coordinates":[-75.7440115,45.39109]}},{"type":"Feature","properties":{"ZIP":"K1Z6C1","VERTICES":5},"geometry":{"type":"Point","coordinates":[-75.745676,45.395376]}},{"type":"Feature","properties":{"ZIP":"K1Z6N6","VERTICES":5},"geometry":{"type":"Point","coordinates":[-75.724383,45.381879]}},{"type":"Feature","properties":{"ZIP":"K1Z6X1","VERTICES":5},"geometry":{"type":"Point","coordinates":[-75.7505525,45.393747000000005]}},{"type":"Feature","properties":{"ZIP":"K1Z7B3","VERTICES":5},"geometry":{"type":"Point","coordinates":[-75.743712,45.391307499999996]}},{"type":"Feature","properties":{"ZIP":"K1Z7V7","VERTICES":5},"geometry":{"type":"Point","coordinates":[-75.73496349999999,45.3805045]}},{"type":"Feature","properties":{"ZIP":"K1Z5L1","VERTICES":5},"geometry":{"type":"Point","coordinates":[-75.748115,45.3871925]}},{"type":"Feature","properties":{"ZIP":"K1Z5Y7","VERTICES":5},"geometry":{"type":"Point","coordinates":[-75.736436,45.3791465]}},{"type":"Feature","properties":{"ZIP":"K1Z7R6","VERTICES":5},"geometry":{"type":"Point","coordinates":[-75.7260885,45.385729999999995]}},{"type":"Feature","properties":{"ZIP":"K1Z5G4","VERTICES":5},"geometry":{"type":"Point","coordinates":[-75.747791,45.382741]}},{"type":"Feature","properties":{"ZIP":"K1Z5N5","VERTICES":5},"geometry":{"type":"Point","coordinates":[-75.749353,45.3925925]}},{"type":"Feature","properties":{"ZIP":"K1Z6A7","VERTICES":5},"geometry":{"type":"Point","coordinates":[-75.73348200000001,45.3786655]}},{"type":"Feature","properties":{"ZIP":"K1Z6X2","VERTICES":5},"geometry":{"type":"Point","coordinates":[-75.7510035,45.3931955]}},{"type":"Feature","properties":{"ZIP":"K1Z5C7","VERTICES":5},"geometry":{"type":"Point","coordinates":[-75.753445,45.391802999999996]}},{"type":"Feature","properties":{"ZIP":"K1Z6E4","VERTICES":5},"geometry":{"type":"Point","coordinates":[-75.73732,45.381204499999996]}},{"type":"Feature","properties":{"ZIP":"K1Z7E1","VERTICES":5},"geometry":{"type":"Point","coordinates":[-75.7463885,45.388432]}},{"type":"Feature","properties":{"ZIP":"K1Z7X3","VERTICES":5},"geometry":{"type":"Point","coordinates":[-75.7322045,45.380545]}},{"type":"Feature","properties":{"ZIP":"K1Z1E5","VERTICES":5},"geometry":{"type":"Point","coordinates":[-75.7507085,45.3987585]}},{"type":"Feature","properties":{"ZIP":"K1Z6A8","VERTICES":5},"geometry":{"type":"Point","coordinates":[-75.7336975,45.377703]}},{"type":"Feature","properties":{"ZIP":"K1Z6H1","VERTICES":5},"geometry":{"type":"Point","coordinates":[-75.741645,45.393111000000005]}},{"type":"Feature","properties":{"ZIP":"K1Z7A1","VERTICES":5},"geometry":{"type":"Point","coordinates":[-75.744553,45.39268]}},{"type":"Feature","properties":{"ZIP":"K1Z5B3","VERTICES":5},"geometry":{"type":"Point","coordinates":[-75.75781599999999,45.3989785]}},{"type":"Feature","properties":{"ZIP":"K1Z5J6","VERTICES":5},"geometry":{"type":"Point","coordinates":[-75.7493755,45.3870955]}},{"type":"Feature","properties":{"ZIP":"K1Z5P8","VERTICES":5},"geometry":{"type":"Point","coordinates":[-75.743439,45.3831045]}},{"type":"Feature","properties":{"ZIP":"K1Z6C3","VERTICES":5},"geometry":{"type":"Point","coordinates":[-75.744193,45.393462]}},{"type":"Feature","properties":{"ZIP":"K1Z7J1","VERTICES":5},"geometry":{"type":"Point","coordinates":[-75.7465835,45.3833925]}},{"type":"Feature","properties":{"ZIP":"K1Z5Z5","VERTICES":5},"geometry":{"type":"Point","coordinates":[-75.7316605,45.3867155]}},{"type":"Feature","properties":{"ZIP":"K1Z6L3","VERTICES":5},"geometry":{"type":"Point","coordinates":[-75.72622949999999,45.377972]}},{"type":"Feature","properties":{"ZIP":"K1Z7E3","VERTICES":5},"geometry":{"type":"Point","coordinates":[-75.748093,45.387971]}},{"type":"Feature","properties":{"ZIP":"K1Z7R9","VERTICES":5},"geometry":{"type":"Point","coordinates":[-75.73435649999999,45.381615]}},{"type":"Feature","properties":{"ZIP":"K1Z8P8","VERTICES":5},"geometry":{"type":"Point","coordinates":[-75.7524095,45.3934765]}},{"type":"Feature","properties":{"ZIP":"K1Z7A2","VERTICES":5},"geometry":{"type":"Point","coordinates":[-75.7476125,45.3921065]}},{"type":"Feature","properties":{"ZIP":"K1Z5X3","VERTICES":5},"geometry":{"type":"Point","coordinates":[-75.7444865,45.3918685]}},{"type":"Feature","properties":{"ZIP":"K1Z6J8","VERTICES":5},"geometry":{"type":"Point","coordinates":[-75.7413075,45.3931635]}},{"type":"Feature","properties":{"ZIP":"K1Z6P1","VERTICES":5},"geometry":{"type":"Point","coordinates":[-75.72255849999999,45.380364]}},{"type":"Feature","properties":{"ZIP":"K1Z6X5","VERTICES":5},"geometry":{"type":"Point","coordinates":[-75.752183,45.3927335]}},{"type":"Feature","properties":{"ZIP":"K1Z7B7","VERTICES":5},"geometry":{"type":"Point","coordinates":[-75.743318,45.390727999999996]}},{"type":"Feature","properties":{"ZIP":"K1Z8A7","VERTICES":5},"geometry":{"type":"Point","coordinates":[-75.734009,45.3777575]}},{"type":"Feature","properties":{"ZIP":"K1Z8L8","VERTICES":5},"geometry":{"type":"Point","coordinates":[-75.74099100000001,45.379014999999995]}},{"type":"Feature","properties":{"ZIP":"K1Z7K8","VERTICES":5},"geometry":{"type":"Point","coordinates":[-75.7339145,45.385763]}},{"type":"Feature","properties":{"ZIP":"K1Z7X5","VERTICES":5},"geometry":{"type":"Point","coordinates":[-75.7346915,45.379282]}},{"type":"Feature","properties":{"ZIP":"K1Z8C1","VERTICES":5},"geometry":{"type":"Point","coordinates":[-75.72350399999999,45.3813945]}},{"type":"Feature","properties":{"ZIP":"K1Z8R2","VERTICES":5},"geometry":{"type":"Point","coordinates":[-75.7464425,45.389809]}},{"type":"Feature","properties":{"ZIP":"K1Z6B1","VERTICES":5},"geometry":{"type":"Point","coordinates":[-75.73265549999999,45.3761765]}},{"type":"Feature","properties":{"ZIP":"K1Z6H4","VERTICES":5},"geometry":{"type":"Point","coordinates":[-75.731304,45.380679]}},{"type":"Feature","properties":{"ZIP":"K1Z6M7","VERTICES":5},"geometry":{"type":"Point","coordinates":[-75.72379699999999,45.379774999999995]}},{"type":"Feature","properties":{"ZIP":"K1Z7A3","VERTICES":5},"geometry":{"type":"Point","coordinates":[-75.7470965,45.391853999999995]}},{"type":"Feature","properties":{"ZIP":"K1Z5R1","VERTICES":5},"geometry":{"type":"Point","coordinates":[-75.740748,45.378029999999995]}},{"type":"Feature","properties":{"ZIP":"K1Z6C5","VERTICES":5},"geometry":{"type":"Point","coordinates":[-75.74356750000001,45.392050499999996]}},{"type":"Feature","properties":{"ZIP":"K1Z7P8","VERTICES":5},"geometry":{"type":"Point","coordinates":[-75.74000649999999,45.380913]}},{"type":"Feature","properties":{"ZIP":"K1Z8M3","VERTICES":5},"geometry":{"type":"Point","coordinates":[-75.741658,45.386545999999996]}},{"type":"Feature","properties":{"ZIP":"K1Z1C6","VERTICES":5},"geometry":{"type":"Point","coordinates":[-75.746872,45.3976015]}},{"type":"Feature","properties":{"ZIP":"K1Z5T8","VERTICES":5},"geometry":{"type":"Point","coordinates":[-75.7364685,45.3757375]}},{"type":"Feature","properties":{"ZIP":"K1Z6E8","VERTICES":5},"geometry":{"type":"Point","coordinates":[-75.737412,45.3838495]}},{"type":"Feature","properties":{"ZIP":"K1Z6Z2","VERTICES":5},"geometry":{"type":"Point","coordinates":[-75.747885,45.392385000000004]}},{"type":"Feature","properties":{"ZIP":"K1Z7L1","VERTICES":5},"geometry":{"type":"Point","coordinates":[-75.732429,45.3867055]}},{"type":"Feature","properties":{"ZIP":"K1Z8S1","VERTICES":5},"geometry":{"type":"Point","coordinates":[-75.74536499999999,45.386862]}},{"type":"Feature","properties":{"ZIP":"K1Z5W1","VERTICES":5},"geometry":{"type":"Point","coordinates":[-75.75039100000001,45.4010725]}},{"type":"Feature","properties":{"ZIP":"K1Z6B2","VERTICES":5},"geometry":{"type":"Point","coordinates":[-75.7331615,45.376391]}},{"type":"Feature","properties":{"ZIP":"K1Z6H7","VERTICES":5},"geometry":{"type":"Point","coordinates":[-75.730019,45.379081]}},{"type":"Feature","properties":{"ZIP":"K1Z6V4","VERTICES":5},"geometry":{"type":"Point","coordinates":[-75.752977,45.3935065]}},{"type":"Feature","properties":{"ZIP":"K1Z5R5","VERTICES":5},"geometry":{"type":"Point","coordinates":[-75.73872499999999,45.376005500000005]}},{"type":"Feature","properties":{"ZIP":"K1Z6P3","VERTICES":5},"geometry":{"type":"Point","coordinates":[-75.725431,45.3860095]}},{"type":"Feature","properties":{"ZIP":"K1Z6X7","VERTICES":5},"geometry":{"type":"Point","coordinates":[-75.753189,45.3923955]}},{"type":"Feature","properties":{"ZIP":"K1Z5M7","VERTICES":5},"geometry":{"type":"Point","coordinates":[-75.75008650000001,45.3914725]}},{"type":"Feature","properties":{"ZIP":"K1Z6Z3","VERTICES":5},"geometry":{"type":"Point","coordinates":[-75.74699100000001,45.392795500000005]}},{"type":"Feature","properties":{"ZIP":"K1Z1E9","VERTICES":5},"geometry":{"type":"Point","coordinates":[-75.750548,45.3986995]}},{"type":"Feature","properties":{"ZIP":"K1Z5K4","VERTICES":5},"geometry":{"type":"Point","coordinates":[-75.7393615,45.3737775]}},{"type":"Feature","properties":{"ZIP":"K1Z5R8","VERTICES":5},"geometry":{"type":"Point","coordinates":[-75.75035249999999,45.3960515]}},{"type":"Feature","properties":{"ZIP":"K1Z6C7","VERTICES":5},"geometry":{"type":"Point","coordinates":[-75.74314100000001,45.391371]}},{"type":"Feature","properties":{"ZIP":"K1Z1C8","VERTICES":5},"geometry":{"type":"Point","coordinates":[-75.74851000000001,45.397598]}},{"type":"Feature","properties":{"ZIP":"K1Z6G1","VERTICES":5},"geometry":{"type":"Point","coordinates":[-75.731382,45.3764545]}},{"type":"Feature","properties":{"ZIP":"K1Z6Z4","VERTICES":5},"geometry":{"type":"Point","coordinates":[-75.75068250000001,45.3914885]}},{"type":"Feature","properties":{"ZIP":"K1Z7G1","VERTICES":5},"geometry":{"type":"Point","coordinates":[-75.741747,45.388335999999995]}},{"type":"Feature","properties":{"ZIP":"K1Z7L6","VERTICES":5},"geometry":{"type":"Point","coordinates":[-75.738065,45.3856305]}},{"type":"Feature","properties":{"ZIP":"K1Z5H9","VERTICES":5},"geometry":{"type":"Point","coordinates":[-75.752542,45.3921045]}},{"type":"Feature","properties":{"ZIP":"K1Z6B4","VERTICES":5},"geometry":{"type":"Point","coordinates":[-75.7325725,45.375026]}},{"type":"Feature","properties":{"ZIP":"K1Z6J1","VERTICES":5},"geometry":{"type":"Point","coordinates":[-75.72876249999999,45.3776915]}},{"type":"Feature","properties":{"ZIP":"K1Z6V6","VERTICES":5},"geometry":{"type":"Point","coordinates":[-75.7439395,45.397031999999996]}},{"type":"Feature","properties":{"ZIP":"K1Z7A8","VERTICES":5},"geometry":{"type":"Point","coordinates":[-75.7442265,45.39201]}},{"type":"Feature","properties":{"ZIP":"K1Z1A8","VERTICES":5},"geometry":{"type":"Point","coordinates":[-75.752519,45.4]}},{"type":"Feature","properties":{"ZIP":"K1Z6K4","VERTICES":5},"geometry":{"type":"Point","coordinates":[-75.7287695,45.379825499999995]}},{"type":"Feature","properties":{"ZIP":"K1Z6Y1","VERTICES":5},"geometry":{"type":"Point","coordinates":[-75.7455515,45.394776]}},{"type":"Feature","properties":{"ZIP":"K1Z6S1","VERTICES":5},"geometry":{"type":"Point","coordinates":[-75.7511425,45.400369999999995]}},{"type":"Feature","properties":{"ZIP":"K1Z7L9","VERTICES":5},"geometry":{"type":"Point","coordinates":[-75.74195900000001,45.383269]}},{"type":"Feature","properties":{"ZIP":"K1Z7S7","VERTICES":5},"geometry":{"type":"Point","coordinates":[-75.7386135,45.3796045]}},{"type":"Feature","properties":{"ZIP":"K1Z2B6","VERTICES":5},"geometry":{"type":"Point","coordinates":[-75.7424675,45.387511]}},{"type":"Feature","properties":{"ZIP":"K1Z5J1","VERTICES":5},"geometry":{"type":"Point","coordinates":[-75.751901,45.392339]}},{"type":"Feature","properties":{"ZIP":"K1Z6J2","VERTICES":5},"geometry":{"type":"Point","coordinates":[-75.7281675,45.3769475]}},{"type":"Feature","properties":{"ZIP":"K1Z6N2","VERTICES":5},"geometry":{"type":"Point","coordinates":[-75.726602,45.3859305]}},{"type":"Feature","properties":{"ZIP":"K1Z7Z5","VERTICES":5},"geometry":{"type":"Point","coordinates":[-75.726276,45.3815]}},{"type":"Feature","properties":{"ZIP":"K1Z5C1","VERTICES":5},"geometry":{"type":"Point","coordinates":[-75.7548295,45.393981499999995]}},{"type":"Feature","properties":{"ZIP":"K1Z7C4","VERTICES":5},"geometry":{"type":"Point","coordinates":[-75.74228,45.389247499999996]}},{"type":"Feature","properties":{"ZIP":"K1Z6A4","VERTICES":5},"geometry":{"type":"Point","coordinates":[-75.73339899999999,45.3805465]}},{"type":"Feature","properties":{"ZIP":"K1Z6G5","VERTICES":5},"geometry":{"type":"Point","coordinates":[-75.729982,45.3754505]}},{"type":"Feature","properties":{"ZIP":"K1Z8P7","VERTICES":4},"geometry":{"type":"Point","coordinates":[-75.74865249999999,45.398396500000004]}},{"type":"Feature","properties":{"ZIP":"K1Z8L5","VERTICES":4},"geometry":{"type":"Point","coordinates":[-75.735873,45.373426499999994]}},{"type":"Feature","properties":{"ZIP":"K1Z6L4","VERTICES":4},"geometry":{"type":"Point","coordinates":[-75.72622150000001,45.377982]}},{"type":"Feature","properties":{"ZIP":"K1Z6K1","VERTICES":4},"geometry":{"type":"Point","coordinates":[-75.740318,45.392219]}},{"type":"Feature","properties":{"ZIP":"K1Z8M7","VERTICES":4},"geometry":{"type":"Point","coordinates":[-75.7424065,45.373552000000004]}},{"type":"Feature","properties":{"ZIP":"K1Z7L3","VERTICES":4},"geometry":{"type":"Point","coordinates":[-75.73478399999999,45.3865215]}},{"type":"Feature","properties":{"ZIP":"K1Z8M9","VERTICES":4},"geometry":{"type":"Point","coordinates":[-75.734606,45.377305]}}]}