{"type":"FeatureCollection","features":[{"type":"Feature","properties":{"ZIP":"V1T9E7","VERTICES":12},"geometry":{"type":"Point","coordinates":[-119.246398,50.2708985]}},{"type":"Feature","properties":{"ZIP":"V1T1L7","VERTICES":12},"geometry":{"type":"Point","coordinates":[-119.275425,50.2646715]}},{"type":"Feature","properties":{"ZIP":"V1T6N9","VERTICES":11},"geometry":{"type":"Point","coordinates":[-119.25159049999999,50.268704]}},{"type":"Feature","properties":{"ZIP":"V1T1K5","VERTICES":11},"geometry":{"type":"Point","coordinates":[-119.2944325,50.2549635]}},{"type":"Feature","properties":{"ZIP":"V1T8W3","VERTICES":11},"geometry":{"type":"Point","coordinates":[-119.2446975,50.2761665]}},{"type":"Feature","properties":{"ZIP":"V1T9K3","VERTICES":11},"geometry":{"type":"Point","coordinates":[-119.2419505,50.27738]}},{"type":"Feature","properties":{"ZIP":"V1T8P8","VERTICES":10},"geometry":{"type":"Point","coordinates":[-119.31097,50.2576615]}},{"type":"Feature","properties":{"ZIP":"V1T3G5","VERTICES":10},"geometry":{"type":"Point","coordinates":[-119.2837515,50.271921]}},{"type":"Feature","properties":{"ZIP":"V1T4H7","VERTICES":10},"geometry":{"type":"Point","coordinates":[-119.260772,50.266361]}},{"type":"Feature","properties":{"ZIP":"V1T9L6","VERTICES":10},"geometry":{"type":"Point","coordinates":[-119.2978055,50.251688]}},{"type":"Feature","properties":{"ZIP":"V1T1H6","VERTICES":10},"geometry":{"type":"Point","coordinates":[-119.2834235,50.256175999999996]}},{"type":"Feature","properties":{"ZIP":"V1T7L7","VERTICES":10},"geometry":{"type":"Point","coordinates":[-119.2579975,50.256387000000004]}},{"type":"Feature","properties":{"ZIP":"V1T1K8","VERTICES":10},"geometry":{"type":"Point","coordinates":[-119.3033385,50.25009]}},{"type":"Feature","properties":{"ZIP":"V1T6G9","VERTICES":10},"geometry":{"type":"Point","coordinates":[-119.2843635,50.2691105]}},{"type":"Feature","properties":{"ZIP":"V1T4R8","VERTICES":10},"geometry":{"type":"Point","coordinates":[-119.26424750000001,50.2714815]}},{"type":"Feature","properties":{"ZIP":"V1T8H4","VERTICES":10},"geometry":{"type":"Point","coordinates":[-119.25184999999999,50.2714285]}},{"type":"Feature","properties":{"ZIP":"V1T9H7","VERTICES":10},"geometry":{"type":"Point","coordinates":[-119.2453625,50.274402]}},{"type":"Feature","properties":{"ZIP":"V1T3E3","VERTICES":10},"geometry":{"type":"Point","coordinates":[-119.27972700000001,50.2706485]}},{"type":"Feature","properties":{"ZIP":"V1T6P8","VERTICES":10},"geometry":{"type":"Point","coordinates":[-119.287189,50.2552375]}},{"type":"Feature","properties":{"ZIP":"V1T7V4","VERTICES":10},"geometry":{"type":"Point","coordinates":[-119.30236,50.261739]}},{"type":"Feature","properties":{"ZIP":"V1T4M1","VERTICES":10},"geometry":{"type":"Point","coordinates":[-119.25546449999999,50.272548]}},{"type":"Feature","properties":{"ZIP":"V1T1J7","VERTICES":10},"geometry":{"type":"Point","coordinates":[-119.263729,50.259186]}},{"type":"Feature","properties":{"ZIP":"V1T1P3","VERTICES":10},"geometry":{"type":"Point","coordinates":[-119.264264,50.2688715]}},{"type":"Feature","properties":{"ZIP":"V1T8V4","VERTICES":10},"geometry":{"type":"Point","coordinates":[-119.2442525,50.2758095]}},{"type":"Feature","properties":{"ZIP":"V1T4E8","VERTICES":9},"geometry":{"type":"Point","coordinates":[-119.257843,50.2818645]}},{"type":"Feature","properties":{"ZIP":"V1T1P4","VERTICES":9},"geometry":{"type":"Point","coordinates":[-119.278381,50.266940000000005]}},{"type":"Feature","properties":{"ZIP":"V1T9L5","VERTICES":9},"geometry":{"type":"Point","coordinates":[-119.295481,50.254984]}},{"type":"Feature","properties":{"ZIP":"V1T1L9","VERTICES":9},"geometry":{"type":"Point","coordinates":[-119.27551,50.264246]}},{"type":"Feature","properties":{"ZIP":"V1T7J3","VERTICES":9},"geometry":{"type":"Point","coordinates":[-119.2859455,50.270079499999994]}},{"type":"Feature","properties":{"ZIP":"V1T8V6","VERTICES":9},"geometry":{"type":"Point","coordinates":[-119.2837505,50.2518175]}},{"type":"Feature","properties":{"ZIP":"V1T4R3","VERTICES":9},"geometry":{"type":"Point","coordinates":[-119.264262,50.26639]}},{"type":"Feature","properties":{"ZIP":"V1T7Y5","VERTICES":9},"geometry":{"type":"Point","coordinates":[-119.2480915,50.2732155]}},{"type":"Feature","properties":{"ZIP":"V1T9P3","VERTICES":9},"geometry":{"type":"Point","coordinates":[-119.256182,50.2798925]}},{"type":"Feature","properties":{"ZIP":"V1T8H1","VERTICES":9},"geometry":{"type":"Point","coordinates":[-119.286998,50.25268]}},{"type":"Feature","properties":{"ZIP":"V1T8R3","VERTICES":9},"geometry":{"type":"Point","coordinates":[-119.3108265,50.259631]}},{"type":"Feature","properties":{"ZIP":"V1T1H7","VERTICES":9},"geometry":{"type":"Point","coordinates":[-119.285258,50.256468]}},{"type":"Feature","properties":{"ZIP":"V1T7H3","VERTICES":9},"geometry":{"type":"Point","coordinates":[-119.29928699999999,50.2546915]}},{"type":"Feature","properties":{"ZIP":"V1T9M2","VERTICES":9},"geometry":{"type":"Point","coordinates":[-119.246246,50.273299]}},{"type":"Feature","properties":{"ZIP":"V1T4M7","VERTICES":9},"geometry":{"type":"Point","coordinates":[-119.25340299999999,50.277184]}},{"type":"Feature","properties":{"ZIP":"V1T8H3","VERTICES":9},"geometry":{"type":"Point","coordinates":[-119.284139,50.2519195]}},{"type":"Feature","properties":{"ZIP":"V1T9C7","VERTICES":9},"geometry":{"type":"Point","coordinates":[-119.309057,50.260932499999996]}},{"type":"Feature","properties":{"ZIP":"V1T6H1","VERTICES":9},"geometry":{"type":"Point","coordinates":[-119.28448850000001,50.269463]}},{"type":"Feature","properties":{"ZIP":"V1T3W6","VERTICES":9},"geometry":{"type":"Point","coordinates":[-119.2603385,50.253752]}},{"type":"Feature","properties":{"ZIP":"V1T7V1","VERTICES":9},"geometry":{"type":"Point","coordinates":[-119.246704,50.2645825]}},{"type":"Feature","properties":{"ZIP":"V1T1L1","VERTICES":9},"geometry":{"type":"Point","coordinates":[-119.258819,50.259141]}},{"type":"Feature","properties":{"ZIP":"V1T3V3","VERTICES":9},"geometry":{"type":"Point","coordinates":[-119.2510575,50.258518]}},{"type":"Feature","properties":{"ZIP":"V1T4P6","VERTICES":9},"geometry":{"type":"Point","coordinates":[-119.2642555,50.2610945]}},{"type":"Feature","properties":{"ZIP":"V1T5G2","VERTICES":9},"geometry":{"type":"Point","coordinates":[-119.2713305,50.2735365]}},{"type":"Feature","properties":{"ZIP":"V1T6P7","VERTICES":9},"geometry":{"type":"Point","coordinates":[-119.285225,50.255849999999995]}},{"type":"Feature","properties":{"ZIP":"V1T3Y5","VERTICES":9},"geometry":{"type":"Point","coordinates":[-119.2538745,50.2611615]}},{"type":"Feature","properties":{"ZIP":"V1T5Y2","VERTICES":9},"geometry":{"type":"Point","coordinates":[-119.2761145,50.2724625]}},{"type":"Feature","properties":{"ZIP":"V1T9V2","VERTICES":9},"geometry":{"type":"Point","coordinates":[-119.2690145,50.285123]}},{"type":"Feature","properties":{"ZIP":"V1T3E5","VERTICES":9},"geometry":{"type":"Point","coordinates":[-119.282546,50.270699]}},{"type":"Feature","properties":{"ZIP":"V1T6Y1","VERTICES":9},"geometry":{"type":"Point","coordinates":[-119.30408299999999,50.252865]}},{"type":"Feature","properties":{"ZIP":"V1T7M6","VERTICES":9},"geometry":{"type":"Point","coordinates":[-119.2935375,50.254737500000005]}},{"type":"Feature","properties":{"ZIP":"V1T9V7","VERTICES":9},"geometry":{"type":"Point","coordinates":[-119.24345,50.266653000000005]}},{"type":"Feature","properties":{"ZIP":"V1T7C7","VERTICES":9},"geometry":{"type":"Point","coordinates":[-119.2554085,50.273766]}},{"type":"Feature","properties":{"ZIP":"V1T1S5","VERTICES":9},"geometry":{"type":"Point","coordinates":[-119.2666035,50.268154499999994]}},{"type":"Feature","properties":{"ZIP":"V1T7G7","VERTICES":9},"geometry":{"type":"Point","coordinates":[-119.2666815,50.2603435]}},{"type":"Feature","properties":{"ZIP":"V1T8M1","VERTICES":9},"geometry":{"type":"Point","coordinates":[-119.26031549999999,50.2538105]}},{"type":"Feature","properties":{"ZIP":"V1T5A4","VERTICES":9},"geometry":{"type":"Point","coordinates":[-119.26909549999999,50.262596]}},{"type":"Feature","properties":{"ZIP":"V1T7A6","VERTICES":9},"geometry":{"type":"Point","coordinates":[-119.3097215,50.2540745]}},{"type":"Feature","properties":{"ZIP":"V1T1Y6","VERTICES":9},"geometry":{"type":"Point","coordinates":[-119.269058,50.2629605]}},{"type":"Feature","properties":{"ZIP":"V1T3J2","VERTICES":9},"geometry":{"type":"Point","coordinates":[-119.2613885,50.273699500000006]}},{"type":"Feature","properties":{"ZIP":"V1T8M4","VERTICES":9},"geometry":{"type":"Point","coordinates":[-119.28384600000001,50.2523225]}},{"type":"Feature","properties":{"ZIP":"V1T4S6","VERTICES":8},"geometry":{"type":"Point","coordinates":[-119.2642655,50.2767045]}},{"type":"Feature","properties":{"ZIP":"V1T6S8","VERTICES":8},"geometry":{"type":"Point","coordinates":[-119.2439615,50.2687405]}},{"type":"Feature","properties":{"ZIP":"V1T5C1","VERTICES":8},"geometry":{"type":"Point","coordinates":[-119.26995149999999,50.279346000000004]}},{"type":"Feature","properties":{"ZIP":"V1T3J3","VERTICES":8},"geometry":{"type":"Point","coordinates":[-119.26137399999999,50.273699500000006]}},{"type":"Feature","properties":{"ZIP":"V1T7M9","VERTICES":8},"geometry":{"type":"Point","coordinates":[-119.25461949999999,50.272821]}},{"type":"Feature","properties":{"ZIP":"V1T8M5","VERTICES":8},"geometry":{"type":"Point","coordinates":[-119.28395,50.25144]}},{"type":"Feature","properties":{"ZIP":"V1T4E9","VERTICES":8},"geometry":{"type":"Point","coordinates":[-119.2587465,50.266378]}},{"type":"Feature","properties":{"ZIP":"V1T8R1","VERTICES":8},"geometry":{"type":"Point","coordinates":[-119.31068300000001,50.258449]}},{"type":"Feature","properties":{"ZIP":"V1T4A9","VERTICES":8},"geometry":{"type":"Point","coordinates":[-119.2553515,50.2680405]}},{"type":"Feature","properties":{"ZIP":"V1T7T4","VERTICES":8},"geometry":{"type":"Point","coordinates":[-119.29022549999999,50.2553355]}},{"type":"Feature","properties":{"ZIP":"V1T1T1","VERTICES":8},"geometry":{"type":"Point","coordinates":[-119.294156,50.2614855]}},{"type":"Feature","properties":{"ZIP":"V1T3X6","VERTICES":8},"geometry":{"type":"Point","coordinates":[-119.2531115,50.269065499999996]}},{"type":"Feature","properties":{"ZIP":"V1T4R4","VERTICES":8},"geometry":{"type":"Point","coordinates":[-119.264262,50.26639]}},{"type":"Feature","properties":{"ZIP":"V1T7W3","VERTICES":8},"geometry":{"type":"Point","coordinates":[-119.3069485,50.251271]}},{"type":"Feature","properties":{"ZIP":"V1T7R6","VERTICES":8},"geometry":{"type":"Point","coordinates":[-119.30532099999999,50.252446500000005]}},{"type":"Feature","properties":{"ZIP":"V1T7Y7","VERTICES":8},"geometry":{"type":"Point","coordinates":[-119.24656250000001,50.2609085]}},{"type":"Feature","properties":{"ZIP":"V1T9C1","VERTICES":8},"geometry":{"type":"Point","coordinates":[-119.29806049999999,50.252632000000006]}},{"type":"Feature","properties":{"ZIP":"V1T4W1","VERTICES":8},"geometry":{"type":"Point","coordinates":[-119.26710349999999,50.2596405]}},{"type":"Feature","properties":{"ZIP":"V1T8J9","VERTICES":8},"geometry":{"type":"Point","coordinates":[-119.249371,50.274750499999996]}},{"type":"Feature","properties":{"ZIP":"V1T4L4","VERTICES":8},"geometry":{"type":"Point","coordinates":[-119.2618575,50.266732000000005]}},{"type":"Feature","properties":{"ZIP":"V1T1X6","VERTICES":8},"geometry":{"type":"Point","coordinates":[-119.294195,50.2624195]}},{"type":"Feature","properties":{"ZIP":"V1T6T5","VERTICES":8},"geometry":{"type":"Point","coordinates":[-119.2486925,50.264589]}},{"type":"Feature","properties":{"ZIP":"V1T7Y8","VERTICES":8},"geometry":{"type":"Point","coordinates":[-119.24656250000001,50.2609085]}},{"type":"Feature","properties":{"ZIP":"V1T8R4","VERTICES":8},"geometry":{"type":"Point","coordinates":[-119.3054745,50.248246]}},{"type":"Feature","properties":{"ZIP":"V1T1H8","VERTICES":8},"geometry":{"type":"Point","coordinates":[-119.285337,50.256461]}},{"type":"Feature","properties":{"ZIP":"V1T6P4","VERTICES":8},"geometry":{"type":"Point","coordinates":[-119.2524745,50.276981]}},{"type":"Feature","properties":{"ZIP":"V1T6X6","VERTICES":8},"geometry":{"type":"Point","coordinates":[-119.30321,50.254057]}},{"type":"Feature","properties":{"ZIP":"V1T3J9","VERTICES":8},"geometry":{"type":"Point","coordinates":[-119.28000349999999,50.273041]}},{"type":"Feature","properties":{"ZIP":"V1T4L5","VERTICES":8},"geometry":{"type":"Point","coordinates":[-119.2623385,50.266177]}},{"type":"Feature","properties":{"ZIP":"V1T5J7","VERTICES":8},"geometry":{"type":"Point","coordinates":[-119.2724675,50.2712645]}},{"type":"Feature","properties":{"ZIP":"V1T6Z6","VERTICES":8},"geometry":{"type":"Point","coordinates":[-119.248929,50.270493]}},{"type":"Feature","properties":{"ZIP":"V1T9M6","VERTICES":8},"geometry":{"type":"Point","coordinates":[-119.2415795,50.276962999999995]}},{"type":"Feature","properties":{"ZIP":"V1T2G4","VERTICES":8},"geometry":{"type":"Point","coordinates":[-119.27043900000001,50.263942]}},{"type":"Feature","properties":{"ZIP":"V1T4M8","VERTICES":8},"geometry":{"type":"Point","coordinates":[-119.26498950000001,50.2614005]}},{"type":"Feature","properties":{"ZIP":"V1T4T6","VERTICES":8},"geometry":{"type":"Point","coordinates":[-119.26532700000001,50.261154]}},{"type":"Feature","properties":{"ZIP":"V1T8R7","VERTICES":8},"geometry":{"type":"Point","coordinates":[-119.2551635,50.2738605]}},{"type":"Feature","properties":{"ZIP":"V1T6E1","VERTICES":8},"geometry":{"type":"Point","coordinates":[-119.2807085,50.2553215]}},{"type":"Feature","properties":{"ZIP":"V1T3Y4","VERTICES":8},"geometry":{"type":"Point","coordinates":[-119.2538745,50.2611615]}},{"type":"Feature","properties":{"ZIP":"V1T4L6","VERTICES":8},"geometry":{"type":"Point","coordinates":[-119.2607045,50.26875]}},{"type":"Feature","properties":{"ZIP":"V1T3Z7","VERTICES":8},"geometry":{"type":"Point","coordinates":[-119.25524999999999,50.257056000000006]}},{"type":"Feature","properties":{"ZIP":"V1T4M9","VERTICES":8},"geometry":{"type":"Point","coordinates":[-119.2649705,50.2604415]}},{"type":"Feature","properties":{"ZIP":"V1T7V2","VERTICES":8},"geometry":{"type":"Point","coordinates":[-119.305279,50.2600075]}},{"type":"Feature","properties":{"ZIP":"V1T4E3","VERTICES":8},"geometry":{"type":"Point","coordinates":[-119.2585325,50.276964500000005]}},{"type":"Feature","properties":{"ZIP":"V1T7H6","VERTICES":8},"geometry":{"type":"Point","coordinates":[-119.246704,50.2645825]}},{"type":"Feature","properties":{"ZIP":"V1T7P3","VERTICES":8},"geometry":{"type":"Point","coordinates":[-119.290226,50.255333500000006]}},{"type":"Feature","properties":{"ZIP":"V1T8E7","VERTICES":8},"geometry":{"type":"Point","coordinates":[-119.3094745,50.259893500000004]}},{"type":"Feature","properties":{"ZIP":"V1T9N1","VERTICES":8},"geometry":{"type":"Point","coordinates":[-119.2593265,50.2847835]}},{"type":"Feature","properties":{"ZIP":"V1T1Y3","VERTICES":8},"geometry":{"type":"Point","coordinates":[-119.24822549999999,50.262781000000004]}},{"type":"Feature","properties":{"ZIP":"V1T2T8","VERTICES":8},"geometry":{"type":"Point","coordinates":[-119.280693,50.266587]}},{"type":"Feature","properties":{"ZIP":"V1T5B6","VERTICES":8},"geometry":{"type":"Point","coordinates":[-119.2699725,50.2735715]}},{"type":"Feature","properties":{"ZIP":"V1T6A4","VERTICES":8},"geometry":{"type":"Point","coordinates":[-119.27752899999999,50.272392499999995]}},{"type":"Feature","properties":{"ZIP":"V1T7S2","VERTICES":8},"geometry":{"type":"Point","coordinates":[-119.30122850000001,50.255597]}},{"type":"Feature","properties":{"ZIP":"V1T9R6","VERTICES":8},"geometry":{"type":"Point","coordinates":[-119.25513649999999,50.251985000000005]}},{"type":"Feature","properties":{"ZIP":"V1T6X9","VERTICES":8},"geometry":{"type":"Point","coordinates":[-119.30291299999999,50.2522715]}},{"type":"Feature","properties":{"ZIP":"V1T6H5","VERTICES":8},"geometry":{"type":"Point","coordinates":[-119.28574900000001,50.262163]}},{"type":"Feature","properties":{"ZIP":"V1T7A3","VERTICES":8},"geometry":{"type":"Point","coordinates":[-119.3093655,50.2552375]}},{"type":"Feature","properties":{"ZIP":"V1T3V6","VERTICES":8},"geometry":{"type":"Point","coordinates":[-119.25103250000001,50.261076]}},{"type":"Feature","properties":{"ZIP":"V1T4K2","VERTICES":8},"geometry":{"type":"Point","coordinates":[-119.262371,50.268846499999995]}},{"type":"Feature","properties":{"ZIP":"V1T4P8","VERTICES":8},"geometry":{"type":"Point","coordinates":[-119.26421450000001,50.2632385]}},{"type":"Feature","properties":{"ZIP":"V1T8L7","VERTICES":8},"geometry":{"type":"Point","coordinates":[-119.251192,50.2546975]}},{"type":"Feature","properties":{"ZIP":"V1T2R1","VERTICES":8},"geometry":{"type":"Point","coordinates":[-119.2775555,50.2670505]}},{"type":"Feature","properties":{"ZIP":"V1T5Y4","VERTICES":8},"geometry":{"type":"Point","coordinates":[-119.27615449999999,50.273737999999994]}},{"type":"Feature","properties":{"ZIP":"V1T9B2","VERTICES":8},"geometry":{"type":"Point","coordinates":[-119.294048,50.2547895]}},{"type":"Feature","properties":{"ZIP":"V1T5B8","VERTICES":8},"geometry":{"type":"Point","coordinates":[-119.269959,50.2760035]}},{"type":"Feature","properties":{"ZIP":"V1T7L2","VERTICES":8},"geometry":{"type":"Point","coordinates":[-119.2858935,50.27019]}},{"type":"Feature","properties":{"ZIP":"V1T3J1","VERTICES":8},"geometry":{"type":"Point","coordinates":[-119.279928,50.2721965]}},{"type":"Feature","properties":{"ZIP":"V1T5G7","VERTICES":8},"geometry":{"type":"Point","coordinates":[-119.27127899999999,50.253585]}},{"type":"Feature","properties":{"ZIP":"V1T5V1","VERTICES":8},"geometry":{"type":"Point","coordinates":[-119.274686,50.2737915]}},{"type":"Feature","properties":{"ZIP":"V1T7M7","VERTICES":8},"geometry":{"type":"Point","coordinates":[-119.2897925,50.2559155]}},{"type":"Feature","properties":{"ZIP":"V1T9K1","VERTICES":8},"geometry":{"type":"Point","coordinates":[-119.242322,50.275355000000005]}},{"type":"Feature","properties":{"ZIP":"V1T1E5","VERTICES":8},"geometry":{"type":"Point","coordinates":[-119.256056,50.254697500000006]}},{"type":"Feature","properties":{"ZIP":"V1T3Y8","VERTICES":8},"geometry":{"type":"Point","coordinates":[-119.253874,50.266405500000005]}},{"type":"Feature","properties":{"ZIP":"V1T5Y5","VERTICES":8},"geometry":{"type":"Point","coordinates":[-119.2761565,50.273818500000004]}},{"type":"Feature","properties":{"ZIP":"V1T7P9","VERTICES":8},"geometry":{"type":"Point","coordinates":[-119.30388199999999,50.2549725]}},{"type":"Feature","properties":{"ZIP":"V1T7X9","VERTICES":8},"geometry":{"type":"Point","coordinates":[-119.270302,50.262636]}},{"type":"Feature","properties":{"ZIP":"V1T4N6","VERTICES":8},"geometry":{"type":"Point","coordinates":[-119.270307,50.263223499999995]}},{"type":"Feature","properties":{"ZIP":"V1T6R4","VERTICES":8},"geometry":{"type":"Point","coordinates":[-119.2952875,50.259004000000004]}},{"type":"Feature","properties":{"ZIP":"V1T7M8","VERTICES":8},"geometry":{"type":"Point","coordinates":[-119.2546205,50.272818]}},{"type":"Feature","properties":{"ZIP":"V1T1W9","VERTICES":7},"geometry":{"type":"Point","coordinates":[-119.273425,50.264392]}},{"type":"Feature","properties":{"ZIP":"V1T3Y9","VERTICES":7},"geometry":{"type":"Point","coordinates":[-119.253874,50.266396]}},{"type":"Feature","properties":{"ZIP":"V1T7A7","VERTICES":7},"geometry":{"type":"Point","coordinates":[-119.3099495,50.2539565]}},{"type":"Feature","properties":{"ZIP":"V1T7R1","VERTICES":7},"geometry":{"type":"Point","coordinates":[-119.302367,50.2561125]}},{"type":"Feature","properties":{"ZIP":"V1T7Y1","VERTICES":7},"geometry":{"type":"Point","coordinates":[-119.305533,50.252548]}},{"type":"Feature","properties":{"ZIP":"V1T3M8","VERTICES":7},"geometry":{"type":"Point","coordinates":[-119.261375,50.2777935]}},{"type":"Feature","properties":{"ZIP":"V1T4A7","VERTICES":7},"geometry":{"type":"Point","coordinates":[-119.25526500000001,50.2659415]}},{"type":"Feature","properties":{"ZIP":"V1T8V5","VERTICES":7},"geometry":{"type":"Point","coordinates":[-119.2441805,50.275183999999996]}},{"type":"Feature","properties":{"ZIP":"V1T2X4","VERTICES":7},"geometry":{"type":"Point","coordinates":[-119.2743015,50.2646725]}},{"type":"Feature","properties":{"ZIP":"V1T6G1","VERTICES":7},"geometry":{"type":"Point","coordinates":[-119.2832775,50.269697]}},{"type":"Feature","properties":{"ZIP":"V1T7V9","VERTICES":7},"geometry":{"type":"Point","coordinates":[-119.308897,50.2573515]}},{"type":"Feature","properties":{"ZIP":"V1T3Z1","VERTICES":7},"geometry":{"type":"Point","coordinates":[-119.2542565,50.268049500000004]}},{"type":"Feature","properties":{"ZIP":"V1T4M4","VERTICES":7},"geometry":{"type":"Point","coordinates":[-119.2524075,50.2766415]}},{"type":"Feature","properties":{"ZIP":"V1T5Y9","VERTICES":7},"geometry":{"type":"Point","coordinates":[-119.275808,50.2801585]}},{"type":"Feature","properties":{"ZIP":"V1T4A8","VERTICES":7},"geometry":{"type":"Point","coordinates":[-119.2552665,50.2663765]}},{"type":"Feature","properties":{"ZIP":"V1T3X5","VERTICES":7},"geometry":{"type":"Point","coordinates":[-119.2531425,50.2680395]}},{"type":"Feature","properties":{"ZIP":"V1T5W4","VERTICES":7},"geometry":{"type":"Point","coordinates":[-119.27622600000001,50.257151]}},{"type":"Feature","properties":{"ZIP":"V1T6R6","VERTICES":7},"geometry":{"type":"Point","coordinates":[-119.2465845,50.265897]}},{"type":"Feature","properties":{"ZIP":"V1T6Z1","VERTICES":7},"geometry":{"type":"Point","coordinates":[-119.2547735,50.2705175]}},{"type":"Feature","properties":{"ZIP":"V1T7H1","VERTICES":7},"geometry":{"type":"Point","coordinates":[-119.3005735,50.253675]}},{"type":"Feature","properties":{"ZIP":"V1T8M9","VERTICES":7},"geometry":{"type":"Point","coordinates":[-119.2448995,50.277237]}},{"type":"Feature","properties":{"ZIP":"V1T1M1","VERTICES":7},"geometry":{"type":"Point","coordinates":[-119.278508,50.2662325]}},{"type":"Feature","properties":{"ZIP":"V1T2G1","VERTICES":7},"geometry":{"type":"Point","coordinates":[-119.28934749999999,50.2636465]}},{"type":"Feature","properties":{"ZIP":"V1T2S6","VERTICES":7},"geometry":{"type":"Point","coordinates":[-119.26534749999999,50.2674095]}},{"type":"Feature","properties":{"ZIP":"V1T4G1","VERTICES":7},"geometry":{"type":"Point","coordinates":[-119.258746,50.266378]}},{"type":"Feature","properties":{"ZIP":"V1T2N3","VERTICES":7},"geometry":{"type":"Point","coordinates":[-119.27390700000001,50.2704235]}},{"type":"Feature","properties":{"ZIP":"V1T6Z3","VERTICES":7},"geometry":{"type":"Point","coordinates":[-119.252038,50.2719655]}},{"type":"Feature","properties":{"ZIP":"V1T8Z2","VERTICES":7},"geometry":{"type":"Point","coordinates":[-119.310378,50.2615005]}},{"type":"Feature","properties":{"ZIP":"V1T1M2","VERTICES":7},"geometry":{"type":"Point","coordinates":[-119.27887,50.265820000000005]}},{"type":"Feature","properties":{"ZIP":"V1T4M6","VERTICES":7},"geometry":{"type":"Point","coordinates":[-119.2547175,50.278232]}},{"type":"Feature","properties":{"ZIP":"V1T7B1","VERTICES":7},"geometry":{"type":"Point","coordinates":[-119.3130805,50.254932499999995]}},{"type":"Feature","properties":{"ZIP":"V1T1R1","VERTICES":7},"geometry":{"type":"Point","coordinates":[-119.2942235,50.260830999999996]}},{"type":"Feature","properties":{"ZIP":"V1T3W4","VERTICES":7},"geometry":{"type":"Point","coordinates":[-119.251176,50.266228]}},{"type":"Feature","properties":{"ZIP":"V1T5S3","VERTICES":7},"geometry":{"type":"Point","coordinates":[-119.2685835,50.262204]}},{"type":"Feature","properties":{"ZIP":"V1T6X5","VERTICES":7},"geometry":{"type":"Point","coordinates":[-119.303234,50.254037999999994]}},{"type":"Feature","properties":{"ZIP":"V1T7T8","VERTICES":7},"geometry":{"type":"Point","coordinates":[-119.2820775,50.274169]}},{"type":"Feature","properties":{"ZIP":"V1T8A8","VERTICES":7},"geometry":{"type":"Point","coordinates":[-119.272707,50.26272]}},{"type":"Feature","properties":{"ZIP":"V1T9H3","VERTICES":7},"geometry":{"type":"Point","coordinates":[-119.26100600000001,50.270284000000004]}},{"type":"Feature","properties":{"ZIP":"V1T5J6","VERTICES":7},"geometry":{"type":"Point","coordinates":[-119.2724685,50.2712505]}},{"type":"Feature","properties":{"ZIP":"V1T7N3","VERTICES":7},"geometry":{"type":"Point","coordinates":[-119.2961795,50.251213]}},{"type":"Feature","properties":{"ZIP":"V1T8E4","VERTICES":7},"geometry":{"type":"Point","coordinates":[-119.30847349999999,50.259456]}},{"type":"Feature","properties":{"ZIP":"V1T1G2","VERTICES":7},"geometry":{"type":"Point","coordinates":[-119.28177149999999,50.2557405]}},{"type":"Feature","properties":{"ZIP":"V1T4T5","VERTICES":7},"geometry":{"type":"Point","coordinates":[-119.26532750000001,50.261136]}},{"type":"Feature","properties":{"ZIP":"V1T5B3","VERTICES":7},"geometry":{"type":"Point","coordinates":[-119.26996299999999,50.2712605]}},{"type":"Feature","properties":{"ZIP":"V1T1K9","VERTICES":7},"geometry":{"type":"Point","coordinates":[-119.258785,50.259141]}},{"type":"Feature","properties":{"ZIP":"V1T1T3","VERTICES":7},"geometry":{"type":"Point","coordinates":[-119.2958885,50.2614495]}},{"type":"Feature","properties":{"ZIP":"V1T2N8","VERTICES":7},"geometry":{"type":"Point","coordinates":[-119.27572,50.266281000000006]}},{"type":"Feature","properties":{"ZIP":"V1T3Y2","VERTICES":7},"geometry":{"type":"Point","coordinates":[-119.252419,50.277714]}},{"type":"Feature","properties":{"ZIP":"V1T6R9","VERTICES":7},"geometry":{"type":"Point","coordinates":[-119.2468295,50.266591]}},{"type":"Feature","properties":{"ZIP":"V1T7H4","VERTICES":7},"geometry":{"type":"Point","coordinates":[-119.2877095,50.253087]}},{"type":"Feature","properties":{"ZIP":"V1T1G3","VERTICES":7},"geometry":{"type":"Point","coordinates":[-119.24709949999999,50.2572485]}},{"type":"Feature","properties":{"ZIP":"V1T1X7","VERTICES":7},"geometry":{"type":"Point","coordinates":[-119.28178650000001,50.2683675]}},{"type":"Feature","properties":{"ZIP":"V1T5B4","VERTICES":7},"geometry":{"type":"Point","coordinates":[-119.26996299999999,50.2712605]}},{"type":"Feature","properties":{"ZIP":"V1T6T6","VERTICES":7},"geometry":{"type":"Point","coordinates":[-119.2486925,50.264589]}},{"type":"Feature","properties":{"ZIP":"V1T9R3","VERTICES":7},"geometry":{"type":"Point","coordinates":[-119.2962455,50.252944]}},{"type":"Feature","properties":{"ZIP":"V1T6X7","VERTICES":7},"geometry":{"type":"Point","coordinates":[-119.2905915,50.2525505]}},{"type":"Feature","properties":{"ZIP":"V1T8B3","VERTICES":7},"geometry":{"type":"Point","coordinates":[-119.2498325,50.272389000000004]}},{"type":"Feature","properties":{"ZIP":"V1T8K5","VERTICES":7},"geometry":{"type":"Point","coordinates":[-119.26330250000001,50.252041500000004]}},{"type":"Feature","properties":{"ZIP":"V1T8W4","VERTICES":7},"geometry":{"type":"Point","coordinates":[-119.2418885,50.2736465]}},{"type":"Feature","properties":{"ZIP":"V1T1C1","VERTICES":7},"geometry":{"type":"Point","coordinates":[-119.2546715,50.270246]}},{"type":"Feature","properties":{"ZIP":"V1T5B5","VERTICES":7},"geometry":{"type":"Point","coordinates":[-119.26996700000001,50.274444]}},{"type":"Feature","properties":{"ZIP":"V1T7S1","VERTICES":7},"geometry":{"type":"Point","coordinates":[-119.302335,50.2554375]}},{"type":"Feature","properties":{"ZIP":"V1T7G2","VERTICES":7},"geometry":{"type":"Point","coordinates":[-119.259706,50.255673]}},{"type":"Feature","properties":{"ZIP":"V1T3K2","VERTICES":7},"geometry":{"type":"Point","coordinates":[-119.2551485,50.2747945]}},{"type":"Feature","properties":{"ZIP":"V1T7A2","VERTICES":7},"geometry":{"type":"Point","coordinates":[-119.272441,50.2551905]}},{"type":"Feature","properties":{"ZIP":"V1T8P2","VERTICES":7},"geometry":{"type":"Point","coordinates":[-119.30677850000001,50.250994]}},{"type":"Feature","properties":{"ZIP":"V1T1G6","VERTICES":7},"geometry":{"type":"Point","coordinates":[-119.2496845,50.2570805]}},{"type":"Feature","properties":{"ZIP":"V1T2H2","VERTICES":7},"geometry":{"type":"Point","coordinates":[-119.2735805,50.2649575]}},{"type":"Feature","properties":{"ZIP":"V1T4H2","VERTICES":7},"geometry":{"type":"Point","coordinates":[-119.26077950000001,50.26115]}},{"type":"Feature","properties":{"ZIP":"V1T4N1","VERTICES":7},"geometry":{"type":"Point","coordinates":[-119.26634849999999,50.261616000000004]}},{"type":"Feature","properties":{"ZIP":"V1T4T8","VERTICES":7},"geometry":{"type":"Point","coordinates":[-119.2653075,50.262971]}},{"type":"Feature","properties":{"ZIP":"V1T4P7","VERTICES":7},"geometry":{"type":"Point","coordinates":[-119.2649595,50.261046]}},{"type":"Feature","properties":{"ZIP":"V1T5G3","VERTICES":7},"geometry":{"type":"Point","coordinates":[-119.27132399999999,50.274471500000004]}},{"type":"Feature","properties":{"ZIP":"V1T3Y6","VERTICES":7},"geometry":{"type":"Point","coordinates":[-119.2539015,50.263015]}},{"type":"Feature","properties":{"ZIP":"V1T4E4","VERTICES":7},"geometry":{"type":"Point","coordinates":[-119.2584905,50.276849999999996]}},{"type":"Feature","properties":{"ZIP":"V1T7X3","VERTICES":7},"geometry":{"type":"Point","coordinates":[-119.2555935,50.275399500000006]}},{"type":"Feature","properties":{"ZIP":"V1T8E8","VERTICES":7},"geometry":{"type":"Point","coordinates":[-119.309602,50.2563665]}},{"type":"Feature","properties":{"ZIP":"V1T9A6","VERTICES":7},"geometry":{"type":"Point","coordinates":[-119.24489299999999,50.2758135]}},{"type":"Feature","properties":{"ZIP":"V1T9N2","VERTICES":7},"geometry":{"type":"Point","coordinates":[-119.2592415,50.284867500000004]}},{"type":"Feature","properties":{"ZIP":"V1T8H8","VERTICES":7},"geometry":{"type":"Point","coordinates":[-119.308108,50.259953]}},{"type":"Feature","properties":{"ZIP":"V1T2W6","VERTICES":7},"geometry":{"type":"Point","coordinates":[-119.2680025,50.2618245]}},{"type":"Feature","properties":{"ZIP":"V1T6R1","VERTICES":7},"geometry":{"type":"Point","coordinates":[-119.289247,50.254471499999994]}},{"type":"Feature","properties":{"ZIP":"V1T1V2","VERTICES":7},"geometry":{"type":"Point","coordinates":[-119.2583175,50.2621995]}},{"type":"Feature","properties":{"ZIP":"V1T6S4","VERTICES":7},"geometry":{"type":"Point","coordinates":[-119.2837385,50.2719185]}},{"type":"Feature","properties":{"ZIP":"V1T7P8","VERTICES":7},"geometry":{"type":"Point","coordinates":[-119.303075,50.255568]}},{"type":"Feature","properties":{"ZIP":"V1T8P6","VERTICES":7},"geometry":{"type":"Point","coordinates":[-119.3116595,50.2570355]}},{"type":"Feature","properties":{"ZIP":"V1T1Y5","VERTICES":7},"geometry":{"type":"Point","coordinates":[-119.269056,50.2630305]}},{"type":"Feature","properties":{"ZIP":"V1T3V8","VERTICES":7},"geometry":{"type":"Point","coordinates":[-119.251042,50.2631065]}},{"type":"Feature","properties":{"ZIP":"V1T4A3","VERTICES":7},"geometry":{"type":"Point","coordinates":[-119.2549185,50.2612135]}},{"type":"Feature","properties":{"ZIP":"V1T6V4","VERTICES":7},"geometry":{"type":"Point","coordinates":[-119.261461,50.2497725]}},{"type":"Feature","properties":{"ZIP":"V1T7S5","VERTICES":7},"geometry":{"type":"Point","coordinates":[-119.253256,50.2718975]}},{"type":"Feature","properties":{"ZIP":"V1T4X7","VERTICES":7},"geometry":{"type":"Point","coordinates":[-119.2789975,50.2669205]}},{"type":"Feature","properties":{"ZIP":"V1T9W4","VERTICES":7},"geometry":{"type":"Point","coordinates":[-119.292876,50.270746]}},{"type":"Feature","properties":{"ZIP":"V1T4M2","VERTICES":7},"geometry":{"type":"Point","coordinates":[-119.25525999999999,50.2723335]}},{"type":"Feature","properties":{"ZIP":"V1T6S7","VERTICES":7},"geometry":{"type":"Point","coordinates":[-119.24400800000001,50.269257499999995]}},{"type":"Feature","properties":{"ZIP":"V1T7J1","VERTICES":7},"geometry":{"type":"Point","coordinates":[-119.248508,50.2610235]}},{"type":"Feature","properties":{"ZIP":"V1T8P7","VERTICES":7},"geometry":{"type":"Point","coordinates":[-119.3114975,50.257379]}},{"type":"Feature","properties":{"ZIP":"V1T8A2","VERTICES":7},"geometry":{"type":"Point","coordinates":[-119.2802805,50.273904]}},{"type":"Feature","properties":{"ZIP":"V1T1J8","VERTICES":7},"geometry":{"type":"Point","coordinates":[-119.263755,50.258720499999995]}},{"type":"Feature","properties":{"ZIP":"V1T2X2","VERTICES":7},"geometry":{"type":"Point","coordinates":[-119.284018,50.259390499999995]}},{"type":"Feature","properties":{"ZIP":"V1T6E9","VERTICES":7},"geometry":{"type":"Point","coordinates":[-119.28321500000001,50.270610500000004]}},{"type":"Feature","properties":{"ZIP":"V1T7V7","VERTICES":7},"geometry":{"type":"Point","coordinates":[-119.30793,50.2583365]}},{"type":"Feature","properties":{"ZIP":"V1T8C6","VERTICES":7},"geometry":{"type":"Point","coordinates":[-119.2598835,50.257028500000004]}},{"type":"Feature","properties":{"ZIP":"V1T1E6","VERTICES":6},"geometry":{"type":"Point","coordinates":[-119.256265,50.2546045]}},{"type":"Feature","properties":{"ZIP":"V1T1L8","VERTICES":6},"geometry":{"type":"Point","coordinates":[-119.2814085,50.2592385]}},{"type":"Feature","properties":{"ZIP":"V1T3A5","VERTICES":6},"geometry":{"type":"Point","coordinates":[-119.2496645,50.270131]}},{"type":"Feature","properties":{"ZIP":"V1T3T4","VERTICES":6},"geometry":{"type":"Point","coordinates":[-119.2494845,50.268763]}},{"type":"Feature","properties":{"ZIP":"V1T4M3","VERTICES":6},"geometry":{"type":"Point","coordinates":[-119.252009,50.276425]}},{"type":"Feature","properties":{"ZIP":"V1T5N3","VERTICES":6},"geometry":{"type":"Point","coordinates":[-119.273634,50.26781]}},{"type":"Feature","properties":{"ZIP":"V1T5Y8","VERTICES":6},"geometry":{"type":"Point","coordinates":[-119.27465649999999,50.278989499999994]}},{"type":"Feature","properties":{"ZIP":"V1T8G4","VERTICES":6},"geometry":{"type":"Point","coordinates":[-119.2609255,50.2843095]}},{"type":"Feature","properties":{"ZIP":"V1T2V3","VERTICES":6},"geometry":{"type":"Point","coordinates":[-119.282165,50.259136]}},{"type":"Feature","properties":{"ZIP":"V1T3W1","VERTICES":6},"geometry":{"type":"Point","coordinates":[-119.251057,50.264008000000004]}},{"type":"Feature","properties":{"ZIP":"V1T8A5","VERTICES":6},"geometry":{"type":"Point","coordinates":[-119.249593,50.2731175]}},{"type":"Feature","properties":{"ZIP":"V1T8J6","VERTICES":6},"geometry":{"type":"Point","coordinates":[-119.253141,50.2719655]}},{"type":"Feature","properties":{"ZIP":"V1T3P9","VERTICES":6},"geometry":{"type":"Point","coordinates":[-119.2671895,50.2820515]}},{"type":"Feature","properties":{"ZIP":"V1T3X4","VERTICES":6},"geometry":{"type":"Point","coordinates":[-119.2531425,50.268029999999996]}},{"type":"Feature","properties":{"ZIP":"V1T4C6","VERTICES":6},"geometry":{"type":"Point","coordinates":[-119.277477,50.256166500000006]}},{"type":"Feature","properties":{"ZIP":"V1T5G9","VERTICES":6},"geometry":{"type":"Point","coordinates":[-119.2712785,50.254906]}},{"type":"Feature","properties":{"ZIP":"V1T1E7","VERTICES":6},"geometry":{"type":"Point","coordinates":[-119.2787285,50.255908500000004]}},{"type":"Feature","properties":{"ZIP":"V1T1X3","VERTICES":6},"geometry":{"type":"Point","coordinates":[-119.28796299999999,50.26229]}},{"type":"Feature","properties":{"ZIP":"V1T4S7","VERTICES":6},"geometry":{"type":"Point","coordinates":[-119.2642655,50.2767045]}},{"type":"Feature","properties":{"ZIP":"V1T6J3","VERTICES":6},"geometry":{"type":"Point","coordinates":[-119.287121,50.262806499999996]}},{"type":"Feature","properties":{"ZIP":"V1T6S9","VERTICES":6},"geometry":{"type":"Point","coordinates":[-119.2448935,50.268187]}},{"type":"Feature","properties":{"ZIP":"V1T7Y3","VERTICES":6},"geometry":{"type":"Point","coordinates":[-119.257194,50.2727815]}},{"type":"Feature","properties":{"ZIP":"V1T9B6","VERTICES":6},"geometry":{"type":"Point","coordinates":[-119.2570315,50.2556965]}},{"type":"Feature","properties":{"ZIP":"V1T1H5","VERTICES":6},"geometry":{"type":"Point","coordinates":[-119.28153950000001,50.2567365]}},{"type":"Feature","properties":{"ZIP":"V1T2H9","VERTICES":6},"geometry":{"type":"Point","coordinates":[-119.2517735,50.265394]}},{"type":"Feature","properties":{"ZIP":"V1T3M9","VERTICES":6},"geometry":{"type":"Point","coordinates":[-119.260436,50.277795499999996]}},{"type":"Feature","properties":{"ZIP":"V1T3W2","VERTICES":6},"geometry":{"type":"Point","coordinates":[-119.2510485,50.2646185]}},{"type":"Feature","properties":{"ZIP":"V1T8J7","VERTICES":6},"geometry":{"type":"Point","coordinates":[-119.2455925,50.2768845]}},{"type":"Feature","properties":{"ZIP":"V1T1S9","VERTICES":6},"geometry":{"type":"Point","coordinates":[-119.290705,50.261624499999996]}},{"type":"Feature","properties":{"ZIP":"V1T2X5","VERTICES":6},"geometry":{"type":"Point","coordinates":[-119.2743025,50.2647755]}},{"type":"Feature","properties":{"ZIP":"V1T3R4","VERTICES":6},"geometry":{"type":"Point","coordinates":[-119.270243,50.281986]}},{"type":"Feature","properties":{"ZIP":"V1T4K7","VERTICES":6},"geometry":{"type":"Point","coordinates":[-119.2623715,50.2798485]}},{"type":"Feature","properties":{"ZIP":"V1T4Y6","VERTICES":6},"geometry":{"type":"Point","coordinates":[-119.2668745,50.279884499999994]}},{"type":"Feature","properties":{"ZIP":"V1T1E8","VERTICES":6},"geometry":{"type":"Point","coordinates":[-119.278758,50.255909]}},{"type":"Feature","properties":{"ZIP":"V1T1X4","VERTICES":6},"geometry":{"type":"Point","coordinates":[-119.280844,50.267834]}},{"type":"Feature","properties":{"ZIP":"V1T5P3","VERTICES":6},"geometry":{"type":"Point","coordinates":[-119.2736535,50.27272]}},{"type":"Feature","properties":{"ZIP":"V1T6T2","VERTICES":6},"geometry":{"type":"Point","coordinates":[-119.244896,50.2686025]}},{"type":"Feature","properties":{"ZIP":"V1T7J5","VERTICES":6},"geometry":{"type":"Point","coordinates":[-119.2862205,50.270343999999994]}},{"type":"Feature","properties":{"ZIP":"V1T8R2","VERTICES":6},"geometry":{"type":"Point","coordinates":[-119.310788,50.2576805]}},{"type":"Feature","properties":{"ZIP":"V1T9B9","VERTICES":6},"geometry":{"type":"Point","coordinates":[-119.245712,50.267395]}},{"type":"Feature","properties":{"ZIP":"V1T1Z4","VERTICES":6},"geometry":{"type":"Point","coordinates":[-119.26995149999999,50.2703395]}},{"type":"Feature","properties":{"ZIP":"V1T3W3","VERTICES":6},"geometry":{"type":"Point","coordinates":[-119.25103250000001,50.265960500000006]}},{"type":"Feature","properties":{"ZIP":"V1T4H8","VERTICES":6},"geometry":{"type":"Point","coordinates":[-119.2607785,50.265902999999994]}},{"type":"Feature","properties":{"ZIP":"V1T5C4","VERTICES":6},"geometry":{"type":"Point","coordinates":[-119.2542075,50.2638365]}},{"type":"Feature","properties":{"ZIP":"V1T5S2","VERTICES":6},"geometry":{"type":"Point","coordinates":[-119.2679215,50.261822]}},{"type":"Feature","properties":{"ZIP":"V1T6C3","VERTICES":6},"geometry":{"type":"Point","coordinates":[-119.2791565,50.2729765]}},{"type":"Feature","properties":{"ZIP":"V1T6P1","VERTICES":6},"geometry":{"type":"Point","coordinates":[-119.2529045,50.275039]}},{"type":"Feature","properties":{"ZIP":"V1T8J8","VERTICES":6},"geometry":{"type":"Point","coordinates":[-119.2427825,50.263724999999994]}},{"type":"Feature","properties":{"ZIP":"V1T5J4","VERTICES":6},"geometry":{"type":"Point","coordinates":[-119.272218,50.268049000000005]}},{"type":"Feature","properties":{"ZIP":"V1T6R7","VERTICES":6},"geometry":{"type":"Point","coordinates":[-119.24602999999999,50.2658995]}},{"type":"Feature","properties":{"ZIP":"V1T1G1","VERTICES":6},"geometry":{"type":"Point","coordinates":[-119.2581635,50.2692105]}},{"type":"Feature","properties":{"ZIP":"V1T1X5","VERTICES":6},"geometry":{"type":"Point","coordinates":[-119.2925635,50.262415000000004]}},{"type":"Feature","properties":{"ZIP":"V1T2G2","VERTICES":6},"geometry":{"type":"Point","coordinates":[-119.289637,50.2635715]}},{"type":"Feature","properties":{"ZIP":"V1T3T9","VERTICES":6},"geometry":{"type":"Point","coordinates":[-119.269943,50.2599535]}},{"type":"Feature","properties":{"ZIP":"V1T3Z3","VERTICES":6},"geometry":{"type":"Point","coordinates":[-119.255055,50.274632]}},{"type":"Feature","properties":{"ZIP":"V1T4T3","VERTICES":6},"geometry":{"type":"Point","coordinates":[-119.26535799999999,50.259466]}},{"type":"Feature","properties":{"ZIP":"V1T6T4","VERTICES":6},"geometry":{"type":"Point","coordinates":[-119.248397,50.2576515]}},{"type":"Feature","properties":{"ZIP":"V1T7J6","VERTICES":6},"geometry":{"type":"Point","coordinates":[-119.258022,50.2562995]}},{"type":"Feature","properties":{"ZIP":"V1T1Z5","VERTICES":6},"geometry":{"type":"Point","coordinates":[-119.24644950000001,50.263736]}},{"type":"Feature","properties":{"ZIP":"V1T3G7","VERTICES":6},"geometry":{"type":"Point","coordinates":[-119.260878,50.2730385]}},{"type":"Feature","properties":{"ZIP":"V1T4J2","VERTICES":6},"geometry":{"type":"Point","coordinates":[-119.26155449999999,50.275431999999995]}},{"type":"Feature","properties":{"ZIP":"V1T4P2","VERTICES":6},"geometry":{"type":"Point","coordinates":[-119.26301849999999,50.276697]}},{"type":"Feature","properties":{"ZIP":"V1T8W2","VERTICES":6},"geometry":{"type":"Point","coordinates":[-119.2924485,50.255598]}},{"type":"Feature","properties":{"ZIP":"V1T2C6","VERTICES":6},"geometry":{"type":"Point","coordinates":[-119.275812,50.2634875]}},{"type":"Feature","properties":{"ZIP":"V1T2N4","VERTICES":6},"geometry":{"type":"Point","coordinates":[-119.296645,50.2630085]}},{"type":"Feature","properties":{"ZIP":"V1T3J7","VERTICES":6},"geometry":{"type":"Point","coordinates":[-119.277962,50.273024]}},{"type":"Feature","properties":{"ZIP":"V1T3S1","VERTICES":6},"geometry":{"type":"Point","coordinates":[-119.245946,50.259600000000006]}},{"type":"Feature","properties":{"ZIP":"V1T3X7","VERTICES":6},"geometry":{"type":"Point","coordinates":[-119.253113,50.2690175]}},{"type":"Feature","properties":{"ZIP":"V1T5W7","VERTICES":6},"geometry":{"type":"Point","coordinates":[-119.269457,50.262529]}},{"type":"Feature","properties":{"ZIP":"V1T6R8","VERTICES":6},"geometry":{"type":"Point","coordinates":[-119.2469285,50.2665915]}},{"type":"Feature","properties":{"ZIP":"V1T8Z4","VERTICES":6},"geometry":{"type":"Point","coordinates":[-119.2897405,50.2687775]}},{"type":"Feature","properties":{"ZIP":"V1T1M3","VERTICES":6},"geometry":{"type":"Point","coordinates":[-119.27904050000001,50.2600305]}},{"type":"Feature","properties":{"ZIP":"V1T3L4","VERTICES":6},"geometry":{"type":"Point","coordinates":[-119.27544950000001,50.274578]}},{"type":"Feature","properties":{"ZIP":"V1T5Z7","VERTICES":6},"geometry":{"type":"Point","coordinates":[-119.27940699999999,50.253299999999996]}},{"type":"Feature","properties":{"ZIP":"V1T7J7","VERTICES":6},"geometry":{"type":"Point","coordinates":[-119.2597785,50.2597565]}},{"type":"Feature","properties":{"ZIP":"V1T7R8","VERTICES":6},"geometry":{"type":"Point","coordinates":[-119.30322699999999,50.251484500000004]}},{"type":"Feature","properties":{"ZIP":"V1T9R2","VERTICES":6},"geometry":{"type":"Point","coordinates":[-119.25616500000001,50.279877]}},{"type":"Feature","properties":{"ZIP":"V1T1R2","VERTICES":6},"geometry":{"type":"Point","coordinates":[-119.29414349999999,50.260830999999996]}},{"type":"Feature","properties":{"ZIP":"V1T3W5","VERTICES":6},"geometry":{"type":"Point","coordinates":[-119.251033,50.2667235]}},{"type":"Feature","properties":{"ZIP":"V1T4J3","VERTICES":6},"geometry":{"type":"Point","coordinates":[-119.26155449999999,50.275431999999995]}},{"type":"Feature","properties":{"ZIP":"V1T4P3","VERTICES":6},"geometry":{"type":"Point","coordinates":[-119.26301849999999,50.276697]}},{"type":"Feature","properties":{"ZIP":"V1T4W2","VERTICES":6},"geometry":{"type":"Point","coordinates":[-119.26655099999999,50.262402]}},{"type":"Feature","properties":{"ZIP":"V1T5S4","VERTICES":6},"geometry":{"type":"Point","coordinates":[-119.26851500000001,50.2621985]}},{"type":"Feature","properties":{"ZIP":"V1T6C6","VERTICES":6},"geometry":{"type":"Point","coordinates":[-119.280841,50.2704885]}},{"type":"Feature","properties":{"ZIP":"V1T7M2","VERTICES":6},"geometry":{"type":"Point","coordinates":[-119.26640800000001,50.245375499999994]}},{"type":"Feature","properties":{"ZIP":"V1T8K3","VERTICES":6},"geometry":{"type":"Point","coordinates":[-119.2461935,50.276131]}},{"type":"Feature","properties":{"ZIP":"V1T1B9","VERTICES":6},"geometry":{"type":"Point","coordinates":[-119.2543645,50.2688445]}},{"type":"Feature","properties":{"ZIP":"V1T2Y8","VERTICES":6},"geometry":{"type":"Point","coordinates":[-119.248819,50.269349500000004]}},{"type":"Feature","properties":{"ZIP":"V1T7N5","VERTICES":6},"geometry":{"type":"Point","coordinates":[-119.2533895,50.2709785]}},{"type":"Feature","properties":{"ZIP":"V1T1M4","VERTICES":6},"geometry":{"type":"Point","coordinates":[-119.27907400000001,50.260031]}},{"type":"Feature","properties":{"ZIP":"V1T2T6","VERTICES":6},"geometry":{"type":"Point","coordinates":[-119.27812850000001,50.26743999999999]}},{"type":"Feature","properties":{"ZIP":"V1T3V2","VERTICES":6},"geometry":{"type":"Point","coordinates":[-119.2961505,50.251183499999996]}},{"type":"Feature","properties":{"ZIP":"V1T7K2","VERTICES":6},"geometry":{"type":"Point","coordinates":[-119.2534795,50.272004]}},{"type":"Feature","properties":{"ZIP":"V1T1R3","VERTICES":6},"geometry":{"type":"Point","coordinates":[-119.2553255,50.261275]}},{"type":"Feature","properties":{"ZIP":"V1T4W3","VERTICES":6},"geometry":{"type":"Point","coordinates":[-119.266636,50.261728]}},{"type":"Feature","properties":{"ZIP":"V1T5E4","VERTICES":6},"geometry":{"type":"Point","coordinates":[-119.27367100000001,50.265019]}},{"type":"Feature","properties":{"ZIP":"V1T5S5","VERTICES":6},"geometry":{"type":"Point","coordinates":[-119.27508900000001,50.2627705]}},{"type":"Feature","properties":{"ZIP":"V1T7G1","VERTICES":6},"geometry":{"type":"Point","coordinates":[-119.24892,50.2712415]}},{"type":"Feature","properties":{"ZIP":"V1T1T6","VERTICES":6},"geometry":{"type":"Point","coordinates":[-119.24862999999999,50.2618305]}},{"type":"Feature","properties":{"ZIP":"V1T2P1","VERTICES":6},"geometry":{"type":"Point","coordinates":[-119.2765435,50.266737500000005]}},{"type":"Feature","properties":{"ZIP":"V1T2Y9","VERTICES":6},"geometry":{"type":"Point","coordinates":[-119.268521,50.261201]}},{"type":"Feature","properties":{"ZIP":"V1T3K1","VERTICES":6},"geometry":{"type":"Point","coordinates":[-119.28113350000001,50.273229]}},{"type":"Feature","properties":{"ZIP":"V1T3S3","VERTICES":6},"geometry":{"type":"Point","coordinates":[-119.2461395,50.2678735]}},{"type":"Feature","properties":{"ZIP":"V1T4E2","VERTICES":6},"geometry":{"type":"Point","coordinates":[-119.2584985,50.273388]}},{"type":"Feature","properties":{"ZIP":"V1T4Z7","VERTICES":6},"geometry":{"type":"Point","coordinates":[-119.269637,50.265519999999995]}},{"type":"Feature","properties":{"ZIP":"V1T7H5","VERTICES":6},"geometry":{"type":"Point","coordinates":[-119.28732199999999,50.252674]}},{"type":"Feature","properties":{"ZIP":"V1T8N8","VERTICES":6},"geometry":{"type":"Point","coordinates":[-119.30605800000001,50.250880499999994]}},{"type":"Feature","properties":{"ZIP":"V1T1M7","VERTICES":6},"geometry":{"type":"Point","coordinates":[-119.2532425,50.260098]}},{"type":"Feature","properties":{"ZIP":"V1T2T7","VERTICES":6},"geometry":{"type":"Point","coordinates":[-119.28036850000001,50.2658815]}},{"type":"Feature","properties":{"ZIP":"V1T4T7","VERTICES":6},"geometry":{"type":"Point","coordinates":[-119.2653075,50.262981499999995]}},{"type":"Feature","properties":{"ZIP":"V1T5P9","VERTICES":6},"geometry":{"type":"Point","coordinates":[-119.27495400000001,50.2592565]}},{"type":"Feature","properties":{"ZIP":"V1T7Z1","VERTICES":6},"geometry":{"type":"Point","coordinates":[-119.248944,50.27394150000001]}},{"type":"Feature","properties":{"ZIP":"V1T9R4","VERTICES":6},"geometry":{"type":"Point","coordinates":[-119.26267849999999,50.252638000000005]}},{"type":"Feature","properties":{"ZIP":"V1T1J4","VERTICES":6},"geometry":{"type":"Point","coordinates":[-119.2605765,50.257863]}},{"type":"Feature","properties":{"ZIP":"V1T1R5","VERTICES":6},"geometry":{"type":"Point","coordinates":[-119.2586125,50.260181]}},{"type":"Feature","properties":{"ZIP":"V1T4B6","VERTICES":6},"geometry":{"type":"Point","coordinates":[-119.2566815,50.266155]}},{"type":"Feature","properties":{"ZIP":"V1T4J7","VERTICES":6},"geometry":{"type":"Point","coordinates":[-119.265039,50.260264500000005]}},{"type":"Feature","properties":{"ZIP":"V1T6E4","VERTICES":6},"geometry":{"type":"Point","coordinates":[-119.2801455,50.2563325]}},{"type":"Feature","properties":{"ZIP":"V1T6X8","VERTICES":6},"geometry":{"type":"Point","coordinates":[-119.2929295,50.252549]}},{"type":"Feature","properties":{"ZIP":"V1T8B6","VERTICES":6},"geometry":{"type":"Point","coordinates":[-119.256489,50.272321500000004]}},{"type":"Feature","properties":{"ZIP":"V1T9V1","VERTICES":6},"geometry":{"type":"Point","coordinates":[-119.2731215,50.283075499999995]}},{"type":"Feature","properties":{"ZIP":"V1T2P2","VERTICES":6},"geometry":{"type":"Point","coordinates":[-119.27687399999999,50.266546500000004]}},{"type":"Feature","properties":{"ZIP":"V1T3S4","VERTICES":6},"geometry":{"type":"Point","coordinates":[-119.247146,50.257549499999996]}},{"type":"Feature","properties":{"ZIP":"V1T4L8","VERTICES":6},"geometry":{"type":"Point","coordinates":[-119.260013,50.2694625]}},{"type":"Feature","properties":{"ZIP":"V1T4S1","VERTICES":6},"geometry":{"type":"Point","coordinates":[-119.26425,50.273138]}},{"type":"Feature","properties":{"ZIP":"V1T6H4","VERTICES":6},"geometry":{"type":"Point","coordinates":[-119.28574900000001,50.262163]}},{"type":"Feature","properties":{"ZIP":"V1T6S2","VERTICES":6},"geometry":{"type":"Point","coordinates":[-119.24410950000001,50.26808]}},{"type":"Feature","properties":{"ZIP":"V1T3V5","VERTICES":6},"geometry":{"type":"Point","coordinates":[-119.251033,50.260954999999996]}},{"type":"Feature","properties":{"ZIP":"V1T3Z8","VERTICES":6},"geometry":{"type":"Point","coordinates":[-119.255229,50.258495499999995]}},{"type":"Feature","properties":{"ZIP":"V1T6V1","VERTICES":6},"geometry":{"type":"Point","coordinates":[-119.2552785,50.255314]}},{"type":"Feature","properties":{"ZIP":"V1T8H6","VERTICES":6},"geometry":{"type":"Point","coordinates":[-119.259502,50.257000500000004]}},{"type":"Feature","properties":{"ZIP":"V1T1S2","VERTICES":6},"geometry":{"type":"Point","coordinates":[-119.2665955,50.266753]}},{"type":"Feature","properties":{"ZIP":"V1T4B7","VERTICES":6},"geometry":{"type":"Point","coordinates":[-119.27872149999999,50.2555935]}},{"type":"Feature","properties":{"ZIP":"V1T4J8","VERTICES":6},"geometry":{"type":"Point","coordinates":[-119.2663165,50.261031]}},{"type":"Feature","properties":{"ZIP":"V1T6E5","VERTICES":6},"geometry":{"type":"Point","coordinates":[-119.2821105,50.269744]}},{"type":"Feature","properties":{"ZIP":"V1T7G4","VERTICES":6},"geometry":{"type":"Point","coordinates":[-119.2651245,50.2869415]}},{"type":"Feature","properties":{"ZIP":"V1T8X4","VERTICES":6},"geometry":{"type":"Point","coordinates":[-119.2549975,50.2761305]}},{"type":"Feature","properties":{"ZIP":"V1T1E2","VERTICES":6},"geometry":{"type":"Point","coordinates":[-119.25527299999999,50.267309499999996]}},{"type":"Feature","properties":{"ZIP":"V1T3K3","VERTICES":6},"geometry":{"type":"Point","coordinates":[-119.25649150000001,50.274862]}},{"type":"Feature","properties":{"ZIP":"V1T3S5","VERTICES":6},"geometry":{"type":"Point","coordinates":[-119.247146,50.257549499999996]}},{"type":"Feature","properties":{"ZIP":"V1T4L9","VERTICES":6},"geometry":{"type":"Point","coordinates":[-119.26165549999999,50.267223]}},{"type":"Feature","properties":{"ZIP":"V1T5A1","VERTICES":6},"geometry":{"type":"Point","coordinates":[-119.268584,50.2712455]}},{"type":"Feature","properties":{"ZIP":"V1T8P3","VERTICES":6},"geometry":{"type":"Point","coordinates":[-119.3062775,50.2507705]}},{"type":"Feature","properties":{"ZIP":"V1T1Y4","VERTICES":6},"geometry":{"type":"Point","coordinates":[-119.24822549999999,50.262781000000004]}},{"type":"Feature","properties":{"ZIP":"V1T2T9","VERTICES":6},"geometry":{"type":"Point","coordinates":[-119.289755,50.268707]}},{"type":"Feature","properties":{"ZIP":"V1T6L3","VERTICES":6},"geometry":{"type":"Point","coordinates":[-119.29578000000001,50.2602775]}},{"type":"Feature","properties":{"ZIP":"V1T6V2","VERTICES":6},"geometry":{"type":"Point","coordinates":[-119.263638,50.250085]}},{"type":"Feature","properties":{"ZIP":"V1T7C6","VERTICES":6},"geometry":{"type":"Point","coordinates":[-119.252373,50.270120500000004]}},{"type":"Feature","properties":{"ZIP":"V1T7K8","VERTICES":6},"geometry":{"type":"Point","coordinates":[-119.278486,50.26358]}},{"type":"Feature","properties":{"ZIP":"V1T9R7","VERTICES":6},"geometry":{"type":"Point","coordinates":[-119.3282665,50.2410215]}},{"type":"Feature","properties":{"ZIP":"V1T1J6","VERTICES":6},"geometry":{"type":"Point","coordinates":[-119.2616525,50.25786]}},{"type":"Feature","properties":{"ZIP":"V1T5G4","VERTICES":6},"geometry":{"type":"Point","coordinates":[-119.2689485,50.259456]}},{"type":"Feature","properties":{"ZIP":"V1T8B9","VERTICES":6},"geometry":{"type":"Point","coordinates":[-119.27525349999999,50.2624435]}},{"type":"Feature","properties":{"ZIP":"V1T8X7","VERTICES":6},"geometry":{"type":"Point","coordinates":[-119.2632595,50.284302]}},{"type":"Feature","properties":{"ZIP":"V1T1E3","VERTICES":6},"geometry":{"type":"Point","coordinates":[-119.25527650000001,50.267317500000004]}},{"type":"Feature","properties":{"ZIP":"V1T1L4","VERTICES":6},"geometry":{"type":"Point","coordinates":[-119.27372199999999,50.2594605]}},{"type":"Feature","properties":{"ZIP":"V1T3S7","VERTICES":6},"geometry":{"type":"Point","coordinates":[-119.24767,50.2691255]}},{"type":"Feature","properties":{"ZIP":"V1T5M2","VERTICES":6},"geometry":{"type":"Point","coordinates":[-119.271344,50.2634815]}},{"type":"Feature","properties":{"ZIP":"V1T6H6","VERTICES":6},"geometry":{"type":"Point","coordinates":[-119.2856985,50.264363]}},{"type":"Feature","properties":{"ZIP":"V1T7H9","VERTICES":6},"geometry":{"type":"Point","coordinates":[-119.2482435,50.2610265]}},{"type":"Feature","properties":{"ZIP":"V1T7X5","VERTICES":6},"geometry":{"type":"Point","coordinates":[-119.24712,50.2654405]}},{"type":"Feature","properties":{"ZIP":"V1T3E9","VERTICES":6},"geometry":{"type":"Point","coordinates":[-119.24601849999999,50.270142500000006]}},{"type":"Feature","properties":{"ZIP":"V1T5R4","VERTICES":6},"geometry":{"type":"Point","coordinates":[-119.2749485,50.259910000000005]}},{"type":"Feature","properties":{"ZIP":"V1T8J2","VERTICES":6},"geometry":{"type":"Point","coordinates":[-119.3093095,50.2591305]}},{"type":"Feature","properties":{"ZIP":"V1T2W9","VERTICES":6},"geometry":{"type":"Point","coordinates":[-119.283084,50.257126]}},{"type":"Feature","properties":{"ZIP":"V1T3P4","VERTICES":6},"geometry":{"type":"Point","coordinates":[-119.2603055,50.278662]}},{"type":"Feature","properties":{"ZIP":"V1T4C1","VERTICES":6},"geometry":{"type":"Point","coordinates":[-119.2567245,50.269442999999995]}},{"type":"Feature","properties":{"ZIP":"V1T4P9","VERTICES":6},"geometry":{"type":"Point","coordinates":[-119.26421400000001,50.2632575]}},{"type":"Feature","properties":{"ZIP":"V1T6E7","VERTICES":6},"geometry":{"type":"Point","coordinates":[-119.282123,50.2700895]}},{"type":"Feature","properties":{"ZIP":"V1T6R2","VERTICES":6},"geometry":{"type":"Point","coordinates":[-119.289569,50.254366000000005]}},{"type":"Feature","properties":{"ZIP":"V1T7V5","VERTICES":6},"geometry":{"type":"Point","coordinates":[-119.30236,50.261739]}},{"type":"Feature","properties":{"ZIP":"V1T2R3","VERTICES":6},"geometry":{"type":"Point","coordinates":[-119.246568,50.267397]}},{"type":"Feature","properties":{"ZIP":"V1T6H7","VERTICES":6},"geometry":{"type":"Point","coordinates":[-119.28569300000001,50.264438]}},{"type":"Feature","properties":{"ZIP":"V1T8G2","VERTICES":6},"geometry":{"type":"Point","coordinates":[-119.25526550000001,50.2561635]}},{"type":"Feature","properties":{"ZIP":"V1T2H6","VERTICES":6},"geometry":{"type":"Point","coordinates":[-119.2755775,50.26567]}},{"type":"Feature","properties":{"ZIP":"V1T3V9","VERTICES":6},"geometry":{"type":"Point","coordinates":[-119.251048,50.2633]}},{"type":"Feature","properties":{"ZIP":"V1T6W1","VERTICES":6},"geometry":{"type":"Point","coordinates":[-119.2814455,50.2728885]}},{"type":"Feature","properties":{"ZIP":"V1T9G5","VERTICES":6},"geometry":{"type":"Point","coordinates":[-119.24424400000001,50.2771715]}},{"type":"Feature","properties":{"ZIP":"V1T2M9","VERTICES":6},"geometry":{"type":"Point","coordinates":[-119.27636050000001,50.266071499999995]}},{"type":"Feature","properties":{"ZIP":"V1T3P5","VERTICES":6},"geometry":{"type":"Point","coordinates":[-119.263383,50.278748]}},{"type":"Feature","properties":{"ZIP":"V1T4R1","VERTICES":6},"geometry":{"type":"Point","coordinates":[-119.2642075,50.2639345]}},{"type":"Feature","properties":{"ZIP":"V1T7G8","VERTICES":6},"geometry":{"type":"Point","coordinates":[-119.295646,50.2597905]}},{"type":"Feature","properties":{"ZIP":"V1T8X9","VERTICES":6},"geometry":{"type":"Point","coordinates":[-119.307184,50.252047000000005]}},{"type":"Feature","properties":{"ZIP":"V1T2E8","VERTICES":5},"geometry":{"type":"Point","coordinates":[-119.28770399999999,50.2637365]}},{"type":"Feature","properties":{"ZIP":"V1T2R4","VERTICES":5},"geometry":{"type":"Point","coordinates":[-119.248716,50.2674025]}},{"type":"Feature","properties":{"ZIP":"V1T6H9","VERTICES":5},"geometry":{"type":"Point","coordinates":[-119.28811999999999,50.2575485]}},{"type":"Feature","properties":{"ZIP":"V1T7J2","VERTICES":5},"geometry":{"type":"Point","coordinates":[-119.250427,50.26936499999999]}},{"type":"Feature","properties":{"ZIP":"V1T9B5","VERTICES":5},"geometry":{"type":"Point","coordinates":[-119.260627,50.247792000000004]}},{"type":"Feature","properties":{"ZIP":"V1T1Z1","VERTICES":5},"geometry":{"type":"Point","coordinates":[-119.27275399999999,50.2629785]}},{"type":"Feature","properties":{"ZIP":"V1T2H8","VERTICES":5},"geometry":{"type":"Point","coordinates":[-119.2517735,50.265394]}},{"type":"Feature","properties":{"ZIP":"V1T4H6","VERTICES":5},"geometry":{"type":"Point","coordinates":[-119.26078150000001,50.264268]}},{"type":"Feature","properties":{"ZIP":"V1T4N8","VERTICES":5},"geometry":{"type":"Point","coordinates":[-119.2632925,50.27199]}},{"type":"Feature","properties":{"ZIP":"V1T5R7","VERTICES":5},"geometry":{"type":"Point","coordinates":[-119.27492000000001,50.2564265]}},{"type":"Feature","properties":{"ZIP":"V1T6W8","VERTICES":5},"geometry":{"type":"Point","coordinates":[-119.2554465,50.274795]}},{"type":"Feature","properties":{"ZIP":"V1T7L5","VERTICES":5},"geometry":{"type":"Point","coordinates":[-119.24866399999999,50.259984]}},{"type":"Feature","properties":{"ZIP":"V1T7T1","VERTICES":5},"geometry":{"type":"Point","coordinates":[-119.252876,50.2720705]}},{"type":"Feature","properties":{"ZIP":"V1T1A3","VERTICES":5},"geometry":{"type":"Point","coordinates":[-119.2525215,50.267318]}},{"type":"Feature","properties":{"ZIP":"V1T1S8","VERTICES":5},"geometry":{"type":"Point","coordinates":[-119.28879549999999,50.2616205]}},{"type":"Feature","properties":{"ZIP":"V1T2N1","VERTICES":5},"geometry":{"type":"Point","coordinates":[-119.276448,50.266091]}},{"type":"Feature","properties":{"ZIP":"V1T4K6","VERTICES":5},"geometry":{"type":"Point","coordinates":[-119.2623365,50.270483]}},{"type":"Feature","properties":{"ZIP":"V1T4R2","VERTICES":5},"geometry":{"type":"Point","coordinates":[-119.264239,50.2652005]}},{"type":"Feature","properties":{"ZIP":"V1T6R5","VERTICES":5},"geometry":{"type":"Point","coordinates":[-119.24842699999999,50.261010999999996]}},{"type":"Feature","properties":{"ZIP":"V1T7G9","VERTICES":5},"geometry":{"type":"Point","coordinates":[-119.29088250000001,50.2595175]}},{"type":"Feature","properties":{"ZIP":"V1T8C8","VERTICES":5},"geometry":{"type":"Point","coordinates":[-119.250764,50.273114500000005]}},{"type":"Feature","properties":{"ZIP":"V1T8Y6","VERTICES":5},"geometry":{"type":"Point","coordinates":[-119.255832,50.2761045]}},{"type":"Feature","properties":{"ZIP":"V1T2E9","VERTICES":5},"geometry":{"type":"Point","coordinates":[-119.28642149999999,50.2638125]}},{"type":"Feature","properties":{"ZIP":"V1T3A6","VERTICES":5},"geometry":{"type":"Point","coordinates":[-119.2547335,50.270114]}},{"type":"Feature","properties":{"ZIP":"V1T5A6","VERTICES":5},"geometry":{"type":"Point","coordinates":[-119.269036,50.2636395]}},{"type":"Feature","properties":{"ZIP":"V1T5P2","VERTICES":5},"geometry":{"type":"Point","coordinates":[-119.27317,50.2712535]}},{"type":"Feature","properties":{"ZIP":"V1T7R3","VERTICES":5},"geometry":{"type":"Point","coordinates":[-119.30614299999999,50.252523499999995]}},{"type":"Feature","properties":{"ZIP":"V1T8G6","VERTICES":5},"geometry":{"type":"Point","coordinates":[-119.255814,50.285191499999996]}},{"type":"Feature","properties":{"ZIP":"V1T9N8","VERTICES":5},"geometry":{"type":"Point","coordinates":[-119.258952,50.2850935]}},{"type":"Feature","properties":{"ZIP":"V1T1Z3","VERTICES":5},"geometry":{"type":"Point","coordinates":[-119.2699505,50.2702625]}},{"type":"Feature","properties":{"ZIP":"V1T2V4","VERTICES":5},"geometry":{"type":"Point","coordinates":[-119.2822005,50.2591235]}},{"type":"Feature","properties":{"ZIP":"V1T4N9","VERTICES":5},"geometry":{"type":"Point","coordinates":[-119.2629955,50.275113000000005]}},{"type":"Feature","properties":{"ZIP":"V1T4V4","VERTICES":5},"geometry":{"type":"Point","coordinates":[-119.2885665,50.260949]}},{"type":"Feature","properties":{"ZIP":"V1T5C3","VERTICES":5},"geometry":{"type":"Point","coordinates":[-119.253621,50.263821]}},{"type":"Feature","properties":{"ZIP":"V1T6B7","VERTICES":5},"geometry":{"type":"Point","coordinates":[-119.276914,50.2664165]}},{"type":"Feature","properties":{"ZIP":"V1T7L6","VERTICES":5},"geometry":{"type":"Point","coordinates":[-119.25750550000001,50.2595735]}},{"type":"Feature","properties":{"ZIP":"V1T7T2","VERTICES":5},"geometry":{"type":"Point","coordinates":[-119.25852900000001,50.288134]}},{"type":"Feature","properties":{"ZIP":"V1T9T2","VERTICES":5},"geometry":{"type":"Point","coordinates":[-119.2605255,50.2887085]}},{"type":"Feature","properties":{"ZIP":"V1T2C2","VERTICES":5},"geometry":{"type":"Point","coordinates":[-119.2725345,50.263622999999995]}},{"type":"Feature","properties":{"ZIP":"V1T2N2","VERTICES":5},"geometry":{"type":"Point","coordinates":[-119.2736625,50.269493499999996]}},{"type":"Feature","properties":{"ZIP":"V1T4C7","VERTICES":5},"geometry":{"type":"Point","coordinates":[-119.25805249999999,50.267074]}},{"type":"Feature","properties":{"ZIP":"V1T5H7","VERTICES":5},"geometry":{"type":"Point","coordinates":[-119.2721185,50.264153]}},{"type":"Feature","properties":{"ZIP":"V1T6G5","VERTICES":5},"geometry":{"type":"Point","coordinates":[-119.2842905,50.264558]}},{"type":"Feature","properties":{"ZIP":"V1T7N1","VERTICES":5},"geometry":{"type":"Point","coordinates":[-119.25567,50.273103500000005]}},{"type":"Feature","properties":{"ZIP":"V1T7W2","VERTICES":5},"geometry":{"type":"Point","coordinates":[-119.3071615,50.258693]}},{"type":"Feature","properties":{"ZIP":"V1T8Z1","VERTICES":5},"geometry":{"type":"Point","coordinates":[-119.26438049999999,50.251959]}},{"type":"Feature","properties":{"ZIP":"V1T3Z2","VERTICES":5},"geometry":{"type":"Point","coordinates":[-119.2542505,50.2675455]}},{"type":"Feature","properties":{"ZIP":"V1T4M5","VERTICES":5},"geometry":{"type":"Point","coordinates":[-119.2534095,50.2771735]}},{"type":"Feature","properties":{"ZIP":"V1T4T2","VERTICES":5},"geometry":{"type":"Point","coordinates":[-119.265374,50.258845]}},{"type":"Feature","properties":{"ZIP":"V1T5A8","VERTICES":5},"geometry":{"type":"Point","coordinates":[-119.2691665,50.2611435]}},{"type":"Feature","properties":{"ZIP":"V1T5Z1","VERTICES":5},"geometry":{"type":"Point","coordinates":[-119.27749,50.253999]}},{"type":"Feature","properties":{"ZIP":"V1T7R4","VERTICES":5},"geometry":{"type":"Point","coordinates":[-119.30603199999999,50.253241]}},{"type":"Feature","properties":{"ZIP":"V1T8G8","VERTICES":5},"geometry":{"type":"Point","coordinates":[-119.309968,50.2605435]}},{"type":"Feature","properties":{"ZIP":"V1T3G6","VERTICES":5},"geometry":{"type":"Point","coordinates":[-119.251146,50.2722835]}},{"type":"Feature","properties":{"ZIP":"V1T4P1","VERTICES":5},"geometry":{"type":"Point","coordinates":[-119.2630195,50.275284]}},{"type":"Feature","properties":{"ZIP":"V1T8A7","VERTICES":5},"geometry":{"type":"Point","coordinates":[-119.28109900000001,50.254597]}},{"type":"Feature","properties":{"ZIP":"V1T8V7","VERTICES":5},"geometry":{"type":"Point","coordinates":[-119.261206,50.250246]}},{"type":"Feature","properties":{"ZIP":"V1T9H2","VERTICES":5},"geometry":{"type":"Point","coordinates":[-119.279462,50.267029]}},{"type":"Feature","properties":{"ZIP":"V1T9T3","VERTICES":5},"geometry":{"type":"Point","coordinates":[-119.2628325,50.287429]}},{"type":"Feature","properties":{"ZIP":"V1T1B5","VERTICES":5},"geometry":{"type":"Point","coordinates":[-119.253891,50.267335]}},{"type":"Feature","properties":{"ZIP":"V1T1K7","VERTICES":5},"geometry":{"type":"Point","coordinates":[-119.3016495,50.2515705]}},{"type":"Feature","properties":{"ZIP":"V1T2C4","VERTICES":5},"geometry":{"type":"Point","coordinates":[-119.2718515,50.2637575]}},{"type":"Feature","properties":{"ZIP":"V1T3J5","VERTICES":5},"geometry":{"type":"Point","coordinates":[-119.265199,50.2736545]}},{"type":"Feature","properties":{"ZIP":"V1T3R6","VERTICES":5},"geometry":{"type":"Point","coordinates":[-119.2743995,50.2819975]}},{"type":"Feature","properties":{"ZIP":"V1T5W5","VERTICES":5},"geometry":{"type":"Point","coordinates":[-119.268855,50.2622605]}},{"type":"Feature","properties":{"ZIP":"V1T6G7","VERTICES":5},"geometry":{"type":"Point","coordinates":[-119.284587,50.2676735]}},{"type":"Feature","properties":{"ZIP":"V1T7H2","VERTICES":5},"geometry":{"type":"Point","coordinates":[-119.29657449999999,50.2539275]}},{"type":"Feature","properties":{"ZIP":"V1T7N2","VERTICES":5},"geometry":{"type":"Point","coordinates":[-119.26083650000001,50.2688475]}},{"type":"Feature","properties":{"ZIP":"V1T8E2","VERTICES":5},"geometry":{"type":"Point","coordinates":[-119.28298899999999,50.253029]}},{"type":"Feature","properties":{"ZIP":"V1T2S9","VERTICES":5},"geometry":{"type":"Point","coordinates":[-119.2714905,50.2673975]}},{"type":"Feature","properties":{"ZIP":"V1T3A8","VERTICES":5},"geometry":{"type":"Point","coordinates":[-119.258554,50.270121]}},{"type":"Feature","properties":{"ZIP":"V1T4G3","VERTICES":5},"geometry":{"type":"Point","coordinates":[-119.26080999999999,50.2576525]}},{"type":"Feature","properties":{"ZIP":"V1T5B1","VERTICES":5},"geometry":{"type":"Point","coordinates":[-119.2717065,50.264419000000004]}},{"type":"Feature","properties":{"ZIP":"V1T5P4","VERTICES":5},"geometry":{"type":"Point","coordinates":[-119.2738985,50.273120500000005]}},{"type":"Feature","properties":{"ZIP":"V1T5Z6","VERTICES":5},"geometry":{"type":"Point","coordinates":[-119.27946850000001,50.2532265]}},{"type":"Feature","properties":{"ZIP":"V1T2J3","VERTICES":5},"geometry":{"type":"Point","coordinates":[-119.254572,50.2653785]}},{"type":"Feature","properties":{"ZIP":"V1T3N2","VERTICES":5},"geometry":{"type":"Point","coordinates":[-119.265549,50.2775235]}},{"type":"Feature","properties":{"ZIP":"V1T4B3","VERTICES":5},"geometry":{"type":"Point","coordinates":[-119.2594125,50.256904]}},{"type":"Feature","properties":{"ZIP":"V1T5C6","VERTICES":5},"geometry":{"type":"Point","coordinates":[-119.268962,50.2627815]}},{"type":"Feature","properties":{"ZIP":"V1T6C5","VERTICES":5},"geometry":{"type":"Point","coordinates":[-119.2808405,50.2704885]}},{"type":"Feature","properties":{"ZIP":"V1T6P2","VERTICES":5},"geometry":{"type":"Point","coordinates":[-119.25300250000001,50.274865000000005]}},{"type":"Feature","properties":{"ZIP":"V1T7E7","VERTICES":5},"geometry":{"type":"Point","coordinates":[-119.248558,50.2708655]}},{"type":"Feature","properties":{"ZIP":"V1T7M1","VERTICES":5},"geometry":{"type":"Point","coordinates":[-119.2673385,50.243078499999996]}},{"type":"Feature","properties":{"ZIP":"V1T9T4","VERTICES":5},"geometry":{"type":"Point","coordinates":[-119.2629385,50.28713449999999]}},{"type":"Feature","properties":{"ZIP":"V1T1B6","VERTICES":5},"geometry":{"type":"Point","coordinates":[-119.25389100000001,50.267336]}},{"type":"Feature","properties":{"ZIP":"V1T1T2","VERTICES":5},"geometry":{"type":"Point","coordinates":[-119.29255549999999,50.261609]}},{"type":"Feature","properties":{"ZIP":"V1T2Y7","VERTICES":5},"geometry":{"type":"Point","coordinates":[-119.248576,50.26935]}},{"type":"Feature","properties":{"ZIP":"V1T4R7","VERTICES":5},"geometry":{"type":"Point","coordinates":[-119.2642475,50.2705555]}},{"type":"Feature","properties":{"ZIP":"V1T2G3","VERTICES":5},"geometry":{"type":"Point","coordinates":[-119.289893,50.263514]}},{"type":"Feature","properties":{"ZIP":"V1T3B3","VERTICES":5},"geometry":{"type":"Point","coordinates":[-119.2880725,50.2579765]}},{"type":"Feature","properties":{"ZIP":"V1T3V1","VERTICES":5},"geometry":{"type":"Point","coordinates":[-119.2894885,50.2513635]}},{"type":"Feature","properties":{"ZIP":"V1T3Z5","VERTICES":5},"geometry":{"type":"Point","coordinates":[-119.2535825,50.279238]}},{"type":"Feature","properties":{"ZIP":"V1T5P7","VERTICES":5},"geometry":{"type":"Point","coordinates":[-119.264056,50.2597845]}},{"type":"Feature","properties":{"ZIP":"V1T6J8","VERTICES":5},"geometry":{"type":"Point","coordinates":[-119.26918549999999,50.2715825]}},{"type":"Feature","properties":{"ZIP":"V1T7B6","VERTICES":5},"geometry":{"type":"Point","coordinates":[-119.25729849999999,50.256218000000004]}},{"type":"Feature","properties":{"ZIP":"V1T2J5","VERTICES":5},"geometry":{"type":"Point","coordinates":[-119.2559685,50.2653655]}},{"type":"Feature","properties":{"ZIP":"V1T2V8","VERTICES":5},"geometry":{"type":"Point","coordinates":[-119.27734050000001,50.266381499999994]}},{"type":"Feature","properties":{"ZIP":"V1T3G8","VERTICES":5},"geometry":{"type":"Point","coordinates":[-119.26011249999999,50.2730405]}},{"type":"Feature","properties":{"ZIP":"V1T4B4","VERTICES":5},"geometry":{"type":"Point","coordinates":[-119.2566615,50.2642095]}},{"type":"Feature","properties":{"ZIP":"V1T7E8","VERTICES":5},"geometry":{"type":"Point","coordinates":[-119.248558,50.2708655]}},{"type":"Feature","properties":{"ZIP":"V1T7T9","VERTICES":5},"geometry":{"type":"Point","coordinates":[-119.2808125,50.274746500000006]}},{"type":"Feature","properties":{"ZIP":"V1T2C8","VERTICES":5},"geometry":{"type":"Point","coordinates":[-119.27686,50.2639105]}},{"type":"Feature","properties":{"ZIP":"V1T3S2","VERTICES":5},"geometry":{"type":"Point","coordinates":[-119.2458515,50.257394500000004]}},{"type":"Feature","properties":{"ZIP":"V1T4E1","VERTICES":5},"geometry":{"type":"Point","coordinates":[-119.25850249999999,50.2733995]}},{"type":"Feature","properties":{"ZIP":"V1T5W8","VERTICES":5},"geometry":{"type":"Point","coordinates":[-119.2763195,50.260125]}},{"type":"Feature","properties":{"ZIP":"V1T7W7","VERTICES":5},"geometry":{"type":"Point","coordinates":[-119.246219,50.269828000000004]}},{"type":"Feature","properties":{"ZIP":"V1T3B5","VERTICES":5},"geometry":{"type":"Point","coordinates":[-119.287597,50.2599805]}},{"type":"Feature","properties":{"ZIP":"V1T3Z6","VERTICES":5},"geometry":{"type":"Point","coordinates":[-119.25357249999999,50.279209]}},{"type":"Feature","properties":{"ZIP":"V1T4G9","VERTICES":5},"geometry":{"type":"Point","coordinates":[-119.26042100000001,50.258148000000006]}},{"type":"Feature","properties":{"ZIP":"V1T5P8","VERTICES":5},"geometry":{"type":"Point","coordinates":[-119.274935,50.2535715]}},{"type":"Feature","properties":{"ZIP":"V1T5Z9","VERTICES":5},"geometry":{"type":"Point","coordinates":[-119.278632,50.2601595]}},{"type":"Feature","properties":{"ZIP":"V1T6K7","VERTICES":5},"geometry":{"type":"Point","coordinates":[-119.256107,50.274795]}},{"type":"Feature","properties":{"ZIP":"V1T7B7","VERTICES":5},"geometry":{"type":"Point","coordinates":[-119.2579815,50.2560515]}},{"type":"Feature","properties":{"ZIP":"V1T7R9","VERTICES":5},"geometry":{"type":"Point","coordinates":[-119.30233799999999,50.255430000000004]}},{"type":"Feature","properties":{"ZIP":"V1T1Z7","VERTICES":5},"geometry":{"type":"Point","coordinates":[-119.24913649999999,50.263720500000005]}},{"type":"Feature","properties":{"ZIP":"V1T3H3","VERTICES":5},"geometry":{"type":"Point","coordinates":[-119.26799349999999,50.27239]}},{"type":"Feature","properties":{"ZIP":"V1T4B5","VERTICES":5},"geometry":{"type":"Point","coordinates":[-119.25666749999999,50.264719]}},{"type":"Feature","properties":{"ZIP":"V1T4J5","VERTICES":5},"geometry":{"type":"Point","coordinates":[-119.2624835,50.2588765]}},{"type":"Feature","properties":{"ZIP":"V1T4P5","VERTICES":5},"geometry":{"type":"Point","coordinates":[-119.26425,50.259554]}},{"type":"Feature","properties":{"ZIP":"V1T6P5","VERTICES":5},"geometry":{"type":"Point","coordinates":[-119.2526465,50.27696]}},{"type":"Feature","properties":{"ZIP":"V1T7M3","VERTICES":5},"geometry":{"type":"Point","coordinates":[-119.266538,50.238739499999994]}},{"type":"Feature","properties":{"ZIP":"V1T2C9","VERTICES":5},"geometry":{"type":"Point","coordinates":[-119.27783099999999,50.2638415]}},{"type":"Feature","properties":{"ZIP":"V1T4R9","VERTICES":5},"geometry":{"type":"Point","coordinates":[-119.2642505,50.273138]}},{"type":"Feature","properties":{"ZIP":"V1T5J8","VERTICES":5},"geometry":{"type":"Point","coordinates":[-119.062383,50.355656999999994]}},{"type":"Feature","properties":{"ZIP":"V1T5X8","VERTICES":5},"geometry":{"type":"Point","coordinates":[-119.27645749999999,50.2664465]}},{"type":"Feature","properties":{"ZIP":"V1T6H2","VERTICES":5},"geometry":{"type":"Point","coordinates":[-119.2834175,50.2721085]}},{"type":"Feature","properties":{"ZIP":"V1T7N6","VERTICES":5},"geometry":{"type":"Point","coordinates":[-119.253429,50.271726]}},{"type":"Feature","properties":{"ZIP":"V1T7W9","VERTICES":5},"geometry":{"type":"Point","coordinates":[-119.2881915,50.2568905]}},{"type":"Feature","properties":{"ZIP":"V1T8E6","VERTICES":5},"geometry":{"type":"Point","coordinates":[-119.25678049999999,50.2552055]}},{"type":"Feature","properties":{"ZIP":"V1T8Z9","VERTICES":5},"geometry":{"type":"Point","coordinates":[-119.2633,50.271838]}},{"type":"Feature","properties":{"ZIP":"V1T1Y2","VERTICES":5},"geometry":{"type":"Point","coordinates":[-119.2789095,50.263612]}},{"type":"Feature","properties":{"ZIP":"V1T2G9","VERTICES":5},"geometry":{"type":"Point","coordinates":[-119.2722935,50.264609]}},{"type":"Feature","properties":{"ZIP":"V1T4H1","VERTICES":5},"geometry":{"type":"Point","coordinates":[-119.2607865,50.2607025]}},{"type":"Feature","properties":{"ZIP":"V1T6A1","VERTICES":5},"geometry":{"type":"Point","coordinates":[-119.2775855,50.2603515]}},{"type":"Feature","properties":{"ZIP":"V1T7B9","VERTICES":5},"geometry":{"type":"Point","coordinates":[-119.2575805,50.256844]}},{"type":"Feature","properties":{"ZIP":"V1T7K4","VERTICES":5},"geometry":{"type":"Point","coordinates":[-119.248651,50.271634]}},{"type":"Feature","properties":{"ZIP":"V1T8H5","VERTICES":5},"geometry":{"type":"Point","coordinates":[-119.251871,50.2713105]}},{"type":"Feature","properties":{"ZIP":"V1T8T1","VERTICES":5},"geometry":{"type":"Point","coordinates":[-119.2514085,50.248396]}},{"type":"Feature","properties":{"ZIP":"V1T2K1","VERTICES":5},"geometry":{"type":"Point","coordinates":[-119.25979799999999,50.26535749999999]}},{"type":"Feature","properties":{"ZIP":"V1T3N5","VERTICES":5},"geometry":{"type":"Point","coordinates":[-119.2713075,50.278023000000005]}},{"type":"Feature","properties":{"ZIP":"V1T3W7","VERTICES":5},"geometry":{"type":"Point","coordinates":[-119.25250750000001,50.263372]}},{"type":"Feature","properties":{"ZIP":"V1T4W4","VERTICES":5},"geometry":{"type":"Point","coordinates":[-119.2665915,50.2651185]}},{"type":"Feature","properties":{"ZIP":"V1T5S8","VERTICES":5},"geometry":{"type":"Point","coordinates":[-119.272159,50.264750500000005]}},{"type":"Feature","properties":{"ZIP":"V1T7M4","VERTICES":5},"geometry":{"type":"Point","coordinates":[-119.2660825,50.240936000000005]}},{"type":"Feature","properties":{"ZIP":"V1T8X2","VERTICES":5},"geometry":{"type":"Point","coordinates":[-119.26317,50.283516500000005]}},{"type":"Feature","properties":{"ZIP":"V1T1C2","VERTICES":5},"geometry":{"type":"Point","coordinates":[-119.2853825,50.254971999999995]}},{"type":"Feature","properties":{"ZIP":"V1T1L2","VERTICES":5},"geometry":{"type":"Point","coordinates":[-119.264359,50.260566999999995]}},{"type":"Feature","properties":{"ZIP":"V1T1T7","VERTICES":5},"geometry":{"type":"Point","coordinates":[-119.2517575,50.262201000000005]}},{"type":"Feature","properties":{"ZIP":"V1T2E3","VERTICES":5},"geometry":{"type":"Point","coordinates":[-119.27918550000001,50.263931]}},{"type":"Feature","properties":{"ZIP":"V1T2Z1","VERTICES":5},"geometry":{"type":"Point","coordinates":[-119.25284450000001,50.269472]}},{"type":"Feature","properties":{"ZIP":"V1T4Z9","VERTICES":5},"geometry":{"type":"Point","coordinates":[-119.268583,50.271305]}},{"type":"Feature","properties":{"ZIP":"V1T5J9","VERTICES":5},"geometry":{"type":"Point","coordinates":[-119.2713715,50.2792645]}},{"type":"Feature","properties":{"ZIP":"V1T7X1","VERTICES":5},"geometry":{"type":"Point","coordinates":[-119.2520285,50.2715355]}},{"type":"Feature","properties":{"ZIP":"V1T5R1","VERTICES":5},"geometry":{"type":"Point","coordinates":[-119.274924,50.254262]}},{"type":"Feature","properties":{"ZIP":"V1T6L2","VERTICES":5},"geometry":{"type":"Point","coordinates":[-119.2874615,50.268134]}},{"type":"Feature","properties":{"ZIP":"V1T7C1","VERTICES":5},"geometry":{"type":"Point","coordinates":[-119.257581,50.2567765]}},{"type":"Feature","properties":{"ZIP":"V1T7K5","VERTICES":5},"geometry":{"type":"Point","coordinates":[-119.248558,50.2716365]}},{"type":"Feature","properties":{"ZIP":"V1T8T2","VERTICES":5},"geometry":{"type":"Point","coordinates":[-119.2555155,50.2492065]}},{"type":"Feature","properties":{"ZIP":"V1T3W8","VERTICES":5},"geometry":{"type":"Point","coordinates":[-119.25250550000001,50.263023]}},{"type":"Feature","properties":{"ZIP":"V1T4W7","VERTICES":5},"geometry":{"type":"Point","coordinates":[-119.266594,50.265472]}},{"type":"Feature","properties":{"ZIP":"V1T5T8","VERTICES":5},"geometry":{"type":"Point","coordinates":[-119.27448799999999,50.2704765]}},{"type":"Feature","properties":{"ZIP":"V1T7V3","VERTICES":5},"geometry":{"type":"Point","coordinates":[-119.3083635,50.257801]}},{"type":"Feature","properties":{"ZIP":"V1T8L1","VERTICES":5},"geometry":{"type":"Point","coordinates":[-119.269155,50.262351499999994]}},{"type":"Feature","properties":{"ZIP":"V1T1L3","VERTICES":5},"geometry":{"type":"Point","coordinates":[-119.2648365,50.260456500000004]}},{"type":"Feature","properties":{"ZIP":"V1T1V1","VERTICES":5},"geometry":{"type":"Point","coordinates":[-119.2582965,50.262191]}},{"type":"Feature","properties":{"ZIP":"V1T2E4","VERTICES":5},"geometry":{"type":"Point","coordinates":[-119.284106,50.263825499999996]}},{"type":"Feature","properties":{"ZIP":"V1T2P9","VERTICES":5},"geometry":{"type":"Point","coordinates":[-119.2772245,50.2668605]}},{"type":"Feature","properties":{"ZIP":"V1T2Z4","VERTICES":5},"geometry":{"type":"Point","coordinates":[-119.28533300000001,50.2591835]}},{"type":"Feature","properties":{"ZIP":"V1T4S2","VERTICES":5},"geometry":{"type":"Point","coordinates":[-119.2642735,50.2741855]}},{"type":"Feature","properties":{"ZIP":"V1T5Y3","VERTICES":5},"geometry":{"type":"Point","coordinates":[-119.27613149999999,50.272871499999994]}},{"type":"Feature","properties":{"ZIP":"V1T7P7","VERTICES":5},"geometry":{"type":"Point","coordinates":[-119.301238,50.2555895]}},{"type":"Feature","properties":{"ZIP":"V1T1G7","VERTICES":5},"geometry":{"type":"Point","coordinates":[-119.249034,50.257138499999996]}},{"type":"Feature","properties":{"ZIP":"V1T2H3","VERTICES":5},"geometry":{"type":"Point","coordinates":[-119.274473,50.264543]}},{"type":"Feature","properties":{"ZIP":"V1T3M2","VERTICES":5},"geometry":{"type":"Point","coordinates":[-119.26363599999999,50.276159500000006]}},{"type":"Feature","properties":{"ZIP":"V1T4A2","VERTICES":5},"geometry":{"type":"Point","coordinates":[-119.2552295,50.260689]}},{"type":"Feature","properties":{"ZIP":"V1T4H3","VERTICES":5},"geometry":{"type":"Point","coordinates":[-119.26077649999999,50.2629315]}},{"type":"Feature","properties":{"ZIP":"V1T5B7","VERTICES":5},"geometry":{"type":"Point","coordinates":[-119.2699595,50.276018]}},{"type":"Feature","properties":{"ZIP":"V1T6A5","VERTICES":5},"geometry":{"type":"Point","coordinates":[-119.277509,50.272394000000006]}},{"type":"Feature","properties":{"ZIP":"V1T7Z6","VERTICES":5},"geometry":{"type":"Point","coordinates":[-119.2516115,50.269370499999994]}},{"type":"Feature","properties":{"ZIP":"V1T8T3","VERTICES":5},"geometry":{"type":"Point","coordinates":[-119.2569805,50.2500885]}},{"type":"Feature","properties":{"ZIP":"V1T1S4","VERTICES":5},"geometry":{"type":"Point","coordinates":[-119.274833,50.264913]}},{"type":"Feature","properties":{"ZIP":"V1T2L9","VERTICES":5},"geometry":{"type":"Point","coordinates":[-119.2736845,50.2649545]}},{"type":"Feature","properties":{"ZIP":"V1T3P2","VERTICES":5},"geometry":{"type":"Point","coordinates":[-119.2553485,50.278413]}},{"type":"Feature","properties":{"ZIP":"V1T4B8","VERTICES":5},"geometry":{"type":"Point","coordinates":[-119.25670149999999,50.2680905]}},{"type":"Feature","properties":{"ZIP":"V1T4W8","VERTICES":5},"geometry":{"type":"Point","coordinates":[-119.26660050000001,50.2663515]}},{"type":"Feature","properties":{"ZIP":"V1T5T9","VERTICES":5},"geometry":{"type":"Point","coordinates":[-119.2746725,50.272732500000004]}},{"type":"Feature","properties":{"ZIP":"V1T7G6","VERTICES":5},"geometry":{"type":"Point","coordinates":[-119.24831649999999,50.270138]}},{"type":"Feature","properties":{"ZIP":"V1T2Z5","VERTICES":5},"geometry":{"type":"Point","coordinates":[-119.28559200000001,50.260632]}},{"type":"Feature","properties":{"ZIP":"V1T3K5","VERTICES":5},"geometry":{"type":"Point","coordinates":[-119.2616465,50.2748525]}},{"type":"Feature","properties":{"ZIP":"V1T4S3","VERTICES":5},"geometry":{"type":"Point","coordinates":[-119.264274,50.2741855]}},{"type":"Feature","properties":{"ZIP":"V1T5A3","VERTICES":5},"geometry":{"type":"Point","coordinates":[-119.26911949999999,50.262386500000005]}},{"type":"Feature","properties":{"ZIP":"V1T7A5","VERTICES":5},"geometry":{"type":"Point","coordinates":[-119.30974900000001,50.2540185]}},{"type":"Feature","properties":{"ZIP":"V1T9N4","VERTICES":5},"geometry":{"type":"Point","coordinates":[-119.26702900000001,50.262249]}},{"type":"Feature","properties":{"ZIP":"V1T1N5","VERTICES":5},"geometry":{"type":"Point","coordinates":[-119.263477,50.259798]}},{"type":"Feature","properties":{"ZIP":"V1T2V1","VERTICES":5},"geometry":{"type":"Point","coordinates":[-119.289591,50.2684005]}},{"type":"Feature","properties":{"ZIP":"V1T6A6","VERTICES":5},"geometry":{"type":"Point","coordinates":[-119.2519615,50.26742]}},{"type":"Feature","properties":{"ZIP":"V1T7Z9","VERTICES":5},"geometry":{"type":"Point","coordinates":[-119.25965,50.2553615]}},{"type":"Feature","properties":{"ZIP":"V1T8V2","VERTICES":5},"geometry":{"type":"Point","coordinates":[-119.25639899999999,50.252294000000006]}},{"type":"Feature","properties":{"ZIP":"V1T2B8","VERTICES":5},"geometry":{"type":"Point","coordinates":[-119.26942,50.2637565]}},{"type":"Feature","properties":{"ZIP":"V1T2M6","VERTICES":5},"geometry":{"type":"Point","coordinates":[-119.275195,50.265699999999995]}},{"type":"Feature","properties":{"ZIP":"V1T6Y2","VERTICES":5},"geometry":{"type":"Point","coordinates":[-119.3055945,50.253639500000006]}},{"type":"Feature","properties":{"ZIP":"V1T1W1","VERTICES":5},"geometry":{"type":"Point","coordinates":[-119.26987650000001,50.2632945]}},{"type":"Feature","properties":{"ZIP":"V1T3A4","VERTICES":5},"geometry":{"type":"Point","coordinates":[-119.2842395,50.269346]}},{"type":"Feature","properties":{"ZIP":"V1T3T2","VERTICES":5},"geometry":{"type":"Point","coordinates":[-119.2483985,50.257763]}},{"type":"Feature","properties":{"ZIP":"V1T4S5","VERTICES":5},"geometry":{"type":"Point","coordinates":[-119.2642855,50.27531449999999]}},{"type":"Feature","properties":{"ZIP":"V1T5M8","VERTICES":5},"geometry":{"type":"Point","coordinates":[-119.27366850000001,50.2677935]}},{"type":"Feature","properties":{"ZIP":"V1T9B4","VERTICES":5},"geometry":{"type":"Point","coordinates":[-119.265011,50.260065999999995]}},{"type":"Feature","properties":{"ZIP":"V1T2V2","VERTICES":5},"geometry":{"type":"Point","coordinates":[-119.248584,50.267845]}},{"type":"Feature","properties":{"ZIP":"V1T4A5","VERTICES":5},"geometry":{"type":"Point","coordinates":[-119.25527149999999,50.2630295]}},{"type":"Feature","properties":{"ZIP":"V1T4H5","VERTICES":5},"geometry":{"type":"Point","coordinates":[-119.2615225,50.26218]}},{"type":"Feature","properties":{"ZIP":"V1T5B9","VERTICES":5},"geometry":{"type":"Point","coordinates":[-119.269867,50.2786515]}},{"type":"Feature","properties":{"ZIP":"V1T5R6","VERTICES":5},"geometry":{"type":"Point","coordinates":[-119.2749225,50.256506]}},{"type":"Feature","properties":{"ZIP":"V1T6L7","VERTICES":5},"geometry":{"type":"Point","coordinates":[-119.06116449999999,50.3606745]}},{"type":"Feature","properties":{"ZIP":"V1T7E1","VERTICES":5},"geometry":{"type":"Point","coordinates":[-119.255555,50.2753545]}},{"type":"Feature","properties":{"ZIP":"V1T7L3","VERTICES":5},"geometry":{"type":"Point","coordinates":[-119.275387,50.2658]}},{"type":"Feature","properties":{"ZIP":"V1T7S9","VERTICES":5},"geometry":{"type":"Point","coordinates":[-119.24775149999999,50.2724235]}},{"type":"Feature","properties":{"ZIP":"V1T8J4","VERTICES":5},"geometry":{"type":"Point","coordinates":[-119.246801,50.2755875]}},{"type":"Feature","properties":{"ZIP":"V1T3X3","VERTICES":5},"geometry":{"type":"Point","coordinates":[-119.25266450000001,50.2659815]}},{"type":"Feature","properties":{"ZIP":"V1T4C3","VERTICES":5},"geometry":{"type":"Point","coordinates":[-119.260134,50.2572725]}},{"type":"Feature","properties":{"ZIP":"V1T4K5","VERTICES":5},"geometry":{"type":"Point","coordinates":[-119.2623365,50.270483]}},{"type":"Feature","properties":{"ZIP":"V1T4Y4","VERTICES":5},"geometry":{"type":"Point","coordinates":[-119.26666399999999,50.277058499999995]}},{"type":"Feature","properties":{"ZIP":"V1T5G8","VERTICES":5},"geometry":{"type":"Point","coordinates":[-119.27128099999999,50.2537525]}},{"type":"Feature","properties":{"ZIP":"V1T5V4","VERTICES":5},"geometry":{"type":"Point","coordinates":[-119.276164,50.2535395]}},{"type":"Feature","properties":{"ZIP":"V1T9W8","VERTICES":5},"geometry":{"type":"Point","coordinates":[-119.2606255,50.285213]}},{"type":"Feature","properties":{"ZIP":"V1T3K7","VERTICES":4},"geometry":{"type":"Point","coordinates":[-119.26233049999999,50.274851]}},{"type":"Feature","properties":{"ZIP":"V1T9N7","VERTICES":4},"geometry":{"type":"Point","coordinates":[-119.258475,50.279429]}},{"type":"Feature","properties":{"ZIP":"V1T1H4","VERTICES":4},"geometry":{"type":"Point","coordinates":[-119.2785975,50.2568075]}},{"type":"Feature","properties":{"ZIP":"V1T4V3","VERTICES":4},"geometry":{"type":"Point","coordinates":[-119.265304,50.2668365]}},{"type":"Feature","properties":{"ZIP":"V1T9S9","VERTICES":4},"geometry":{"type":"Point","coordinates":[-119.25653700000001,50.287172]}},{"type":"Feature","properties":{"ZIP":"V1T2C1","VERTICES":4},"geometry":{"type":"Point","coordinates":[-119.27089749999999,50.2638925]}},{"type":"Feature","properties":{"ZIP":"V1T4Y5","VERTICES":4},"geometry":{"type":"Point","coordinates":[-119.270486,50.2748965]}},{"type":"Feature","properties":{"ZIP":"V1T5V7","VERTICES":4},"geometry":{"type":"Point","coordinates":[-119.2761715,50.254262499999996]}},{"type":"Feature","properties":{"ZIP":"V1T2S3","VERTICES":4},"geometry":{"type":"Point","coordinates":[-119.2632815,50.2674405]}},{"type":"Feature","properties":{"ZIP":"V1T1P5","VERTICES":4},"geometry":{"type":"Point","coordinates":[-119.2941795,50.259138]}},{"type":"Feature","properties":{"ZIP":"V1T5R8","VERTICES":4},"geometry":{"type":"Point","coordinates":[-119.27493,50.2569235]}},{"type":"Feature","properties":{"ZIP":"V1T7E5","VERTICES":4},"geometry":{"type":"Point","coordinates":[-119.2852375,50.2719715]}},{"type":"Feature","properties":{"ZIP":"V1T8A6","VERTICES":4},"geometry":{"type":"Point","coordinates":[-119.249057,50.273119]}},{"type":"Feature","properties":{"ZIP":"V1T9G7","VERTICES":4},"geometry":{"type":"Point","coordinates":[-119.2461115,50.274777]}},{"type":"Feature","properties":{"ZIP":"V1T1A8","VERTICES":4},"geometry":{"type":"Point","coordinates":[-119.26553,50.260877]}},{"type":"Feature","properties":{"ZIP":"V1T3J4","VERTICES":4},"geometry":{"type":"Point","coordinates":[-119.2653935,50.2736545]}},{"type":"Feature","properties":{"ZIP":"V1T8C9","VERTICES":4},"geometry":{"type":"Point","coordinates":[-119.247747,50.274772]}},{"type":"Feature","properties":{"ZIP":"V1T3K9","VERTICES":4},"geometry":{"type":"Point","coordinates":[-119.2664055,50.2748435]}},{"type":"Feature","properties":{"ZIP":"V1T6J5","VERTICES":4},"geometry":{"type":"Point","coordinates":[-119.263689,50.270831]}},{"type":"Feature","properties":{"ZIP":"V1T7A9","VERTICES":4},"geometry":{"type":"Point","coordinates":[-119.3102285,50.253811999999996]}},{"type":"Feature","properties":{"ZIP":"V1T1P9","VERTICES":4},"geometry":{"type":"Point","coordinates":[-119.289795,50.260979500000005]}},{"type":"Feature","properties":{"ZIP":"V1T2V5","VERTICES":4},"geometry":{"type":"Point","coordinates":[-119.282194,50.260701999999995]}},{"type":"Feature","properties":{"ZIP":"V1T3N1","VERTICES":4},"geometry":{"type":"Point","coordinates":[-119.26334299999999,50.2777935]}},{"type":"Feature","properties":{"ZIP":"V1T7E6","VERTICES":4},"geometry":{"type":"Point","coordinates":[-119.285224,50.2719715]}},{"type":"Feature","properties":{"ZIP":"V1T2Y5","VERTICES":4},"geometry":{"type":"Point","coordinates":[-119.271788,50.264494]}},{"type":"Feature","properties":{"ZIP":"V1T4C8","VERTICES":4},"geometry":{"type":"Point","coordinates":[-119.258514,50.271106]}},{"type":"Feature","properties":{"ZIP":"V1T4K9","VERTICES":4},"geometry":{"type":"Point","coordinates":[-119.262389,50.280395999999996]}},{"type":"Feature","properties":{"ZIP":"V1T4Y7","VERTICES":4},"geometry":{"type":"Point","coordinates":[-119.2668745,50.27803350000001]}},{"type":"Feature","properties":{"ZIP":"V1T6J7","VERTICES":4},"geometry":{"type":"Point","coordinates":[-119.2701395,50.2716035]}},{"type":"Feature","properties":{"ZIP":"V1T2V6","VERTICES":4},"geometry":{"type":"Point","coordinates":[-119.282198,50.2602485]}},{"type":"Feature","properties":{"ZIP":"V1T4C9","VERTICES":4},"geometry":{"type":"Point","coordinates":[-119.25850600000001,50.271707]}},{"type":"Feature","properties":{"ZIP":"V1T4Y8","VERTICES":4},"geometry":{"type":"Point","coordinates":[-119.266875,50.279361]}},{"type":"Feature","properties":{"ZIP":"V1T7W6","VERTICES":4},"geometry":{"type":"Point","coordinates":[-119.246223,50.26972]}},{"type":"Feature","properties":{"ZIP":"V1T8N5","VERTICES":4},"geometry":{"type":"Point","coordinates":[-119.3045055,50.2509435]}},{"type":"Feature","properties":{"ZIP":"V1T2T5","VERTICES":4},"geometry":{"type":"Point","coordinates":[-119.27697,50.2673765]}},{"type":"Feature","properties":{"ZIP":"V1T4G6","VERTICES":4},"geometry":{"type":"Point","coordinates":[-119.259384,50.274868999999995]}},{"type":"Feature","properties":{"ZIP":"V1T3N3","VERTICES":4},"geometry":{"type":"Point","coordinates":[-119.26536899999999,50.2778065]}},{"type":"Feature","properties":{"ZIP":"V1T5E2","VERTICES":4},"geometry":{"type":"Point","coordinates":[-119.2706915,50.265415000000004]}},{"type":"Feature","properties":{"ZIP":"V1T8A9","VERTICES":4},"geometry":{"type":"Point","coordinates":[-119.2514405,50.271271]}},{"type":"Feature","properties":{"ZIP":"V1T9H6","VERTICES":4},"geometry":{"type":"Point","coordinates":[-119.2585795,50.255875]}},{"type":"Feature","properties":{"ZIP":"V1T9T5","VERTICES":4},"geometry":{"type":"Point","coordinates":[-119.26043200000001,50.2887765]}},{"type":"Feature","properties":{"ZIP":"V1T4Z2","VERTICES":4},"geometry":{"type":"Point","coordinates":[-119.267426,50.272255]}},{"type":"Feature","properties":{"ZIP":"V1T8E5","VERTICES":4},"geometry":{"type":"Point","coordinates":[-119.264089,50.2708285]}},{"type":"Feature","properties":{"ZIP":"V1T1J1","VERTICES":4},"geometry":{"type":"Point","coordinates":[-119.2569785,50.2578655]}},{"type":"Feature","properties":{"ZIP":"V1T6S1","VERTICES":4},"geometry":{"type":"Point","coordinates":[-119.2446165,50.267399999999995]}},{"type":"Feature","properties":{"ZIP":"V1T6Z7","VERTICES":4},"geometry":{"type":"Point","coordinates":[-119.24585,50.2616705]}},{"type":"Feature","properties":{"ZIP":"V1T3C4","VERTICES":4},"geometry":{"type":"Point","coordinates":[-119.271394,50.271251]}},{"type":"Feature","properties":{"ZIP":"V1T6T7","VERTICES":4},"geometry":{"type":"Point","coordinates":[-119.276245,50.25165]}},{"type":"Feature","properties":{"ZIP":"V1T2A5","VERTICES":4},"geometry":{"type":"Point","coordinates":[-119.2581595,50.2638075]}},{"type":"Feature","properties":{"ZIP":"V1T1M9","VERTICES":4},"geometry":{"type":"Point","coordinates":[-119.258574,50.2601095]}},{"type":"Feature","properties":{"ZIP":"V1T3M1","VERTICES":4},"geometry":{"type":"Point","coordinates":[-119.2633745,50.276158]}},{"type":"Feature","properties":{"ZIP":"V1T1J5","VERTICES":4},"geometry":{"type":"Point","coordinates":[-119.2597955,50.257853999999995]}},{"type":"Feature","properties":{"ZIP":"V1T2K7","VERTICES":4},"geometry":{"type":"Point","coordinates":[-119.263667,50.265352]}},{"type":"Feature","properties":{"ZIP":"V1T3H6","VERTICES":4},"geometry":{"type":"Point","coordinates":[-119.2710825,50.272315500000005]}},{"type":"Feature","properties":{"ZIP":"V1T3P1","VERTICES":4},"geometry":{"type":"Point","coordinates":[-119.25488849999999,50.278400500000004]}},{"type":"Feature","properties":{"ZIP":"V1T7M5","VERTICES":4},"geometry":{"type":"Point","coordinates":[-119.27097950000001,50.280772999999996]}},{"type":"Feature","properties":{"ZIP":"V1T8B7","VERTICES":4},"geometry":{"type":"Point","coordinates":[-119.251961,50.272058]}},{"type":"Feature","properties":{"ZIP":"V1T9J7","VERTICES":4},"geometry":{"type":"Point","coordinates":[-119.286744,50.269293000000005]}},{"type":"Feature","properties":{"ZIP":"V1T5L5","VERTICES":4},"geometry":{"type":"Point","coordinates":[-119.2702425,50.2635855]}},{"type":"Feature","properties":{"ZIP":"V1T1N2","VERTICES":4},"geometry":{"type":"Point","coordinates":[-119.2565895,50.260107500000004]}},{"type":"Feature","properties":{"ZIP":"V1T4N2","VERTICES":4},"geometry":{"type":"Point","coordinates":[-119.26957150000001,50.259355]}},{"type":"Feature","properties":{"ZIP":"V1T4T9","VERTICES":4},"geometry":{"type":"Point","coordinates":[-119.265304,50.2649355]}},{"type":"Feature","properties":{"ZIP":"V1T5R2","VERTICES":4},"geometry":{"type":"Point","coordinates":[-119.274917,50.254986]}},{"type":"Feature","properties":{"ZIP":"V1T2B7","VERTICES":4},"geometry":{"type":"Point","coordinates":[-119.2692845,50.2636215]}},{"type":"Feature","properties":{"ZIP":"V1T3W9","VERTICES":4},"geometry":{"type":"Point","coordinates":[-119.252509,50.2646105]}},{"type":"Feature","properties":{"ZIP":"V1T6E6","VERTICES":4},"geometry":{"type":"Point","coordinates":[-119.282188,50.2689405]}},{"type":"Feature","properties":{"ZIP":"V1T9J9","VERTICES":4},"geometry":{"type":"Point","coordinates":[-119.276939,50.262286]}},{"type":"Feature","properties":{"ZIP":"V1T3Y7","VERTICES":4},"geometry":{"type":"Point","coordinates":[-119.253912,50.263706]}},{"type":"Feature","properties":{"ZIP":"V1T4E5","VERTICES":4},"geometry":{"type":"Point","coordinates":[-119.258475,50.278906500000005]}},{"type":"Feature","properties":{"ZIP":"V1T8G1","VERTICES":4},"geometry":{"type":"Point","coordinates":[-119.2670075,50.2637055]}},{"type":"Feature","properties":{"ZIP":"V1T2H4","VERTICES":4},"geometry":{"type":"Point","coordinates":[-119.27547150000001,50.2645435]}},{"type":"Feature","properties":{"ZIP":"V1T4H4","VERTICES":4},"geometry":{"type":"Point","coordinates":[-119.260783,50.263563000000005]}},{"type":"Feature","properties":{"ZIP":"V1T4N3","VERTICES":4},"geometry":{"type":"Point","coordinates":[-119.2710005,50.2593915]}},{"type":"Feature","properties":{"ZIP":"V1T4V1","VERTICES":4},"geometry":{"type":"Point","coordinates":[-119.265304,50.264545]}},{"type":"Feature","properties":{"ZIP":"V1T6L6","VERTICES":4},"geometry":{"type":"Point","coordinates":[-119.25488,50.2788705]}},{"type":"Feature","properties":{"ZIP":"V1T9S2","VERTICES":4},"geometry":{"type":"Point","coordinates":[-119.257495,50.270139]}},{"type":"Feature","properties":{"ZIP":"V1T3X1","VERTICES":4},"geometry":{"type":"Point","coordinates":[-119.252509,50.26461]}},{"type":"Feature","properties":{"ZIP":"V1T4K4","VERTICES":4},"geometry":{"type":"Point","coordinates":[-119.262375,50.2698345]}},{"type":"Feature","properties":{"ZIP":"V1T8C3","VERTICES":4},"geometry":{"type":"Point","coordinates":[-119.261503,50.252545999999995]}},{"type":"Feature","properties":{"ZIP":"V1T8X8","VERTICES":4},"geometry":{"type":"Point","coordinates":[-119.2619315,50.253699499999996]}},{"type":"Feature","properties":{"ZIP":"V1T2E7","VERTICES":4},"geometry":{"type":"Point","coordinates":[-119.28500650000001,50.2638265]}},{"type":"Feature","properties":{"ZIP":"V1T4E6","VERTICES":4},"geometry":{"type":"Point","coordinates":[-119.258475,50.278622]}},{"type":"Feature","properties":{"ZIP":"V1T1H3","VERTICES":4},"geometry":{"type":"Point","coordinates":[-119.278609,50.2568075]}},{"type":"Feature","properties":{"ZIP":"V1T4V2","VERTICES":4},"geometry":{"type":"Point","coordinates":[-119.265304,50.2663755]}},{"type":"Feature","properties":{"ZIP":"V1T9S4","VERTICES":4},"geometry":{"type":"Point","coordinates":[-119.282419,50.2647535]}},{"type":"Feature","properties":{"ZIP":"V1T1S6","VERTICES":4},"geometry":{"type":"Point","coordinates":[-119.2856625,50.263197]}},{"type":"Feature","properties":{"ZIP":"V1T6Y5","VERTICES":4},"geometry":{"type":"Point","coordinates":[-119.06282300000001,50.357504]}},{"type":"Feature","properties":{"ZIP":"V1T2W4","VERTICES":3},"geometry":{"type":"Point","coordinates":[-119.28298749999999,50.253078]}}]}