{"type":"FeatureCollection","features":[{"type":"Feature","properties":{"ZIP":"V1V1P1"},"geometry":{"type":"Point","coordinates":[-119.446343,49.9173995]}},{"type":"Feature","properties":{"ZIP":"V1V1J6"},"geometry":{"type":"Point","coordinates":[-119.42500150000001,49.8973685]}},{"type":"Feature","properties":{"ZIP":"V1V2V6"},"geometry":{"type":"Point","coordinates":[-119.4337685,49.9060495]}},{"type":"Feature","properties":{"ZIP":"V1V1S8"},"geometry":{"type":"Point","coordinates":[-119.458217,49.906642]}},{"type":"Feature","properties":{"ZIP":"V1V2A2"},"geometry":{"type":"Point","coordinates":[-119.400508,49.961241]}},{"type":"Feature","properties":{"ZIP":"V1V1R7"},"geometry":{"type":"Point","coordinates":[-119.441182,49.9294265]}},{"type":"Feature","properties":{"ZIP":"V1V1N2"},"geometry":{"type":"Point","coordinates":[-119.47326899999999,49.920327]}},{"type":"Feature","properties":{"ZIP":"V1V2L2"},"geometry":{"type":"Point","coordinates":[-119.47485449999999,49.914242]}},{"type":"Feature","properties":{"ZIP":"V1V2M7"},"geometry":{"type":"Point","coordinates":[-119.436108,49.893683499999995]}},{"type":"Feature","properties":{"ZIP":"V1V1J5"},"geometry":{"type":"Point","coordinates":[-119.4232135,49.8972135]}},{"type":"Feature","properties":{"ZIP":"V1V2W8"},"geometry":{"type":"Point","coordinates":[-119.43934999999999,49.943473999999995]}},{"type":"Feature","properties":{"ZIP":"V1V2G4"},"geometry":{"type":"Point","coordinates":[-119.41287550000001,49.912071999999995]}},{"type":"Feature","properties":{"ZIP":"V1V1S7"},"geometry":{"type":"Point","coordinates":[-119.457732,49.9071]}},{"type":"Feature","properties":{"ZIP":"V1V1R4"},"geometry":{"type":"Point","coordinates":[-119.44896,49.916214499999995]}},{"type":"Feature","properties":{"ZIP":"V1V1W6"},"geometry":{"type":"Point","coordinates":[-119.444005,49.926557]}},{"type":"Feature","properties":{"ZIP":"V1V1B4"},"geometry":{"type":"Point","coordinates":[-119.46415999999999,49.9078715]}},{"type":"Feature","properties":{"ZIP":"V1V1H7"},"geometry":{"type":"Point","coordinates":[-119.435363,49.890795999999995]}},{"type":"Feature","properties":{"ZIP":"V1V1N1"},"geometry":{"type":"Point","coordinates":[-119.428774,49.900994]}},{"type":"Feature","properties":{"ZIP":"V1V2E2"},"geometry":{"type":"Point","coordinates":[-119.4364395,49.9300535]}},{"type":"Feature","properties":{"ZIP":"V1V1S3"},"geometry":{"type":"Point","coordinates":[-119.44395449999999,49.923221]}},{"type":"Feature","properties":{"ZIP":"V1V1N5"},"geometry":{"type":"Point","coordinates":[-119.428532,49.9018945]}},{"type":"Feature","properties":{"ZIP":"V1V1W2"},"geometry":{"type":"Point","coordinates":[-119.43628799999999,49.90003]}},{"type":"Feature","properties":{"ZIP":"V1V2S1"},"geometry":{"type":"Point","coordinates":[-119.43839700000001,49.9396155]}},{"type":"Feature","properties":{"ZIP":"V1V2N2"},"geometry":{"type":"Point","coordinates":[-119.459986,49.904982000000004]}},{"type":"Feature","properties":{"ZIP":"V1V1N7"},"geometry":{"type":"Point","coordinates":[-119.429744,49.8984085]}},{"type":"Feature","properties":{"ZIP":"V1V1M6"},"geometry":{"type":"Point","coordinates":[-119.42537949999999,49.904086500000005]}},{"type":"Feature","properties":{"ZIP":"V1V1R3"},"geometry":{"type":"Point","coordinates":[-119.45078699999999,49.912263499999995]}},{"type":"Feature","properties":{"ZIP":"V1V1V3"},"geometry":{"type":"Point","coordinates":[-119.444079,49.920169]}},{"type":"Feature","properties":{"ZIP":"V1V1A2"},"geometry":{"type":"Point","coordinates":[-119.4678545,49.928107999999995]}},{"type":"Feature","properties":{"ZIP":"V1V2E9"},"geometry":{"type":"Point","coordinates":[-119.4203975,49.92436]}},{"type":"Feature","properties":{"ZIP":"V1V1T1"},"geometry":{"type":"Point","coordinates":[-119.432755,49.900372]}},{"type":"Feature","properties":{"ZIP":"V1V1R9"},"geometry":{"type":"Point","coordinates":[-119.441277,49.927503]}},{"type":"Feature","properties":{"ZIP":"V1V2A6"},"geometry":{"type":"Point","coordinates":[-119.398138,49.957783000000006]}},{"type":"Feature","properties":{"ZIP":"V1V2T1"},"geometry":{"type":"Point","coordinates":[-119.4442035,49.931332]}},{"type":"Feature","properties":{"ZIP":"V1V1Z2"},"geometry":{"type":"Point","coordinates":[-119.43850850000001,49.9249175]}},{"type":"Feature","properties":{"ZIP":"V1V2L3"},"geometry":{"type":"Point","coordinates":[-119.472442,49.917428]}},{"type":"Feature","properties":{"ZIP":"V1V2B9"},"geometry":{"type":"Point","coordinates":[-119.459294,49.9582815]}},{"type":"Feature","properties":{"ZIP":"V1V1W1"},"geometry":{"type":"Point","coordinates":[-119.4386035,49.929376500000004]}},{"type":"Feature","properties":{"ZIP":"V1V2E3"},"geometry":{"type":"Point","coordinates":[-119.4387645,49.926921500000006]}},{"type":"Feature","properties":{"ZIP":"V1V1G3"},"geometry":{"type":"Point","coordinates":[-119.466699,49.929106000000004]}},{"type":"Feature","properties":{"ZIP":"V1V1S4"},"geometry":{"type":"Point","coordinates":[-119.44407050000001,49.924186000000006]}},{"type":"Feature","properties":{"ZIP":"V1V2L6"},"geometry":{"type":"Point","coordinates":[-119.4407855,49.895056999999994]}},{"type":"Feature","properties":{"ZIP":"V1V1W3"},"geometry":{"type":"Point","coordinates":[-119.438003,49.8982885]}},{"type":"Feature","properties":{"ZIP":"V1V2B1"},"geometry":{"type":"Point","coordinates":[-119.473841,49.916184]}},{"type":"Feature","properties":{"ZIP":"V1V2B2"},"geometry":{"type":"Point","coordinates":[-119.43394649999999,49.897169000000005]}},{"type":"Feature","properties":{"ZIP":"V1V1T9"},"geometry":{"type":"Point","coordinates":[-119.443601,49.927946500000004]}},{"type":"Feature","properties":{"ZIP":"V1V1Z8"},"geometry":{"type":"Point","coordinates":[-119.40391,49.967614]}},{"type":"Feature","properties":{"ZIP":"V1V2S3"},"geometry":{"type":"Point","coordinates":[-119.4035145,49.9631215]}},{"type":"Feature","properties":{"ZIP":"V1V1H1"},"geometry":{"type":"Point","coordinates":[-119.463245,49.928617]}},{"type":"Feature","properties":{"ZIP":"V1V2A1"},"geometry":{"type":"Point","coordinates":[-119.402055,49.968309500000004]}},{"type":"Feature","properties":{"ZIP":"V1V1Y7"},"geometry":{"type":"Point","coordinates":[-119.45361750000001,49.907970500000005]}},{"type":"Feature","properties":{"ZIP":"V1V2L1"},"geometry":{"type":"Point","coordinates":[-119.4760875,49.913233]}},{"type":"Feature","properties":{"ZIP":"V1V1T2"},"geometry":{"type":"Point","coordinates":[-119.442835,49.928895]}},{"type":"Feature","properties":{"ZIP":"V1V2B8"},"geometry":{"type":"Point","coordinates":[-119.458122,49.967266499999994]}},{"type":"Feature","properties":{"ZIP":"V1V2R7"},"geometry":{"type":"Point","coordinates":[-119.434964,49.9051885]}},{"type":"Feature","properties":{"ZIP":"V1V2A8"},"geometry":{"type":"Point","coordinates":[-119.43846,49.924993]}},{"type":"Feature","properties":{"ZIP":"V1V2M9"},"geometry":{"type":"Point","coordinates":[-119.400241,49.9608255]}},{"type":"Feature","properties":{"ZIP":"V1V2W9"},"geometry":{"type":"Point","coordinates":[-119.4374415,49.942485500000004]}},{"type":"Feature","properties":{"ZIP":"V1V1P9"},"geometry":{"type":"Point","coordinates":[-119.441306,49.92755]}},{"type":"Feature","properties":{"ZIP":"V1V1R1"},"geometry":{"type":"Point","coordinates":[-119.443108,49.917803]}},{"type":"Feature","properties":{"ZIP":"V1V2C3"},"geometry":{"type":"Point","coordinates":[-119.4617575,49.9546495]}},{"type":"Feature","properties":{"ZIP":"V1V1T7"},"geometry":{"type":"Point","coordinates":[-119.43186399999999,49.924169]}},{"type":"Feature","properties":{"ZIP":"V1V1W4"},"geometry":{"type":"Point","coordinates":[-119.44336799999999,49.9256485]}},{"type":"Feature","properties":{"ZIP":"V1V1Z9"},"geometry":{"type":"Point","coordinates":[-119.4026705,49.9676905]}},{"type":"Feature","properties":{"ZIP":"V1V2S4"},"geometry":{"type":"Point","coordinates":[-119.40369150000001,49.961681999999996]}},{"type":"Feature","properties":{"ZIP":"V1V2N5"},"geometry":{"type":"Point","coordinates":[-119.4033235,49.964599]}},{"type":"Feature","properties":{"ZIP":"V1V2P9"},"geometry":{"type":"Point","coordinates":[-119.468105,49.920229]}},{"type":"Feature","properties":{"ZIP":"V1V2X6"},"geometry":{"type":"Point","coordinates":[-119.46445349999999,49.919015]}},{"type":"Feature","properties":{"ZIP":"V1V1M9"},"geometry":{"type":"Point","coordinates":[-119.4258195,49.907956]}},{"type":"Feature","properties":{"ZIP":"V1V1S9"},"geometry":{"type":"Point","coordinates":[-119.434943,49.9246885]}},{"type":"Feature","properties":{"ZIP":"V1V2C7"},"geometry":{"type":"Point","coordinates":[-119.4319115,49.933796]}},{"type":"Feature","properties":{"ZIP":"V1V2K9"},"geometry":{"type":"Point","coordinates":[-119.4607415,49.9091105]}},{"type":"Feature","properties":{"ZIP":"V1V1V4"},"geometry":{"type":"Point","coordinates":[-119.447176,49.916148]}},{"type":"Feature","properties":{"ZIP":"V1V1A3"},"geometry":{"type":"Point","coordinates":[-119.466004,49.9301265]}},{"type":"Feature","properties":{"ZIP":"V1V2S9"},"geometry":{"type":"Point","coordinates":[-119.4442,49.9331815]}},{"type":"Feature","properties":{"ZIP":"V1V1B9"},"geometry":{"type":"Point","coordinates":[-119.463198,49.906378000000004]}},{"type":"Feature","properties":{"ZIP":"V1V2M8"},"geometry":{"type":"Point","coordinates":[-119.438223,49.893239]}},{"type":"Feature","properties":{"ZIP":"V1V2T2"},"geometry":{"type":"Point","coordinates":[-119.444887,49.929950500000004]}},{"type":"Feature","properties":{"ZIP":"V1V2P2"},"geometry":{"type":"Point","coordinates":[-119.4421145,49.899005]}},{"type":"Feature","properties":{"ZIP":"V1V1A7"},"geometry":{"type":"Point","coordinates":[-119.4653635,49.9059345]}},{"type":"Feature","properties":{"ZIP":"V1V1X3"},"geometry":{"type":"Point","coordinates":[-119.455649,49.90813]}},{"type":"Feature","properties":{"ZIP":"V1V2A9"},"geometry":{"type":"Point","coordinates":[-119.47454300000001,49.918608500000005]}},{"type":"Feature","properties":{"ZIP":"V1V2G5"},"geometry":{"type":"Point","coordinates":[-119.41575950000001,49.914559499999996]}},{"type":"Feature","properties":{"ZIP":"V1V1J8"},"geometry":{"type":"Point","coordinates":[-119.4215155,49.897729999999996]}},{"type":"Feature","properties":{"ZIP":"V1V2E4"},"geometry":{"type":"Point","coordinates":[-119.44033300000001,49.9241165]}},{"type":"Feature","properties":{"ZIP":"V1V2X3"},"geometry":{"type":"Point","coordinates":[-119.4376815,49.9438235]}},{"type":"Feature","properties":{"ZIP":"V1V2L7"},"geometry":{"type":"Point","coordinates":[-119.4382495,49.894124000000005]}},{"type":"Feature","properties":{"ZIP":"V1V2K3"},"geometry":{"type":"Point","coordinates":[-119.4043645,49.963402]}},{"type":"Feature","properties":{"ZIP":"V1V1N8"},"geometry":{"type":"Point","coordinates":[-119.4293325,49.8980765]}},{"type":"Feature","properties":{"ZIP":"V1V2B3"},"geometry":{"type":"Point","coordinates":[-119.4337725,49.8974175]}},{"type":"Feature","properties":{"ZIP":"V1V1M7"},"geometry":{"type":"Point","coordinates":[-119.42476300000001,49.9039635]}},{"type":"Feature","properties":{"ZIP":"V1V2C5"},"geometry":{"type":"Point","coordinates":[-119.425923,49.950849000000005]}},{"type":"Feature","properties":{"ZIP":"V1V2P8"},"geometry":{"type":"Point","coordinates":[-119.4555795,49.9709665]}},{"type":"Feature","properties":{"ZIP":"V1V1V2"},"geometry":{"type":"Point","coordinates":[-119.4468,49.9216625]}},{"type":"Feature","properties":{"ZIP":"V1V1A1"},"geometry":{"type":"Point","coordinates":[-119.468065,49.9281025]}},{"type":"Feature","properties":{"ZIP":"V1V2G9"},"geometry":{"type":"Point","coordinates":[-119.3989615,49.919757000000004]}},{"type":"Feature","properties":{"ZIP":"V1V2W1"},"geometry":{"type":"Point","coordinates":[-119.46079549999999,49.9041875]}},{"type":"Feature","properties":{"ZIP":"V1V2E8"},"geometry":{"type":"Point","coordinates":[-119.4352105,49.926991]}},{"type":"Feature","properties":{"ZIP":"V1V2X8"},"geometry":{"type":"Point","coordinates":[-119.436963,49.945348499999994]}},{"type":"Feature","properties":{"ZIP":"V1V1P2"},"geometry":{"type":"Point","coordinates":[-119.445738,49.919404]}},{"type":"Feature","properties":{"ZIP":"V1V1P3"},"geometry":{"type":"Point","coordinates":[-119.457074,49.9071205]}},{"type":"Feature","properties":{"ZIP":"V1V2A3"},"geometry":{"type":"Point","coordinates":[-119.4009135,49.9600565]}},{"type":"Feature","properties":{"ZIP":"V1V1H9"},"geometry":{"type":"Point","coordinates":[-119.4297995,49.8938925]}},{"type":"Feature","properties":{"ZIP":"V1V2N8"},"geometry":{"type":"Point","coordinates":[-119.46224050000001,49.902587499999996]}},{"type":"Feature","properties":{"ZIP":"V1V2C9"},"geometry":{"type":"Point","coordinates":[-119.414827,49.929520999999994]}},{"type":"Feature","properties":{"ZIP":"V1V2G2"},"geometry":{"type":"Point","coordinates":[-119.4351225,49.9194965]}},{"type":"Feature","properties":{"ZIP":"V1V1A5"},"geometry":{"type":"Point","coordinates":[-119.46411549999999,49.928787]}},{"type":"Feature","properties":{"ZIP":"V1V1J1"},"geometry":{"type":"Point","coordinates":[-119.4282215,49.894534500000006]}},{"type":"Feature","properties":{"ZIP":"V1V1X1"},"geometry":{"type":"Point","coordinates":[-119.4398285,49.918282500000004]}},{"type":"Feature","properties":{"ZIP":"V1V1T3"},"geometry":{"type":"Point","coordinates":[-119.4439255,49.922063]}},{"type":"Feature","properties":{"ZIP":"V1V1P5"},"geometry":{"type":"Point","coordinates":[-119.4372835,49.9186865]}},{"type":"Feature","properties":{"ZIP":"V1V1A6"},"geometry":{"type":"Point","coordinates":[-119.4667235,49.910534]}},{"type":"Feature","properties":{"ZIP":"V1V1T4"},"geometry":{"type":"Point","coordinates":[-119.445873,49.922090999999995]}},{"type":"Feature","properties":{"ZIP":"V1V2L4"},"geometry":{"type":"Point","coordinates":[-119.476085,49.915073]}},{"type":"Feature","properties":{"ZIP":"V1V2R8"},"geometry":{"type":"Point","coordinates":[-119.4421195,49.9346215]}},{"type":"Feature","properties":{"ZIP":"V1V2C1"},"geometry":{"type":"Point","coordinates":[-119.46032600000001,49.956926499999994]}},{"type":"Feature","properties":{"ZIP":"V1V2J9"},"geometry":{"type":"Point","coordinates":[-119.4442605,49.9155225]}},{"type":"Feature","properties":{"ZIP":"V1V1T5"},"geometry":{"type":"Point","coordinates":[-119.4632905,49.901048]}},{"type":"Feature","properties":{"ZIP":"V1V2N1"},"geometry":{"type":"Point","coordinates":[-119.401336,49.956174000000004]}},{"type":"Feature","properties":{"ZIP":"V1V1N6"},"geometry":{"type":"Point","coordinates":[-119.4306895,49.8982955]}},{"type":"Feature","properties":{"ZIP":"V1V1Z6"},"geometry":{"type":"Point","coordinates":[-119.44236599999999,49.920653]}},{"type":"Feature","properties":{"ZIP":"V1V1G4"},"geometry":{"type":"Point","coordinates":[-119.4696885,49.9264805]}},{"type":"Feature","properties":{"ZIP":"V1V2G6"},"geometry":{"type":"Point","coordinates":[-119.4163815,49.923839]}},{"type":"Feature","properties":{"ZIP":"V1V1Y1"},"geometry":{"type":"Point","coordinates":[-119.438906,49.9303095]}},{"type":"Feature","properties":{"ZIP":"V1V2K2"},"geometry":{"type":"Point","coordinates":[-119.3869715,49.969006500000006]}},{"type":"Feature","properties":{"ZIP":"V1V2E5"},"geometry":{"type":"Point","coordinates":[-119.4413445,49.913250500000004]}},{"type":"Feature","properties":{"ZIP":"V1V2G7"},"geometry":{"type":"Point","coordinates":[-119.4124635,49.922836000000004]}},{"type":"Feature","properties":{"ZIP":"V1V1B2"},"geometry":{"type":"Point","coordinates":[-119.4634815,49.9069355]}},{"type":"Feature","properties":{"ZIP":"V1V2C4"},"geometry":{"type":"Point","coordinates":[-119.45944600000001,49.962773]}},{"type":"Feature","properties":{"ZIP":"V1V2P7"},"geometry":{"type":"Point","coordinates":[-119.46133499999999,49.903222]}},{"type":"Feature","properties":{"ZIP":"V1V1C6"},"geometry":{"type":"Point","coordinates":[-119.4617725,49.905473]}},{"type":"Feature","properties":{"ZIP":"V1V1W5"},"geometry":{"type":"Point","coordinates":[-119.44384149999999,49.925833]}},{"type":"Feature","properties":{"ZIP":"V1V1B3"},"geometry":{"type":"Point","coordinates":[-119.4631015,49.9070935]}},{"type":"Feature","properties":{"ZIP":"V1V2K7"},"geometry":{"type":"Point","coordinates":[-119.43489149999999,49.896301]}},{"type":"Feature","properties":{"ZIP":"V1V1C7"},"geometry":{"type":"Point","coordinates":[-119.46164049999999,49.905636]}},{"type":"Feature","properties":{"ZIP":"V1V2E7"},"geometry":{"type":"Point","coordinates":[-119.43197649999999,49.9238615]}},{"type":"Feature","properties":{"ZIP":"V1V2B4"},"geometry":{"type":"Point","coordinates":[-119.420469,50.0022055]}},{"type":"Feature","properties":{"ZIP":"V1V1M8"},"geometry":{"type":"Point","coordinates":[-119.4248495,49.905851]}},{"type":"Feature","properties":{"ZIP":"V1V2C6"},"geometry":{"type":"Point","coordinates":[-119.43141750000001,49.9400675]}},{"type":"Feature","properties":{"ZIP":"V1V2K8"},"geometry":{"type":"Point","coordinates":[-119.46062549999999,49.907972]}},{"type":"Feature","properties":{"ZIP":"V1V2M2"},"geometry":{"type":"Point","coordinates":[-119.3921215,49.924248]}},{"type":"Feature","properties":{"ZIP":"V1V2S7"},"geometry":{"type":"Point","coordinates":[-119.456706,49.963878]}},{"type":"Feature","properties":{"ZIP":"V1V1R5"},"geometry":{"type":"Point","coordinates":[-119.4459835,49.919587]}},{"type":"Feature","properties":{"ZIP":"V1V2B5"},"geometry":{"type":"Point","coordinates":[-119.423287,49.982399]}},{"type":"Feature","properties":{"ZIP":"V1V1B6"},"geometry":{"type":"Point","coordinates":[-119.464614,49.9083505]}},{"type":"Feature","properties":{"ZIP":"V1V2R1"},"geometry":{"type":"Point","coordinates":[-119.4499335,49.9772855]}},{"type":"Feature","properties":{"ZIP":"V1V1E3"},"geometry":{"type":"Point","coordinates":[-119.466359,49.919342]}},{"type":"Feature","properties":{"ZIP":"V1V2H2"},"geometry":{"type":"Point","coordinates":[-119.4212055,49.913677]}},{"type":"Feature","properties":{"ZIP":"V1V2C8"},"geometry":{"type":"Point","coordinates":[-119.42531249999999,49.931062999999995]}},{"type":"Feature","properties":{"ZIP":"V1V2R5"},"geometry":{"type":"Point","coordinates":[-119.433767,49.9037315]}},{"type":"Feature","properties":{"ZIP":"V1V1E5"},"geometry":{"type":"Point","coordinates":[-119.46665949999999,49.919328500000006]}},{"type":"Feature","properties":{"ZIP":"V1V2G1"},"geometry":{"type":"Point","coordinates":[-119.4397585,49.9147375]}},{"type":"Feature","properties":{"ZIP":"V1V2M6"},"geometry":{"type":"Point","coordinates":[-119.39906450000001,49.9628695]}},{"type":"Feature","properties":{"ZIP":"V1V1A4"},"geometry":{"type":"Point","coordinates":[-119.4610725,49.939395]}},{"type":"Feature","properties":{"ZIP":"V1V1W9"},"geometry":{"type":"Point","coordinates":[-119.43895900000001,49.9193555]}},{"type":"Feature","properties":{"ZIP":"V1V2B7"},"geometry":{"type":"Point","coordinates":[-119.453576,49.9690045]}},{"type":"Feature","properties":{"ZIP":"V1V1Z1"},"geometry":{"type":"Point","coordinates":[-119.4385985,49.927463]}},{"type":"Feature","properties":{"ZIP":"V1V1E6"},"geometry":{"type":"Point","coordinates":[-119.4683665,49.9192265]}},{"type":"Feature","properties":{"ZIP":"V1V1P4"},"geometry":{"type":"Point","coordinates":[-119.43682100000001,49.9200615]}},{"type":"Feature","properties":{"ZIP":"V1V1S1"},"geometry":{"type":"Point","coordinates":[-119.3839625,49.9600385]}},{"type":"Feature","properties":{"ZIP":"V1V1C1"},"geometry":{"type":"Point","coordinates":[-119.4632755,49.9063765]}},{"type":"Feature","properties":{"ZIP":"V1V1N3"},"geometry":{"type":"Point","coordinates":[-119.4662265,49.928889]}},{"type":"Feature","properties":{"ZIP":"V1V1E7"},"geometry":{"type":"Point","coordinates":[-119.468343,49.919211000000004]}},{"type":"Feature","properties":{"ZIP":"V1V2G3"},"geometry":{"type":"Point","coordinates":[-119.425486,49.9138385]}},{"type":"Feature","properties":{"ZIP":"V1V2Z9"},"geometry":{"type":"Point","coordinates":[-119.4617035,49.9239205]}},{"type":"Feature","properties":{"ZIP":"V1V2P3"},"geometry":{"type":"Point","coordinates":[-119.44211200000001,49.9163895]}},{"type":"Feature","properties":{"ZIP":"V1V2R9"},"geometry":{"type":"Point","coordinates":[-119.4401835,49.936915]}},{"type":"Feature","properties":{"ZIP":"V1V2C2"},"geometry":{"type":"Point","coordinates":[-119.460342,49.959883000000005]}},{"type":"Feature","properties":{"ZIP":"V1V1T6"},"geometry":{"type":"Point","coordinates":[-119.4327535,49.9242605]}},{"type":"Feature","properties":{"ZIP":"V1V1M1"},"geometry":{"type":"Point","coordinates":[-119.460974,49.9412465]}},{"type":"Feature","properties":{"ZIP":"V1V2P6"},"geometry":{"type":"Point","coordinates":[-119.4410125,49.904424000000006]}},{"type":"Feature","properties":{"ZIP":"V1V1C5"},"geometry":{"type":"Point","coordinates":[-119.461586,49.9060945]}},{"type":"Feature","properties":{"ZIP":"V1V1Z7"},"geometry":{"type":"Point","coordinates":[-119.403177,49.966775999999996]}},{"type":"Feature","properties":{"ZIP":"V1V1G6"},"geometry":{"type":"Point","coordinates":[-119.4664805,49.918526]}},{"type":"Feature","properties":{"ZIP":"V1V2N3"},"geometry":{"type":"Point","coordinates":[-119.46865600000001,49.918588]}},{"type":"Feature","properties":{"ZIP":"V1V2X4"},"geometry":{"type":"Point","coordinates":[-119.4412215,49.944987]}},{"type":"Feature","properties":{"ZIP":"V1V2E6"},"geometry":{"type":"Point","coordinates":[-119.446132,49.906178999999995]}},{"type":"Feature","properties":{"ZIP":"V1V2L9"},"geometry":{"type":"Point","coordinates":[-119.3949985,49.922580499999995]}},{"type":"Feature","properties":{"ZIP":"V1V5G4"},"geometry":{"type":"Point","coordinates":[-119.5181075,49.788090499999996]}},{"type":"Feature","properties":{"ZIP":"V1V2G8"},"geometry":{"type":"Point","coordinates":[-119.4047725,49.919782999999995]}},{"type":"Feature","properties":{"ZIP":"V1V2M1"},"geometry":{"type":"Point","coordinates":[-119.3914415,49.924530000000004]}},{"type":"Feature","properties":{"ZIP":"V1V1C8"},"geometry":{"type":"Point","coordinates":[-119.466632,49.913195]}},{"type":"Feature","properties":{"ZIP":"V1V1H5"},"geometry":{"type":"Point","coordinates":[-119.4676405,49.918479]}},{"type":"Feature","properties":{"ZIP":"V1V2H1"},"geometry":{"type":"Point","coordinates":[-119.4265675,49.947945]}},{"type":"Feature","properties":{"ZIP":"V1V2N6"},"geometry":{"type":"Point","coordinates":[-119.4333785,49.900898999999995]}},{"type":"Feature","properties":{"ZIP":"V1V2W3"},"geometry":{"type":"Point","coordinates":[-119.440864,49.9194725]}},{"type":"Feature","properties":{"ZIP":"V1V2W4"},"geometry":{"type":"Point","coordinates":[-119.4422365,49.9359175]}},{"type":"Feature","properties":{"ZIP":"V1V1B8"},"geometry":{"type":"Point","coordinates":[-119.4639905,49.90767099999999]}},{"type":"Feature","properties":{"ZIP":"V1V1V6"},"geometry":{"type":"Point","coordinates":[-119.4351605,49.9316055]}},{"type":"Feature","properties":{"ZIP":"V1V2J1"},"geometry":{"type":"Point","coordinates":[-119.464144,49.909478]}},{"type":"Feature","properties":{"ZIP":"V1V2J4"},"geometry":{"type":"Point","coordinates":[-119.44211150000001,49.917487]}},{"type":"Feature","properties":{"ZIP":"V1V2N9"},"geometry":{"type":"Point","coordinates":[-119.4415425,49.8935475]}},{"type":"Feature","properties":{"ZIP":"V1V2E1"},"geometry":{"type":"Point","coordinates":[-119.422359,49.93117]}},{"type":"Feature","properties":{"ZIP":"V1V2Z3"},"geometry":{"type":"Point","coordinates":[-119.401576,49.952906]}},{"type":"Feature","properties":{"ZIP":"V1V1V8"},"geometry":{"type":"Point","coordinates":[-119.3932905,49.940016]}},{"type":"Feature","properties":{"ZIP":"V1V2A7"},"geometry":{"type":"Point","coordinates":[-119.3986395,49.953824499999996]}},{"type":"Feature","properties":{"ZIP":"V1V1S2"},"geometry":{"type":"Point","coordinates":[-119.42405249999999,49.8985215]}},{"type":"Feature","properties":{"ZIP":"V1V1X2"},"geometry":{"type":"Point","coordinates":[-119.438232,49.931676499999995]}},{"type":"Feature","properties":{"ZIP":"V1V1N4"},"geometry":{"type":"Point","coordinates":[-119.464997,49.9285685]}},{"type":"Feature","properties":{"ZIP":"V1V1G2"},"geometry":{"type":"Point","coordinates":[-119.46686550000001,49.9197145]}},{"type":"Feature","properties":{"ZIP":"V1V2T4"},"geometry":{"type":"Point","coordinates":[-119.442369,49.899476]}},{"type":"Feature","properties":{"ZIP":"V1V1C3"},"geometry":{"type":"Point","coordinates":[-119.46075450000001,49.9070045]}},{"type":"Feature","properties":{"ZIP":"V1V1A9"},"geometry":{"type":"Point","coordinates":[-119.465295,49.9062085]}},{"type":"Feature","properties":{"ZIP":"V1V2P5"},"geometry":{"type":"Point","coordinates":[-119.44093000000001,49.9023605]}},{"type":"Feature","properties":{"ZIP":"V1V1C4"},"geometry":{"type":"Point","coordinates":[-119.46088499999999,49.907018]}},{"type":"Feature","properties":{"ZIP":"V1V2T7"},"geometry":{"type":"Point","coordinates":[-119.44725249999999,49.914728]}},{"type":"Feature","properties":{"ZIP":"V1V1B1"},"geometry":{"type":"Point","coordinates":[-119.4642865,49.9065475]}},{"type":"Feature","properties":{"ZIP":"V1V1S5"},"geometry":{"type":"Point","coordinates":[-119.44520349999999,49.924009]}},{"type":"Feature","properties":{"ZIP":"V1V1Y2"},"geometry":{"type":"Point","coordinates":[-119.4398795,49.896413]}},{"type":"Feature","properties":{"ZIP":"V1V1G8"},"geometry":{"type":"Point","coordinates":[-119.464751,49.933788]}},{"type":"Feature","properties":{"ZIP":"V1V2N4"},"geometry":{"type":"Point","coordinates":[-119.40271050000001,49.964389499999996]}},{"type":"Feature","properties":{"ZIP":"V1V1Y3"},"geometry":{"type":"Point","coordinates":[-119.443296,49.914267]}},{"type":"Feature","properties":{"ZIP":"V1V2X5"},"geometry":{"type":"Point","coordinates":[-119.4402695,49.920277]}},{"type":"Feature","properties":{"ZIP":"V1V1Y4"},"geometry":{"type":"Point","coordinates":[-119.4500215,49.913385000000005]}},{"type":"Feature","properties":{"ZIP":"V1V1W8"},"geometry":{"type":"Point","coordinates":[-119.456458,49.906274]}},{"type":"Feature","properties":{"ZIP":"V1V2B6"},"geometry":{"type":"Point","coordinates":[-119.447028,49.973613]}},{"type":"Feature","properties":{"ZIP":"V1V2W5"},"geometry":{"type":"Point","coordinates":[-119.39549500000001,49.920660999999996]}},{"type":"Feature","properties":{"ZIP":"V1V1V7"},"geometry":{"type":"Point","coordinates":[-119.397818,49.9392585]}},{"type":"Feature","properties":{"ZIP":"V1V2J5"},"geometry":{"type":"Point","coordinates":[-119.3978115,49.954328000000004]}},{"type":"Feature","properties":{"ZIP":"V1V1C2"},"geometry":{"type":"Point","coordinates":[-119.461729,49.906779]}},{"type":"Feature","properties":{"ZIP":"V1V1Z5"},"geometry":{"type":"Point","coordinates":[-119.4512135,49.910070000000005]}},{"type":"Feature","properties":{"ZIP":"V1V2L5"},"geometry":{"type":"Point","coordinates":[-119.425708,49.907519]}},{"type":"Feature","properties":{"ZIP":"V1V2T6"},"geometry":{"type":"Point","coordinates":[-119.4360695,49.930170000000004]}},{"type":"Feature","properties":{"ZIP":"V1V1X8"},"geometry":{"type":"Point","coordinates":[-119.44016099999999,49.928884999999994]}},{"type":"Feature","properties":{"ZIP":"V1V2K1"},"geometry":{"type":"Point","coordinates":[-119.39265599999999,49.972494499999996]}},{"type":"Feature","properties":{"ZIP":"V1V2S2"},"geometry":{"type":"Point","coordinates":[-119.3847065,49.951444]}},{"type":"Feature","properties":{"ZIP":"V1V3C4"},"geometry":{"type":"Point","coordinates":[-119.44278399999999,49.914973]}},{"type":"Feature","properties":{"ZIP":"V1V1R2"},"geometry":{"type":"Point","coordinates":[-119.43798,49.929392]}},{"type":"Feature","properties":{"ZIP":"V1V2T8"},"geometry":{"type":"Point","coordinates":[-119.4483195,49.9088675]}}]}