{"type":"FeatureCollection","features":[{"type":"Feature","properties":{"ZIP":"V7W1S8"},"geometry":{"type":"Point","coordinates":[-123.2650055,49.359367000000006]}},{"type":"Feature","properties":{"ZIP":"V7W2M9"},"geometry":{"type":"Point","coordinates":[-123.2504045,49.3499565]}},{"type":"Feature","properties":{"ZIP":"V7W1N5"},"geometry":{"type":"Point","coordinates":[-123.26240200000001,49.351532500000005]}},{"type":"Feature","properties":{"ZIP":"V7W2A5"},"geometry":{"type":"Point","coordinates":[-123.27789,49.3731505]}},{"type":"Feature","properties":{"ZIP":"V7W3G8"},"geometry":{"type":"Point","coordinates":[-123.25920550000001,49.3470715]}},{"type":"Feature","properties":{"ZIP":"V7W1B1"},"geometry":{"type":"Point","coordinates":[-123.2411745,49.347648500000005]}},{"type":"Feature","properties":{"ZIP":"V7W2C3"},"geometry":{"type":"Point","coordinates":[-123.27946750000001,49.3692925]}},{"type":"Feature","properties":{"ZIP":"V7W2H1"},"geometry":{"type":"Point","coordinates":[-123.275334,49.374809]}},{"type":"Feature","properties":{"ZIP":"V7W1T1"},"geometry":{"type":"Point","coordinates":[-123.26589849999999,49.3600915]}},{"type":"Feature","properties":{"ZIP":"V7W2N1"},"geometry":{"type":"Point","coordinates":[-123.247905,49.348359]}},{"type":"Feature","properties":{"ZIP":"V7W2J8"},"geometry":{"type":"Point","coordinates":[-123.28017399999999,49.373858]}},{"type":"Feature","properties":{"ZIP":"V7W2T7"},"geometry":{"type":"Point","coordinates":[-123.245437,49.402006]}},{"type":"Feature","properties":{"ZIP":"V7W2G1"},"geometry":{"type":"Point","coordinates":[-123.2742025,49.3725555]}},{"type":"Feature","properties":{"ZIP":"V7W1V8"},"geometry":{"type":"Point","coordinates":[-123.283071,49.3592445]}},{"type":"Feature","properties":{"ZIP":"V7W2K2"},"geometry":{"type":"Point","coordinates":[-123.283496,49.3741585]}},{"type":"Feature","properties":{"ZIP":"V7W2S9"},"geometry":{"type":"Point","coordinates":[-123.2821185,49.3717345]}},{"type":"Feature","properties":{"ZIP":"V7W3B5"},"geometry":{"type":"Point","coordinates":[-123.252375,49.348136499999995]}},{"type":"Feature","properties":{"ZIP":"V7W1V1"},"geometry":{"type":"Point","coordinates":[-123.259478,49.3600965]}},{"type":"Feature","properties":{"ZIP":"V7W2A2"},"geometry":{"type":"Point","coordinates":[-123.280966,49.368956]}},{"type":"Feature","properties":{"ZIP":"V7W2M6"},"geometry":{"type":"Point","coordinates":[-123.2365605,49.346101000000004]}},{"type":"Feature","properties":{"ZIP":"V7W1W5"},"geometry":{"type":"Point","coordinates":[-123.272205,49.3591905]}},{"type":"Feature","properties":{"ZIP":"V7W1S7"},"geometry":{"type":"Point","coordinates":[-123.2640895,49.358447]}},{"type":"Feature","properties":{"ZIP":"V7W2G9"},"geometry":{"type":"Point","coordinates":[-123.2735935,49.3743355]}},{"type":"Feature","properties":{"ZIP":"V7W1K4"},"geometry":{"type":"Point","coordinates":[-123.258561,49.339357]}},{"type":"Feature","properties":{"ZIP":"V7W2L1"},"geometry":{"type":"Point","coordinates":[-123.281643,49.377834]}},{"type":"Feature","properties":{"ZIP":"V7W2J7"},"geometry":{"type":"Point","coordinates":[-123.280652,49.373298000000005]}},{"type":"Feature","properties":{"ZIP":"V7W2T5"},"geometry":{"type":"Point","coordinates":[-123.2554505,49.391236500000005]}},{"type":"Feature","properties":{"ZIP":"V7W2W3"},"geometry":{"type":"Point","coordinates":[-123.2491455,49.398720499999996]}},{"type":"Feature","properties":{"ZIP":"V7W1G6"},"geometry":{"type":"Point","coordinates":[-123.2480005,49.348171]}},{"type":"Feature","properties":{"ZIP":"V7W2E9"},"geometry":{"type":"Point","coordinates":[-123.274325,49.3725635]}},{"type":"Feature","properties":{"ZIP":"V7W1J2"},"geometry":{"type":"Point","coordinates":[-123.2506815,49.3401005]}},{"type":"Feature","properties":{"ZIP":"V7W1G7"},"geometry":{"type":"Point","coordinates":[-123.2480775,49.3481]}},{"type":"Feature","properties":{"ZIP":"V7W1T3"},"geometry":{"type":"Point","coordinates":[-123.264764,49.35891049999999]}},{"type":"Feature","properties":{"ZIP":"V7W3E7"},"geometry":{"type":"Point","coordinates":[-123.253869,49.348570499999994]}},{"type":"Feature","properties":{"ZIP":"V7W1R8"},"geometry":{"type":"Point","coordinates":[-123.243027,49.4069345]}},{"type":"Feature","properties":{"ZIP":"V7W2N5"},"geometry":{"type":"Point","coordinates":[-123.2641735,49.353558]}},{"type":"Feature","properties":{"ZIP":"V7W1J8"},"geometry":{"type":"Point","coordinates":[-123.25200000000001,49.340303500000005]}},{"type":"Feature","properties":{"ZIP":"V7W1T6"},"geometry":{"type":"Point","coordinates":[-123.25806750000001,49.358588999999995]}},{"type":"Feature","properties":{"ZIP":"V7W2G4"},"geometry":{"type":"Point","coordinates":[-123.274229,49.3734415]}},{"type":"Feature","properties":{"ZIP":"V7W1C3"},"geometry":{"type":"Point","coordinates":[-123.24460099999999,49.347001]}},{"type":"Feature","properties":{"ZIP":"V7W1P4"},"geometry":{"type":"Point","coordinates":[-123.2654835,49.3556185]}},{"type":"Feature","properties":{"ZIP":"V7W1S4"},"geometry":{"type":"Point","coordinates":[-123.2664555,49.356286]}},{"type":"Feature","properties":{"ZIP":"V7W2G6"},"geometry":{"type":"Point","coordinates":[-123.2760375,49.374087]}},{"type":"Feature","properties":{"ZIP":"V7W1W4"},"geometry":{"type":"Point","coordinates":[-123.2770065,49.357150000000004]}},{"type":"Feature","properties":{"ZIP":"V7W2J2"},"geometry":{"type":"Point","coordinates":[-123.283046,49.369298]}},{"type":"Feature","properties":{"ZIP":"V7W2P1"},"geometry":{"type":"Point","coordinates":[-123.2415095,49.347752]}},{"type":"Feature","properties":{"ZIP":"V7W2V8"},"geometry":{"type":"Point","coordinates":[-123.282143,49.3607085]}},{"type":"Feature","properties":{"ZIP":"V7W3G3"},"geometry":{"type":"Point","coordinates":[-123.2551215,49.35298]}},{"type":"Feature","properties":{"ZIP":"V7W2G7"},"geometry":{"type":"Point","coordinates":[-123.27619849999999,49.374222]}},{"type":"Feature","properties":{"ZIP":"V7W1K3"},"geometry":{"type":"Point","coordinates":[-123.25918,49.340509]}},{"type":"Feature","properties":{"ZIP":"V7W1A1"},"geometry":{"type":"Point","coordinates":[-123.238084,49.345979]}},{"type":"Feature","properties":{"ZIP":"V7W2E6"},"geometry":{"type":"Point","coordinates":[-123.2754745,49.371876]}},{"type":"Feature","properties":{"ZIP":"V7W1N6"},"geometry":{"type":"Point","coordinates":[-123.26265749999999,49.351524]}},{"type":"Feature","properties":{"ZIP":"V7W2T4"},"geometry":{"type":"Point","coordinates":[-123.2859355,49.374695]}},{"type":"Feature","properties":{"ZIP":"V7W3E4"},"geometry":{"type":"Point","coordinates":[-123.255471,49.3535095]}},{"type":"Feature","properties":{"ZIP":"V7W3G7"},"geometry":{"type":"Point","coordinates":[-123.23473200000001,49.432254]}},{"type":"Feature","properties":{"ZIP":"V7W1A3"},"geometry":{"type":"Point","coordinates":[-123.242741,49.347511499999996]}},{"type":"Feature","properties":{"ZIP":"V7W1T2"},"geometry":{"type":"Point","coordinates":[-123.264682,49.359057500000006]}},{"type":"Feature","properties":{"ZIP":"V7W2S1"},"geometry":{"type":"Point","coordinates":[-123.27144949999999,49.357771]}},{"type":"Feature","properties":{"ZIP":"V7W1V6"},"geometry":{"type":"Point","coordinates":[-123.27342300000001,49.353770999999995]}},{"type":"Feature","properties":{"ZIP":"V7W2N2"},"geometry":{"type":"Point","coordinates":[-123.2598185,49.350176000000005]}},{"type":"Feature","properties":{"ZIP":"V7W1R7"},"geometry":{"type":"Point","coordinates":[-123.2691365,49.355336]}},{"type":"Feature","properties":{"ZIP":"V7W1W9"},"geometry":{"type":"Point","coordinates":[-123.2764645,49.3601125]}},{"type":"Feature","properties":{"ZIP":"V7W2W4"},"geometry":{"type":"Point","coordinates":[-123.2490495,49.399538]}},{"type":"Feature","properties":{"ZIP":"V7W1Y3"},"geometry":{"type":"Point","coordinates":[-123.282241,49.36582]}},{"type":"Feature","properties":{"ZIP":"V7W2S2"},"geometry":{"type":"Point","coordinates":[-123.2727125,49.358002]}},{"type":"Feature","properties":{"ZIP":"V7W1B9"},"geometry":{"type":"Point","coordinates":[-123.2435365,49.344974500000006]}},{"type":"Feature","properties":{"ZIP":"V7W2H6"},"geometry":{"type":"Point","coordinates":[-123.28001,49.3723135]}},{"type":"Feature","properties":{"ZIP":"V7W2P8"},"geometry":{"type":"Point","coordinates":[-123.26441349999999,49.3479565]}},{"type":"Feature","properties":{"ZIP":"V7W1A6"},"geometry":{"type":"Point","coordinates":[-123.24055150000001,49.345085499999996]}},{"type":"Feature","properties":{"ZIP":"V7W2G2"},"geometry":{"type":"Point","coordinates":[-123.27595249999999,49.3730625]}},{"type":"Feature","properties":{"ZIP":"V7W2X9"},"geometry":{"type":"Point","coordinates":[-123.26002199999999,49.355609]}},{"type":"Feature","properties":{"ZIP":"V7W3J7"},"geometry":{"type":"Point","coordinates":[-123.2481675,49.3969055]}},{"type":"Feature","properties":{"ZIP":"V7W2Z6"},"geometry":{"type":"Point","coordinates":[-123.25517500000001,49.3517005]}},{"type":"Feature","properties":{"ZIP":"V7W3E8"},"geometry":{"type":"Point","coordinates":[-123.256416,49.3561265]}},{"type":"Feature","properties":{"ZIP":"V7W2G3"},"geometry":{"type":"Point","coordinates":[-123.276196,49.3731565]}},{"type":"Feature","properties":{"ZIP":"V7W3J8"},"geometry":{"type":"Point","coordinates":[-123.26037450000001,49.345354]}},{"type":"Feature","properties":{"ZIP":"V7W1L3"},"geometry":{"type":"Point","coordinates":[-123.2668335,49.340281]}},{"type":"Feature","properties":{"ZIP":"V7W2H9"},"geometry":{"type":"Point","coordinates":[-123.2788345,49.3745995]}},{"type":"Feature","properties":{"ZIP":"V7W2W8"},"geometry":{"type":"Point","coordinates":[-123.2629165,49.3484015]}},{"type":"Feature","properties":{"ZIP":"V7W3H6"},"geometry":{"type":"Point","coordinates":[-123.258731,49.3431655]}},{"type":"Feature","properties":{"ZIP":"V7W1A9"},"geometry":{"type":"Point","coordinates":[-123.24148600000001,49.3475825]}},{"type":"Feature","properties":{"ZIP":"V7W2V7"},"geometry":{"type":"Point","coordinates":[-123.26724,49.351309]}},{"type":"Feature","properties":{"ZIP":"V7W1H5"},"geometry":{"type":"Point","coordinates":[-123.251785,49.342226999999994]}},{"type":"Feature","properties":{"ZIP":"V7W3C9"},"geometry":{"type":"Point","coordinates":[-123.2585585,49.35048]}},{"type":"Feature","properties":{"ZIP":"V7W1C5"},"geometry":{"type":"Point","coordinates":[-123.244811,49.347806]}},{"type":"Feature","properties":{"ZIP":"V7W1K2"},"geometry":{"type":"Point","coordinates":[-123.25736599999999,49.340036]}},{"type":"Feature","properties":{"ZIP":"V7W2E5"},"geometry":{"type":"Point","coordinates":[-123.2751395,49.371838]}},{"type":"Feature","properties":{"ZIP":"V7W2K8"},"geometry":{"type":"Point","coordinates":[-123.2822405,49.3764495]}},{"type":"Feature","properties":{"ZIP":"V7W3H9"},"geometry":{"type":"Point","coordinates":[-123.25748300000001,49.343835999999996]}},{"type":"Feature","properties":{"ZIP":"V7W2V9"},"geometry":{"type":"Point","coordinates":[-123.268083,49.3463695]}},{"type":"Feature","properties":{"ZIP":"V7W3A3"},"geometry":{"type":"Point","coordinates":[-123.2513865,49.348669]}},{"type":"Feature","properties":{"ZIP":"V7W2T3"},"geometry":{"type":"Point","coordinates":[-123.2863895,49.374033499999996]}},{"type":"Feature","properties":{"ZIP":"V7W3E2"},"geometry":{"type":"Point","coordinates":[-123.269578,49.3480675]}},{"type":"Feature","properties":{"ZIP":"V7W2J6"},"geometry":{"type":"Point","coordinates":[-123.281608,49.371648]}},{"type":"Feature","properties":{"ZIP":"V7W2P4"},"geometry":{"type":"Point","coordinates":[-123.25504649999999,49.345275]}},{"type":"Feature","properties":{"ZIP":"V7W3A5"},"geometry":{"type":"Point","coordinates":[-123.25752,49.343866500000004]}},{"type":"Feature","properties":{"ZIP":"V7W1A2"},"geometry":{"type":"Point","coordinates":[-123.2432855,49.348592]}},{"type":"Feature","properties":{"ZIP":"V7W2E7"},"geometry":{"type":"Point","coordinates":[-123.2768055,49.3723575]}},{"type":"Feature","properties":{"ZIP":"V7W3B7"},"geometry":{"type":"Point","coordinates":[-123.2849105,49.3730625]}},{"type":"Feature","properties":{"ZIP":"V7W1B5"},"geometry":{"type":"Point","coordinates":[-123.2415565,49.3404435]}},{"type":"Feature","properties":{"ZIP":"V7W1V4"},"geometry":{"type":"Point","coordinates":[-123.260498,49.357495]}},{"type":"Feature","properties":{"ZIP":"V7W2C4"},"geometry":{"type":"Point","coordinates":[-123.27965449999999,49.369277499999995]}},{"type":"Feature","properties":{"ZIP":"V7W3A6"},"geometry":{"type":"Point","coordinates":[-123.25914,49.348701000000005]}},{"type":"Feature","properties":{"ZIP":"V7W1M2"},"geometry":{"type":"Point","coordinates":[-123.268063,49.349132499999996]}},{"type":"Feature","properties":{"ZIP":"V7W3B8"},"geometry":{"type":"Point","coordinates":[-123.261835,49.346257]}},{"type":"Feature","properties":{"ZIP":"V7W1B7"},"geometry":{"type":"Point","coordinates":[-123.242752,49.341838499999994]}},{"type":"Feature","properties":{"ZIP":"V7W1V5"},"geometry":{"type":"Point","coordinates":[-123.2733455,49.3538535]}},{"type":"Feature","properties":{"ZIP":"V7W2H4"},"geometry":{"type":"Point","coordinates":[-123.28237200000001,49.369313]}},{"type":"Feature","properties":{"ZIP":"V7W3E5"},"geometry":{"type":"Point","coordinates":[-123.2552185,49.353575]}},{"type":"Feature","properties":{"ZIP":"V7W2X7"},"geometry":{"type":"Point","coordinates":[-123.2595105,49.353756000000004]}},{"type":"Feature","properties":{"ZIP":"V7W1B8"},"geometry":{"type":"Point","coordinates":[-123.2428535,49.342332999999996]}},{"type":"Feature","properties":{"ZIP":"V7W2Z3"},"geometry":{"type":"Point","coordinates":[-123.2562225,49.345124]}},{"type":"Feature","properties":{"ZIP":"V7W3E6"},"geometry":{"type":"Point","coordinates":[-123.258339,49.344663]}},{"type":"Feature","properties":{"ZIP":"V7W1E2"},"geometry":{"type":"Point","coordinates":[-123.24665,49.346348000000006]}},{"type":"Feature","properties":{"ZIP":"V7W3J6"},"geometry":{"type":"Point","coordinates":[-123.25329500000001,49.342822]}},{"type":"Feature","properties":{"ZIP":"V7W2Z5"},"geometry":{"type":"Point","coordinates":[-123.2551985,49.350667]}},{"type":"Feature","properties":{"ZIP":"V7W1L1"},"geometry":{"type":"Point","coordinates":[-123.26529049999999,49.340351]}},{"type":"Feature","properties":{"ZIP":"V7W1X1"},"geometry":{"type":"Point","coordinates":[-123.277034,49.3621095]}},{"type":"Feature","properties":{"ZIP":"V7W3A9"},"geometry":{"type":"Point","coordinates":[-123.274503,49.360055]}},{"type":"Feature","properties":{"ZIP":"V7W2S3"},"geometry":{"type":"Point","coordinates":[-123.278245,49.3600275]}},{"type":"Feature","properties":{"ZIP":"V7W2H7"},"geometry":{"type":"Point","coordinates":[-123.27986849999999,49.372053]}},{"type":"Feature","properties":{"ZIP":"V7W1R9"},"geometry":{"type":"Point","coordinates":[-123.2676725,49.3548035]}},{"type":"Feature","properties":{"ZIP":"V7W3B1"},"geometry":{"type":"Point","coordinates":[-123.2591305,49.347618]}},{"type":"Feature","properties":{"ZIP":"V7W2S6"},"geometry":{"type":"Point","coordinates":[-123.2779385,49.370076999999995]}},{"type":"Feature","properties":{"ZIP":"V7W3E9"},"geometry":{"type":"Point","coordinates":[-123.2567785,49.357244]}},{"type":"Feature","properties":{"ZIP":"V7W2E1"},"geometry":{"type":"Point","coordinates":[-123.27646949999999,49.3712695]}},{"type":"Feature","properties":{"ZIP":"V7W2W7"},"geometry":{"type":"Point","coordinates":[-123.25542899999999,49.348029]}},{"type":"Feature","properties":{"ZIP":"V7W2Y2"},"geometry":{"type":"Point","coordinates":[-123.2542445,49.344539499999996]}},{"type":"Feature","properties":{"ZIP":"V7W3C7"},"geometry":{"type":"Point","coordinates":[-123.252936,49.350427999999994]}},{"type":"Feature","properties":{"ZIP":"V7W2B8"},"geometry":{"type":"Point","coordinates":[-123.274662,49.373956500000006]}},{"type":"Feature","properties":{"ZIP":"V7W1E8"},"geometry":{"type":"Point","coordinates":[-123.249363,49.3456455]}},{"type":"Feature","properties":{"ZIP":"V7W2K6"},"geometry":{"type":"Point","coordinates":[-123.2827765,49.377027999999996]}},{"type":"Feature","properties":{"ZIP":"V7W2R4"},"geometry":{"type":"Point","coordinates":[-123.2608955,49.354594000000006]}},{"type":"Feature","properties":{"ZIP":"V7W3K2"},"geometry":{"type":"Point","coordinates":[-123.2633025,49.3544275]}},{"type":"Feature","properties":{"ZIP":"V7W1P5"},"geometry":{"type":"Point","coordinates":[-123.267555,49.355298000000005]}},{"type":"Feature","properties":{"ZIP":"V7W2J1"},"geometry":{"type":"Point","coordinates":[-123.2789665,49.3732825]}},{"type":"Feature","properties":{"ZIP":"V7W3A1"},"geometry":{"type":"Point","coordinates":[-123.2791055,49.358325]}},{"type":"Feature","properties":{"ZIP":"V7W2K7"},"geometry":{"type":"Point","coordinates":[-123.282842,49.3765025]}},{"type":"Feature","properties":{"ZIP":"V7W2R5"},"geometry":{"type":"Point","coordinates":[-123.2649005,49.352388000000005]}},{"type":"Feature","properties":{"ZIP":"V7W1N4"},"geometry":{"type":"Point","coordinates":[-123.26508799999999,49.349818]}},{"type":"Feature","properties":{"ZIP":"V7W1T9"},"geometry":{"type":"Point","coordinates":[-123.257946,49.3601435]}},{"type":"Feature","properties":{"ZIP":"V7W2A1"},"geometry":{"type":"Point","coordinates":[-123.28116750000001,49.368300000000005]}},{"type":"Feature","properties":{"ZIP":"V7W2T1"},"geometry":{"type":"Point","coordinates":[-123.282837,49.373012]}},{"type":"Feature","properties":{"ZIP":"V7W2Y4"},"geometry":{"type":"Point","coordinates":[-123.2389025,49.3466065]}},{"type":"Feature","properties":{"ZIP":"V7W1P8"},"geometry":{"type":"Point","coordinates":[-123.26907700000001,49.355064999999996]}},{"type":"Feature","properties":{"ZIP":"V7W2C1"},"geometry":{"type":"Point","coordinates":[-123.28037499999999,49.3684575]}},{"type":"Feature","properties":{"ZIP":"V7W3A2"},"geometry":{"type":"Point","coordinates":[-123.2505295,49.349027500000005]}},{"type":"Feature","properties":{"ZIP":"V7W1L7"},"geometry":{"type":"Point","coordinates":[-123.266944,49.3420095]}},{"type":"Feature","properties":{"ZIP":"V7W2R6"},"geometry":{"type":"Point","coordinates":[-123.263592,49.3559485]}},{"type":"Feature","properties":{"ZIP":"V7W2X3"},"geometry":{"type":"Point","coordinates":[-123.2544065,49.3448425]}},{"type":"Feature","properties":{"ZIP":"V7W1B2"},"geometry":{"type":"Point","coordinates":[-123.2430715,49.340369499999994]}},{"type":"Feature","properties":{"ZIP":"V7W2Y5"},"geometry":{"type":"Point","coordinates":[-123.25519299999999,49.3506295]}},{"type":"Feature","properties":{"ZIP":"V7W3E1"},"geometry":{"type":"Point","coordinates":[-123.2588355,49.3509335]}},{"type":"Feature","properties":{"ZIP":"V7W2J5"},"geometry":{"type":"Point","coordinates":[-123.282594,49.3710255]}},{"type":"Feature","properties":{"ZIP":"V7W2P2"},"geometry":{"type":"Point","coordinates":[-123.2509365,49.343861000000004]}},{"type":"Feature","properties":{"ZIP":"V7W1G2"},"geometry":{"type":"Point","coordinates":[-123.24633850000001,49.348208]}},{"type":"Feature","properties":{"ZIP":"V7W1L8"},"geometry":{"type":"Point","coordinates":[-123.266021,49.343545500000005]}},{"type":"Feature","properties":{"ZIP":"V7W1X8"},"geometry":{"type":"Point","coordinates":[-123.283291,49.365315499999994]}},{"type":"Feature","properties":{"ZIP":"V7W2X4"},"geometry":{"type":"Point","coordinates":[-123.2570785,49.348064]}},{"type":"Feature","properties":{"ZIP":"V7W3J1"},"geometry":{"type":"Point","coordinates":[-123.2592295,49.34456]}},{"type":"Feature","properties":{"ZIP":"V7W1H7"},"geometry":{"type":"Point","coordinates":[-123.2556195,49.341186]}},{"type":"Feature","properties":{"ZIP":"V7W1V3"},"geometry":{"type":"Point","coordinates":[-123.259542,49.358776]}},{"type":"Feature","properties":{"ZIP":"V7W2M8"},"geometry":{"type":"Point","coordinates":[-123.24163949999999,49.347723]}},{"type":"Feature","properties":{"ZIP":"V7W2Y8"},"geometry":{"type":"Point","coordinates":[-123.2561365,49.3497415]}},{"type":"Feature","properties":{"ZIP":"V7W1C7"},"geometry":{"type":"Point","coordinates":[-123.24681799999999,49.342128]}},{"type":"Feature","properties":{"ZIP":"V7W3G5"},"geometry":{"type":"Point","coordinates":[-123.280412,49.3594305]}},{"type":"Feature","properties":{"ZIP":"V7W1G3"},"geometry":{"type":"Point","coordinates":[-123.2459835,49.349025999999995]}},{"type":"Feature","properties":{"ZIP":"V7W1L9"},"geometry":{"type":"Point","coordinates":[-123.265243,49.34704]}},{"type":"Feature","properties":{"ZIP":"V7W1X9"},"geometry":{"type":"Point","coordinates":[-123.283345,49.365795500000004]}},{"type":"Feature","properties":{"ZIP":"V7W2R8"},"geometry":{"type":"Point","coordinates":[-123.26579100000001,49.358063]}},{"type":"Feature","properties":{"ZIP":"V7W1H8"},"geometry":{"type":"Point","coordinates":[-123.2482145,49.345434499999996]}},{"type":"Feature","properties":{"ZIP":"V7W1C8"},"geometry":{"type":"Point","coordinates":[-123.246982,49.3416]}},{"type":"Feature","properties":{"ZIP":"V7W1K5"},"geometry":{"type":"Point","coordinates":[-123.258505,49.339351]}},{"type":"Feature","properties":{"ZIP":"V7W1W7"},"geometry":{"type":"Point","coordinates":[-123.276144,49.3600355]}},{"type":"Feature","properties":{"ZIP":"V7W1G5"},"geometry":{"type":"Point","coordinates":[-123.24579750000001,49.349996000000004]}},{"type":"Feature","properties":{"ZIP":"V7W1Y1"},"geometry":{"type":"Point","coordinates":[-123.2838705,49.363764]}},{"type":"Feature","properties":{"ZIP":"V7W2E8"},"geometry":{"type":"Point","coordinates":[-123.276872,49.372371]}},{"type":"Feature","properties":{"ZIP":"V7W2R9"},"geometry":{"type":"Point","coordinates":[-123.264887,49.356761500000005]}},{"type":"Feature","properties":{"ZIP":"V7W2X6"},"geometry":{"type":"Point","coordinates":[-123.256651,49.348641]}},{"type":"Feature","properties":{"ZIP":"V7W3J3"},"geometry":{"type":"Point","coordinates":[-123.25762599999999,49.3421425]}},{"type":"Feature","properties":{"ZIP":"V7W1N8"},"geometry":{"type":"Point","coordinates":[-123.2680115,49.3520625]}},{"type":"Feature","properties":{"ZIP":"V7W2A6"},"geometry":{"type":"Point","coordinates":[-123.2783455,49.371443]}},{"type":"Feature","properties":{"ZIP":"V7W1W8"},"geometry":{"type":"Point","coordinates":[-123.2758105,49.359621000000004]}},{"type":"Feature","properties":{"ZIP":"V7W2C5"},"geometry":{"type":"Point","coordinates":[-123.27805699999999,49.369633]}},{"type":"Feature","properties":{"ZIP":"V7W3A7"},"geometry":{"type":"Point","coordinates":[-123.258903,49.347939499999995]}},{"type":"Feature","properties":{"ZIP":"V7W1M3"},"geometry":{"type":"Point","coordinates":[-123.2684725,49.3490075]}},{"type":"Feature","properties":{"ZIP":"V7W1Y2"},"geometry":{"type":"Point","coordinates":[-123.2829935,49.365148]}},{"type":"Feature","properties":{"ZIP":"V7W3J5"},"geometry":{"type":"Point","coordinates":[-123.2560805,49.342484]}},{"type":"Feature","properties":{"ZIP":"V7W2H5"},"geometry":{"type":"Point","coordinates":[-123.2825785,49.3692345]}},{"type":"Feature","properties":{"ZIP":"V7W2C6"},"geometry":{"type":"Point","coordinates":[-123.2784635,49.3698755]}},{"type":"Feature","properties":{"ZIP":"V7W2J9"},"geometry":{"type":"Point","coordinates":[-123.2786365,49.376053999999996]}},{"type":"Feature","properties":{"ZIP":"V7W2P7"},"geometry":{"type":"Point","coordinates":[-123.2596245,49.34685]}},{"type":"Feature","properties":{"ZIP":"V7W3A8"},"geometry":{"type":"Point","coordinates":[-123.258873,49.347682000000006]}},{"type":"Feature","properties":{"ZIP":"V7W3G9"},"geometry":{"type":"Point","coordinates":[-123.2660425,49.3427415]}},{"type":"Feature","properties":{"ZIP":"V7W1M4"},"geometry":{"type":"Point","coordinates":[-123.265943,49.3488555]}},{"type":"Feature","properties":{"ZIP":"V7W2B1"},"geometry":{"type":"Point","coordinates":[-123.27678449999999,49.3749605]}},{"type":"Feature","properties":{"ZIP":"V7W2N4"},"geometry":{"type":"Point","coordinates":[-123.26410849999999,49.353509]}},{"type":"Feature","properties":{"ZIP":"V7W2T9"},"geometry":{"type":"Point","coordinates":[-123.2528505,49.344505999999996]}},{"type":"Feature","properties":{"ZIP":"V7W1E3"},"geometry":{"type":"Point","coordinates":[-123.2465805,49.346041]}},{"type":"Feature","properties":{"ZIP":"V7W3H1"},"geometry":{"type":"Point","coordinates":[-123.25007550000001,49.397172499999996]}},{"type":"Feature","properties":{"ZIP":"V7W1G9"},"geometry":{"type":"Point","coordinates":[-123.248007,49.3503065]}},{"type":"Feature","properties":{"ZIP":"V7W1T4"},"geometry":{"type":"Point","coordinates":[-123.266203,49.3592535]}},{"type":"Feature","properties":{"ZIP":"V7W2L5"},"geometry":{"type":"Point","coordinates":[-123.290924,49.373780999999994]}},{"type":"Feature","properties":{"ZIP":"V7W3C3"},"geometry":{"type":"Point","coordinates":[-123.259801,49.348228000000006]}},{"type":"Feature","properties":{"ZIP":"V7W1P2"},"geometry":{"type":"Point","coordinates":[-123.26214949999999,49.3566115]}},{"type":"Feature","properties":{"ZIP":"V7W2C9"},"geometry":{"type":"Point","coordinates":[-123.2760655,49.372716999999994]}},{"type":"Feature","properties":{"ZIP":"V7W2R2"},"geometry":{"type":"Point","coordinates":[-123.2665265,49.350193000000004]}},{"type":"Feature","properties":{"ZIP":"V7W1A7"},"geometry":{"type":"Point","coordinates":[-123.239172,49.344930000000005]}},{"type":"Feature","properties":{"ZIP":"V7W1T5"},"geometry":{"type":"Point","coordinates":[-123.257555,49.3592475]}},{"type":"Feature","properties":{"ZIP":"V7W2L9"},"geometry":{"type":"Point","coordinates":[-123.2415125,49.3423475]}},{"type":"Feature","properties":{"ZIP":"V7W2Y1"},"geometry":{"type":"Point","coordinates":[-123.2606485,49.355893]}},{"type":"Feature","properties":{"ZIP":"V7W3C4"},"geometry":{"type":"Point","coordinates":[-123.2572315,49.350411]}},{"type":"Feature","properties":{"ZIP":"V7W1C2"},"geometry":{"type":"Point","coordinates":[-123.24395100000001,49.346729499999995]}},{"type":"Feature","properties":{"ZIP":"V7W1P3"},"geometry":{"type":"Point","coordinates":[-123.26279,49.357139000000004]}},{"type":"Feature","properties":{"ZIP":"V7W2Z7"},"geometry":{"type":"Point","coordinates":[-123.2553725,49.3514875]}},{"type":"Feature","properties":{"ZIP":"V7W1S2"},"geometry":{"type":"Point","coordinates":[-123.26656299999999,49.355381]}},{"type":"Feature","properties":{"ZIP":"V7W1X3"},"geometry":{"type":"Point","coordinates":[-123.281398,49.364119]}},{"type":"Feature","properties":{"ZIP":"V7W2K3"},"geometry":{"type":"Point","coordinates":[-123.28268249999999,49.375151]}},{"type":"Feature","properties":{"ZIP":"V7W3B2"},"geometry":{"type":"Point","coordinates":[-123.25948199999999,49.347963]}},{"type":"Feature","properties":{"ZIP":"V7W1H3"},"geometry":{"type":"Point","coordinates":[-123.250546,49.342704]}},{"type":"Feature","properties":{"ZIP":"V7W2M2"},"geometry":{"type":"Point","coordinates":[-123.230952,49.344984499999995]}},{"type":"Feature","properties":{"ZIP":"V7W3J9"},"geometry":{"type":"Point","coordinates":[-123.260678,49.3456455]}},{"type":"Feature","properties":{"ZIP":"V7W1W2"},"geometry":{"type":"Point","coordinates":[-123.2798365,49.359231]}},{"type":"Feature","properties":{"ZIP":"V7W2Z8"},"geometry":{"type":"Point","coordinates":[-123.2574615,49.349789]}},{"type":"Feature","properties":{"ZIP":"V7W3G1"},"geometry":{"type":"Point","coordinates":[-123.2564505,49.356649]}},{"type":"Feature","properties":{"ZIP":"V7W1S3"},"geometry":{"type":"Point","coordinates":[-123.2735,49.3587905]}},{"type":"Feature","properties":{"ZIP":"V7W1X4"},"geometry":{"type":"Point","coordinates":[-123.282333,49.3636985]}},{"type":"Feature","properties":{"ZIP":"V7W2E2"},"geometry":{"type":"Point","coordinates":[-123.2770065,49.371382]}},{"type":"Feature","properties":{"ZIP":"V7W3B3"},"geometry":{"type":"Point","coordinates":[-123.2495435,49.3504815]}},{"type":"Feature","properties":{"ZIP":"V7W1H4"},"geometry":{"type":"Point","coordinates":[-123.248558,49.343381]}},{"type":"Feature","properties":{"ZIP":"V7W1N3"},"geometry":{"type":"Point","coordinates":[-123.2643905,49.349917]}},{"type":"Feature","properties":{"ZIP":"V7W1T7"},"geometry":{"type":"Point","coordinates":[-123.259477,49.35895]}},{"type":"Feature","properties":{"ZIP":"V7W2M3"},"geometry":{"type":"Point","coordinates":[-123.2421555,49.3447925]}},{"type":"Feature","properties":{"ZIP":"V7W2Y3"},"geometry":{"type":"Point","coordinates":[-123.25565700000001,49.344288500000005]}},{"type":"Feature","properties":{"ZIP":"V7W3C8"},"geometry":{"type":"Point","coordinates":[-123.25559200000001,49.352758]}},{"type":"Feature","properties":{"ZIP":"V7W1C4"},"geometry":{"type":"Point","coordinates":[-123.2451875,49.348211000000006]}},{"type":"Feature","properties":{"ZIP":"V7W2N9"},"geometry":{"type":"Point","coordinates":[-123.2449995,49.3416255]}},{"type":"Feature","properties":{"ZIP":"V7W3G2"},"geometry":{"type":"Point","coordinates":[-123.2611215,49.347438]}},{"type":"Feature","properties":{"ZIP":"V7W1E9"},"geometry":{"type":"Point","coordinates":[-123.2498215,49.34671]}},{"type":"Feature","properties":{"ZIP":"V7W1X5"},"geometry":{"type":"Point","coordinates":[-123.282937,49.364194499999996]}},{"type":"Feature","properties":{"ZIP":"V7W2W9"},"geometry":{"type":"Point","coordinates":[-123.254982,49.3485025]}},{"type":"Feature","properties":{"ZIP":"V7W3B4"},"geometry":{"type":"Point","coordinates":[-123.2529225,49.348068]}},{"type":"Feature","properties":{"ZIP":"V7W3H7"},"geometry":{"type":"Point","coordinates":[-123.257268,49.345529]}},{"type":"Feature","properties":{"ZIP":"V7W2M4"},"geometry":{"type":"Point","coordinates":[-123.24325300000001,49.345335000000006]}},{"type":"Feature","properties":{"ZIP":"V7W1G1"},"geometry":{"type":"Point","coordinates":[-123.248231,49.346765500000004]}},{"type":"Feature","properties":{"ZIP":"V7W1X6"},"geometry":{"type":"Point","coordinates":[-123.282389,49.364211]}},{"type":"Feature","properties":{"ZIP":"V7W1H6"},"geometry":{"type":"Point","coordinates":[-123.25501299999999,49.341369]}},{"type":"Feature","properties":{"ZIP":"V7W2T2"},"geometry":{"type":"Point","coordinates":[-123.2827255,49.3743665]}},{"type":"Feature","properties":{"ZIP":"V7W1C6"},"geometry":{"type":"Point","coordinates":[-123.233918,49.420092499999996]}},{"type":"Feature","properties":{"ZIP":"V7W1P9"},"geometry":{"type":"Point","coordinates":[-123.268644,49.355359]}},{"type":"Feature","properties":{"ZIP":"V7W2C2"},"geometry":{"type":"Point","coordinates":[-123.280517,49.368520000000004]}},{"type":"Feature","properties":{"ZIP":"V7W2R7"},"geometry":{"type":"Point","coordinates":[-123.26449600000001,49.357113999999996]}},{"type":"Feature","properties":{"ZIP":"V7W3B6"},"geometry":{"type":"Point","coordinates":[-123.2841125,49.3741495]}},{"type":"Feature","properties":{"ZIP":"V7W1B4"},"geometry":{"type":"Point","coordinates":[-123.24330499999999,49.340534]}},{"type":"Feature","properties":{"ZIP":"V7W2A3"},"geometry":{"type":"Point","coordinates":[-123.280929,49.3692395]}},{"type":"Feature","properties":{"ZIP":"V7W1R2"},"geometry":{"type":"Point","coordinates":[-123.2672365,49.355064999999996]}},{"type":"Feature","properties":{"ZIP":"V7W1W6"},"geometry":{"type":"Point","coordinates":[-123.2767765,49.3578075]}},{"type":"Feature","properties":{"ZIP":"V7W2W1"},"geometry":{"type":"Point","coordinates":[-123.26724899999999,49.346535]}},{"type":"Feature","properties":{"ZIP":"V7W2X5"},"geometry":{"type":"Point","coordinates":[-123.25693899999999,49.3478975]}},{"type":"Feature","properties":{"ZIP":"V7W3J2"},"geometry":{"type":"Point","coordinates":[-123.2603675,49.343667999999994]}},{"type":"Feature","properties":{"ZIP":"V7W1N7"},"geometry":{"type":"Point","coordinates":[-123.266144,49.3517585]}},{"type":"Feature","properties":{"ZIP":"V7W2Y9"},"geometry":{"type":"Point","coordinates":[-123.256158,49.349035]}},{"type":"Feature","properties":{"ZIP":"V7W1R3"},"geometry":{"type":"Point","coordinates":[-123.26735550000001,49.355633499999996]}},{"type":"Feature","properties":{"ZIP":"V7W2P5"},"geometry":{"type":"Point","coordinates":[-123.256955,49.3473355]}},{"type":"Feature","properties":{"ZIP":"V7W2W2"},"geometry":{"type":"Point","coordinates":[-123.2670465,49.346464]}},{"type":"Feature","properties":{"ZIP":"V7W2L2"},"geometry":{"type":"Point","coordinates":[-123.289487,49.373917]}},{"type":"Feature","properties":{"ZIP":"V7W1H9"},"geometry":{"type":"Point","coordinates":[-123.2484605,49.3456045]}},{"type":"Feature","properties":{"ZIP":"V7W2Z2"},"geometry":{"type":"Point","coordinates":[-123.24416400000001,49.341027499999996]}},{"type":"Feature","properties":{"ZIP":"V7W1C9"},"geometry":{"type":"Point","coordinates":[-123.246223,49.344242]}},{"type":"Feature","properties":{"ZIP":"V7W1K6"},"geometry":{"type":"Point","coordinates":[-123.263709,49.339438]}},{"type":"Feature","properties":{"ZIP":"V7W1R5"},"geometry":{"type":"Point","coordinates":[-123.267337,49.356434]}},{"type":"Feature","properties":{"ZIP":"V7W2P6"},"geometry":{"type":"Point","coordinates":[-123.2613805,49.34353]}},{"type":"Feature","properties":{"ZIP":"V7W1A4"},"geometry":{"type":"Point","coordinates":[-123.241956,49.3475265]}},{"type":"Feature","properties":{"ZIP":"V7W2L3"},"geometry":{"type":"Point","coordinates":[-123.2883805,49.3743555]}},{"type":"Feature","properties":{"ZIP":"V7W3B9"},"geometry":{"type":"Point","coordinates":[-123.261069,49.3477775]}},{"type":"Feature","properties":{"ZIP":"V7W1N9"},"geometry":{"type":"Point","coordinates":[-123.26556400000001,49.3529025]}},{"type":"Feature","properties":{"ZIP":"V7W2A9"},"geometry":{"type":"Point","coordinates":[-123.27716749999999,49.3740435]}},{"type":"Feature","properties":{"ZIP":"V7W1A5"},"geometry":{"type":"Point","coordinates":[-123.2396435,49.3464015]}},{"type":"Feature","properties":{"ZIP":"V7W2L4"},"geometry":{"type":"Point","coordinates":[-123.2883815,49.374356]}},{"type":"Feature","properties":{"ZIP":"V7W2X8"},"geometry":{"type":"Point","coordinates":[-123.252669,49.343665]}},{"type":"Feature","properties":{"ZIP":"V7W3C2"},"geometry":{"type":"Point","coordinates":[-123.257,49.344718]}},{"type":"Feature","properties":{"ZIP":"V7W1J4"},"geometry":{"type":"Point","coordinates":[-123.25363300000001,49.338567499999996]}},{"type":"Feature","properties":{"ZIP":"V7W1V7"},"geometry":{"type":"Point","coordinates":[-123.273888,49.3532315]}},{"type":"Feature","properties":{"ZIP":"V7W2C8"},"geometry":{"type":"Point","coordinates":[-123.2811945,49.371002000000004]}},{"type":"Feature","properties":{"ZIP":"V7W2K1"},"geometry":{"type":"Point","coordinates":[-123.2796875,49.375035]}},{"type":"Feature","properties":{"ZIP":"V7W2W5"},"geometry":{"type":"Point","coordinates":[-123.280487,49.3585725]}},{"type":"Feature","properties":{"ZIP":"V7W1M5"},"geometry":{"type":"Point","coordinates":[-123.265835,49.3483825]}},{"type":"Feature","properties":{"ZIP":"V7W1Y5"},"geometry":{"type":"Point","coordinates":[-123.2838325,49.364618]}},{"type":"Feature","properties":{"ZIP":"V7W1J5"},"geometry":{"type":"Point","coordinates":[-123.25298649999999,49.3384345]}},{"type":"Feature","properties":{"ZIP":"V7W2B2"},"geometry":{"type":"Point","coordinates":[-123.275993,49.375744]}},{"type":"Feature","properties":{"ZIP":"V7W2V3"},"geometry":{"type":"Point","coordinates":[-123.265984,49.359626000000006]}},{"type":"Feature","properties":{"ZIP":"V7W1E5"},"geometry":{"type":"Point","coordinates":[-123.2467675,49.3483295]}},{"type":"Feature","properties":{"ZIP":"V7W1L2"},"geometry":{"type":"Point","coordinates":[-123.265303,49.340273499999995]}},{"type":"Feature","properties":{"ZIP":"V7W1X2"},"geometry":{"type":"Point","coordinates":[-123.2750605,49.35943]}},{"type":"Feature","properties":{"ZIP":"V7W2W6"},"geometry":{"type":"Point","coordinates":[-123.2537835,49.34492899999999]}},{"type":"Feature","properties":{"ZIP":"V7W3H4"},"geometry":{"type":"Point","coordinates":[-123.2584025,49.3443525]}},{"type":"Feature","properties":{"ZIP":"V7W1H1"},"geometry":{"type":"Point","coordinates":[-123.247885,49.3504805]}},{"type":"Feature","properties":{"ZIP":"V7W1M6"},"geometry":{"type":"Point","coordinates":[-123.2662575,49.3490985]}},{"type":"Feature","properties":{"ZIP":"V7W1W1"},"geometry":{"type":"Point","coordinates":[-123.279629,49.360204]}},{"type":"Feature","properties":{"ZIP":"V7W2B6"},"geometry":{"type":"Point","coordinates":[-123.27569449999999,49.372699499999996]}},{"type":"Feature","properties":{"ZIP":"V7W2H8"},"geometry":{"type":"Point","coordinates":[-123.28307000000001,49.3769025]}},{"type":"Feature","properties":{"ZIP":"V7W2N6"},"geometry":{"type":"Point","coordinates":[-123.238293,49.3429665]}},{"type":"Feature","properties":{"ZIP":"V7W2V4"},"geometry":{"type":"Point","coordinates":[-123.24262200000001,49.3425455]}},{"type":"Feature","properties":{"ZIP":"V7W1E7"},"geometry":{"type":"Point","coordinates":[-123.2522405,49.342748]}},{"type":"Feature","properties":{"ZIP":"V7W2R3"},"geometry":{"type":"Point","coordinates":[-123.2596875,49.3554715]}},{"type":"Feature","properties":{"ZIP":"V7W3H5"},"geometry":{"type":"Point","coordinates":[-123.27369949999999,49.374311500000005]}},{"type":"Feature","properties":{"ZIP":"V7W1A8"},"geometry":{"type":"Point","coordinates":[-123.24075400000001,49.346264000000005]}},{"type":"Feature","properties":{"ZIP":"V7W1M8"},"geometry":{"type":"Point","coordinates":[-123.2645835,49.348668]}},{"type":"Feature","properties":{"ZIP":"V7W1Y8"},"geometry":{"type":"Point","coordinates":[-123.28535450000001,49.366624]}},{"type":"Feature","properties":{"ZIP":"V7W2S8"},"geometry":{"type":"Point","coordinates":[-123.2825425,49.369350499999996]}},{"type":"Feature","properties":{"ZIP":"V7W1J9"},"geometry":{"type":"Point","coordinates":[-123.2522575,49.340217]}},{"type":"Feature","properties":{"ZIP":"V7W2N8"},"geometry":{"type":"Point","coordinates":[-123.2374695,49.346036999999995]}},{"type":"Feature","properties":{"ZIP":"V7W1Z9"},"geometry":{"type":"Point","coordinates":[-123.2822345,49.3680095]}},{"type":"Feature","properties":{"ZIP":"V7W2G5"},"geometry":{"type":"Point","coordinates":[-123.27436399999999,49.3736015]}},{"type":"Feature","properties":{"ZIP":"V7W1K1"},"geometry":{"type":"Point","coordinates":[-123.2567115,49.341241]}},{"type":"Feature","properties":{"ZIP":"V7W1W3"},"geometry":{"type":"Point","coordinates":[-123.28079249999999,49.361353]}},{"type":"Feature","properties":{"ZIP":"V7W2B9"},"geometry":{"type":"Point","coordinates":[-123.27476,49.374056499999995]}},{"type":"Feature","properties":{"ZIP":"V7W1L6"},"geometry":{"type":"Point","coordinates":[-123.26587950000001,49.341629999999995]}},{"type":"Feature","properties":{"ZIP":"V7W3G4"},"geometry":{"type":"Point","coordinates":[-123.253321,49.3503545]}},{"type":"Feature","properties":{"ZIP":"V7W2K9"},"geometry":{"type":"Point","coordinates":[-123.2814275,49.3782085]}},{"type":"Feature","properties":{"ZIP":"V7W1K9"},"geometry":{"type":"Point","coordinates":[-123.2655695,49.339535]}},{"type":"Feature","properties":{"ZIP":"V7W1P1"},"geometry":{"type":"Point","coordinates":[-123.26638700000001,49.352914999999996]}},{"type":"Feature","properties":{"ZIP":"V7W1C1"},"geometry":{"type":"Point","coordinates":[-123.233683,49.4207635]}},{"type":"Feature","properties":{"ZIP":"V7W1Y7"},"geometry":{"type":"Point","coordinates":[-123.28525450000001,49.365564]}},{"type":"Feature","properties":{"ZIP":"V7W2V6"},"geometry":{"type":"Point","coordinates":[-123.26675750000001,49.341344]}},{"type":"Feature","properties":{"ZIP":"V7W1L5"},"geometry":{"type":"Point","coordinates":[-123.2657955,49.341173]}},{"type":"Feature","properties":{"ZIP":"V7W2E3"},"geometry":{"type":"Point","coordinates":[-123.2779255,49.371655000000004]}}]}