{"type":"FeatureCollection","features":[{"type":"Feature","properties":{"ZIP":"V8G2C2","VERTICES":14},"geometry":{"type":"Point","coordinates":[-128.5889585,54.5242115]}},{"type":"Feature","properties":{"ZIP":"V8G4X5","VERTICES":13},"geometry":{"type":"Point","coordinates":[-128.6306285,54.522499499999995]}},{"type":"Feature","properties":{"ZIP":"V8G1C7","VERTICES":13},"geometry":{"type":"Point","coordinates":[-128.607964,54.5080685]}},{"type":"Feature","properties":{"ZIP":"V8G1H7","VERTICES":12},"geometry":{"type":"Point","coordinates":[-128.6055455,54.510661]}},{"type":"Feature","properties":{"ZIP":"V8G1J1","VERTICES":12},"geometry":{"type":"Point","coordinates":[-128.6169665,54.510667]}},{"type":"Feature","properties":{"ZIP":"V8G5N6","VERTICES":12},"geometry":{"type":"Point","coordinates":[-128.6014175,54.533582]}},{"type":"Feature","properties":{"ZIP":"V8G1W6","VERTICES":12},"geometry":{"type":"Point","coordinates":[-128.6078115,54.518949500000005]}},{"type":"Feature","properties":{"ZIP":"V8G2G8","VERTICES":12},"geometry":{"type":"Point","coordinates":[-128.5949925,54.527840999999995]}},{"type":"Feature","properties":{"ZIP":"V8G2R1","VERTICES":11},"geometry":{"type":"Point","coordinates":[-128.588562,54.50436]}},{"type":"Feature","properties":{"ZIP":"V8G1Y9","VERTICES":11},"geometry":{"type":"Point","coordinates":[-128.6015885,54.520551499999996]}},{"type":"Feature","properties":{"ZIP":"V8G0G5","VERTICES":11},"geometry":{"type":"Point","coordinates":[-128.48830850000002,54.4593625]}},{"type":"Feature","properties":{"ZIP":"V8G4L8","VERTICES":11},"geometry":{"type":"Point","coordinates":[-128.6015395,54.5268905]}},{"type":"Feature","properties":{"ZIP":"V8G1H9","VERTICES":11},"geometry":{"type":"Point","coordinates":[-128.6169665,54.510667]}},{"type":"Feature","properties":{"ZIP":"V8G1C9","VERTICES":11},"geometry":{"type":"Point","coordinates":[-128.616993,54.508747]}},{"type":"Feature","properties":{"ZIP":"V8G0A5","VERTICES":11},"geometry":{"type":"Point","coordinates":[-128.4656675,54.5466625]}},{"type":"Feature","properties":{"ZIP":"V8G1Y6","VERTICES":11},"geometry":{"type":"Point","coordinates":[-128.595123,54.520472999999996]}},{"type":"Feature","properties":{"ZIP":"V8G2K1","VERTICES":11},"geometry":{"type":"Point","coordinates":[-128.60806250000002,54.536116]}},{"type":"Feature","properties":{"ZIP":"V8G0B9","VERTICES":11},"geometry":{"type":"Point","coordinates":[-128.633621,54.542721]}},{"type":"Feature","properties":{"ZIP":"V8G5P6","VERTICES":11},"geometry":{"type":"Point","coordinates":[-128.5849615,54.528900500000006]}},{"type":"Feature","properties":{"ZIP":"V8G1E1","VERTICES":11},"geometry":{"type":"Point","coordinates":[-128.6165095,54.508547]}},{"type":"Feature","properties":{"ZIP":"V8G4H6","VERTICES":11},"geometry":{"type":"Point","coordinates":[-128.59508499999998,54.523270499999995]}},{"type":"Feature","properties":{"ZIP":"V8G2K2","VERTICES":11},"geometry":{"type":"Point","coordinates":[-128.6067895,54.536111500000004]}},{"type":"Feature","properties":{"ZIP":"V8G2C9","VERTICES":10},"geometry":{"type":"Point","coordinates":[-128.6083295,54.524392500000005]}},{"type":"Feature","properties":{"ZIP":"V8G2A4","VERTICES":10},"geometry":{"type":"Point","coordinates":[-128.595433,54.522309]}},{"type":"Feature","properties":{"ZIP":"V8G3P7","VERTICES":10},"geometry":{"type":"Point","coordinates":[-128.54165,54.5185925]}},{"type":"Feature","properties":{"ZIP":"V8G3V5","VERTICES":10},"geometry":{"type":"Point","coordinates":[-128.5447815,54.5070275]}},{"type":"Feature","properties":{"ZIP":"V8G2B8","VERTICES":10},"geometry":{"type":"Point","coordinates":[-128.6083655,54.523379]}},{"type":"Feature","properties":{"ZIP":"V8G5A9","VERTICES":10},"geometry":{"type":"Point","coordinates":[-128.5233065,54.50205750000001]}},{"type":"Feature","properties":{"ZIP":"V8G2A6","VERTICES":10},"geometry":{"type":"Point","coordinates":[-128.601002,54.522373]}},{"type":"Feature","properties":{"ZIP":"V8G2G4","VERTICES":10},"geometry":{"type":"Point","coordinates":[-128.5949915,54.5268605]}},{"type":"Feature","properties":{"ZIP":"V8G2M2","VERTICES":10},"geometry":{"type":"Point","coordinates":[-128.58587699999998,54.5077345]}},{"type":"Feature","properties":{"ZIP":"V8G4X4","VERTICES":10},"geometry":{"type":"Point","coordinates":[-128.63164949999998,54.522485]}},{"type":"Feature","properties":{"ZIP":"V8G4R8","VERTICES":10},"geometry":{"type":"Point","coordinates":[-128.602521,54.525959]}},{"type":"Feature","properties":{"ZIP":"V8G3L6","VERTICES":10},"geometry":{"type":"Point","coordinates":[-128.51360449999999,54.5295495]}},{"type":"Feature","properties":{"ZIP":"V8G1Y3","VERTICES":10},"geometry":{"type":"Point","coordinates":[-128.600815,54.5195915]}},{"type":"Feature","properties":{"ZIP":"V8G2C4","VERTICES":10},"geometry":{"type":"Point","coordinates":[-128.59506149999999,54.524265]}},{"type":"Feature","properties":{"ZIP":"V8G2J6","VERTICES":10},"geometry":{"type":"Point","coordinates":[-128.6082155,54.5351745]}},{"type":"Feature","properties":{"ZIP":"V8G2B2","VERTICES":10},"geometry":{"type":"Point","coordinates":[-128.58939500000002,54.523219499999996]}},{"type":"Feature","properties":{"ZIP":"V8G1T7","VERTICES":10},"geometry":{"type":"Point","coordinates":[-128.60749800000002,54.5175105]}},{"type":"Feature","properties":{"ZIP":"V8G5N8","VERTICES":10},"geometry":{"type":"Point","coordinates":[-128.61078,54.5301865]}},{"type":"Feature","properties":{"ZIP":"V8G4H4","VERTICES":10},"geometry":{"type":"Point","coordinates":[-128.6015395,54.5268905]}},{"type":"Feature","properties":{"ZIP":"V8G4S6","VERTICES":10},"geometry":{"type":"Point","coordinates":[-128.58698149999998,54.5045645]}},{"type":"Feature","properties":{"ZIP":"V8G4H5","VERTICES":10},"geometry":{"type":"Point","coordinates":[-128.60218650000002,54.527976499999994]}},{"type":"Feature","properties":{"ZIP":"V8G4W6","VERTICES":10},"geometry":{"type":"Point","coordinates":[-128.60213149999998,54.5284575]}},{"type":"Feature","properties":{"ZIP":"V8G2E9","VERTICES":10},"geometry":{"type":"Point","coordinates":[-128.5950245,54.525903]}},{"type":"Feature","properties":{"ZIP":"V8G1B9","VERTICES":10},"geometry":{"type":"Point","coordinates":[-128.59049850000002,54.507258]}},{"type":"Feature","properties":{"ZIP":"V8G1Y8","VERTICES":9},"geometry":{"type":"Point","coordinates":[-128.59875749999998,54.520515]}},{"type":"Feature","properties":{"ZIP":"V8G5C4","VERTICES":9},"geometry":{"type":"Point","coordinates":[-128.5212395,54.50171]}},{"type":"Feature","properties":{"ZIP":"V8G1A9","VERTICES":9},"geometry":{"type":"Point","coordinates":[-128.604656,54.505978999999996]}},{"type":"Feature","properties":{"ZIP":"V8G2T1","VERTICES":9},"geometry":{"type":"Point","coordinates":[-128.5895515,54.5337885]}},{"type":"Feature","properties":{"ZIP":"V8G4X1","VERTICES":9},"geometry":{"type":"Point","coordinates":[-128.61786899999998,54.528415]}},{"type":"Feature","properties":{"ZIP":"V8G1K8","VERTICES":9},"geometry":{"type":"Point","coordinates":[-128.617158,54.513468]}},{"type":"Feature","properties":{"ZIP":"V8G2G3","VERTICES":9},"geometry":{"type":"Point","coordinates":[-128.5887485,54.526801500000005]}},{"type":"Feature","properties":{"ZIP":"V8G2M1","VERTICES":9},"geometry":{"type":"Point","coordinates":[-128.5859655,54.502999]}},{"type":"Feature","properties":{"ZIP":"V8G2E2","VERTICES":9},"geometry":{"type":"Point","coordinates":[-128.5949195,54.525036]}},{"type":"Feature","properties":{"ZIP":"V8G1C3","VERTICES":9},"geometry":{"type":"Point","coordinates":[-128.604957,54.5069975]}},{"type":"Feature","properties":{"ZIP":"V8G1W2","VERTICES":9},"geometry":{"type":"Point","coordinates":[-128.594371,54.518323499999994]}},{"type":"Feature","properties":{"ZIP":"V8G2W4","VERTICES":9},"geometry":{"type":"Point","coordinates":[-128.5914575,54.5398335]}},{"type":"Feature","properties":{"ZIP":"V8G1X9","VERTICES":9},"geometry":{"type":"Point","coordinates":[-128.5939865,54.5194745]}},{"type":"Feature","properties":{"ZIP":"V8G2J3","VERTICES":9},"geometry":{"type":"Point","coordinates":[-128.59486850000002,54.53496]}},{"type":"Feature","properties":{"ZIP":"V8G4X3","VERTICES":9},"geometry":{"type":"Point","coordinates":[-128.63009,54.528567]}},{"type":"Feature","properties":{"ZIP":"V8G5N3","VERTICES":9},"geometry":{"type":"Point","coordinates":[-128.611599,54.5319335]}},{"type":"Feature","properties":{"ZIP":"V8G2M3","VERTICES":9},"geometry":{"type":"Point","coordinates":[-128.58587699999998,54.507734]}},{"type":"Feature","properties":{"ZIP":"V8G2W5","VERTICES":9},"geometry":{"type":"Point","coordinates":[-128.591494,54.5390075]}},{"type":"Feature","properties":{"ZIP":"V8G5G4","VERTICES":9},"geometry":{"type":"Point","coordinates":[-128.52770249999998,54.5012215]}},{"type":"Feature","properties":{"ZIP":"V8G2Z9","VERTICES":9},"geometry":{"type":"Point","coordinates":[-128.5978,54.5333775]}},{"type":"Feature","properties":{"ZIP":"V8G1H8","VERTICES":9},"geometry":{"type":"Point","coordinates":[-128.60877699999998,54.510647]}},{"type":"Feature","properties":{"ZIP":"V8G1T4","VERTICES":9},"geometry":{"type":"Point","coordinates":[-128.601257,54.517463]}},{"type":"Feature","properties":{"ZIP":"V8G1Z4","VERTICES":9},"geometry":{"type":"Point","coordinates":[-128.588992,54.5213925]}},{"type":"Feature","properties":{"ZIP":"V8G2G6","VERTICES":9},"geometry":{"type":"Point","coordinates":[-128.5906675,54.5277885]}},{"type":"Feature","properties":{"ZIP":"V8G2E5","VERTICES":9},"geometry":{"type":"Point","coordinates":[-128.5993675,54.525077499999995]}},{"type":"Feature","properties":{"ZIP":"V8G4M8","VERTICES":9},"geometry":{"type":"Point","coordinates":[-128.607975,54.526587500000005]}},{"type":"Feature","properties":{"ZIP":"V8G2G7","VERTICES":9},"geometry":{"type":"Point","coordinates":[-128.594993,54.527840499999996]}},{"type":"Feature","properties":{"ZIP":"V8G1Z7","VERTICES":9},"geometry":{"type":"Point","coordinates":[-128.5954165,54.5214505]}},{"type":"Feature","properties":{"ZIP":"V8G0E2","VERTICES":9},"geometry":{"type":"Point","coordinates":[-128.7219605,54.494880499999994]}},{"type":"Feature","properties":{"ZIP":"V8G2C5","VERTICES":9},"geometry":{"type":"Point","coordinates":[-128.59506199999998,54.524265]}},{"type":"Feature","properties":{"ZIP":"V8G3A9","VERTICES":9},"geometry":{"type":"Point","coordinates":[-128.59967849999998,54.533704]}},{"type":"Feature","properties":{"ZIP":"V8G1Z8","VERTICES":9},"geometry":{"type":"Point","coordinates":[-128.6015755,54.5215225]}},{"type":"Feature","properties":{"ZIP":"V8G2E7","VERTICES":9},"geometry":{"type":"Point","coordinates":[-128.5891685,54.5258525]}},{"type":"Feature","properties":{"ZIP":"V8G3T7","VERTICES":9},"geometry":{"type":"Point","coordinates":[-128.531441,54.509474999999995]}},{"type":"Feature","properties":{"ZIP":"V8G4N4","VERTICES":9},"geometry":{"type":"Point","coordinates":[-128.608292,54.526591499999995]}},{"type":"Feature","properties":{"ZIP":"V8G2B3","VERTICES":9},"geometry":{"type":"Point","coordinates":[-128.59555699999999,54.5232755]}},{"type":"Feature","properties":{"ZIP":"V8G3B1","VERTICES":9},"geometry":{"type":"Point","coordinates":[-128.599673,54.5337685]}},{"type":"Feature","properties":{"ZIP":"V8G5B8","VERTICES":9},"geometry":{"type":"Point","coordinates":[-128.520211,54.504262999999995]}},{"type":"Feature","properties":{"ZIP":"V8G0B8","VERTICES":9},"geometry":{"type":"Point","coordinates":[-128.6296205,54.5358285]}},{"type":"Feature","properties":{"ZIP":"V8G2E8","VERTICES":9},"geometry":{"type":"Point","coordinates":[-128.5873555,54.525842]}},{"type":"Feature","properties":{"ZIP":"V8G3T8","VERTICES":9},"geometry":{"type":"Point","coordinates":[-128.5361765,54.508311]}},{"type":"Feature","properties":{"ZIP":"V8G5P5","VERTICES":9},"geometry":{"type":"Point","coordinates":[-128.618674,54.5225035]}},{"type":"Feature","properties":{"ZIP":"V8G2X4","VERTICES":9},"geometry":{"type":"Point","coordinates":[-128.59833550000002,54.511405499999995]}},{"type":"Feature","properties":{"ZIP":"V8G5A4","VERTICES":9},"geometry":{"type":"Point","coordinates":[-128.5179765,54.5085075]}},{"type":"Feature","properties":{"ZIP":"V8G0E8","VERTICES":9},"geometry":{"type":"Point","coordinates":[-128.5563395,54.501075]}},{"type":"Feature","properties":{"ZIP":"V8G2B5","VERTICES":9},"geometry":{"type":"Point","coordinates":[-128.6016925,54.523342]}},{"type":"Feature","properties":{"ZIP":"V8G5H7","VERTICES":9},"geometry":{"type":"Point","coordinates":[-128.60003,54.528461]}},{"type":"Feature","properties":{"ZIP":"V8G3S7","VERTICES":9},"geometry":{"type":"Point","coordinates":[-128.53694000000002,54.510774]}},{"type":"Feature","properties":{"ZIP":"V8G4K5","VERTICES":9},"geometry":{"type":"Point","coordinates":[-128.60057849999998,54.538580499999995]}},{"type":"Feature","properties":{"ZIP":"V8G2A3","VERTICES":9},"geometry":{"type":"Point","coordinates":[-128.595099,54.5223055]}},{"type":"Feature","properties":{"ZIP":"V8G2G1","VERTICES":9},"geometry":{"type":"Point","coordinates":[-128.594875,54.5259015]}},{"type":"Feature","properties":{"ZIP":"V8G3V1","VERTICES":9},"geometry":{"type":"Point","coordinates":[-128.545027,54.5091125]}},{"type":"Feature","properties":{"ZIP":"V8G4P1","VERTICES":9},"geometry":{"type":"Point","coordinates":[-128.5727125,54.4970735]}},{"type":"Feature","properties":{"ZIP":"V8G2P8","VERTICES":8},"geometry":{"type":"Point","coordinates":[-128.58698249999998,54.504541]}},{"type":"Feature","properties":{"ZIP":"V8G1H4","VERTICES":8},"geometry":{"type":"Point","coordinates":[-128.606316,54.5095435]}},{"type":"Feature","properties":{"ZIP":"V8G2S9","VERTICES":8},"geometry":{"type":"Point","coordinates":[-128.589553,54.533199999999994]}},{"type":"Feature","properties":{"ZIP":"V8G3Z3","VERTICES":8},"geometry":{"type":"Point","coordinates":[-128.586543,54.490883499999995]}},{"type":"Feature","properties":{"ZIP":"V8G4W9","VERTICES":8},"geometry":{"type":"Point","coordinates":[-128.6193855,54.528369]}},{"type":"Feature","properties":{"ZIP":"V8G5M7","VERTICES":8},"geometry":{"type":"Point","coordinates":[-128.575936,54.5196065]}},{"type":"Feature","properties":{"ZIP":"V8G3G4","VERTICES":8},"geometry":{"type":"Point","coordinates":[-128.611786,54.520274]}},{"type":"Feature","properties":{"ZIP":"V8G0G2","VERTICES":8},"geometry":{"type":"Point","coordinates":[-128.5484245,54.372805]}},{"type":"Feature","properties":{"ZIP":"V8G2B7","VERTICES":8},"geometry":{"type":"Point","coordinates":[-128.6080995,54.523383]}},{"type":"Feature","properties":{"ZIP":"V8G4T8","VERTICES":8},"geometry":{"type":"Point","coordinates":[-128.5742975,54.5181175]}},{"type":"Feature","properties":{"ZIP":"V8G1H5","VERTICES":8},"geometry":{"type":"Point","coordinates":[-128.629211,54.510202]}},{"type":"Feature","properties":{"ZIP":"V8G2A5","VERTICES":8},"geometry":{"type":"Point","coordinates":[-128.60371600000002,54.5223575]}},{"type":"Feature","properties":{"ZIP":"V8G2W3","VERTICES":8},"geometry":{"type":"Point","coordinates":[-128.591686,54.534696499999995]}},{"type":"Feature","properties":{"ZIP":"V8G4E8","VERTICES":8},"geometry":{"type":"Point","coordinates":[-128.59423850000002,54.508435500000004]}},{"type":"Feature","properties":{"ZIP":"V8G3P8","VERTICES":8},"geometry":{"type":"Point","coordinates":[-128.5442955,54.516773]}},{"type":"Feature","properties":{"ZIP":"V8G5C6","VERTICES":8},"geometry":{"type":"Point","coordinates":[-128.52123849999998,54.501737]}},{"type":"Feature","properties":{"ZIP":"V8G3G6","VERTICES":8},"geometry":{"type":"Point","coordinates":[-128.6114905,54.5227115]}},{"type":"Feature","properties":{"ZIP":"V8G3M7","VERTICES":8},"geometry":{"type":"Point","coordinates":[-128.51860299999998,54.528825499999996]}},{"type":"Feature","properties":{"ZIP":"V8G3V7","VERTICES":8},"geometry":{"type":"Point","coordinates":[-128.542818,54.505927]}},{"type":"Feature","properties":{"ZIP":"V8G2B9","VERTICES":8},"geometry":{"type":"Point","coordinates":[-128.6116665,54.523063500000006]}},{"type":"Feature","properties":{"ZIP":"V8G2R4","VERTICES":8},"geometry":{"type":"Point","coordinates":[-128.58870100000001,54.507866]}},{"type":"Feature","properties":{"ZIP":"V8G3X4","VERTICES":8},"geometry":{"type":"Point","coordinates":[-128.577399,54.496090499999994]}},{"type":"Feature","properties":{"ZIP":"V8G2E3","VERTICES":8},"geometry":{"type":"Point","coordinates":[-128.5931055,54.525021]}},{"type":"Feature","properties":{"ZIP":"V8G3L3","VERTICES":8},"geometry":{"type":"Point","coordinates":[-128.51108299999999,54.53026]}},{"type":"Feature","properties":{"ZIP":"V8G4M1","VERTICES":8},"geometry":{"type":"Point","coordinates":[-128.526804,54.5300915]}},{"type":"Feature","properties":{"ZIP":"V8G2G5","VERTICES":8},"geometry":{"type":"Point","coordinates":[-128.595009,54.5268605]}},{"type":"Feature","properties":{"ZIP":"V8G3M8","VERTICES":8},"geometry":{"type":"Point","coordinates":[-128.51980700000001,54.528536]}},{"type":"Feature","properties":{"ZIP":"V8G4R7","VERTICES":8},"geometry":{"type":"Point","coordinates":[-128.5999195,54.525968]}},{"type":"Feature","properties":{"ZIP":"V8G2J4","VERTICES":8},"geometry":{"type":"Point","coordinates":[-128.6013025,54.535066]}},{"type":"Feature","properties":{"ZIP":"V8G2E4","VERTICES":8},"geometry":{"type":"Point","coordinates":[-128.59963800000003,54.525079500000004]}},{"type":"Feature","properties":{"ZIP":"V8G2T4","VERTICES":8},"geometry":{"type":"Point","coordinates":[-128.5923005,54.5115545]}},{"type":"Feature","properties":{"ZIP":"V8G1C5","VERTICES":8},"geometry":{"type":"Point","coordinates":[-128.6196745,54.507129]}},{"type":"Feature","properties":{"ZIP":"V8G1Y2","VERTICES":8},"geometry":{"type":"Point","coordinates":[-128.59963900000002,54.519577999999996]}},{"type":"Feature","properties":{"ZIP":"V8G3A2","VERTICES":8},"geometry":{"type":"Point","coordinates":[-128.60028849999998,54.5077425]}},{"type":"Feature","properties":{"ZIP":"V8G0B5","VERTICES":8},"geometry":{"type":"Point","coordinates":[-128.60750000000002,54.564866]}},{"type":"Feature","properties":{"ZIP":"V8G2T5","VERTICES":8},"geometry":{"type":"Point","coordinates":[-128.59241450000002,54.511409]}},{"type":"Feature","properties":{"ZIP":"V8G5N5","VERTICES":8},"geometry":{"type":"Point","coordinates":[-128.60955,54.5317225]}},{"type":"Feature","properties":{"ZIP":"V8G3N3","VERTICES":8},"geometry":{"type":"Point","coordinates":[-128.56742,54.511838]}},{"type":"Feature","properties":{"ZIP":"V8G4Z5","VERTICES":8},"geometry":{"type":"Point","coordinates":[-128.5154655,54.503613]}},{"type":"Feature","properties":{"ZIP":"V8G2S4","VERTICES":8},"geometry":{"type":"Point","coordinates":[-128.58613100000002,54.5292525]}},{"type":"Feature","properties":{"ZIP":"V8G3K2","VERTICES":8},"geometry":{"type":"Point","coordinates":[-128.6352915,54.508683500000004]}},{"type":"Feature","properties":{"ZIP":"V8G1C8","VERTICES":8},"geometry":{"type":"Point","coordinates":[-128.60813100000001,54.508072]}},{"type":"Feature","properties":{"ZIP":"V8G2J9","VERTICES":8},"geometry":{"type":"Point","coordinates":[-128.593048,54.536054]}},{"type":"Feature","properties":{"ZIP":"V8G2S6","VERTICES":8},"geometry":{"type":"Point","coordinates":[-128.5860385,54.529866]}},{"type":"Feature","properties":{"ZIP":"V8G3M2","VERTICES":8},"geometry":{"type":"Point","coordinates":[-128.5158745,54.527484]}},{"type":"Feature","properties":{"ZIP":"V8G5E4","VERTICES":8},"geometry":{"type":"Point","coordinates":[-128.52492,54.501574000000005]}},{"type":"Feature","properties":{"ZIP":"V8G1R8","VERTICES":8},"geometry":{"type":"Point","coordinates":[-128.578698,54.5165285]}},{"type":"Feature","properties":{"ZIP":"V8G2C7","VERTICES":8},"geometry":{"type":"Point","coordinates":[-128.5997925,54.524305999999996]}},{"type":"Feature","properties":{"ZIP":"V8G5M3","VERTICES":8},"geometry":{"type":"Point","coordinates":[-128.60286250000001,54.5284255]}},{"type":"Feature","properties":{"ZIP":"V8G1B8","VERTICES":8},"geometry":{"type":"Point","coordinates":[-128.590304,54.507258]}},{"type":"Feature","properties":{"ZIP":"V8G2L4","VERTICES":8},"geometry":{"type":"Point","coordinates":[-128.5799595,54.518249]}},{"type":"Feature","properties":{"ZIP":"V8G3T9","VERTICES":8},"geometry":{"type":"Point","coordinates":[-128.54523899999998,54.509228]}},{"type":"Feature","properties":{"ZIP":"V8G1A6","VERTICES":8},"geometry":{"type":"Point","coordinates":[-128.5942705,54.505954]}},{"type":"Feature","properties":{"ZIP":"V8G1H3","VERTICES":8},"geometry":{"type":"Point","coordinates":[-128.6036605,54.509555500000005]}},{"type":"Feature","properties":{"ZIP":"V8G1R9","VERTICES":8},"geometry":{"type":"Point","coordinates":[-128.57838900000002,54.5165075]}},{"type":"Feature","properties":{"ZIP":"V8G1Y7","VERTICES":8},"geometry":{"type":"Point","coordinates":[-128.592559,54.520439499999995]}},{"type":"Feature","properties":{"ZIP":"V8G3C5","VERTICES":8},"geometry":{"type":"Point","coordinates":[-128.6051555,54.5333915]}},{"type":"Feature","properties":{"ZIP":"V8G4W7","VERTICES":8},"geometry":{"type":"Point","coordinates":[-128.572065,54.5192165]}},{"type":"Feature","properties":{"ZIP":"V8G5C3","VERTICES":8},"geometry":{"type":"Point","coordinates":[-128.52022,54.503431]}},{"type":"Feature","properties":{"ZIP":"V8G2L7","VERTICES":8},"geometry":{"type":"Point","coordinates":[-128.5818835,54.523084]}},{"type":"Feature","properties":{"ZIP":"V8G2B6","VERTICES":7},"geometry":{"type":"Point","coordinates":[-128.603666,54.5233635]}},{"type":"Feature","properties":{"ZIP":"V8G3W9","VERTICES":7},"geometry":{"type":"Point","coordinates":[-128.582525,54.4934415]}},{"type":"Feature","properties":{"ZIP":"V8G4H7","VERTICES":7},"geometry":{"type":"Point","coordinates":[-128.50808899999998,54.530683499999995]}},{"type":"Feature","properties":{"ZIP":"V8G2K3","VERTICES":7},"geometry":{"type":"Point","coordinates":[-128.581572,54.507716]}},{"type":"Feature","properties":{"ZIP":"V8G3S9","VERTICES":7},"geometry":{"type":"Point","coordinates":[-128.5432325,54.5107845]}},{"type":"Feature","properties":{"ZIP":"V8G1K7","VERTICES":7},"geometry":{"type":"Point","coordinates":[-128.605772,54.513325]}},{"type":"Feature","properties":{"ZIP":"V8G2G2","VERTICES":7},"geometry":{"type":"Point","coordinates":[-128.5887485,54.526801500000005]}},{"type":"Feature","properties":{"ZIP":"V8G2L9","VERTICES":7},"geometry":{"type":"Point","coordinates":[-128.585965,54.502999]}},{"type":"Feature","properties":{"ZIP":"V8G4Y4","VERTICES":7},"geometry":{"type":"Point","coordinates":[-128.52043,54.498931]}},{"type":"Feature","properties":{"ZIP":"V8G5R8","VERTICES":7},"geometry":{"type":"Point","coordinates":[-128.60342,54.532263]}},{"type":"Feature","properties":{"ZIP":"V8G5J7","VERTICES":7},"geometry":{"type":"Point","coordinates":[-128.629256,54.522603000000004]}},{"type":"Feature","properties":{"ZIP":"V8G3T1","VERTICES":7},"geometry":{"type":"Point","coordinates":[-128.543772,54.510781]}},{"type":"Feature","properties":{"ZIP":"V8G3Z4","VERTICES":7},"geometry":{"type":"Point","coordinates":[-128.58644950000001,54.490937]}},{"type":"Feature","properties":{"ZIP":"V8G1C2","VERTICES":7},"geometry":{"type":"Point","coordinates":[-128.60492,54.506997]}},{"type":"Feature","properties":{"ZIP":"V8G1W1","VERTICES":7},"geometry":{"type":"Point","coordinates":[-128.59659449999998,54.518494000000004]}},{"type":"Feature","properties":{"ZIP":"V8G4Y7","VERTICES":7},"geometry":{"type":"Point","coordinates":[-128.516409,54.502325]}},{"type":"Feature","properties":{"ZIP":"V8G1X7","VERTICES":7},"geometry":{"type":"Point","coordinates":[-128.588815,54.51941]}},{"type":"Feature","properties":{"ZIP":"V8G2R2","VERTICES":7},"geometry":{"type":"Point","coordinates":[-128.5885605,54.5043175]}},{"type":"Feature","properties":{"ZIP":"V8G3T2","VERTICES":7},"geometry":{"type":"Point","coordinates":[-128.5309225,54.509495]}},{"type":"Feature","properties":{"ZIP":"V8G4R6","VERTICES":7},"geometry":{"type":"Point","coordinates":[-128.5855345,54.518564999999995]}},{"type":"Feature","properties":{"ZIP":"V8G4Y8","VERTICES":7},"geometry":{"type":"Point","coordinates":[-128.516906,54.5023405]}},{"type":"Feature","properties":{"ZIP":"V8G3J8","VERTICES":7},"geometry":{"type":"Point","coordinates":[-128.6231285,54.5110745]}},{"type":"Feature","properties":{"ZIP":"V8G1B2","VERTICES":7},"geometry":{"type":"Point","coordinates":[-128.605116,54.505992500000005]}},{"type":"Feature","properties":{"ZIP":"V8G1T2","VERTICES":7},"geometry":{"type":"Point","coordinates":[-128.5948055,54.5176905]}},{"type":"Feature","properties":{"ZIP":"V8G3T3","VERTICES":7},"geometry":{"type":"Point","coordinates":[-128.530537,54.509495]}},{"type":"Feature","properties":{"ZIP":"V8G5C7","VERTICES":7},"geometry":{"type":"Point","coordinates":[-128.5223915,54.499742499999996]}},{"type":"Feature","properties":{"ZIP":"V8G2R6","VERTICES":7},"geometry":{"type":"Point","coordinates":[-128.5907965,54.511374]}},{"type":"Feature","properties":{"ZIP":"V8G4V2","VERTICES":7},"geometry":{"type":"Point","coordinates":[-128.482722,54.449852500000006]}},{"type":"Feature","properties":{"ZIP":"V8G0B4","VERTICES":7},"geometry":{"type":"Point","coordinates":[-128.61231650000002,54.545335]}},{"type":"Feature","properties":{"ZIP":"V8G1B3","VERTICES":7},"geometry":{"type":"Point","coordinates":[-128.6157785,54.5060035]}},{"type":"Feature","properties":{"ZIP":"V8G3T4","VERTICES":7},"geometry":{"type":"Point","coordinates":[-128.5367685,54.509495]}},{"type":"Feature","properties":{"ZIP":"V8G5C8","VERTICES":7},"geometry":{"type":"Point","coordinates":[-128.521239,54.5002025]}},{"type":"Feature","properties":{"ZIP":"V8G0C9","VERTICES":7},"geometry":{"type":"Point","coordinates":[-128.721372,54.495122]}},{"type":"Feature","properties":{"ZIP":"V8G1W4","VERTICES":7},"geometry":{"type":"Point","coordinates":[-128.599851,54.5185125]}},{"type":"Feature","properties":{"ZIP":"V8G2W8","VERTICES":7},"geometry":{"type":"Point","coordinates":[-128.594295,54.5111435]}},{"type":"Feature","properties":{"ZIP":"V8G3V9","VERTICES":7},"geometry":{"type":"Point","coordinates":[-128.5430255,54.504617]}},{"type":"Feature","properties":{"ZIP":"V8G4Z3","VERTICES":7},"geometry":{"type":"Point","coordinates":[-128.5137375,54.503195]}},{"type":"Feature","properties":{"ZIP":"V8G5T1","VERTICES":7},"geometry":{"type":"Point","coordinates":[-128.62262950000002,54.521084]}},{"type":"Feature","properties":{"ZIP":"V8G2C3","VERTICES":7},"geometry":{"type":"Point","coordinates":[-128.5877885,54.524202]}},{"type":"Feature","properties":{"ZIP":"V8G2R7","VERTICES":7},"geometry":{"type":"Point","coordinates":[-128.590781,54.5106315]}},{"type":"Feature","properties":{"ZIP":"V8G4J7","VERTICES":7},"geometry":{"type":"Point","coordinates":[-128.511211,54.528035]}},{"type":"Feature","properties":{"ZIP":"V8G5B4","VERTICES":7},"geometry":{"type":"Point","coordinates":[-128.522541,54.505474]}},{"type":"Feature","properties":{"ZIP":"V8G3T5","VERTICES":7},"geometry":{"type":"Point","coordinates":[-128.5367685,54.5095]}},{"type":"Feature","properties":{"ZIP":"V8G1C6","VERTICES":7},"geometry":{"type":"Point","coordinates":[-128.6069875,54.50950400000001]}},{"type":"Feature","properties":{"ZIP":"V8G1M1","VERTICES":7},"geometry":{"type":"Point","coordinates":[-128.5765915,54.5146305]}},{"type":"Feature","properties":{"ZIP":"V8G2B1","VERTICES":7},"geometry":{"type":"Point","coordinates":[-128.58966850000002,54.5232215]}},{"type":"Feature","properties":{"ZIP":"V8G2M5","VERTICES":7},"geometry":{"type":"Point","coordinates":[-128.585815,54.510625000000005]}},{"type":"Feature","properties":{"ZIP":"V8G2W9","VERTICES":7},"geometry":{"type":"Point","coordinates":[-128.59556800000001,54.533725000000004]}},{"type":"Feature","properties":{"ZIP":"V8G3A4","VERTICES":7},"geometry":{"type":"Point","coordinates":[-128.6003215,54.5109215]}},{"type":"Feature","properties":{"ZIP":"V8G0B6","VERTICES":7},"geometry":{"type":"Point","coordinates":[-128.6149475,54.546649]}},{"type":"Feature","properties":{"ZIP":"V8G4M9","VERTICES":7},"geometry":{"type":"Point","coordinates":[-128.607521,54.5275935]}},{"type":"Feature","properties":{"ZIP":"V8G4X7","VERTICES":7},"geometry":{"type":"Point","coordinates":[-128.627802,54.5261155]}},{"type":"Feature","properties":{"ZIP":"V8G2X1","VERTICES":7},"geometry":{"type":"Point","coordinates":[-128.5955095,54.534632]}},{"type":"Feature","properties":{"ZIP":"V8G3H2","VERTICES":7},"geometry":{"type":"Point","coordinates":[-128.6137645,54.539108999999996]}},{"type":"Feature","properties":{"ZIP":"V8G2S5","VERTICES":7},"geometry":{"type":"Point","coordinates":[-128.586387,54.5288975]}},{"type":"Feature","properties":{"ZIP":"V8G3K3","VERTICES":7},"geometry":{"type":"Point","coordinates":[-128.635629,54.512032000000005]}},{"type":"Feature","properties":{"ZIP":"V8G5B7","VERTICES":7},"geometry":{"type":"Point","coordinates":[-128.518106,54.502975]}},{"type":"Feature","properties":{"ZIP":"V8G0B7","VERTICES":7},"geometry":{"type":"Point","coordinates":[-128.6170115,54.536860000000004]}},{"type":"Feature","properties":{"ZIP":"V8G2L1","VERTICES":7},"geometry":{"type":"Point","coordinates":[-128.584235,54.510358499999995]}},{"type":"Feature","properties":{"ZIP":"V8G2H3","VERTICES":7},"geometry":{"type":"Point","coordinates":[-128.58898499999998,54.531714]}},{"type":"Feature","properties":{"ZIP":"V8G2X2","VERTICES":7},"geometry":{"type":"Point","coordinates":[-128.5983475,54.5086195]}},{"type":"Feature","properties":{"ZIP":"V8G0A4","VERTICES":7},"geometry":{"type":"Point","coordinates":[-128.524926,54.5150115]}},{"type":"Feature","properties":{"ZIP":"V8G1R6","VERTICES":7},"geometry":{"type":"Point","coordinates":[-128.594596,54.5168015]}},{"type":"Feature","properties":{"ZIP":"V8G4K1","VERTICES":7},"geometry":{"type":"Point","coordinates":[-128.59083750000002,54.513155499999996]}},{"type":"Feature","properties":{"ZIP":"V8G1T8","VERTICES":7},"geometry":{"type":"Point","coordinates":[-128.576913,54.517447000000004]}},{"type":"Feature","properties":{"ZIP":"V8G2L2","VERTICES":7},"geometry":{"type":"Point","coordinates":[-128.584235,54.510358999999994]}},{"type":"Feature","properties":{"ZIP":"V8G4N5","VERTICES":7},"geometry":{"type":"Point","coordinates":[-128.60735649999998,54.527591]}},{"type":"Feature","properties":{"ZIP":"V8G3H4","VERTICES":7},"geometry":{"type":"Point","coordinates":[-128.6135495,54.52031]}},{"type":"Feature","properties":{"ZIP":"V8G3P3","VERTICES":7},"geometry":{"type":"Point","coordinates":[-128.5406295,54.5170905]}},{"type":"Feature","properties":{"ZIP":"V8G2S7","VERTICES":7},"geometry":{"type":"Point","coordinates":[-128.5868495,54.530778999999995]}},{"type":"Feature","properties":{"ZIP":"V8G3S6","VERTICES":7},"geometry":{"type":"Point","coordinates":[-128.53043050000002,54.510693]}},{"type":"Feature","properties":{"ZIP":"V8G1J6","VERTICES":7},"geometry":{"type":"Point","coordinates":[-128.6133745,54.512198999999995]}},{"type":"Feature","properties":{"ZIP":"V8G1T9","VERTICES":7},"geometry":{"type":"Point","coordinates":[-128.57583449999998,54.517441]}},{"type":"Feature","properties":{"ZIP":"V8G1X3","VERTICES":7},"geometry":{"type":"Point","coordinates":[-128.5721225,54.51776]}},{"type":"Feature","properties":{"ZIP":"V8G2X5","VERTICES":7},"geometry":{"type":"Point","coordinates":[-128.59833550000002,54.511405499999995]}},{"type":"Feature","properties":{"ZIP":"V8G0C3","VERTICES":7},"geometry":{"type":"Point","coordinates":[-128.634129,54.571448000000004]}},{"type":"Feature","properties":{"ZIP":"V8G1V1","VERTICES":7},"geometry":{"type":"Point","coordinates":[-128.581393,54.5175775]}},{"type":"Feature","properties":{"ZIP":"V8G5R3","VERTICES":7},"geometry":{"type":"Point","coordinates":[-128.61862250000001,54.5246145]}},{"type":"Feature","properties":{"ZIP":"V8G2Y8","VERTICES":6},"geometry":{"type":"Point","coordinates":[-128.5980205,54.523188]}},{"type":"Feature","properties":{"ZIP":"V8G3P5","VERTICES":6},"geometry":{"type":"Point","coordinates":[-128.54281550000002,54.515017]}},{"type":"Feature","properties":{"ZIP":"V8G4T7","VERTICES":6},"geometry":{"type":"Point","coordinates":[-128.60182049999997,54.5070495]}},{"type":"Feature","properties":{"ZIP":"V8G5H9","VERTICES":6},"geometry":{"type":"Point","coordinates":[-128.586364,54.524959499999994]}},{"type":"Feature","properties":{"ZIP":"V8G1A8","VERTICES":6},"geometry":{"type":"Point","coordinates":[-128.59350999999998,54.505953500000004]}},{"type":"Feature","properties":{"ZIP":"V8G1S2","VERTICES":6},"geometry":{"type":"Point","coordinates":[-128.5843425,54.5169375]}},{"type":"Feature","properties":{"ZIP":"V8G3C6","VERTICES":6},"geometry":{"type":"Point","coordinates":[-128.6051605,54.5333355]}},{"type":"Feature","properties":{"ZIP":"V8G3K9","VERTICES":6},"geometry":{"type":"Point","coordinates":[-128.5098585,54.531194]}},{"type":"Feature","properties":{"ZIP":"V8G1C1","VERTICES":6},"geometry":{"type":"Point","coordinates":[-128.601452,54.50636900000001]}},{"type":"Feature","properties":{"ZIP":"V8G3V3","VERTICES":6},"geometry":{"type":"Point","coordinates":[-128.540988,54.506476]}},{"type":"Feature","properties":{"ZIP":"V8G4E6","VERTICES":6},"geometry":{"type":"Point","coordinates":[-128.5932535,54.5072775]}},{"type":"Feature","properties":{"ZIP":"V8G5E7","VERTICES":6},"geometry":{"type":"Point","coordinates":[-128.52678500000002,54.500952999999996]}},{"type":"Feature","properties":{"ZIP":"V8G2Z2","VERTICES":6},"geometry":{"type":"Point","coordinates":[-128.598,54.524766]}},{"type":"Feature","properties":{"ZIP":"V8G3J3","VERTICES":6},"geometry":{"type":"Point","coordinates":[-128.622004,54.508437]}},{"type":"Feature","properties":{"ZIP":"V8G5A8","VERTICES":6},"geometry":{"type":"Point","coordinates":[-128.5240915,54.50076]}},{"type":"Feature","properties":{"ZIP":"V8G2E1","VERTICES":6},"geometry":{"type":"Point","coordinates":[-128.586306,54.524958999999996]}},{"type":"Feature","properties":{"ZIP":"V8G2K4","VERTICES":6},"geometry":{"type":"Point","coordinates":[-128.58162049999999,54.5066205]}},{"type":"Feature","properties":{"ZIP":"V8G3C7","VERTICES":6},"geometry":{"type":"Point","coordinates":[-128.6102255,54.521987499999994]}},{"type":"Feature","properties":{"ZIP":"V8G4K9","VERTICES":6},"geometry":{"type":"Point","coordinates":[-128.59687250000002,54.533848500000005]}},{"type":"Feature","properties":{"ZIP":"V8G0C5","VERTICES":6},"geometry":{"type":"Point","coordinates":[-128.6392275,54.528622]}},{"type":"Feature","properties":{"ZIP":"V8G3G5","VERTICES":6},"geometry":{"type":"Point","coordinates":[-128.611592,54.521448500000005]}},{"type":"Feature","properties":{"ZIP":"V8G3M6","VERTICES":6},"geometry":{"type":"Point","coordinates":[-128.51739700000002,54.528619000000006]}},{"type":"Feature","properties":{"ZIP":"V8G4R4","VERTICES":6},"geometry":{"type":"Point","coordinates":[-128.60564749999998,54.5316575]}},{"type":"Feature","properties":{"ZIP":"V8G1G1","VERTICES":6},"geometry":{"type":"Point","coordinates":[-128.5808145,54.5094385]}},{"type":"Feature","properties":{"ZIP":"V8G4J3","VERTICES":6},"geometry":{"type":"Point","coordinates":[-128.618141,54.5065565]}},{"type":"Feature","properties":{"ZIP":"V8G4T9","VERTICES":6},"geometry":{"type":"Point","coordinates":[-128.5972655,54.534397999999996]}},{"type":"Feature","properties":{"ZIP":"V8G1B1","VERTICES":6},"geometry":{"type":"Point","coordinates":[-128.60102949999998,54.5059805]}},{"type":"Feature","properties":{"ZIP":"V8G1H6","VERTICES":6},"geometry":{"type":"Point","coordinates":[-128.6298965,54.510208]}},{"type":"Feature","properties":{"ZIP":"V8G1S8","VERTICES":6},"geometry":{"type":"Point","coordinates":[-128.5900585,54.5173635]}},{"type":"Feature","properties":{"ZIP":"V8G1Z1","VERTICES":6},"geometry":{"type":"Point","coordinates":[-128.6080015,54.520628]}},{"type":"Feature","properties":{"ZIP":"V8G2K5","VERTICES":6},"geometry":{"type":"Point","coordinates":[-128.581938,54.511948000000004]}},{"type":"Feature","properties":{"ZIP":"V8G2T2","VERTICES":6},"geometry":{"type":"Point","coordinates":[-128.590753,54.533632499999996]}},{"type":"Feature","properties":{"ZIP":"V8G3C8","VERTICES":6},"geometry":{"type":"Point","coordinates":[-128.60979650000002,54.5226835]}},{"type":"Feature","properties":{"ZIP":"V8G4X2","VERTICES":6},"geometry":{"type":"Point","coordinates":[-128.6308165,54.528577999999996]}},{"type":"Feature","properties":{"ZIP":"V8G5N2","VERTICES":6},"geometry":{"type":"Point","coordinates":[-128.590971,54.527792000000005]}},{"type":"Feature","properties":{"ZIP":"V8G4G2","VERTICES":6},"geometry":{"type":"Point","coordinates":[-128.596805,54.534988999999996]}},{"type":"Feature","properties":{"ZIP":"V8G5G3","VERTICES":6},"geometry":{"type":"Point","coordinates":[-128.527692,54.5015915]}},{"type":"Feature","properties":{"ZIP":"V8G5S3","VERTICES":6},"geometry":{"type":"Point","coordinates":[-128.616445,54.527009]}},{"type":"Feature","properties":{"ZIP":"V8G1G2","VERTICES":6},"geometry":{"type":"Point","coordinates":[-128.5843125,54.5094945]}},{"type":"Feature","properties":{"ZIP":"V8G1P9","VERTICES":6},"geometry":{"type":"Point","coordinates":[-128.5879425,54.5163645]}},{"type":"Feature","properties":{"ZIP":"V8G5K5","VERTICES":6},"geometry":{"type":"Point","coordinates":[-128.51638350000002,54.5269835]}},{"type":"Feature","properties":{"ZIP":"V8G0B3","VERTICES":6},"geometry":{"type":"Point","coordinates":[-128.5971275,54.542593999999994]}},{"type":"Feature","properties":{"ZIP":"V8G1C4","VERTICES":6},"geometry":{"type":"Point","coordinates":[-128.61967449999997,54.50712849999999]}},{"type":"Feature","properties":{"ZIP":"V8G1W3","VERTICES":6},"geometry":{"type":"Point","coordinates":[-128.6010185,54.518510500000005]}},{"type":"Feature","properties":{"ZIP":"V8G2A8","VERTICES":6},"geometry":{"type":"Point","coordinates":[-128.583594,54.523109000000005]}},{"type":"Feature","properties":{"ZIP":"V8G4G7","VERTICES":6},"geometry":{"type":"Point","coordinates":[-128.60746749999998,54.531696]}},{"type":"Feature","properties":{"ZIP":"V8G5S9","VERTICES":6},"geometry":{"type":"Point","coordinates":[-128.60057849999998,54.538580499999995]}},{"type":"Feature","properties":{"ZIP":"V8G0G8","VERTICES":6},"geometry":{"type":"Point","coordinates":[-128.6463895,54.5714855]}},{"type":"Feature","properties":{"ZIP":"V8G1R2","VERTICES":6},"geometry":{"type":"Point","coordinates":[-128.58865350000002,54.5164125]}},{"type":"Feature","properties":{"ZIP":"V8G3R6","VERTICES":6},"geometry":{"type":"Point","coordinates":[-128.53958899999998,54.5191205]}},{"type":"Feature","properties":{"ZIP":"V8G3E1","VERTICES":6},"geometry":{"type":"Point","coordinates":[-128.60816649999998,54.5308225]}},{"type":"Feature","properties":{"ZIP":"V8G5N4","VERTICES":6},"geometry":{"type":"Point","coordinates":[-128.611646,54.5308755]}},{"type":"Feature","properties":{"ZIP":"V8G1L8","VERTICES":6},"geometry":{"type":"Point","coordinates":[-128.60538,54.516107000000005]}},{"type":"Feature","properties":{"ZIP":"V8G2M4","VERTICES":6},"geometry":{"type":"Point","coordinates":[-128.585799,54.5115865]}},{"type":"Feature","properties":{"ZIP":"V8G5G7","VERTICES":6},"geometry":{"type":"Point","coordinates":[-128.6239675,54.530506]}},{"type":"Feature","properties":{"ZIP":"V8G1A1","VERTICES":6},"geometry":{"type":"Point","coordinates":[-128.582168,54.5059555]}},{"type":"Feature","properties":{"ZIP":"V8G1G5","VERTICES":6},"geometry":{"type":"Point","coordinates":[-128.588596,54.5095685]}},{"type":"Feature","properties":{"ZIP":"V8G1R3","VERTICES":6},"geometry":{"type":"Point","coordinates":[-128.58966600000002,54.515995000000004]}},{"type":"Feature","properties":{"ZIP":"V8G1Z6","VERTICES":6},"geometry":{"type":"Point","coordinates":[-128.5950115,54.521446]}},{"type":"Feature","properties":{"ZIP":"V8G4S2","VERTICES":6},"geometry":{"type":"Point","coordinates":[-128.6231715,54.50995]}},{"type":"Feature","properties":{"ZIP":"V8G5G8","VERTICES":6},"geometry":{"type":"Point","coordinates":[-128.6239655,54.530623]}},{"type":"Feature","properties":{"ZIP":"V8G4V7","VERTICES":6},"geometry":{"type":"Point","coordinates":[-128.574959,54.520474]}},{"type":"Feature","properties":{"ZIP":"V8G1T6","VERTICES":6},"geometry":{"type":"Point","coordinates":[-128.607666,54.5175115]}},{"type":"Feature","properties":{"ZIP":"V8G2E6","VERTICES":6},"geometry":{"type":"Point","coordinates":[-128.5844055,54.525786999999994]}},{"type":"Feature","properties":{"ZIP":"V8G2K9","VERTICES":6},"geometry":{"type":"Point","coordinates":[-128.582954,54.511905]}},{"type":"Feature","properties":{"ZIP":"V8G2T8","VERTICES":6},"geometry":{"type":"Point","coordinates":[-128.59218750000002,54.519436999999996]}},{"type":"Feature","properties":{"ZIP":"V8G3L7","VERTICES":6},"geometry":{"type":"Point","coordinates":[-128.513553,54.530555]}},{"type":"Feature","properties":{"ZIP":"V8G3T6","VERTICES":6},"geometry":{"type":"Point","coordinates":[-128.5327135,54.508613499999996]}},{"type":"Feature","properties":{"ZIP":"V8G4C8","VERTICES":6},"geometry":{"type":"Point","coordinates":[-128.6118845,54.5230685]}},{"type":"Feature","properties":{"ZIP":"V8G5E1","VERTICES":6},"geometry":{"type":"Point","coordinates":[-128.528198,54.5023115]}},{"type":"Feature","properties":{"ZIP":"V8G1M6","VERTICES":6},"geometry":{"type":"Point","coordinates":[-128.58281549999998,54.515279]}},{"type":"Feature","properties":{"ZIP":"V8G3P1","VERTICES":6},"geometry":{"type":"Point","coordinates":[-128.53857549999998,54.519528]}},{"type":"Feature","properties":{"ZIP":"V8G5H1","VERTICES":6},"geometry":{"type":"Point","coordinates":[-128.6096855,54.529718]}},{"type":"Feature","properties":{"ZIP":"V8G1G7","VERTICES":6},"geometry":{"type":"Point","coordinates":[-128.5896945,54.5095585]}},{"type":"Feature","properties":{"ZIP":"V8G1Y4","VERTICES":6},"geometry":{"type":"Point","coordinates":[-128.6053345,54.519688]}},{"type":"Feature","properties":{"ZIP":"V8G2J8","VERTICES":6},"geometry":{"type":"Point","coordinates":[-128.5924215,54.536038000000005]}},{"type":"Feature","properties":{"ZIP":"V8G3S3","VERTICES":6},"geometry":{"type":"Point","coordinates":[-128.53987999999998,54.508883]}},{"type":"Feature","properties":{"ZIP":"V8G4W3","VERTICES":6},"geometry":{"type":"Point","coordinates":[-128.5407755,54.505891500000004]}},{"type":"Feature","properties":{"ZIP":"V8G1B6","VERTICES":6},"geometry":{"type":"Point","coordinates":[-128.589108,54.506584000000004]}},{"type":"Feature","properties":{"ZIP":"V8G2T9","VERTICES":6},"geometry":{"type":"Point","coordinates":[-128.5921735,54.520125500000006]}},{"type":"Feature","properties":{"ZIP":"V8G3E4","VERTICES":6},"geometry":{"type":"Point","coordinates":[-128.61079949999998,54.509507]}},{"type":"Feature","properties":{"ZIP":"V8G3L8","VERTICES":6},"geometry":{"type":"Point","coordinates":[-128.5136535,54.528076999999996]}},{"type":"Feature","properties":{"ZIP":"V8G4X8","VERTICES":6},"geometry":{"type":"Point","coordinates":[-128.6290255,54.526134]}},{"type":"Feature","properties":{"ZIP":"V8G3H3","VERTICES":6},"geometry":{"type":"Point","coordinates":[-128.61355,54.520351]}},{"type":"Feature","properties":{"ZIP":"V8G3P2","VERTICES":6},"geometry":{"type":"Point","coordinates":[-128.5384965,54.519611]}},{"type":"Feature","properties":{"ZIP":"V8G1H1","VERTICES":6},"geometry":{"type":"Point","coordinates":[-128.59932,54.5095765]}},{"type":"Feature","properties":{"ZIP":"V8G1Y5","VERTICES":6},"geometry":{"type":"Point","coordinates":[-128.60587800000002,54.519698500000004]}},{"type":"Feature","properties":{"ZIP":"V8G2C6","VERTICES":6},"geometry":{"type":"Point","coordinates":[-128.5991125,54.5243]}},{"type":"Feature","properties":{"ZIP":"V8G3K4","VERTICES":6},"geometry":{"type":"Point","coordinates":[-128.635671,54.511219499999996]}},{"type":"Feature","properties":{"ZIP":"V8G1B7","VERTICES":6},"geometry":{"type":"Point","coordinates":[-128.589197,54.506581999999995]}},{"type":"Feature","properties":{"ZIP":"V8G3E5","VERTICES":6},"geometry":{"type":"Point","coordinates":[-128.6108045,54.5093985]}},{"type":"Feature","properties":{"ZIP":"V8G1M9","VERTICES":6},"geometry":{"type":"Point","coordinates":[-128.588573,54.5154535]}},{"type":"Feature","properties":{"ZIP":"V8G1X2","VERTICES":6},"geometry":{"type":"Point","coordinates":[-128.573197,54.517837]}},{"type":"Feature","properties":{"ZIP":"V8G2B4","VERTICES":6},"geometry":{"type":"Point","coordinates":[-128.6003125,54.523326999999995]}},{"type":"Feature","properties":{"ZIP":"V8G2H4","VERTICES":6},"geometry":{"type":"Point","coordinates":[-128.588837,54.5317115]}},{"type":"Feature","properties":{"ZIP":"V8G3Y8","VERTICES":6},"geometry":{"type":"Point","coordinates":[-128.58316250000001,54.491550000000004]}},{"type":"Feature","properties":{"ZIP":"V8G5C1","VERTICES":6},"geometry":{"type":"Point","coordinates":[-128.519246,54.503420500000004]}},{"type":"Feature","properties":{"ZIP":"V8G3M3","VERTICES":6},"geometry":{"type":"Point","coordinates":[-128.514752,54.528197]}},{"type":"Feature","properties":{"ZIP":"V8G4N6","VERTICES":6},"geometry":{"type":"Point","coordinates":[-128.5128325,54.527786500000005]}},{"type":"Feature","properties":{"ZIP":"V8G4Y1","VERTICES":6},"geometry":{"type":"Point","coordinates":[-128.5305725,54.4961725]}},{"type":"Feature","properties":{"ZIP":"V8G2P3","VERTICES":6},"geometry":{"type":"Point","coordinates":[-128.58579300000002,54.52457]}},{"type":"Feature","properties":{"ZIP":"V8G3H6","VERTICES":6},"geometry":{"type":"Point","coordinates":[-128.6132875,54.522245999999996]}},{"type":"Feature","properties":{"ZIP":"V8G3P4","VERTICES":6},"geometry":{"type":"Point","coordinates":[-128.54165899999998,54.516223]}},{"type":"Feature","properties":{"ZIP":"V8G4T3","VERTICES":6},"geometry":{"type":"Point","coordinates":[-128.6117965,54.525636500000005]}},{"type":"Feature","properties":{"ZIP":"V8G5A6","VERTICES":6},"geometry":{"type":"Point","coordinates":[-128.51602000000003,54.50716]}},{"type":"Feature","properties":{"ZIP":"V8G2S8","VERTICES":6},"geometry":{"type":"Point","coordinates":[-128.5874655,54.5311255]}},{"type":"Feature","properties":{"ZIP":"V8G5M4","VERTICES":6},"geometry":{"type":"Point","coordinates":[-128.6054305,54.528022500000006]}},{"type":"Feature","properties":{"ZIP":"V8G3G3","VERTICES":6},"geometry":{"type":"Point","coordinates":[-128.610653,54.519823]}},{"type":"Feature","properties":{"ZIP":"V8G4E5","VERTICES":6},"geometry":{"type":"Point","coordinates":[-128.59342400000003,54.507279]}},{"type":"Feature","properties":{"ZIP":"V8G1P1","VERTICES":5},"geometry":{"type":"Point","coordinates":[-128.573865,54.515620999999996]}},{"type":"Feature","properties":{"ZIP":"V8G1X5","VERTICES":5},"geometry":{"type":"Point","coordinates":[-128.5787025,54.519817]}},{"type":"Feature","properties":{"ZIP":"V8G2H6","VERTICES":5},"geometry":{"type":"Point","coordinates":[-128.588103,54.5322185]}},{"type":"Feature","properties":{"ZIP":"V8G3H9","VERTICES":5},"geometry":{"type":"Point","coordinates":[-128.61814099999998,54.5065565]}},{"type":"Feature","properties":{"ZIP":"V8G4K7","VERTICES":5},"geometry":{"type":"Point","coordinates":[-128.5966715,54.533845]}},{"type":"Feature","properties":{"ZIP":"V8G0C4","VERTICES":5},"geometry":{"type":"Point","coordinates":[-128.64200749999998,54.607153]}},{"type":"Feature","properties":{"ZIP":"V8G1V2","VERTICES":5},"geometry":{"type":"Point","coordinates":[-128.5820425,54.5176255]}},{"type":"Feature","properties":{"ZIP":"V8G2W2","VERTICES":5},"geometry":{"type":"Point","coordinates":[-128.593098,54.533946]}},{"type":"Feature","properties":{"ZIP":"V8G3M5","VERTICES":5},"geometry":{"type":"Point","coordinates":[-128.5171315,54.527101]}},{"type":"Feature","properties":{"ZIP":"V8G4P3","VERTICES":5},"geometry":{"type":"Point","coordinates":[-128.5485425,54.511902500000005]}},{"type":"Feature","properties":{"ZIP":"V8G1P2","VERTICES":5},"geometry":{"type":"Point","coordinates":[-128.5784495,54.515792000000005]}},{"type":"Feature","properties":{"ZIP":"V8G1X6","VERTICES":5},"geometry":{"type":"Point","coordinates":[-128.578796,54.519715500000004]}},{"type":"Feature","properties":{"ZIP":"V8G2H7","VERTICES":5},"geometry":{"type":"Point","coordinates":[-128.590553,54.532263]}},{"type":"Feature","properties":{"ZIP":"V8G0A9","VERTICES":5},"geometry":{"type":"Point","coordinates":[-128.4095125,54.611693]}},{"type":"Feature","properties":{"ZIP":"V8G1S6","VERTICES":5},"geometry":{"type":"Point","coordinates":[-128.5889095,54.517276]}},{"type":"Feature","properties":{"ZIP":"V8G3L1","VERTICES":5},"geometry":{"type":"Point","coordinates":[-128.5098635,54.5307655]}},{"type":"Feature","properties":{"ZIP":"V8G5C5","VERTICES":5},"geometry":{"type":"Point","coordinates":[-128.5212945,54.50032]}},{"type":"Feature","properties":{"ZIP":"V8G5N1","VERTICES":5},"geometry":{"type":"Point","coordinates":[-128.5812785,54.491581]}},{"type":"Feature","properties":{"ZIP":"V8G5E9","VERTICES":5},"geometry":{"type":"Point","coordinates":[-128.525817,54.5015595]}},{"type":"Feature","properties":{"ZIP":"V8G1P8","VERTICES":5},"geometry":{"type":"Point","coordinates":[-128.5845055,54.516146]}},{"type":"Feature","properties":{"ZIP":"V8G3J7","VERTICES":5},"geometry":{"type":"Point","coordinates":[-128.6231695,54.509794]}},{"type":"Feature","properties":{"ZIP":"V8G3X2","VERTICES":5},"geometry":{"type":"Point","coordinates":[-128.572734,54.4968965]}},{"type":"Feature","properties":{"ZIP":"V8G3L2","VERTICES":5},"geometry":{"type":"Point","coordinates":[-128.511082,54.530308000000005]}},{"type":"Feature","properties":{"ZIP":"V8G0C6","VERTICES":5},"geometry":{"type":"Point","coordinates":[-128.64426550000002,54.519108]}},{"type":"Feature","properties":{"ZIP":"V8G1L2","VERTICES":5},"geometry":{"type":"Point","coordinates":[-128.624708,54.513564]}},{"type":"Feature","properties":{"ZIP":"V8G0G6","VERTICES":5},"geometry":{"type":"Point","coordinates":[-128.534361,54.499951499999995]}},{"type":"Feature","properties":{"ZIP":"V8G3P9","VERTICES":5},"geometry":{"type":"Point","coordinates":[-128.548207,54.513014]}},{"type":"Feature","properties":{"ZIP":"V8G4J5","VERTICES":5},"geometry":{"type":"Point","coordinates":[-128.574254,54.520343]}},{"type":"Feature","properties":{"ZIP":"V8G4V1","VERTICES":5},"geometry":{"type":"Point","coordinates":[-128.522292,54.5044665]}},{"type":"Feature","properties":{"ZIP":"V8G5B1","VERTICES":5},"geometry":{"type":"Point","coordinates":[-128.5227795,54.5018885]}},{"type":"Feature","properties":{"ZIP":"V8G1Z2","VERTICES":5},"geometry":{"type":"Point","coordinates":[-128.608002,54.5206275]}},{"type":"Feature","properties":{"ZIP":"V8G2K6","VERTICES":5},"geometry":{"type":"Point","coordinates":[-128.582894,54.5049295]}},{"type":"Feature","properties":{"ZIP":"V8G2T3","VERTICES":5},"geometry":{"type":"Point","coordinates":[-128.5923355,54.508643500000005]}},{"type":"Feature","properties":{"ZIP":"V8G3C9","VERTICES":5},"geometry":{"type":"Point","coordinates":[-128.6097965,54.5226835]}},{"type":"Feature","properties":{"ZIP":"V8G3G7","VERTICES":5},"geometry":{"type":"Point","coordinates":[-128.6115395,54.5220595]}},{"type":"Feature","properties":{"ZIP":"V8G3V8","VERTICES":5},"geometry":{"type":"Point","coordinates":[-128.547121,54.505900999999994]}},{"type":"Feature","properties":{"ZIP":"V8G4Y9","VERTICES":5},"geometry":{"type":"Point","coordinates":[-128.51313399999998,54.501786]}},{"type":"Feature","properties":{"ZIP":"V8G1G4","VERTICES":5},"geometry":{"type":"Point","coordinates":[-128.58864749999998,54.509547999999995]}},{"type":"Feature","properties":{"ZIP":"V8G1Y1","VERTICES":5},"geometry":{"type":"Point","coordinates":[-128.594363,54.519479000000004]}},{"type":"Feature","properties":{"ZIP":"V8G3J9","VERTICES":5},"geometry":{"type":"Point","coordinates":[-128.623089,54.5119405]}},{"type":"Feature","properties":{"ZIP":"V8G3X9","VERTICES":5},"geometry":{"type":"Point","coordinates":[-128.5673725,54.49871]}},{"type":"Feature","properties":{"ZIP":"V8G5B2","VERTICES":5},"geometry":{"type":"Point","coordinates":[-128.52239550000002,54.50439]}},{"type":"Feature","properties":{"ZIP":"V8G2K7","VERTICES":5},"geometry":{"type":"Point","coordinates":[-128.58287,54.505115]}},{"type":"Feature","properties":{"ZIP":"V8G4M7","VERTICES":5},"geometry":{"type":"Point","coordinates":[-128.54791849999998,54.510512000000006]}},{"type":"Feature","properties":{"ZIP":"V8G2A9","VERTICES":5},"geometry":{"type":"Point","coordinates":[-128.5839335,54.52317]}},{"type":"Feature","properties":{"ZIP":"V8G3G8","VERTICES":5},"geometry":{"type":"Point","coordinates":[-128.611473,54.5228535]}},{"type":"Feature","properties":{"ZIP":"V8G4G8","VERTICES":5},"geometry":{"type":"Point","coordinates":[-128.542699,54.516505]}},{"type":"Feature","properties":{"ZIP":"V8G2J5","VERTICES":5},"geometry":{"type":"Point","coordinates":[-128.6017665,54.535067999999995]}},{"type":"Feature","properties":{"ZIP":"V8G3K1","VERTICES":5},"geometry":{"type":"Point","coordinates":[-128.6353265,54.5073955]}},{"type":"Feature","properties":{"ZIP":"V8G3R9","VERTICES":5},"geometry":{"type":"Point","coordinates":[-128.539793,54.511798999999996]}},{"type":"Feature","properties":{"ZIP":"V8G3Y3","VERTICES":5},"geometry":{"type":"Point","coordinates":[-128.57980600000002,54.493074]}},{"type":"Feature","properties":{"ZIP":"V8G1T5","VERTICES":5},"geometry":{"type":"Point","coordinates":[-128.596695,54.517354999999995]}},{"type":"Feature","properties":{"ZIP":"V8G3E2","VERTICES":5},"geometry":{"type":"Point","coordinates":[-128.610823,54.506998499999995]}},{"type":"Feature","properties":{"ZIP":"V8G4B1","VERTICES":5},"geometry":{"type":"Point","coordinates":[-128.63890049999998,54.5371045]}},{"type":"Feature","properties":{"ZIP":"V8G5C9","VERTICES":5},"geometry":{"type":"Point","coordinates":[-128.522473,54.5005695]}},{"type":"Feature","properties":{"ZIP":"V8G0E1","VERTICES":5},"geometry":{"type":"Point","coordinates":[-128.722001,54.497461]}},{"type":"Feature","properties":{"ZIP":"V8G1W5","VERTICES":5},"geometry":{"type":"Point","coordinates":[-128.608389,54.51887]}},{"type":"Feature","properties":{"ZIP":"V8G3H1","VERTICES":5},"geometry":{"type":"Point","coordinates":[-128.6114215,54.535621000000006]}},{"type":"Feature","properties":{"ZIP":"V8G3W1","VERTICES":5},"geometry":{"type":"Point","coordinates":[-128.5429165,54.504616]}},{"type":"Feature","properties":{"ZIP":"V8G4G9","VERTICES":5},"geometry":{"type":"Point","coordinates":[-128.534761,54.506974]}},{"type":"Feature","properties":{"ZIP":"V8G5T7","VERTICES":5},"geometry":{"type":"Point","coordinates":[-128.5167535,54.5262]}},{"type":"Feature","properties":{"ZIP":"V8G1G6","VERTICES":5},"geometry":{"type":"Point","coordinates":[-128.5915605,54.5095945]}},{"type":"Feature","properties":{"ZIP":"V8G1R4","VERTICES":5},"geometry":{"type":"Point","coordinates":[-128.5918345,54.516616]}},{"type":"Feature","properties":{"ZIP":"V8G3S2","VERTICES":5},"geometry":{"type":"Point","coordinates":[-128.53981149999998,54.5101545]}},{"type":"Feature","properties":{"ZIP":"V8G3Y5","VERTICES":5},"geometry":{"type":"Point","coordinates":[-128.58001000000002,54.491233]}},{"type":"Feature","properties":{"ZIP":"V8G4J8","VERTICES":5},"geometry":{"type":"Point","coordinates":[-128.5110525,54.528042]}},{"type":"Feature","properties":{"ZIP":"V8G1B5","VERTICES":5},"geometry":{"type":"Point","coordinates":[-128.619621,54.5060055]}},{"type":"Feature","properties":{"ZIP":"V8G2N6","VERTICES":5},"geometry":{"type":"Point","coordinates":[-128.585717,54.5196295]}},{"type":"Feature","properties":{"ZIP":"V8G3W4","VERTICES":5},"geometry":{"type":"Point","coordinates":[-128.533763,54.508953500000004]}},{"type":"Feature","properties":{"ZIP":"V8G4H2","VERTICES":5},"geometry":{"type":"Point","coordinates":[-128.61480899999998,54.52098049999999]}},{"type":"Feature","properties":{"ZIP":"V8G4Z6","VERTICES":5},"geometry":{"type":"Point","coordinates":[-128.5151545,54.504162]}},{"type":"Feature","properties":{"ZIP":"V8G0A3","VERTICES":5},"geometry":{"type":"Point","coordinates":[-128.52033999999998,54.5189005]}},{"type":"Feature","properties":{"ZIP":"V8G1R5","VERTICES":5},"geometry":{"type":"Point","coordinates":[-128.5944385,54.5167935]}},{"type":"Feature","properties":{"ZIP":"V8G3Y6","VERTICES":5},"geometry":{"type":"Point","coordinates":[-128.5779245,54.492452]}},{"type":"Feature","properties":{"ZIP":"V8G4J9","VERTICES":5},"geometry":{"type":"Point","coordinates":[-128.59142150000002,54.520427999999995]}},{"type":"Feature","properties":{"ZIP":"V8G4C9","VERTICES":5},"geometry":{"type":"Point","coordinates":[-128.581085,54.5166975]}},{"type":"Feature","properties":{"ZIP":"V8G5E2","VERTICES":5},"geometry":{"type":"Point","coordinates":[-128.5285055,54.502317]}},{"type":"Feature","properties":{"ZIP":"V8G1W9","VERTICES":5},"geometry":{"type":"Point","coordinates":[-128.6134695,54.519019]}},{"type":"Feature","properties":{"ZIP":"V8G2N7","VERTICES":5},"geometry":{"type":"Point","coordinates":[-128.58571899999998,54.5207545]}},{"type":"Feature","properties":{"ZIP":"V8G3W6","VERTICES":5},"geometry":{"type":"Point","coordinates":[-128.5613965,54.5105955]}},{"type":"Feature","properties":{"ZIP":"V8G5H2","VERTICES":5},"geometry":{"type":"Point","coordinates":[-128.5285625,54.528713999999994]}},{"type":"Feature","properties":{"ZIP":"V8G3S4","VERTICES":5},"geometry":{"type":"Point","coordinates":[-128.539818,54.508932]}},{"type":"Feature","properties":{"ZIP":"V8G3Y7","VERTICES":5},"geometry":{"type":"Point","coordinates":[-128.578337,54.4925315]}},{"type":"Feature","properties":{"ZIP":"V8G4W4","VERTICES":5},"geometry":{"type":"Point","coordinates":[-128.5719515,54.5188515]}},{"type":"Feature","properties":{"ZIP":"V8G5M2","VERTICES":5},"geometry":{"type":"Point","coordinates":[-128.6114215,54.52597]}},{"type":"Feature","properties":{"ZIP":"V8G2V2","VERTICES":5},"geometry":{"type":"Point","coordinates":[-128.59220349999998,54.5215925]}},{"type":"Feature","properties":{"ZIP":"V8G4X9","VERTICES":5},"geometry":{"type":"Point","coordinates":[-128.531538,54.496753]}},{"type":"Feature","properties":{"ZIP":"V8G2N8","VERTICES":5},"geometry":{"type":"Point","coordinates":[-128.585782,54.522555499999996]}},{"type":"Feature","properties":{"ZIP":"V8G3W7","VERTICES":5},"geometry":{"type":"Point","coordinates":[-128.572431,54.502059]}},{"type":"Feature","properties":{"ZIP":"V8G1H2","VERTICES":5},"geometry":{"type":"Point","coordinates":[-128.599871,54.509573]}},{"type":"Feature","properties":{"ZIP":"V8G3B4","VERTICES":5},"geometry":{"type":"Point","coordinates":[-128.6043045,54.5188995]}},{"type":"Feature","properties":{"ZIP":"V8G4K3","VERTICES":5},"geometry":{"type":"Point","coordinates":[-128.597649,54.5367785]}},{"type":"Feature","properties":{"ZIP":"V8G2V8","VERTICES":5},"geometry":{"type":"Point","coordinates":[-128.5920855,54.526475500000004]}},{"type":"Feature","properties":{"ZIP":"V8G3E9","VERTICES":5},"geometry":{"type":"Point","coordinates":[-128.61067500000001,54.517846]}},{"type":"Feature","properties":{"ZIP":"V8G5E5","VERTICES":5},"geometry":{"type":"Point","coordinates":[-128.524905,54.5015175]}},{"type":"Feature","properties":{"ZIP":"V8G1N4","VERTICES":5},"geometry":{"type":"Point","coordinates":[-128.6080355,54.516811000000004]}},{"type":"Feature","properties":{"ZIP":"V8G3W8","VERTICES":5},"geometry":{"type":"Point","coordinates":[-128.58227399999998,54.4934715]}},{"type":"Feature","properties":{"ZIP":"V8G2C8","VERTICES":5},"geometry":{"type":"Point","coordinates":[-128.603201,54.524339]}},{"type":"Feature","properties":{"ZIP":"V8G3K6","VERTICES":5},"geometry":{"type":"Point","coordinates":[-128.511125,54.5312355]}},{"type":"Feature","properties":{"ZIP":"V8G3M4","VERTICES":5},"geometry":{"type":"Point","coordinates":[-128.51478500000002,54.5271245]}},{"type":"Feature","properties":{"ZIP":"V8G4Y3","VERTICES":5},"geometry":{"type":"Point","coordinates":[-128.520501,54.4973945]}},{"type":"Feature","properties":{"ZIP":"V8G5A7","VERTICES":4},"geometry":{"type":"Point","coordinates":[-128.5167165,54.50528]}},{"type":"Feature","properties":{"ZIP":"V8G0A8","VERTICES":4},"geometry":{"type":"Point","coordinates":[-128.40628,54.6304865]}},{"type":"Feature","properties":{"ZIP":"V8G1E9","VERTICES":4},"geometry":{"type":"Point","coordinates":[-128.6344985,54.503076]}},{"type":"Feature","properties":{"ZIP":"V8G4H9","VERTICES":4},"geometry":{"type":"Point","coordinates":[-128.582763,54.506643499999996]}},{"type":"Feature","properties":{"ZIP":"V8G5S1","VERTICES":4},"geometry":{"type":"Point","coordinates":[-128.6288285,54.5226305]}},{"type":"Feature","properties":{"ZIP":"V8G2J1","VERTICES":4},"geometry":{"type":"Point","coordinates":[-128.6070345,54.530273]}},{"type":"Feature","properties":{"ZIP":"V8G2Z6","VERTICES":4},"geometry":{"type":"Point","coordinates":[-128.597946,54.52641]}},{"type":"Feature","properties":{"ZIP":"V8G5K4","VERTICES":4},"geometry":{"type":"Point","coordinates":[-128.5770455,54.51881]}},{"type":"Feature","properties":{"ZIP":"V8G0B1","VERTICES":4},"geometry":{"type":"Point","coordinates":[-128.473821,54.552127]}},{"type":"Feature","properties":{"ZIP":"V8G3Z9","VERTICES":4},"geometry":{"type":"Point","coordinates":[-128.522516,54.526435]}},{"type":"Feature","properties":{"ZIP":"V8G2Z8","VERTICES":4},"geometry":{"type":"Point","coordinates":[-128.597914,54.529874500000005]}},{"type":"Feature","properties":{"ZIP":"V8G4A1","VERTICES":4},"geometry":{"type":"Point","coordinates":[-128.581399,54.515991]}},{"type":"Feature","properties":{"ZIP":"V8G1L6","VERTICES":4},"geometry":{"type":"Point","coordinates":[-128.6005985,54.5158455]}},{"type":"Feature","properties":{"ZIP":"V8G4J6","VERTICES":4},"geometry":{"type":"Point","coordinates":[-128.597914,54.528293500000004]}},{"type":"Feature","properties":{"ZIP":"V8G5K8","VERTICES":4},"geometry":{"type":"Point","coordinates":[-128.5981615,54.517851500000006]}},{"type":"Feature","properties":{"ZIP":"V8G3L4","VERTICES":4},"geometry":{"type":"Point","coordinates":[-128.51298350000002,54.5305155]}},{"type":"Feature","properties":{"ZIP":"V8G4A2","VERTICES":4},"geometry":{"type":"Point","coordinates":[-128.543559,54.512403]}},{"type":"Feature","properties":{"ZIP":"V8G3N1","VERTICES":4},"geometry":{"type":"Point","coordinates":[-128.556779,54.5098885]}},{"type":"Feature","properties":{"ZIP":"V8G4V3","VERTICES":4},"geometry":{"type":"Point","coordinates":[-128.582763,54.5061005]}},{"type":"Feature","properties":{"ZIP":"V8G1B4","VERTICES":4},"geometry":{"type":"Point","coordinates":[-128.6124115,54.5060005]}},{"type":"Feature","properties":{"ZIP":"V8G2K8","VERTICES":4},"geometry":{"type":"Point","coordinates":[-128.582962,54.510354500000005]}},{"type":"Feature","properties":{"ZIP":"V8G5B5","VERTICES":4},"geometry":{"type":"Point","coordinates":[-128.51810849999998,54.502762000000004]}},{"type":"Feature","properties":{"ZIP":"V8G5L4","VERTICES":4},"geometry":{"type":"Point","coordinates":[-128.604721,54.536755]}},{"type":"Feature","properties":{"ZIP":"V8G3E3","VERTICES":4},"geometry":{"type":"Point","coordinates":[-128.610824,54.5070795]}},{"type":"Feature","properties":{"ZIP":"V8G4S4","VERTICES":4},"geometry":{"type":"Point","coordinates":[-128.605277,54.525434000000004]}},{"type":"Feature","properties":{"ZIP":"V8G5L7","VERTICES":4},"geometry":{"type":"Point","coordinates":[-128.620815,54.526474]}},{"type":"Feature","properties":{"ZIP":"V8G1J4","VERTICES":4},"geometry":{"type":"Point","coordinates":[-128.60146650000002,54.5120895]}},{"type":"Feature","properties":{"ZIP":"V8G0E3","VERTICES":4},"geometry":{"type":"Point","coordinates":[-128.63171599999998,54.474017]}},{"type":"Feature","properties":{"ZIP":"V8G1M7","VERTICES":4},"geometry":{"type":"Point","coordinates":[-128.58333950000002,54.5151235]}},{"type":"Feature","properties":{"ZIP":"V8G4Z7","VERTICES":4},"geometry":{"type":"Point","coordinates":[-128.5170115,54.511716]}},{"type":"Feature","properties":{"ZIP":"V8G1J5","VERTICES":4},"geometry":{"type":"Point","coordinates":[-128.6092145,54.512095]}},{"type":"Feature","properties":{"ZIP":"V8G4E3","VERTICES":4},"geometry":{"type":"Point","coordinates":[-128.592028,54.5065765]}},{"type":"Feature","properties":{"ZIP":"V8G4S8","VERTICES":4},"geometry":{"type":"Point","coordinates":[-128.6153235,54.512178]}},{"type":"Feature","properties":{"ZIP":"V8G5H5","VERTICES":4},"geometry":{"type":"Point","coordinates":[-128.602615,54.506168]}},{"type":"Feature","properties":{"ZIP":"V8G3K5","VERTICES":4},"geometry":{"type":"Point","coordinates":[-128.50920150000002,54.5312305]}},{"type":"Feature","properties":{"ZIP":"V8G2A1","VERTICES":4},"geometry":{"type":"Point","coordinates":[-128.583862,54.522032499999995]}},{"type":"Feature","properties":{"ZIP":"V8G4E4","VERTICES":4},"geometry":{"type":"Point","coordinates":[-128.59196050000003,54.5065765]}},{"type":"Feature","properties":{"ZIP":"V8G2H5","VERTICES":4},"geometry":{"type":"Point","coordinates":[-128.58740799999998,54.5322095]}},{"type":"Feature","properties":{"ZIP":"V8G2V9","VERTICES":4},"geometry":{"type":"Point","coordinates":[-128.592087,54.5263535]}},{"type":"Feature","properties":{"ZIP":"V8G5E6","VERTICES":4},"geometry":{"type":"Point","coordinates":[-128.52678500000002,54.500953]}}]}