{"type":"FeatureCollection","features":[{"type":"Feature","properties":{"ZIP":"V8R3L4","VERTICES":15},"geometry":{"type":"Point","coordinates":[-123.30918550000001,48.440126]}},{"type":"Feature","properties":{"ZIP":"V8R2L1","VERTICES":12},"geometry":{"type":"Point","coordinates":[-123.3301795,48.435965]}},{"type":"Feature","properties":{"ZIP":"V8R2M6","VERTICES":12},"geometry":{"type":"Point","coordinates":[-123.3203125,48.436659000000006]}},{"type":"Feature","properties":{"ZIP":"V8R5V3","VERTICES":11},"geometry":{"type":"Point","coordinates":[-123.3139995,48.4277235]}},{"type":"Feature","properties":{"ZIP":"V8R2N1","VERTICES":11},"geometry":{"type":"Point","coordinates":[-123.3110905,48.4372405]}},{"type":"Feature","properties":{"ZIP":"V8R2R7","VERTICES":11},"geometry":{"type":"Point","coordinates":[-123.3203225,48.438531999999995]}},{"type":"Feature","properties":{"ZIP":"V8R2P6","VERTICES":10},"geometry":{"type":"Point","coordinates":[-123.32033799999999,48.4374915]}},{"type":"Feature","properties":{"ZIP":"V8R5E7","VERTICES":10},"geometry":{"type":"Point","coordinates":[-123.3208045,48.434139]}},{"type":"Feature","properties":{"ZIP":"V8R5A9","VERTICES":10},"geometry":{"type":"Point","coordinates":[-123.32236,48.4346515]}},{"type":"Feature","properties":{"ZIP":"V8R3Y6","VERTICES":10},"geometry":{"type":"Point","coordinates":[-123.3408625,48.438911000000004]}},{"type":"Feature","properties":{"ZIP":"V8R1E5","VERTICES":10},"geometry":{"type":"Point","coordinates":[-123.3215975,48.4264725]}},{"type":"Feature","properties":{"ZIP":"V8R4G6","VERTICES":10},"geometry":{"type":"Point","coordinates":[-123.33620400000001,48.435109]}},{"type":"Feature","properties":{"ZIP":"V8R5E8","VERTICES":10},"geometry":{"type":"Point","coordinates":[-123.3208045,48.4341425]}},{"type":"Feature","properties":{"ZIP":"V8R2X1","VERTICES":10},"geometry":{"type":"Point","coordinates":[-123.340737,48.4400745]}},{"type":"Feature","properties":{"ZIP":"V8R4J1","VERTICES":10},"geometry":{"type":"Point","coordinates":[-123.334957,48.437059]}},{"type":"Feature","properties":{"ZIP":"V8R1M3","VERTICES":10},"geometry":{"type":"Point","coordinates":[-123.34373450000001,48.4286125]}},{"type":"Feature","properties":{"ZIP":"V8R4W5","VERTICES":10},"geometry":{"type":"Point","coordinates":[-123.3267175,48.429881]}},{"type":"Feature","properties":{"ZIP":"V8R4C3","VERTICES":10},"geometry":{"type":"Point","coordinates":[-123.338425,48.439105]}},{"type":"Feature","properties":{"ZIP":"V8R2N9","VERTICES":10},"geometry":{"type":"Point","coordinates":[-123.33066299999999,48.437929499999996]}},{"type":"Feature","properties":{"ZIP":"V8R2Z5","VERTICES":10},"geometry":{"type":"Point","coordinates":[-123.3404535,48.441878]}},{"type":"Feature","properties":{"ZIP":"V8R2R2","VERTICES":10},"geometry":{"type":"Point","coordinates":[-123.3295395,48.4388555]}},{"type":"Feature","properties":{"ZIP":"V8R4A8","VERTICES":10},"geometry":{"type":"Point","coordinates":[-123.33967849999999,48.439217]}},{"type":"Feature","properties":{"ZIP":"V8R2P1","VERTICES":10},"geometry":{"type":"Point","coordinates":[-123.330879,48.437938]}},{"type":"Feature","properties":{"ZIP":"V8R4J5","VERTICES":10},"geometry":{"type":"Point","coordinates":[-123.3347935,48.440824]}},{"type":"Feature","properties":{"ZIP":"V8R5Y1","VERTICES":10},"geometry":{"type":"Point","coordinates":[-123.3092185,48.436227]}},{"type":"Feature","properties":{"ZIP":"V8R1S3","VERTICES":10},"geometry":{"type":"Point","coordinates":[-123.3405305,48.43038]}},{"type":"Feature","properties":{"ZIP":"V8R2N2","VERTICES":10},"geometry":{"type":"Point","coordinates":[-123.30974549999999,48.437466]}},{"type":"Feature","properties":{"ZIP":"V8R3E3","VERTICES":10},"geometry":{"type":"Point","coordinates":[-123.31791849999999,48.441784999999996]}},{"type":"Feature","properties":{"ZIP":"V8R4Z6","VERTICES":9},"geometry":{"type":"Point","coordinates":[-123.3237785,48.4274225]}},{"type":"Feature","properties":{"ZIP":"V8R4E2","VERTICES":9},"geometry":{"type":"Point","coordinates":[-123.3373295,48.4372515]}},{"type":"Feature","properties":{"ZIP":"V8R1L9","VERTICES":9},"geometry":{"type":"Point","coordinates":[-123.32082600000001,48.428049]}},{"type":"Feature","properties":{"ZIP":"V8R1Y8","VERTICES":9},"geometry":{"type":"Point","coordinates":[-123.341189,48.433497]}},{"type":"Feature","properties":{"ZIP":"V8R3A8","VERTICES":9},"geometry":{"type":"Point","coordinates":[-123.3261835,48.440417]}},{"type":"Feature","properties":{"ZIP":"V8R4B9","VERTICES":9},"geometry":{"type":"Point","coordinates":[-123.3385915,48.435159]}},{"type":"Feature","properties":{"ZIP":"V8R5J9","VERTICES":9},"geometry":{"type":"Point","coordinates":[-123.311455,48.443303]}},{"type":"Feature","properties":{"ZIP":"V8R6H5","VERTICES":9},"geometry":{"type":"Point","coordinates":[-123.2976115,48.4447985]}},{"type":"Feature","properties":{"ZIP":"V8R1M2","VERTICES":9},"geometry":{"type":"Point","coordinates":[-123.3438175,48.428614499999995]}},{"type":"Feature","properties":{"ZIP":"V8R4A5","VERTICES":9},"geometry":{"type":"Point","coordinates":[-123.3397695,48.4353225]}},{"type":"Feature","properties":{"ZIP":"V8R5M3","VERTICES":9},"geometry":{"type":"Point","coordinates":[-123.31834950000001,48.443122]}},{"type":"Feature","properties":{"ZIP":"V8R3B1","VERTICES":9},"geometry":{"type":"Point","coordinates":[-123.3232825,48.440321499999996]}},{"type":"Feature","properties":{"ZIP":"V8R4N7","VERTICES":9},"geometry":{"type":"Point","coordinates":[-123.33169849999999,48.429951]}},{"type":"Feature","properties":{"ZIP":"V8R1X6","VERTICES":9},"geometry":{"type":"Point","coordinates":[-123.3416775,48.432747]}},{"type":"Feature","properties":{"ZIP":"V8R4V4","VERTICES":9},"geometry":{"type":"Point","coordinates":[-123.3289125,48.427432]}},{"type":"Feature","properties":{"ZIP":"V8R6K2","VERTICES":9},"geometry":{"type":"Point","coordinates":[-123.3009295,48.436616]}},{"type":"Feature","properties":{"ZIP":"V8R1H7","VERTICES":9},"geometry":{"type":"Point","coordinates":[-123.32068699999999,48.4271655]}},{"type":"Feature","properties":{"ZIP":"V8R2G9","VERTICES":9},"geometry":{"type":"Point","coordinates":[-123.3179595,48.4346395]}},{"type":"Feature","properties":{"ZIP":"V8R2S3","VERTICES":9},"geometry":{"type":"Point","coordinates":[-123.313412,48.438057]}},{"type":"Feature","properties":{"ZIP":"V8R4W6","VERTICES":9},"geometry":{"type":"Point","coordinates":[-123.326819,48.429771]}},{"type":"Feature","properties":{"ZIP":"V8R3T6","VERTICES":9},"geometry":{"type":"Point","coordinates":[-123.34361899999999,48.4353415]}},{"type":"Feature","properties":{"ZIP":"V8R6A6","VERTICES":9},"geometry":{"type":"Point","coordinates":[-123.3041865,48.437342]}},{"type":"Feature","properties":{"ZIP":"V8R2A6","VERTICES":9},"geometry":{"type":"Point","coordinates":[-123.3417985,48.434369000000004]}},{"type":"Feature","properties":{"ZIP":"V8R5V4","VERTICES":9},"geometry":{"type":"Point","coordinates":[-123.31400550000001,48.427343]}},{"type":"Feature","properties":{"ZIP":"V8R1K7","VERTICES":9},"geometry":{"type":"Point","coordinates":[-123.340375,48.427789000000004]}},{"type":"Feature","properties":{"ZIP":"V8R2T8","VERTICES":9},"geometry":{"type":"Point","coordinates":[-123.32629299999999,48.4395035]}},{"type":"Feature","properties":{"ZIP":"V8R3M3","VERTICES":9},"geometry":{"type":"Point","coordinates":[-123.3074705,48.4415615]}},{"type":"Feature","properties":{"ZIP":"V8R2R3","VERTICES":9},"geometry":{"type":"Point","coordinates":[-123.32766749999999,48.4387955]}},{"type":"Feature","properties":{"ZIP":"V8R2W2","VERTICES":9},"geometry":{"type":"Point","coordinates":[-123.302876,48.4350265]}},{"type":"Feature","properties":{"ZIP":"V8R3W5","VERTICES":9},"geometry":{"type":"Point","coordinates":[-123.342217,48.438914499999996]}},{"type":"Feature","properties":{"ZIP":"V8R1P7","VERTICES":9},"geometry":{"type":"Point","coordinates":[-123.340573,48.4292875]}},{"type":"Feature","properties":{"ZIP":"V8R4W8","VERTICES":9},"geometry":{"type":"Point","coordinates":[-123.3255585,48.429699]}},{"type":"Feature","properties":{"ZIP":"V8R2C3","VERTICES":9},"geometry":{"type":"Point","coordinates":[-123.3312885,48.4343995]}},{"type":"Feature","properties":{"ZIP":"V8R5W8","VERTICES":9},"geometry":{"type":"Point","coordinates":[-123.3103185,48.4318555]}},{"type":"Feature","properties":{"ZIP":"V8R2R4","VERTICES":9},"geometry":{"type":"Point","coordinates":[-123.32783599999999,48.4388015]}},{"type":"Feature","properties":{"ZIP":"V8R2C4","VERTICES":9},"geometry":{"type":"Point","coordinates":[-123.332899,48.4350585]}},{"type":"Feature","properties":{"ZIP":"V8R4H5","VERTICES":9},"geometry":{"type":"Point","coordinates":[-123.3357905,48.442898]}},{"type":"Feature","properties":{"ZIP":"V8R5T4","VERTICES":9},"geometry":{"type":"Point","coordinates":[-123.315059,48.428245000000004]}},{"type":"Feature","properties":{"ZIP":"V8R3Y3","VERTICES":9},"geometry":{"type":"Point","coordinates":[-123.340941,48.437149000000005]}},{"type":"Feature","properties":{"ZIP":"V8R1L6","VERTICES":9},"geometry":{"type":"Point","coordinates":[-123.343819,48.427713]}},{"type":"Feature","properties":{"ZIP":"V8R5Y3","VERTICES":9},"geometry":{"type":"Point","coordinates":[-123.3075565,48.438589500000006]}},{"type":"Feature","properties":{"ZIP":"V8R3L5","VERTICES":9},"geometry":{"type":"Point","coordinates":[-123.30918550000001,48.440104]}},{"type":"Feature","properties":{"ZIP":"V8R4P5","VERTICES":9},"geometry":{"type":"Point","coordinates":[-123.3283325,48.442226500000004]}},{"type":"Feature","properties":{"ZIP":"V8R5S4","VERTICES":9},"geometry":{"type":"Point","coordinates":[-123.31684,48.427448]}},{"type":"Feature","properties":{"ZIP":"V8R5W1","VERTICES":9},"geometry":{"type":"Point","coordinates":[-123.311375,48.43215]}},{"type":"Feature","properties":{"ZIP":"V8R1S5","VERTICES":8},"geometry":{"type":"Point","coordinates":[-123.337441,48.4301775]}},{"type":"Feature","properties":{"ZIP":"V8R1Y7","VERTICES":8},"geometry":{"type":"Point","coordinates":[-123.3415975,48.433513]}},{"type":"Feature","properties":{"ZIP":"V8R3G7","VERTICES":8},"geometry":{"type":"Point","coordinates":[-123.325752,48.443729]}},{"type":"Feature","properties":{"ZIP":"V8R4A2","VERTICES":8},"geometry":{"type":"Point","coordinates":[-123.339522,48.4331125]}},{"type":"Feature","properties":{"ZIP":"V8R4G5","VERTICES":8},"geometry":{"type":"Point","coordinates":[-123.3362855,48.435578500000005]}},{"type":"Feature","properties":{"ZIP":"V8R4L9","VERTICES":8},"geometry":{"type":"Point","coordinates":[-123.3336475,48.4367825]}},{"type":"Feature","properties":{"ZIP":"V8R2W8","VERTICES":8},"geometry":{"type":"Point","coordinates":[-123.329541,48.44261899999999]}},{"type":"Feature","properties":{"ZIP":"V8R4B8","VERTICES":8},"geometry":{"type":"Point","coordinates":[-123.338504,48.4354275]}},{"type":"Feature","properties":{"ZIP":"V8R4W2","VERTICES":8},"geometry":{"type":"Point","coordinates":[-123.3277465,48.429604499999996]}},{"type":"Feature","properties":{"ZIP":"V8R5T7","VERTICES":8},"geometry":{"type":"Point","coordinates":[-123.3141235,48.430358]}},{"type":"Feature","properties":{"ZIP":"V8R5Y9","VERTICES":8},"geometry":{"type":"Point","coordinates":[-123.3080245,48.4358835]}},{"type":"Feature","properties":{"ZIP":"V8R2H9","VERTICES":8},"geometry":{"type":"Point","coordinates":[-123.307068,48.434034]}},{"type":"Feature","properties":{"ZIP":"V8R3E4","VERTICES":8},"geometry":{"type":"Point","coordinates":[-123.3167085,48.4417655]}},{"type":"Feature","properties":{"ZIP":"V8R5W2","VERTICES":8},"geometry":{"type":"Point","coordinates":[-123.3129995,48.427080000000004]}},{"type":"Feature","properties":{"ZIP":"V8R6A2","VERTICES":8},"geometry":{"type":"Point","coordinates":[-123.3040035,48.4394205]}},{"type":"Feature","properties":{"ZIP":"V8R4T7","VERTICES":8},"geometry":{"type":"Point","coordinates":[-123.3274965,48.441486999999995]}},{"type":"Feature","properties":{"ZIP":"V8R4Z7","VERTICES":8},"geometry":{"type":"Point","coordinates":[-123.323742,48.429268]}},{"type":"Feature","properties":{"ZIP":"V8R2M1","VERTICES":8},"geometry":{"type":"Point","coordinates":[-123.33060649999999,48.43692]}},{"type":"Feature","properties":{"ZIP":"V8R4H9","VERTICES":8},"geometry":{"type":"Point","coordinates":[-123.33505249999999,48.436835]}},{"type":"Feature","properties":{"ZIP":"V8R4W3","VERTICES":8},"geometry":{"type":"Point","coordinates":[-123.326138,48.4278595]}},{"type":"Feature","properties":{"ZIP":"V8R5N5","VERTICES":8},"geometry":{"type":"Point","coordinates":[-123.3179625,48.4278595]}},{"type":"Feature","properties":{"ZIP":"V8R5Z1","VERTICES":8},"geometry":{"type":"Point","coordinates":[-123.3080245,48.4358835]}},{"type":"Feature","properties":{"ZIP":"V8R2T2","VERTICES":8},"geometry":{"type":"Point","coordinates":[-123.305399,48.436607]}},{"type":"Feature","properties":{"ZIP":"V8R3T3","VERTICES":8},"geometry":{"type":"Point","coordinates":[-123.34398350000001,48.431985]}},{"type":"Feature","properties":{"ZIP":"V8R6A3","VERTICES":8},"geometry":{"type":"Point","coordinates":[-123.306003,48.435602]}},{"type":"Feature","properties":{"ZIP":"V8R4Z8","VERTICES":8},"geometry":{"type":"Point","coordinates":[-123.323723,48.429269500000004]}},{"type":"Feature","properties":{"ZIP":"V8R3C4","VERTICES":8},"geometry":{"type":"Point","coordinates":[-123.313525,48.440833]}},{"type":"Feature","properties":{"ZIP":"V8R5T9","VERTICES":8},"geometry":{"type":"Point","coordinates":[-123.3125,48.432649]}},{"type":"Feature","properties":{"ZIP":"V8R5Z2","VERTICES":8},"geometry":{"type":"Point","coordinates":[-123.307209,48.438101]}},{"type":"Feature","properties":{"ZIP":"V8R1X5","VERTICES":8},"geometry":{"type":"Point","coordinates":[-123.3413845,48.432739999999995]}},{"type":"Feature","properties":{"ZIP":"V8R4K7","VERTICES":8},"geometry":{"type":"Point","coordinates":[-123.33451249999999,48.4331915]}},{"type":"Feature","properties":{"ZIP":"V8R6H6","VERTICES":8},"geometry":{"type":"Point","coordinates":[-123.2960195,48.449484999999996]}},{"type":"Feature","properties":{"ZIP":"V8R3H1","VERTICES":8},"geometry":{"type":"Point","coordinates":[-123.3231485,48.443636999999995]}},{"type":"Feature","properties":{"ZIP":"V8R4G8","VERTICES":8},"geometry":{"type":"Point","coordinates":[-123.3361395,48.436805]}},{"type":"Feature","properties":{"ZIP":"V8R4Z9","VERTICES":8},"geometry":{"type":"Point","coordinates":[-123.32266,48.4274365]}},{"type":"Feature","properties":{"ZIP":"V8R6K1","VERTICES":8},"geometry":{"type":"Point","coordinates":[-123.30453750000001,48.4346925]}},{"type":"Feature","properties":{"ZIP":"V8R2B9","VERTICES":8},"geometry":{"type":"Point","coordinates":[-123.3316945,48.4338075]}},{"type":"Feature","properties":{"ZIP":"V8R3T5","VERTICES":8},"geometry":{"type":"Point","coordinates":[-123.343621,48.435281]}},{"type":"Feature","properties":{"ZIP":"V8R1Z3","VERTICES":8},"geometry":{"type":"Point","coordinates":[-123.31682599999999,48.432615999999996]}},{"type":"Feature","properties":{"ZIP":"V8R2R1","VERTICES":8},"geometry":{"type":"Point","coordinates":[-123.330228,48.438885]}},{"type":"Feature","properties":{"ZIP":"V8R4M4","VERTICES":8},"geometry":{"type":"Point","coordinates":[-123.33348050000001,48.440700500000005]}},{"type":"Feature","properties":{"ZIP":"V8R5S9","VERTICES":8},"geometry":{"type":"Point","coordinates":[-123.31526299999999,48.435679]}},{"type":"Feature","properties":{"ZIP":"V8R1P5","VERTICES":8},"geometry":{"type":"Point","coordinates":[-123.34359,48.429406]}},{"type":"Feature","properties":{"ZIP":"V8R1W4","VERTICES":8},"geometry":{"type":"Point","coordinates":[-123.334738,48.431016]}},{"type":"Feature","properties":{"ZIP":"V8R4J3","VERTICES":8},"geometry":{"type":"Point","coordinates":[-123.3349075,48.4387525]}},{"type":"Feature","properties":{"ZIP":"V8R5Z4","VERTICES":8},"geometry":{"type":"Point","coordinates":[-123.305054,48.439953]}},{"type":"Feature","properties":{"ZIP":"V8R6G1","VERTICES":8},"geometry":{"type":"Point","coordinates":[-123.30265499999999,48.445116]}},{"type":"Feature","properties":{"ZIP":"V8R3E9","VERTICES":8},"geometry":{"type":"Point","coordinates":[-123.3295215,48.4431415]}},{"type":"Feature","properties":{"ZIP":"V8R5C7","VERTICES":8},"geometry":{"type":"Point","coordinates":[-123.3218975,48.44317]}},{"type":"Feature","properties":{"ZIP":"V8R5T1","VERTICES":8},"geometry":{"type":"Point","coordinates":[-123.315294,48.435347]}},{"type":"Feature","properties":{"ZIP":"V8R1P6","VERTICES":8},"geometry":{"type":"Point","coordinates":[-123.3435315,48.4293545]}},{"type":"Feature","properties":{"ZIP":"V8R2H1","VERTICES":8},"geometry":{"type":"Point","coordinates":[-123.31782150000001,48.434698]}},{"type":"Feature","properties":{"ZIP":"V8R3L1","VERTICES":8},"geometry":{"type":"Point","coordinates":[-123.310271,48.439620000000005]}},{"type":"Feature","properties":{"ZIP":"V8R4J4","VERTICES":8},"geometry":{"type":"Point","coordinates":[-123.334949,48.440778]}},{"type":"Feature","properties":{"ZIP":"V8R4P1","VERTICES":8},"geometry":{"type":"Point","coordinates":[-123.329633,48.442367000000004]}},{"type":"Feature","properties":{"ZIP":"V8R5N9","VERTICES":8},"geometry":{"type":"Point","coordinates":[-123.3142795,48.4443425]}},{"type":"Feature","properties":{"ZIP":"V8R2C2","VERTICES":8},"geometry":{"type":"Point","coordinates":[-123.33279300000001,48.4343165]}},{"type":"Feature","properties":{"ZIP":"V8R2Z6","VERTICES":8},"geometry":{"type":"Point","coordinates":[-123.34066,48.441796499999995]}},{"type":"Feature","properties":{"ZIP":"V8R5K7","VERTICES":8},"geometry":{"type":"Point","coordinates":[-123.3017395,48.454482999999996]}},{"type":"Feature","properties":{"ZIP":"V8R5R3","VERTICES":8},"geometry":{"type":"Point","coordinates":[-123.31532050000001,48.439561]}},{"type":"Feature","properties":{"ZIP":"V8R1Z5","VERTICES":8},"geometry":{"type":"Point","coordinates":[-123.314189,48.43185]}},{"type":"Feature","properties":{"ZIP":"V8R3H4","VERTICES":8},"geometry":{"type":"Point","coordinates":[-123.323099,48.4443615]}},{"type":"Feature","properties":{"ZIP":"V8R5T2","VERTICES":8},"geometry":{"type":"Point","coordinates":[-123.314109,48.435642]}},{"type":"Feature","properties":{"ZIP":"V8R2H3","VERTICES":8},"geometry":{"type":"Point","coordinates":[-123.314558,48.434984]}},{"type":"Feature","properties":{"ZIP":"V8R1S1","VERTICES":8},"geometry":{"type":"Point","coordinates":[-123.3441755,48.430587]}},{"type":"Feature","properties":{"ZIP":"V8R3M4","VERTICES":8},"geometry":{"type":"Point","coordinates":[-123.3074705,48.4415615]}},{"type":"Feature","properties":{"ZIP":"V8R3T8","VERTICES":8},"geometry":{"type":"Point","coordinates":[-123.3435255,48.436802]}},{"type":"Feature","properties":{"ZIP":"V8R3Z5","VERTICES":8},"geometry":{"type":"Point","coordinates":[-123.33894699999999,48.4298625]}},{"type":"Feature","properties":{"ZIP":"V8R4L5","VERTICES":8},"geometry":{"type":"Point","coordinates":[-123.333608,48.435269000000005]}},{"type":"Feature","properties":{"ZIP":"V8R4V7","VERTICES":8},"geometry":{"type":"Point","coordinates":[-123.32881499999999,48.429227]}},{"type":"Feature","properties":{"ZIP":"V8R2H5","VERTICES":8},"geometry":{"type":"Point","coordinates":[-123.312068,48.4349385]}},{"type":"Feature","properties":{"ZIP":"V8R2S6","VERTICES":8},"geometry":{"type":"Point","coordinates":[-123.30758399999999,48.4374075]}},{"type":"Feature","properties":{"ZIP":"V8R4W9","VERTICES":8},"geometry":{"type":"Point","coordinates":[-123.32558900000001,48.430802]}},{"type":"Feature","properties":{"ZIP":"V8R1S2","VERTICES":8},"geometry":{"type":"Point","coordinates":[-123.340269,48.430372]}},{"type":"Feature","properties":{"ZIP":"V8R2K2","VERTICES":8},"geometry":{"type":"Point","coordinates":[-123.3386895,48.436153000000004]}},{"type":"Feature","properties":{"ZIP":"V8R2P3","VERTICES":8},"geometry":{"type":"Point","coordinates":[-123.32695849999999,48.437805999999995]}},{"type":"Feature","properties":{"ZIP":"V8R3T9","VERTICES":8},"geometry":{"type":"Point","coordinates":[-123.3435695,48.438916500000005]}},{"type":"Feature","properties":{"ZIP":"V8R4G2","VERTICES":8},"geometry":{"type":"Point","coordinates":[-123.335594,48.4318805]}},{"type":"Feature","properties":{"ZIP":"V8R5E2","VERTICES":8},"geometry":{"type":"Point","coordinates":[-123.32183950000001,48.44457]}},{"type":"Feature","properties":{"ZIP":"V8R5L1","VERTICES":8},"geometry":{"type":"Point","coordinates":[-123.3194815,48.4342365]}},{"type":"Feature","properties":{"ZIP":"V8R5S1","VERTICES":8},"geometry":{"type":"Point","coordinates":[-123.3133655,48.443798]}},{"type":"Feature","properties":{"ZIP":"V8R5W9","VERTICES":8},"geometry":{"type":"Point","coordinates":[-123.3103185,48.4318555]}},{"type":"Feature","properties":{"ZIP":"V8R3B8","VERTICES":8},"geometry":{"type":"Point","coordinates":[-123.32324750000001,48.4410955]}},{"type":"Feature","properties":{"ZIP":"V8R2S7","VERTICES":8},"geometry":{"type":"Point","coordinates":[-123.3075935,48.4374775]}},{"type":"Feature","properties":{"ZIP":"V8R4X2","VERTICES":8},"geometry":{"type":"Point","coordinates":[-123.3250375,48.427437999999995]}},{"type":"Feature","properties":{"ZIP":"V8R5V8","VERTICES":8},"geometry":{"type":"Point","coordinates":[-123.3126595,48.43039]}},{"type":"Feature","properties":{"ZIP":"V8R6M6","VERTICES":8},"geometry":{"type":"Point","coordinates":[-123.2995075,48.453323]}},{"type":"Feature","properties":{"ZIP":"V8R1Y4","VERTICES":8},"geometry":{"type":"Point","coordinates":[-123.331331,48.432389]}},{"type":"Feature","properties":{"ZIP":"V8R2V2","VERTICES":8},"geometry":{"type":"Point","coordinates":[-123.32031549999999,48.43934]}},{"type":"Feature","properties":{"ZIP":"V8R3V1","VERTICES":8},"geometry":{"type":"Point","coordinates":[-123.3435,48.439235]}},{"type":"Feature","properties":{"ZIP":"V8R4Z4","VERTICES":8},"geometry":{"type":"Point","coordinates":[-123.32376199999999,48.4350635]}},{"type":"Feature","properties":{"ZIP":"V8R5S3","VERTICES":8},"geometry":{"type":"Point","coordinates":[-123.316835,48.4276095]}},{"type":"Feature","properties":{"ZIP":"V8R2R6","VERTICES":8},"geometry":{"type":"Point","coordinates":[-123.3240965,48.438667499999994]}},{"type":"Feature","properties":{"ZIP":"V8R4V9","VERTICES":8},"geometry":{"type":"Point","coordinates":[-123.327384,48.4272605]}},{"type":"Feature","properties":{"ZIP":"V8R5N2","VERTICES":8},"geometry":{"type":"Point","coordinates":[-123.315352,48.445593]}},{"type":"Feature","properties":{"ZIP":"V8R1R1","VERTICES":8},"geometry":{"type":"Point","coordinates":[-123.3380385,48.429384999999996]}},{"type":"Feature","properties":{"ZIP":"V8R4C9","VERTICES":8},"geometry":{"type":"Point","coordinates":[-123.337367,48.43511]}},{"type":"Feature","properties":{"ZIP":"V8R4X3","VERTICES":8},"geometry":{"type":"Point","coordinates":[-123.324994,48.4281085]}},{"type":"Feature","properties":{"ZIP":"V8R5Z9","VERTICES":8},"geometry":{"type":"Point","coordinates":[-123.305264,48.437698999999995]}},{"type":"Feature","properties":{"ZIP":"V8R1S4","VERTICES":8},"geometry":{"type":"Point","coordinates":[-123.3373115,48.4302905]}},{"type":"Feature","properties":{"ZIP":"V8R3G6","VERTICES":8},"geometry":{"type":"Point","coordinates":[-123.3231825,48.4426475]}},{"type":"Feature","properties":{"ZIP":"V8R4H7","VERTICES":8},"geometry":{"type":"Point","coordinates":[-123.3351,48.434822]}},{"type":"Feature","properties":{"ZIP":"V8R4W1","VERTICES":8},"geometry":{"type":"Point","coordinates":[-123.3277465,48.429604499999996]}},{"type":"Feature","properties":{"ZIP":"V8R1R2","VERTICES":8},"geometry":{"type":"Point","coordinates":[-123.321106,48.429622]}},{"type":"Feature","properties":{"ZIP":"V8R2H8","VERTICES":8},"geometry":{"type":"Point","coordinates":[-123.30748750000001,48.4340765]}},{"type":"Feature","properties":{"ZIP":"V8R3A7","VERTICES":7},"geometry":{"type":"Point","coordinates":[-123.331237,48.442025]}},{"type":"Feature","properties":{"ZIP":"V8R5L7","VERTICES":7},"geometry":{"type":"Point","coordinates":[-123.319124,48.4286715]}},{"type":"Feature","properties":{"ZIP":"V8R1N9","VERTICES":7},"geometry":{"type":"Point","coordinates":[-123.3208435,48.428974499999995]}},{"type":"Feature","properties":{"ZIP":"V8R2G5","VERTICES":7},"geometry":{"type":"Point","coordinates":[-123.30851,48.4334935]}},{"type":"Feature","properties":{"ZIP":"V8R2L9","VERTICES":7},"geometry":{"type":"Point","coordinates":[-123.31763649999999,48.435944]}},{"type":"Feature","properties":{"ZIP":"V8R2R8","VERTICES":7},"geometry":{"type":"Point","coordinates":[-123.320727,48.438538]}},{"type":"Feature","properties":{"ZIP":"V8R3C2","VERTICES":7},"geometry":{"type":"Point","coordinates":[-123.31752700000001,48.440934]}},{"type":"Feature","properties":{"ZIP":"V8R4H8","VERTICES":7},"geometry":{"type":"Point","coordinates":[-123.335022,48.434779000000006]}},{"type":"Feature","properties":{"ZIP":"V8R5N4","VERTICES":7},"geometry":{"type":"Point","coordinates":[-123.3178875,48.4271065]}},{"type":"Feature","properties":{"ZIP":"V8R1J6","VERTICES":7},"geometry":{"type":"Point","coordinates":[-123.3292845,48.4298345]}},{"type":"Feature","properties":{"ZIP":"V8R1R3","VERTICES":7},"geometry":{"type":"Point","coordinates":[-123.321106,48.429622]}},{"type":"Feature","properties":{"ZIP":"V8R2T1","VERTICES":7},"geometry":{"type":"Point","coordinates":[-123.305399,48.4365965]}},{"type":"Feature","properties":{"ZIP":"V8R3T2","VERTICES":7},"geometry":{"type":"Point","coordinates":[-123.3000545,48.4548025]}},{"type":"Feature","properties":{"ZIP":"V8R5P7","VERTICES":7},"geometry":{"type":"Point","coordinates":[-123.316803,48.4357245]}},{"type":"Feature","properties":{"ZIP":"V8R3V9","VERTICES":7},"geometry":{"type":"Point","coordinates":[-123.3421875,48.435263]}},{"type":"Feature","properties":{"ZIP":"V8R4A4","VERTICES":7},"geometry":{"type":"Point","coordinates":[-123.3397875,48.434946999999994]}},{"type":"Feature","properties":{"ZIP":"V8R5S6","VERTICES":7},"geometry":{"type":"Point","coordinates":[-123.3151175,48.431733]}},{"type":"Feature","properties":{"ZIP":"V8R2G6","VERTICES":7},"geometry":{"type":"Point","coordinates":[-123.30851,48.4334935]}},{"type":"Feature","properties":{"ZIP":"V8R2R9","VERTICES":7},"geometry":{"type":"Point","coordinates":[-123.317172,48.438348500000004]}},{"type":"Feature","properties":{"ZIP":"V8R3C3","VERTICES":7},"geometry":{"type":"Point","coordinates":[-123.3170645,48.440953]}},{"type":"Feature","properties":{"ZIP":"V8R5B1","VERTICES":7},"geometry":{"type":"Point","coordinates":[-123.3222535,48.435087499999995]}},{"type":"Feature","properties":{"ZIP":"V8R2Y8","VERTICES":7},"geometry":{"type":"Point","coordinates":[-123.3374135,48.4419525]}},{"type":"Feature","properties":{"ZIP":"V8R1E6","VERTICES":7},"geometry":{"type":"Point","coordinates":[-123.319818,48.4264955]}},{"type":"Feature","properties":{"ZIP":"V8R3A9","VERTICES":7},"geometry":{"type":"Point","coordinates":[-123.325849,48.440405]}},{"type":"Feature","properties":{"ZIP":"V8R3G9","VERTICES":7},"geometry":{"type":"Point","coordinates":[-123.3231485,48.443636999999995]}},{"type":"Feature","properties":{"ZIP":"V8R5E9","VERTICES":7},"geometry":{"type":"Point","coordinates":[-123.32012549999999,48.443591999999995]}},{"type":"Feature","properties":{"ZIP":"V8R2M2","VERTICES":7},"geometry":{"type":"Point","coordinates":[-123.330562,48.4369195]}},{"type":"Feature","properties":{"ZIP":"V8R3J2","VERTICES":7},"geometry":{"type":"Point","coordinates":[-123.3159745,48.442719]}},{"type":"Feature","properties":{"ZIP":"V8R3X5","VERTICES":7},"geometry":{"type":"Point","coordinates":[-123.342172,48.429753000000005]}},{"type":"Feature","properties":{"ZIP":"V8R4N6","VERTICES":7},"geometry":{"type":"Point","coordinates":[-123.33241100000001,48.4293935]}},{"type":"Feature","properties":{"ZIP":"V8R5W4","VERTICES":7},"geometry":{"type":"Point","coordinates":[-123.3111425,48.439710000000005]}},{"type":"Feature","properties":{"ZIP":"V8R4A6","VERTICES":7},"geometry":{"type":"Point","coordinates":[-123.3398725,48.4370115]}},{"type":"Feature","properties":{"ZIP":"V8R5G1","VERTICES":7},"geometry":{"type":"Point","coordinates":[-123.32012549999999,48.443591999999995]}},{"type":"Feature","properties":{"ZIP":"V8R5M4","VERTICES":7},"geometry":{"type":"Point","coordinates":[-123.31832449999999,48.443179]}},{"type":"Feature","properties":{"ZIP":"V8R5X6","VERTICES":7},"geometry":{"type":"Point","coordinates":[-123.3089175,48.431719]}},{"type":"Feature","properties":{"ZIP":"V8R2M3","VERTICES":7},"geometry":{"type":"Point","coordinates":[-123.32348049999999,48.436755500000004]}},{"type":"Feature","properties":{"ZIP":"V8R2S2","VERTICES":7},"geometry":{"type":"Point","coordinates":[-123.3155345,48.437828]}},{"type":"Feature","properties":{"ZIP":"V8R4J2","VERTICES":7},"geometry":{"type":"Point","coordinates":[-123.33499499999999,48.4388665]}},{"type":"Feature","properties":{"ZIP":"V8R5Z3","VERTICES":7},"geometry":{"type":"Point","coordinates":[-123.30633850000001,48.438187]}},{"type":"Feature","properties":{"ZIP":"V8R6E9","VERTICES":7},"geometry":{"type":"Point","coordinates":[-123.30216,48.446414000000004]}},{"type":"Feature","properties":{"ZIP":"V8R4E5","VERTICES":7},"geometry":{"type":"Point","coordinates":[-123.3372215,48.438900000000004]}},{"type":"Feature","properties":{"ZIP":"V8R5K4","VERTICES":7},"geometry":{"type":"Point","coordinates":[-123.305534,48.451155]}},{"type":"Feature","properties":{"ZIP":"V8R6A5","VERTICES":7},"geometry":{"type":"Point","coordinates":[-123.30469149999999,48.436808]}},{"type":"Feature","properties":{"ZIP":"V8R6H7","VERTICES":7},"geometry":{"type":"Point","coordinates":[-123.295661,48.445448]}},{"type":"Feature","properties":{"ZIP":"V8R2E4","VERTICES":7},"geometry":{"type":"Point","coordinates":[-123.315335,48.4340995]}},{"type":"Feature","properties":{"ZIP":"V8R3H2","VERTICES":7},"geometry":{"type":"Point","coordinates":[-123.3256285,48.444471500000006]}},{"type":"Feature","properties":{"ZIP":"V8R6C5","VERTICES":7},"geometry":{"type":"Point","coordinates":[-123.3069295,48.443629]}},{"type":"Feature","properties":{"ZIP":"V8R4L1","VERTICES":7},"geometry":{"type":"Point","coordinates":[-123.3328515,48.431661500000004]}},{"type":"Feature","properties":{"ZIP":"V8R4S6","VERTICES":7},"geometry":{"type":"Point","coordinates":[-123.32884200000001,48.436378500000004]}},{"type":"Feature","properties":{"ZIP":"V8R1T5","VERTICES":7},"geometry":{"type":"Point","coordinates":[-123.3203665,48.430359499999994]}},{"type":"Feature","properties":{"ZIP":"V8R2L2","VERTICES":7},"geometry":{"type":"Point","coordinates":[-123.33112299999999,48.4353035]}},{"type":"Feature","properties":{"ZIP":"V8R3B4","VERTICES":7},"geometry":{"type":"Point","coordinates":[-123.3203005,48.440226499999994]}},{"type":"Feature","properties":{"ZIP":"V8R4H2","VERTICES":7},"geometry":{"type":"Point","coordinates":[-123.3358485,48.4410855]}},{"type":"Feature","properties":{"ZIP":"V8R5M6","VERTICES":7},"geometry":{"type":"Point","coordinates":[-123.318027,48.444906]}},{"type":"Feature","properties":{"ZIP":"V8R5X8","VERTICES":7},"geometry":{"type":"Point","coordinates":[-123.3090145,48.4280015]}},{"type":"Feature","properties":{"ZIP":"V8R6C8","VERTICES":7},"geometry":{"type":"Point","coordinates":[-123.30497,48.4428475]}},{"type":"Feature","properties":{"ZIP":"V8R6K3","VERTICES":7},"geometry":{"type":"Point","coordinates":[-123.301875,48.436966]}},{"type":"Feature","properties":{"ZIP":"V8R2S4","VERTICES":7},"geometry":{"type":"Point","coordinates":[-123.310408,48.437925500000006]}},{"type":"Feature","properties":{"ZIP":"V8R5Z5","VERTICES":7},"geometry":{"type":"Point","coordinates":[-123.3052505,48.4396815]}},{"type":"Feature","properties":{"ZIP":"V8R6G3","VERTICES":7},"geometry":{"type":"Point","coordinates":[-123.30228299999999,48.4482255]}},{"type":"Feature","properties":{"ZIP":"V8R1R9","VERTICES":7},"geometry":{"type":"Point","coordinates":[-123.3436155,48.430406500000004]}},{"type":"Feature","properties":{"ZIP":"V8R3Z4","VERTICES":7},"geometry":{"type":"Point","coordinates":[-123.338894,48.429789]}},{"type":"Feature","properties":{"ZIP":"V8R1V2","VERTICES":7},"geometry":{"type":"Point","coordinates":[-123.3441755,48.431326]}},{"type":"Feature","properties":{"ZIP":"V8R3B6","VERTICES":7},"geometry":{"type":"Point","coordinates":[-123.32608049999999,48.441199999999995]}},{"type":"Feature","properties":{"ZIP":"V8R4A9","VERTICES":7},"geometry":{"type":"Point","coordinates":[-123.3396625,48.438905000000005]}},{"type":"Feature","properties":{"ZIP":"V8R4V6","VERTICES":7},"geometry":{"type":"Point","coordinates":[-123.328914,48.429114]}},{"type":"Feature","properties":{"ZIP":"V8R1W6","VERTICES":7},"geometry":{"type":"Point","coordinates":[-123.3310535,48.430882]}},{"type":"Feature","properties":{"ZIP":"V8R2S5","VERTICES":7},"geometry":{"type":"Point","coordinates":[-123.31089349999999,48.437889999999996]}},{"type":"Feature","properties":{"ZIP":"V8R3C8","VERTICES":7},"geometry":{"type":"Point","coordinates":[-123.3232835,48.441987499999996]}},{"type":"Feature","properties":{"ZIP":"V8R3Y1","VERTICES":7},"geometry":{"type":"Point","coordinates":[-123.341173,48.434825000000004]}},{"type":"Feature","properties":{"ZIP":"V8R4C6","VERTICES":7},"geometry":{"type":"Point","coordinates":[-123.336686,48.4315835]}},{"type":"Feature","properties":{"ZIP":"V8R5P1","VERTICES":7},"geometry":{"type":"Point","coordinates":[-123.31486050000001,48.444329499999995]}},{"type":"Feature","properties":{"ZIP":"V8R5Z6","VERTICES":7},"geometry":{"type":"Point","coordinates":[-123.306543,48.4359575]}},{"type":"Feature","properties":{"ZIP":"V8R2T9","VERTICES":7},"geometry":{"type":"Point","coordinates":[-123.323331,48.4394215]}},{"type":"Feature","properties":{"ZIP":"V8R4G1","VERTICES":7},"geometry":{"type":"Point","coordinates":[-123.33571599999999,48.4318805]}},{"type":"Feature","properties":{"ZIP":"V8R6A8","VERTICES":7},"geometry":{"type":"Point","coordinates":[-123.302898,48.439099]}},{"type":"Feature","properties":{"ZIP":"V8R1G4","VERTICES":7},"geometry":{"type":"Point","coordinates":[-123.3153955,48.42649]}},{"type":"Feature","properties":{"ZIP":"V8R2W3","VERTICES":7},"geometry":{"type":"Point","coordinates":[-123.301154,48.436653]}},{"type":"Feature","properties":{"ZIP":"V8R3B7","VERTICES":7},"geometry":{"type":"Point","coordinates":[-123.3256055,48.441188999999994]}},{"type":"Feature","properties":{"ZIP":"V8R4B4","VERTICES":7},"geometry":{"type":"Point","coordinates":[-123.33841000000001,48.431945999999996]}},{"type":"Feature","properties":{"ZIP":"V8R4H4","VERTICES":7},"geometry":{"type":"Point","coordinates":[-123.335796,48.442749]}},{"type":"Feature","properties":{"ZIP":"V8R5A4","VERTICES":7},"geometry":{"type":"Point","coordinates":[-123.3226085,48.4287315]}},{"type":"Feature","properties":{"ZIP":"V8R1A2","VERTICES":7},"geometry":{"type":"Point","coordinates":[-123.344682,48.426843500000004]}},{"type":"Feature","properties":{"ZIP":"V8R1W8","VERTICES":7},"geometry":{"type":"Point","coordinates":[-123.3418165,48.43195]}},{"type":"Feature","properties":{"ZIP":"V8R3Y2","VERTICES":7},"geometry":{"type":"Point","coordinates":[-123.3408575,48.435302500000006]}},{"type":"Feature","properties":{"ZIP":"V8R4C7","VERTICES":7},"geometry":{"type":"Point","coordinates":[-123.3369395,48.433423]}},{"type":"Feature","properties":{"ZIP":"V8R4J6","VERTICES":7},"geometry":{"type":"Point","coordinates":[-123.33487,48.4428455]}},{"type":"Feature","properties":{"ZIP":"V8R5V7","VERTICES":7},"geometry":{"type":"Point","coordinates":[-123.3124145,48.4307715]}},{"type":"Feature","properties":{"ZIP":"V8R6G5","VERTICES":7},"geometry":{"type":"Point","coordinates":[-123.3007445,48.4468495]}},{"type":"Feature","properties":{"ZIP":"V8R6M5","VERTICES":7},"geometry":{"type":"Point","coordinates":[-123.29928849999999,48.45161]}},{"type":"Feature","properties":{"ZIP":"V8R2V1","VERTICES":7},"geometry":{"type":"Point","coordinates":[-123.323331,48.4394215]}},{"type":"Feature","properties":{"ZIP":"V8R2Z9","VERTICES":7},"geometry":{"type":"Point","coordinates":[-123.3363725,48.4433415]}},{"type":"Feature","properties":{"ZIP":"V8R3G4","VERTICES":7},"geometry":{"type":"Point","coordinates":[-123.32588100000001,48.442747499999996]}},{"type":"Feature","properties":{"ZIP":"V8R3Z8","VERTICES":7},"geometry":{"type":"Point","coordinates":[-123.3397745,48.43178]}},{"type":"Feature","properties":{"ZIP":"V8R4Z3","VERTICES":7},"geometry":{"type":"Point","coordinates":[-123.323793,48.4340165]}},{"type":"Feature","properties":{"ZIP":"V8R2R5","VERTICES":7},"geometry":{"type":"Point","coordinates":[-123.3237595,48.438655]}},{"type":"Feature","properties":{"ZIP":"V8R1W9","VERTICES":7},"geometry":{"type":"Point","coordinates":[-123.341824,48.4320035]}},{"type":"Feature","properties":{"ZIP":"V8R3E1","VERTICES":7},"geometry":{"type":"Point","coordinates":[-123.319953,48.441905]}},{"type":"Feature","properties":{"ZIP":"V8R4C8","VERTICES":7},"geometry":{"type":"Point","coordinates":[-123.3367575,48.4329015]}},{"type":"Feature","properties":{"ZIP":"V8R5Z8","VERTICES":7},"geometry":{"type":"Point","coordinates":[-123.305264,48.437698999999995]}},{"type":"Feature","properties":{"ZIP":"V8R6G6","VERTICES":7},"geometry":{"type":"Point","coordinates":[-123.3004315,48.447215]}},{"type":"Feature","properties":{"ZIP":"V8R2P4","VERTICES":7},"geometry":{"type":"Point","coordinates":[-123.323582,48.437639000000004]}},{"type":"Feature","properties":{"ZIP":"V8R3G5","VERTICES":7},"geometry":{"type":"Point","coordinates":[-123.3231825,48.4426475]}},{"type":"Feature","properties":{"ZIP":"V8R4G3","VERTICES":7},"geometry":{"type":"Point","coordinates":[-123.3355785,48.4338255]}},{"type":"Feature","properties":{"ZIP":"V8R6J4","VERTICES":7},"geometry":{"type":"Point","coordinates":[-123.307053,48.4304985]}},{"type":"Feature","properties":{"ZIP":"V8R1V6","VERTICES":7},"geometry":{"type":"Point","coordinates":[-123.340919,48.4313095]}},{"type":"Feature","properties":{"ZIP":"V8R2L7","VERTICES":7},"geometry":{"type":"Point","coordinates":[-123.3202725,48.435735]}},{"type":"Feature","properties":{"ZIP":"V8R3H7","VERTICES":7},"geometry":{"type":"Point","coordinates":[-123.3229215,48.4453125]}},{"type":"Feature","properties":{"ZIP":"V8R4B6","VERTICES":7},"geometry":{"type":"Point","coordinates":[-123.3384115,48.433213]}},{"type":"Feature","properties":{"ZIP":"V8R4N2","VERTICES":7},"geometry":{"type":"Point","coordinates":[-123.332931,48.4274895]}},{"type":"Feature","properties":{"ZIP":"V8R1X1","VERTICES":7},"geometry":{"type":"Point","coordinates":[-123.3311775,48.431606]}},{"type":"Feature","properties":{"ZIP":"V8R3E2","VERTICES":7},"geometry":{"type":"Point","coordinates":[-123.32010149999999,48.4419085]}},{"type":"Feature","properties":{"ZIP":"V8R3Y4","VERTICES":7},"geometry":{"type":"Point","coordinates":[-123.3407545,48.4371675]}},{"type":"Feature","properties":{"ZIP":"V8R4J8","VERTICES":7},"geometry":{"type":"Point","coordinates":[-123.334919,48.443844999999996]}},{"type":"Feature","properties":{"ZIP":"V8R5J6","VERTICES":7},"geometry":{"type":"Point","coordinates":[-123.31152850000001,48.440293499999996]}},{"type":"Feature","properties":{"ZIP":"V8R2C6","VERTICES":7},"geometry":{"type":"Point","coordinates":[-123.3280005,48.435075499999996]}},{"type":"Feature","properties":{"ZIP":"V8R2V3","VERTICES":7},"geometry":{"type":"Point","coordinates":[-123.3204045,48.4393765]}},{"type":"Feature","properties":{"ZIP":"V8R4Z5","VERTICES":7},"geometry":{"type":"Point","coordinates":[-123.323778,48.4273955]}},{"type":"Feature","properties":{"ZIP":"V8R5L3","VERTICES":7},"geometry":{"type":"Point","coordinates":[-123.31941549999999,48.4349165]}},{"type":"Feature","properties":{"ZIP":"V8R6B3","VERTICES":7},"geometry":{"type":"Point","coordinates":[-123.309513,48.444387]}},{"type":"Feature","properties":{"ZIP":"V8R1V7","VERTICES":7},"geometry":{"type":"Point","coordinates":[-123.34035800000001,48.431264]}},{"type":"Feature","properties":{"ZIP":"V8R3C1","VERTICES":7},"geometry":{"type":"Point","coordinates":[-123.32028550000001,48.440991]}},{"type":"Feature","properties":{"ZIP":"V8R4B7","VERTICES":7},"geometry":{"type":"Point","coordinates":[-123.3383275,48.433514]}},{"type":"Feature","properties":{"ZIP":"V8R5N3","VERTICES":7},"geometry":{"type":"Point","coordinates":[-123.31706500000001,48.444122500000006]}},{"type":"Feature","properties":{"ZIP":"V8R5T6","VERTICES":7},"geometry":{"type":"Point","coordinates":[-123.3141265,48.4303655]}},{"type":"Feature","properties":{"ZIP":"V8R6E5","VERTICES":7},"geometry":{"type":"Point","coordinates":[-123.30311,48.448215000000005]}},{"type":"Feature","properties":{"ZIP":"V8R1X2","VERTICES":7},"geometry":{"type":"Point","coordinates":[-123.331103,48.4316585]}},{"type":"Feature","properties":{"ZIP":"V8R3Y5","VERTICES":7},"geometry":{"type":"Point","coordinates":[-123.3408625,48.438911000000004]}},{"type":"Feature","properties":{"ZIP":"V8R4E1","VERTICES":7},"geometry":{"type":"Point","coordinates":[-123.3369225,48.435925]}},{"type":"Feature","properties":{"ZIP":"V8R4K4","VERTICES":7},"geometry":{"type":"Point","coordinates":[-123.334294,48.4289495]}},{"type":"Feature","properties":{"ZIP":"V8R6A1","VERTICES":7},"geometry":{"type":"Point","coordinates":[-123.3043505,48.438936999999996]}},{"type":"Feature","properties":{"ZIP":"V8R1E4","VERTICES":6},"geometry":{"type":"Point","coordinates":[-123.3216175,48.426468]}},{"type":"Feature","properties":{"ZIP":"V8R1L8","VERTICES":6},"geometry":{"type":"Point","coordinates":[-123.32082600000001,48.428071]}},{"type":"Feature","properties":{"ZIP":"V8R2V4","VERTICES":6},"geometry":{"type":"Point","coordinates":[-123.3138975,48.438948499999995]}},{"type":"Feature","properties":{"ZIP":"V8R3N1","VERTICES":6},"geometry":{"type":"Point","coordinates":[-123.30668299999999,48.44218]}},{"type":"Feature","properties":{"ZIP":"V8R4T6","VERTICES":6},"geometry":{"type":"Point","coordinates":[-123.328378,48.4445505]}},{"type":"Feature","properties":{"ZIP":"V8R5S5","VERTICES":6},"geometry":{"type":"Point","coordinates":[-123.3151615,48.431631499999995]}},{"type":"Feature","properties":{"ZIP":"V8R5X3","VERTICES":6},"geometry":{"type":"Point","coordinates":[-123.30998149999999,48.429826]}},{"type":"Feature","properties":{"ZIP":"V8R6J6","VERTICES":6},"geometry":{"type":"Point","coordinates":[-123.30618100000001,48.431951999999995]}},{"type":"Feature","properties":{"ZIP":"V8R1V8","VERTICES":6},"geometry":{"type":"Point","coordinates":[-123.338532,48.4317255]}},{"type":"Feature","properties":{"ZIP":"V8R3H9","VERTICES":6},"geometry":{"type":"Point","coordinates":[-123.313842,48.439780999999996]}},{"type":"Feature","properties":{"ZIP":"V8R3X3","VERTICES":6},"geometry":{"type":"Point","coordinates":[-123.342209,48.4289045]}},{"type":"Feature","properties":{"ZIP":"V8R6E6","VERTICES":6},"geometry":{"type":"Point","coordinates":[-123.3035255,48.4500245]}},{"type":"Feature","properties":{"ZIP":"V8R1X3","VERTICES":6},"geometry":{"type":"Point","coordinates":[-123.34435049999999,48.432795999999996]}},{"type":"Feature","properties":{"ZIP":"V8R2Y7","VERTICES":6},"geometry":{"type":"Point","coordinates":[-123.33625699999999,48.4411475]}},{"type":"Feature","properties":{"ZIP":"V8R3L7","VERTICES":6},"geometry":{"type":"Point","coordinates":[-123.3118495,48.442346]}},{"type":"Feature","properties":{"ZIP":"V8R4P8","VERTICES":6},"geometry":{"type":"Point","coordinates":[-123.330334,48.42891]}},{"type":"Feature","properties":{"ZIP":"V8R5C3","VERTICES":6},"geometry":{"type":"Point","coordinates":[-123.3219805,48.441340499999995]}},{"type":"Feature","properties":{"ZIP":"V8R5J8","VERTICES":6},"geometry":{"type":"Point","coordinates":[-123.312461,48.4410405]}},{"type":"Feature","properties":{"ZIP":"V8R6N2","VERTICES":6},"geometry":{"type":"Point","coordinates":[-123.3051625,48.4310235]}},{"type":"Feature","properties":{"ZIP":"V8R2P7","VERTICES":6},"geometry":{"type":"Point","coordinates":[-123.32033799999999,48.4374915]}},{"type":"Feature","properties":{"ZIP":"V8R2V5","VERTICES":6},"geometry":{"type":"Point","coordinates":[-123.31442200000001,48.438964999999996]}},{"type":"Feature","properties":{"ZIP":"V8R3G8","VERTICES":6},"geometry":{"type":"Point","coordinates":[-123.325752,48.443729]}},{"type":"Feature","properties":{"ZIP":"V8R5X4","VERTICES":6},"geometry":{"type":"Point","coordinates":[-123.31016149999999,48.4294385]}},{"type":"Feature","properties":{"ZIP":"V8R1H2","VERTICES":6},"geometry":{"type":"Point","coordinates":[-123.3103335,48.426293]}},{"type":"Feature","properties":{"ZIP":"V8R2W9","VERTICES":6},"geometry":{"type":"Point","coordinates":[-123.329551,48.4425595]}},{"type":"Feature","properties":{"ZIP":"V8R3J1","VERTICES":6},"geometry":{"type":"Point","coordinates":[-123.313905,48.439845000000005]}},{"type":"Feature","properties":{"ZIP":"V8R3X4","VERTICES":6},"geometry":{"type":"Point","coordinates":[-123.3421975,48.429957]}},{"type":"Feature","properties":{"ZIP":"V8R4N5","VERTICES":6},"geometry":{"type":"Point","coordinates":[-123.33222549999999,48.429101]}},{"type":"Feature","properties":{"ZIP":"V8R5T8","VERTICES":6},"geometry":{"type":"Point","coordinates":[-123.312442,48.432731000000004]}},{"type":"Feature","properties":{"ZIP":"V8R1R4","VERTICES":6},"geometry":{"type":"Point","coordinates":[-123.3157425,48.429695]}},{"type":"Feature","properties":{"ZIP":"V8R1X4","VERTICES":6},"geometry":{"type":"Point","coordinates":[-123.344365,48.432795999999996]}},{"type":"Feature","properties":{"ZIP":"V8R2N4","VERTICES":6},"geometry":{"type":"Point","coordinates":[-123.3150395,48.4368185]}},{"type":"Feature","properties":{"ZIP":"V8R3E5","VERTICES":6},"geometry":{"type":"Point","coordinates":[-123.313153,48.441599]}},{"type":"Feature","properties":{"ZIP":"V8R3L8","VERTICES":6},"geometry":{"type":"Point","coordinates":[-123.308345,48.440803]}},{"type":"Feature","properties":{"ZIP":"V8R3Y7","VERTICES":6},"geometry":{"type":"Point","coordinates":[-123.33872149999999,48.428093000000004]}},{"type":"Feature","properties":{"ZIP":"V8R4E3","VERTICES":6},"geometry":{"type":"Point","coordinates":[-123.337156,48.437229]}},{"type":"Feature","properties":{"ZIP":"V8R4K6","VERTICES":6},"geometry":{"type":"Point","coordinates":[-123.3343955,48.4316695]}},{"type":"Feature","properties":{"ZIP":"V8R4R8","VERTICES":6},"geometry":{"type":"Point","coordinates":[-123.3293065,48.433429000000004]}},{"type":"Feature","properties":{"ZIP":"V8R4X6","VERTICES":6},"geometry":{"type":"Point","coordinates":[-123.324894,48.4370825]}},{"type":"Feature","properties":{"ZIP":"V8R5W3","VERTICES":6},"geometry":{"type":"Point","coordinates":[-123.313013,48.427080000000004]}},{"type":"Feature","properties":{"ZIP":"V8R1Y9","VERTICES":6},"geometry":{"type":"Point","coordinates":[-123.3324645,48.4330695]}},{"type":"Feature","properties":{"ZIP":"V8R2K8","VERTICES":6},"geometry":{"type":"Point","coordinates":[-123.3345565,48.4360715]}},{"type":"Feature","properties":{"ZIP":"V8R2V6","VERTICES":6},"geometry":{"type":"Point","coordinates":[-123.3104665,48.438910500000006]}},{"type":"Feature","properties":{"ZIP":"V8R3N3","VERTICES":6},"geometry":{"type":"Point","coordinates":[-123.3059645,48.4429915]}},{"type":"Feature","properties":{"ZIP":"V8R3W1","VERTICES":6},"geometry":{"type":"Point","coordinates":[-123.34205650000001,48.4351355]}},{"type":"Feature","properties":{"ZIP":"V8R4M2","VERTICES":6},"geometry":{"type":"Point","coordinates":[-123.3335455,48.43875]}},{"type":"Feature","properties":{"ZIP":"V8R5X5","VERTICES":6},"geometry":{"type":"Point","coordinates":[-123.30905200000001,48.4314945]}},{"type":"Feature","properties":{"ZIP":"V8R6B8","VERTICES":6},"geometry":{"type":"Point","coordinates":[-123.3060375,48.448679999999996]}},{"type":"Feature","properties":{"ZIP":"V8R1P2","VERTICES":6},"geometry":{"type":"Point","coordinates":[-123.313257,48.428681499999996]}},{"type":"Feature","properties":{"ZIP":"V8R1W1","VERTICES":6},"geometry":{"type":"Point","coordinates":[-123.336918,48.4310805]}},{"type":"Feature","properties":{"ZIP":"V8R2S1","VERTICES":6},"geometry":{"type":"Point","coordinates":[-123.317172,48.4383055]}},{"type":"Feature","properties":{"ZIP":"V8R4C1","VERTICES":6},"geometry":{"type":"Point","coordinates":[-123.33871149999999,48.437098500000005]}},{"type":"Feature","properties":{"ZIP":"V8R4W4","VERTICES":6},"geometry":{"type":"Point","coordinates":[-123.3262025,48.428109500000005]}},{"type":"Feature","properties":{"ZIP":"V8R5B3","VERTICES":6},"geometry":{"type":"Point","coordinates":[-123.322101,48.438826500000005]}},{"type":"Feature","properties":{"ZIP":"V8R5H6","VERTICES":6},"geometry":{"type":"Point","coordinates":[-123.3157415,48.436732]}},{"type":"Feature","properties":{"ZIP":"V8R6E8","VERTICES":6},"geometry":{"type":"Point","coordinates":[-123.30340050000001,48.4508355]}},{"type":"Feature","properties":{"ZIP":"V8R6L6","VERTICES":6},"geometry":{"type":"Point","coordinates":[-123.293933,48.444674000000006]}},{"type":"Feature","properties":{"ZIP":"V8R2B8","VERTICES":6},"geometry":{"type":"Point","coordinates":[-123.33403100000001,48.433939499999994]}},{"type":"Feature","properties":{"ZIP":"V8R2J4","VERTICES":6},"geometry":{"type":"Point","coordinates":[-123.3430755,48.436146]}},{"type":"Feature","properties":{"ZIP":"V8R2N5","VERTICES":6},"geometry":{"type":"Point","coordinates":[-123.31361799999999,48.437281]}},{"type":"Feature","properties":{"ZIP":"V8R2T3","VERTICES":6},"geometry":{"type":"Point","coordinates":[-123.30417299999999,48.436195]}},{"type":"Feature","properties":{"ZIP":"V8R2Y9","VERTICES":6},"geometry":{"type":"Point","coordinates":[-123.338042,48.441936]}},{"type":"Feature","properties":{"ZIP":"V8R3L9","VERTICES":6},"geometry":{"type":"Point","coordinates":[-123.308875,48.441283]}},{"type":"Feature","properties":{"ZIP":"V8R3T4","VERTICES":6},"geometry":{"type":"Point","coordinates":[-123.34393750000001,48.432017]}},{"type":"Feature","properties":{"ZIP":"V8R4S3","VERTICES":6},"geometry":{"type":"Point","coordinates":[-123.329089,48.434423499999994]}},{"type":"Feature","properties":{"ZIP":"V8R4X7","VERTICES":6},"geometry":{"type":"Point","coordinates":[-123.324838,48.4385175]}},{"type":"Feature","properties":{"ZIP":"V8R5C5","VERTICES":6},"geometry":{"type":"Point","coordinates":[-123.321958,48.441809000000006]}},{"type":"Feature","properties":{"ZIP":"V8R5P9","VERTICES":6},"geometry":{"type":"Point","coordinates":[-123.3160705,48.437292]}},{"type":"Feature","properties":{"ZIP":"V8R6A4","VERTICES":6},"geometry":{"type":"Point","coordinates":[-123.305455,48.435602]}},{"type":"Feature","properties":{"ZIP":"V8R6P2","VERTICES":6},"geometry":{"type":"Point","coordinates":[-123.3031765,48.443651]}},{"type":"Feature","properties":{"ZIP":"V8R1Z1","VERTICES":6},"geometry":{"type":"Point","coordinates":[-123.332467,48.4331665]}},{"type":"Feature","properties":{"ZIP":"V8R2P9","VERTICES":6},"geometry":{"type":"Point","coordinates":[-123.317808,48.437439]}},{"type":"Feature","properties":{"ZIP":"V8R2V7","VERTICES":6},"geometry":{"type":"Point","coordinates":[-123.310341,48.438909]}},{"type":"Feature","properties":{"ZIP":"V8R3W2","VERTICES":6},"geometry":{"type":"Point","coordinates":[-123.3422865,48.436992]}},{"type":"Feature","properties":{"ZIP":"V8R4M3","VERTICES":6},"geometry":{"type":"Point","coordinates":[-123.33358050000001,48.4383865]}},{"type":"Feature","properties":{"ZIP":"V8R1P4","VERTICES":6},"geometry":{"type":"Point","coordinates":[-123.3089,48.4285025]}},{"type":"Feature","properties":{"ZIP":"V8R2A4","VERTICES":6},"geometry":{"type":"Point","coordinates":[-123.344351,48.434509500000004]}},{"type":"Feature","properties":{"ZIP":"V8R2X2","VERTICES":6},"geometry":{"type":"Point","coordinates":[-123.338262,48.440049]}},{"type":"Feature","properties":{"ZIP":"V8R3C5","VERTICES":6},"geometry":{"type":"Point","coordinates":[-123.3138205,48.4408405]}},{"type":"Feature","properties":{"ZIP":"V8R3R6","VERTICES":6},"geometry":{"type":"Point","coordinates":[-123.298384,48.445959]}},{"type":"Feature","properties":{"ZIP":"V8R5H9","VERTICES":6},"geometry":{"type":"Point","coordinates":[-123.313972,48.438152]}},{"type":"Feature","properties":{"ZIP":"V8R5N7","VERTICES":6},"geometry":{"type":"Point","coordinates":[-123.3160615,48.4431615]}},{"type":"Feature","properties":{"ZIP":"V8R6L8","VERTICES":6},"geometry":{"type":"Point","coordinates":[-123.29453699999999,48.447348500000004]}},{"type":"Feature","properties":{"ZIP":"V8R1K3","VERTICES":6},"geometry":{"type":"Point","coordinates":[-123.3246445,48.431960000000004]}},{"type":"Feature","properties":{"ZIP":"V8R1R7","VERTICES":6},"geometry":{"type":"Point","coordinates":[-123.3071415,48.426402499999995]}},{"type":"Feature","properties":{"ZIP":"V8R3E8","VERTICES":6},"geometry":{"type":"Point","coordinates":[-123.3301035,48.44333]}},{"type":"Feature","properties":{"ZIP":"V8R3M1","VERTICES":6},"geometry":{"type":"Point","coordinates":[-123.310152,48.4424055]}},{"type":"Feature","properties":{"ZIP":"V8R4K8","VERTICES":6},"geometry":{"type":"Point","coordinates":[-123.334456,48.433285]}},{"type":"Feature","properties":{"ZIP":"V8R5R1","VERTICES":6},"geometry":{"type":"Point","coordinates":[-123.3160705,48.437292]}},{"type":"Feature","properties":{"ZIP":"V8R5W5","VERTICES":6},"geometry":{"type":"Point","coordinates":[-123.31115,48.439631000000006]}},{"type":"Feature","properties":{"ZIP":"V8R1T3","VERTICES":6},"geometry":{"type":"Point","coordinates":[-123.32177949999999,48.4303355]}},{"type":"Feature","properties":{"ZIP":"V8R3B3","VERTICES":6},"geometry":{"type":"Point","coordinates":[-123.320345,48.4402275]}},{"type":"Feature","properties":{"ZIP":"V8R4A7","VERTICES":6},"geometry":{"type":"Point","coordinates":[-123.339549,48.437188500000005]}},{"type":"Feature","properties":{"ZIP":"V8R4H1","VERTICES":6},"geometry":{"type":"Point","coordinates":[-123.335861,48.4408985]}},{"type":"Feature","properties":{"ZIP":"V8R5G2","VERTICES":6},"geometry":{"type":"Point","coordinates":[-123.3195535,48.445069000000004]}},{"type":"Feature","properties":{"ZIP":"V8R5M5","VERTICES":6},"geometry":{"type":"Point","coordinates":[-123.3180725,48.444772]}},{"type":"Feature","properties":{"ZIP":"V8R2A5","VERTICES":6},"geometry":{"type":"Point","coordinates":[-123.34367900000001,48.434475]}},{"type":"Feature","properties":{"ZIP":"V8R2M4","VERTICES":6},"geometry":{"type":"Point","coordinates":[-123.323069,48.436747]}},{"type":"Feature","properties":{"ZIP":"V8R3C6","VERTICES":6},"geometry":{"type":"Point","coordinates":[-123.325466,48.442066]}},{"type":"Feature","properties":{"ZIP":"V8R3K8","VERTICES":6},"geometry":{"type":"Point","coordinates":[-123.31146749999999,48.440723000000006]}},{"type":"Feature","properties":{"ZIP":"V8R3R9","VERTICES":6},"geometry":{"type":"Point","coordinates":[-123.3101185,48.4464485]}},{"type":"Feature","properties":{"ZIP":"V8R4N8","VERTICES":6},"geometry":{"type":"Point","coordinates":[-123.33188,48.430064]}},{"type":"Feature","properties":{"ZIP":"V8R6L9","VERTICES":6},"geometry":{"type":"Point","coordinates":[-123.2946035,48.4468215]}},{"type":"Feature","properties":{"ZIP":"V8R1C5","VERTICES":6},"geometry":{"type":"Point","coordinates":[-123.3267245,48.4264825]}},{"type":"Feature","properties":{"ZIP":"V8R1R8","VERTICES":6},"geometry":{"type":"Point","coordinates":[-123.3065105,48.42984]}},{"type":"Feature","properties":{"ZIP":"V8R1X7","VERTICES":6},"geometry":{"type":"Point","coordinates":[-123.3390575,48.432679]}},{"type":"Feature","properties":{"ZIP":"V8R2C1","VERTICES":6},"geometry":{"type":"Point","coordinates":[-123.3310105,48.433125000000004]}},{"type":"Feature","properties":{"ZIP":"V8R2J6","VERTICES":6},"geometry":{"type":"Point","coordinates":[-123.341267,48.436174]}},{"type":"Feature","properties":{"ZIP":"V8R2T7","VERTICES":6},"geometry":{"type":"Point","coordinates":[-123.32607100000001,48.439502000000005]}},{"type":"Feature","properties":{"ZIP":"V8R3M2","VERTICES":6},"geometry":{"type":"Point","coordinates":[-123.3106265,48.442805500000006]}},{"type":"Feature","properties":{"ZIP":"V8R3Z3","VERTICES":6},"geometry":{"type":"Point","coordinates":[-123.339013,48.429027500000004]}},{"type":"Feature","properties":{"ZIP":"V8R5R2","VERTICES":6},"geometry":{"type":"Point","coordinates":[-123.31565599999999,48.438241000000005]}},{"type":"Feature","properties":{"ZIP":"V8R5W6","VERTICES":6},"geometry":{"type":"Point","coordinates":[-123.3111555,48.43054]}},{"type":"Feature","properties":{"ZIP":"V8R6H8","VERTICES":6},"geometry":{"type":"Point","coordinates":[-123.30568349999999,48.426550000000006]}},{"type":"Feature","properties":{"ZIP":"V8R1Z4","VERTICES":6},"geometry":{"type":"Point","coordinates":[-123.313952,48.4317525]}},{"type":"Feature","properties":{"ZIP":"V8R2W1","VERTICES":6},"geometry":{"type":"Point","coordinates":[-123.3039385,48.433166]}},{"type":"Feature","properties":{"ZIP":"V8R3H3","VERTICES":6},"geometry":{"type":"Point","coordinates":[-123.3255025,48.4444845]}},{"type":"Feature","properties":{"ZIP":"V8R4M5","VERTICES":6},"geometry":{"type":"Point","coordinates":[-123.3333575,48.441164]}},{"type":"Feature","properties":{"ZIP":"V8R5A2","VERTICES":6},"geometry":{"type":"Point","coordinates":[-123.3227075,48.4277985]}},{"type":"Feature","properties":{"ZIP":"V8R5G3","VERTICES":6},"geometry":{"type":"Point","coordinates":[-123.3199615,48.444473]}},{"type":"Feature","properties":{"ZIP":"V8R2M5","VERTICES":6},"geometry":{"type":"Point","coordinates":[-123.32084599999999,48.4366835]}},{"type":"Feature","properties":{"ZIP":"V8R3C7","VERTICES":6},"geometry":{"type":"Point","coordinates":[-123.325603,48.4420705]}},{"type":"Feature","properties":{"ZIP":"V8R4C4","VERTICES":6},"geometry":{"type":"Point","coordinates":[-123.33848549999999,48.4388845]}},{"type":"Feature","properties":{"ZIP":"V8R4W7","VERTICES":6},"geometry":{"type":"Point","coordinates":[-123.3255375,48.4292425]}},{"type":"Feature","properties":{"ZIP":"V8R5J2","VERTICES":6},"geometry":{"type":"Point","coordinates":[-123.3144365,48.43841]}},{"type":"Feature","properties":{"ZIP":"V8R1G3","VERTICES":6},"geometry":{"type":"Point","coordinates":[-123.31628599999999,48.426497499999996]}},{"type":"Feature","properties":{"ZIP":"V8R3P2","VERTICES":6},"geometry":{"type":"Point","coordinates":[-123.306344,48.445227]}},{"type":"Feature","properties":{"ZIP":"V8R4H3","VERTICES":6},"geometry":{"type":"Point","coordinates":[-123.3358415,48.441396999999995]}},{"type":"Feature","properties":{"ZIP":"V8R5A3","VERTICES":6},"geometry":{"type":"Point","coordinates":[-123.322642,48.4286225]}},{"type":"Feature","properties":{"ZIP":"V8R5G4","VERTICES":6},"geometry":{"type":"Point","coordinates":[-123.321143,48.4323015]}},{"type":"Feature","properties":{"ZIP":"V8R5M7","VERTICES":6},"geometry":{"type":"Point","coordinates":[-123.3183855,48.436655]}},{"type":"Feature","properties":{"ZIP":"V8R6C9","VERTICES":6},"geometry":{"type":"Point","coordinates":[-123.304827,48.44425]}},{"type":"Feature","properties":{"ZIP":"V8R6K4","VERTICES":6},"geometry":{"type":"Point","coordinates":[-123.3017475,48.437025000000006]}},{"type":"Feature","properties":{"ZIP":"V8R4P2","VERTICES":6},"geometry":{"type":"Point","coordinates":[-123.329954,48.4415415]}},{"type":"Feature","properties":{"ZIP":"V8R5V5","VERTICES":6},"geometry":{"type":"Point","coordinates":[-123.31368599999999,48.4290125]}},{"type":"Feature","properties":{"ZIP":"V8R6G4","VERTICES":6},"geometry":{"type":"Point","coordinates":[-123.3003765,48.4447725]}},{"type":"Feature","properties":{"ZIP":"V8R6M3","VERTICES":6},"geometry":{"type":"Point","coordinates":[-123.297418,48.450393]}},{"type":"Feature","properties":{"ZIP":"V8R2P2","VERTICES":6},"geometry":{"type":"Point","coordinates":[-123.32657950000001,48.437797]}},{"type":"Feature","properties":{"ZIP":"V8R2Z7","VERTICES":6},"geometry":{"type":"Point","coordinates":[-123.3386565,48.442503]}},{"type":"Feature","properties":{"ZIP":"V8R3G3","VERTICES":6},"geometry":{"type":"Point","coordinates":[-123.326069,48.4427955]}},{"type":"Feature","properties":{"ZIP":"V8R4T1","VERTICES":6},"geometry":{"type":"Point","coordinates":[-123.32834500000001,48.4384065]}},{"type":"Feature","properties":{"ZIP":"V8R5K8","VERTICES":6},"geometry":{"type":"Point","coordinates":[-123.3006475,48.4570315]}},{"type":"Feature","properties":{"ZIP":"V8R1Z6","VERTICES":6},"geometry":{"type":"Point","coordinates":[-123.3127155,48.4313905]}},{"type":"Feature","properties":{"ZIP":"V8R3H5","VERTICES":6},"geometry":{"type":"Point","coordinates":[-123.323099,48.4443615]}},{"type":"Feature","properties":{"ZIP":"V8R3P3","VERTICES":6},"geometry":{"type":"Point","coordinates":[-123.3064445,48.445199]}},{"type":"Feature","properties":{"ZIP":"V8R3W7","VERTICES":6},"geometry":{"type":"Point","coordinates":[-123.342289,48.427407]}},{"type":"Feature","properties":{"ZIP":"V8R4M7","VERTICES":6},"geometry":{"type":"Point","coordinates":[-123.33324999999999,48.4426955]}},{"type":"Feature","properties":{"ZIP":"V8R5G6","VERTICES":6},"geometry":{"type":"Point","coordinates":[-123.32007,48.432502]}},{"type":"Feature","properties":{"ZIP":"V8R5M8","VERTICES":6},"geometry":{"type":"Point","coordinates":[-123.3175795,48.437162]}},{"type":"Feature","properties":{"ZIP":"V8R5T3","VERTICES":6},"geometry":{"type":"Point","coordinates":[-123.3140805,48.4353635]}},{"type":"Feature","properties":{"ZIP":"V8R6K5","VERTICES":6},"geometry":{"type":"Point","coordinates":[-123.29895300000001,48.438184]}},{"type":"Feature","properties":{"ZIP":"V8R1J2","VERTICES":6},"geometry":{"type":"Point","coordinates":[-123.33245,48.428658]}},{"type":"Feature","properties":{"ZIP":"V8R1P8","VERTICES":6},"geometry":{"type":"Point","coordinates":[-123.3406205,48.4295645]}},{"type":"Feature","properties":{"ZIP":"V8R2A9","VERTICES":6},"geometry":{"type":"Point","coordinates":[-123.3389165,48.4342085]}},{"type":"Feature","properties":{"ZIP":"V8R2M7","VERTICES":6},"geometry":{"type":"Point","coordinates":[-123.3146115,48.4363915]}},{"type":"Feature","properties":{"ZIP":"V8R2Y2","VERTICES":6},"geometry":{"type":"Point","coordinates":[-123.340848,48.4410135]}},{"type":"Feature","properties":{"ZIP":"V8R3C9","VERTICES":6},"geometry":{"type":"Point","coordinates":[-123.323476,48.4420015]}},{"type":"Feature","properties":{"ZIP":"V8R3L3","VERTICES":6},"geometry":{"type":"Point","coordinates":[-123.3088095,48.438319500000006]}},{"type":"Feature","properties":{"ZIP":"V8R3S4","VERTICES":6},"geometry":{"type":"Point","coordinates":[-123.30520849999999,48.446942500000006]}},{"type":"Feature","properties":{"ZIP":"V8R4P3","VERTICES":6},"geometry":{"type":"Point","coordinates":[-123.328569,48.4409685]}},{"type":"Feature","properties":{"ZIP":"V8R5B8","VERTICES":6},"geometry":{"type":"Point","coordinates":[-123.3219685,48.440152499999996]}},{"type":"Feature","properties":{"ZIP":"V8R5Z7","VERTICES":6},"geometry":{"type":"Point","coordinates":[-123.30655200000001,48.4359445]}},{"type":"Feature","properties":{"ZIP":"V8R1Y3","VERTICES":6},"geometry":{"type":"Point","coordinates":[-123.331323,48.4323385]}},{"type":"Feature","properties":{"ZIP":"V8R3M5","VERTICES":6},"geometry":{"type":"Point","coordinates":[-123.30947549999999,48.4432925]}},{"type":"Feature","properties":{"ZIP":"V8R4L6","VERTICES":6},"geometry":{"type":"Point","coordinates":[-123.33375050000001,48.434815]}},{"type":"Feature","properties":{"ZIP":"V8R6J3","VERTICES":6},"geometry":{"type":"Point","coordinates":[-123.30728049999999,48.430119000000005]}},{"type":"Feature","properties":{"ZIP":"V8R1G5","VERTICES":6},"geometry":{"type":"Point","coordinates":[-123.314806,48.426480999999995]}},{"type":"Feature","properties":{"ZIP":"V8R1N4","VERTICES":6},"geometry":{"type":"Point","coordinates":[-123.324409,48.428394]}},{"type":"Feature","properties":{"ZIP":"V8R2G1","VERTICES":6},"geometry":{"type":"Point","coordinates":[-123.309301,48.4327845]}},{"type":"Feature","properties":{"ZIP":"V8R2L5","VERTICES":6},"geometry":{"type":"Point","coordinates":[-123.323203,48.435731000000004]}},{"type":"Feature","properties":{"ZIP":"V8R2W4","VERTICES":6},"geometry":{"type":"Point","coordinates":[-123.3012535,48.437623]}},{"type":"Feature","properties":{"ZIP":"V8R3H6","VERTICES":6},"geometry":{"type":"Point","coordinates":[-123.324442,48.445358]}},{"type":"Feature","properties":{"ZIP":"V8R3W8","VERTICES":6},"geometry":{"type":"Point","coordinates":[-123.342277,48.428242499999996]}},{"type":"Feature","properties":{"ZIP":"V8R5G7","VERTICES":6},"geometry":{"type":"Point","coordinates":[-123.318874,48.433037999999996]}},{"type":"Feature","properties":{"ZIP":"V8R5M9","VERTICES":6},"geometry":{"type":"Point","coordinates":[-123.31722350000001,48.443301500000004]}},{"type":"Feature","properties":{"ZIP":"V8R1P9","VERTICES":6},"geometry":{"type":"Point","coordinates":[-123.338642,48.429395]}},{"type":"Feature","properties":{"ZIP":"V8R2H6","VERTICES":6},"geometry":{"type":"Point","coordinates":[-123.3117325,48.43481]}},{"type":"Feature","properties":{"ZIP":"V8R2M8","VERTICES":6},"geometry":{"type":"Point","coordinates":[-123.31146849999999,48.4365605]}},{"type":"Feature","properties":{"ZIP":"V8R2Y4","VERTICES":6},"geometry":{"type":"Point","coordinates":[-123.3425925,48.441717]}},{"type":"Feature","properties":{"ZIP":"V8R4J7","VERTICES":6},"geometry":{"type":"Point","coordinates":[-123.334763,48.442896]}},{"type":"Feature","properties":{"ZIP":"V8R4P4","VERTICES":6},"geometry":{"type":"Point","coordinates":[-123.32836900000001,48.44178]}},{"type":"Feature","properties":{"ZIP":"V8R5B9","VERTICES":6},"geometry":{"type":"Point","coordinates":[-123.322025,48.440661]}},{"type":"Feature","properties":{"ZIP":"V8R5J5","VERTICES":6},"geometry":{"type":"Point","coordinates":[-123.3133425,48.4398165]}},{"type":"Feature","properties":{"ZIP":"V8R2C5","VERTICES":6},"geometry":{"type":"Point","coordinates":[-123.330843,48.435120999999995]}},{"type":"Feature","properties":{"ZIP":"V8R3M6","VERTICES":6},"geometry":{"type":"Point","coordinates":[-123.30947549999999,48.4432925]}},{"type":"Feature","properties":{"ZIP":"V8R3Z9","VERTICES":6},"geometry":{"type":"Point","coordinates":[-123.3393545,48.4323895]}},{"type":"Feature","properties":{"ZIP":"V8R4T3","VERTICES":6},"geometry":{"type":"Point","coordinates":[-123.3284855,48.443522]}},{"type":"Feature","properties":{"ZIP":"V8R5L2","VERTICES":6},"geometry":{"type":"Point","coordinates":[-123.31951000000001,48.4334725]}},{"type":"Feature","properties":{"ZIP":"V8R5X1","VERTICES":6},"geometry":{"type":"Point","coordinates":[-123.311025,48.4277705]}},{"type":"Feature","properties":{"ZIP":"V8R6B2","VERTICES":6},"geometry":{"type":"Point","coordinates":[-123.3107285,48.443630999999996]}},{"type":"Feature","properties":{"ZIP":"V8R1G6","VERTICES":6},"geometry":{"type":"Point","coordinates":[-123.3135655,48.4263765]}},{"type":"Feature","properties":{"ZIP":"V8R1Z8","VERTICES":6},"geometry":{"type":"Point","coordinates":[-123.31151,48.4310475]}},{"type":"Feature","properties":{"ZIP":"V8R2G2","VERTICES":6},"geometry":{"type":"Point","coordinates":[-123.307529,48.432227499999996]}},{"type":"Feature","properties":{"ZIP":"V8R3X1","VERTICES":6},"geometry":{"type":"Point","coordinates":[-123.34224499999999,48.428081500000005]}},{"type":"Feature","properties":{"ZIP":"V8R5G8","VERTICES":6},"geometry":{"type":"Point","coordinates":[-123.3159895,48.433108000000004]}},{"type":"Feature","properties":{"ZIP":"V8R5T5","VERTICES":6},"geometry":{"type":"Point","coordinates":[-123.3149385,48.428404]}},{"type":"Feature","properties":{"ZIP":"V8R6K8","VERTICES":6},"geometry":{"type":"Point","coordinates":[-123.29655199999999,48.439228]}},{"type":"Feature","properties":{"ZIP":"V8R1A9","VERTICES":6},"geometry":{"type":"Point","coordinates":[-123.3365165,48.426520999999994]}},{"type":"Feature","properties":{"ZIP":"V8R2B3","VERTICES":6},"geometry":{"type":"Point","coordinates":[-123.3377485,48.434141499999996]}},{"type":"Feature","properties":{"ZIP":"V8R2S8","VERTICES":6},"geometry":{"type":"Point","coordinates":[-123.306517,48.4369715]}},{"type":"Feature","properties":{"ZIP":"V8R5C1","VERTICES":6},"geometry":{"type":"Point","coordinates":[-123.32200549999999,48.440822999999995]}},{"type":"Feature","properties":{"ZIP":"V8R5P4","VERTICES":6},"geometry":{"type":"Point","coordinates":[-123.3162245,48.433949]}},{"type":"Feature","properties":{"ZIP":"V8R5V9","VERTICES":6},"geometry":{"type":"Point","coordinates":[-123.311375,48.43215]}},{"type":"Feature","properties":{"ZIP":"V8R6G7","VERTICES":6},"geometry":{"type":"Point","coordinates":[-123.29929899999999,48.449101]}},{"type":"Feature","properties":{"ZIP":"V8R6M8","VERTICES":6},"geometry":{"type":"Point","coordinates":[-123.3059485,48.4310485]}},{"type":"Feature","properties":{"ZIP":"V8R1L7","VERTICES":6},"geometry":{"type":"Point","coordinates":[-123.344407,48.427724999999995]}},{"type":"Feature","properties":{"ZIP":"V8R1Y5","VERTICES":6},"geometry":{"type":"Point","coordinates":[-123.34439,48.433588]}},{"type":"Feature","properties":{"ZIP":"V8R2P5","VERTICES":6},"geometry":{"type":"Point","coordinates":[-123.323927,48.4377345]}},{"type":"Feature","properties":{"ZIP":"V8R3A6","VERTICES":6},"geometry":{"type":"Point","coordinates":[-123.331962,48.4426905]}},{"type":"Feature","properties":{"ZIP":"V8R3M9","VERTICES":6},"geometry":{"type":"Point","coordinates":[-123.306821,48.4423915]}},{"type":"Feature","properties":{"ZIP":"V8R3V3","VERTICES":6},"geometry":{"type":"Point","coordinates":[-123.343027,48.432075999999995]}},{"type":"Feature","properties":{"ZIP":"V8R4T5","VERTICES":6},"geometry":{"type":"Point","coordinates":[-123.3284375,48.443981]}},{"type":"Feature","properties":{"ZIP":"V8R5X2","VERTICES":6},"geometry":{"type":"Point","coordinates":[-123.3110305,48.42718]}},{"type":"Feature","properties":{"ZIP":"V8R6J5","VERTICES":6},"geometry":{"type":"Point","coordinates":[-123.30678750000001,48.4309905]}},{"type":"Feature","properties":{"ZIP":"V8R1N7","VERTICES":6},"geometry":{"type":"Point","coordinates":[-123.32116199999999,48.428883]}},{"type":"Feature","properties":{"ZIP":"V8R2L8","VERTICES":6},"geometry":{"type":"Point","coordinates":[-123.31822650000001,48.4357555]}},{"type":"Feature","properties":{"ZIP":"V8R2W6","VERTICES":6},"geometry":{"type":"Point","coordinates":[-123.3372715,48.4424945]}},{"type":"Feature","properties":{"ZIP":"V8R3H8","VERTICES":6},"geometry":{"type":"Point","coordinates":[-123.3230305,48.445274999999995]}},{"type":"Feature","properties":{"ZIP":"V8R3P8","VERTICES":6},"geometry":{"type":"Point","coordinates":[-123.2999085,48.444082]}},{"type":"Feature","properties":{"ZIP":"V8R5Y7","VERTICES":6},"geometry":{"type":"Point","coordinates":[-123.306468,48.4400755]}},{"type":"Feature","properties":{"ZIP":"V8R2B4","VERTICES":6},"geometry":{"type":"Point","coordinates":[-123.3335615,48.433908]}},{"type":"Feature","properties":{"ZIP":"V8R2S9","VERTICES":6},"geometry":{"type":"Point","coordinates":[-123.3063745,48.436921999999996]}},{"type":"Feature","properties":{"ZIP":"V8R5J7","VERTICES":6},"geometry":{"type":"Point","coordinates":[-123.31281050000001,48.440501]}},{"type":"Feature","properties":{"ZIP":"V8R5P6","VERTICES":6},"geometry":{"type":"Point","coordinates":[-123.316378,48.4345515]}},{"type":"Feature","properties":{"ZIP":"V8R6N1","VERTICES":6},"geometry":{"type":"Point","coordinates":[-123.3050685,48.4313255]}},{"type":"Feature","properties":{"ZIP":"V8R2C7","VERTICES":5},"geometry":{"type":"Point","coordinates":[-123.3075905,48.4311745]}},{"type":"Feature","properties":{"ZIP":"V8R2K6","VERTICES":5},"geometry":{"type":"Point","coordinates":[-123.3355755,48.4361215]}},{"type":"Feature","properties":{"ZIP":"V8R3V8","VERTICES":5},"geometry":{"type":"Point","coordinates":[-123.342863,48.433986000000004]}},{"type":"Feature","properties":{"ZIP":"V8R6B4","VERTICES":5},"geometry":{"type":"Point","coordinates":[-123.3094475,48.4444825]}},{"type":"Feature","properties":{"ZIP":"V8R2A1","VERTICES":5},"geometry":{"type":"Point","coordinates":[-123.3085375,48.4302005]}},{"type":"Feature","properties":{"ZIP":"V8R3P9","VERTICES":5},"geometry":{"type":"Point","coordinates":[-123.2994035,48.444057]}},{"type":"Feature","properties":{"ZIP":"V8R4N4","VERTICES":5},"geometry":{"type":"Point","coordinates":[-123.33156650000001,48.427398999999994]}},{"type":"Feature","properties":{"ZIP":"V8R5H2","VERTICES":5},"geometry":{"type":"Point","coordinates":[-123.3042235,48.431694]}},{"type":"Feature","properties":{"ZIP":"V8R6L1","VERTICES":5},"geometry":{"type":"Point","coordinates":[-123.29424599999999,48.439884000000006]}},{"type":"Feature","properties":{"ZIP":"V8R1B4","VERTICES":5},"geometry":{"type":"Point","coordinates":[-123.3334555,48.4265165]}},{"type":"Feature","properties":{"ZIP":"V8R2B6","VERTICES":5},"geometry":{"type":"Point","coordinates":[-123.33591,48.434043]}},{"type":"Feature","properties":{"ZIP":"V8R2N3","VERTICES":5},"geometry":{"type":"Point","coordinates":[-123.31574950000001,48.436726]}},{"type":"Feature","properties":{"ZIP":"V8R4K5","VERTICES":5},"geometry":{"type":"Point","coordinates":[-123.334333,48.4313215]}},{"type":"Feature","properties":{"ZIP":"V8R4X5","VERTICES":5},"geometry":{"type":"Point","coordinates":[-123.3249405,48.4362595]}},{"type":"Feature","properties":{"ZIP":"V8R6H4","VERTICES":5},"geometry":{"type":"Point","coordinates":[-123.298325,48.44707699999999]}},{"type":"Feature","properties":{"ZIP":"V8R1S7","VERTICES":5},"geometry":{"type":"Point","coordinates":[-123.33496199999999,48.430144]}},{"type":"Feature","properties":{"ZIP":"V8R2C9","VERTICES":5},"geometry":{"type":"Point","coordinates":[-123.3165925,48.434200000000004]}},{"type":"Feature","properties":{"ZIP":"V8R3N2","VERTICES":5},"geometry":{"type":"Point","coordinates":[-123.305775,48.442837]}},{"type":"Feature","properties":{"ZIP":"V8R4M1","VERTICES":5},"geometry":{"type":"Point","coordinates":[-123.3336625,48.4374]}},{"type":"Feature","properties":{"ZIP":"V8R5L8","VERTICES":5},"geometry":{"type":"Point","coordinates":[-123.3191185,48.428448]}},{"type":"Feature","properties":{"ZIP":"V8R6B5","VERTICES":5},"geometry":{"type":"Point","coordinates":[-123.30788849999999,48.445811500000005]}},{"type":"Feature","properties":{"ZIP":"V8R6J8","VERTICES":5},"geometry":{"type":"Point","coordinates":[-123.30566999999999,48.432804000000004]}},{"type":"Feature","properties":{"ZIP":"V8R1P1","VERTICES":5},"geometry":{"type":"Point","coordinates":[-123.3133455,48.428678500000004]}},{"type":"Feature","properties":{"ZIP":"V8R1V9","VERTICES":5},"geometry":{"type":"Point","coordinates":[-123.337455,48.431197]}},{"type":"Feature","properties":{"ZIP":"V8R2A2","VERTICES":5},"geometry":{"type":"Point","coordinates":[-123.3103595,48.4307955]}},{"type":"Feature","properties":{"ZIP":"V8R3R2","VERTICES":5},"geometry":{"type":"Point","coordinates":[-123.29663350000001,48.444447]}},{"type":"Feature","properties":{"ZIP":"V8R5H5","VERTICES":5},"geometry":{"type":"Point","coordinates":[-123.3164635,48.4358025]}},{"type":"Feature","properties":{"ZIP":"V8R6E7","VERTICES":5},"geometry":{"type":"Point","coordinates":[-123.3031,48.4521185]}},{"type":"Feature","properties":{"ZIP":"V8R6L2","VERTICES":5},"geometry":{"type":"Point","coordinates":[-123.2942745,48.44187]}},{"type":"Feature","properties":{"ZIP":"V8R2B7","VERTICES":5},"geometry":{"type":"Point","coordinates":[-123.3348215,48.433988]}},{"type":"Feature","properties":{"ZIP":"V8R2J3","VERTICES":5},"geometry":{"type":"Point","coordinates":[-123.344491,48.4362325]}},{"type":"Feature","properties":{"ZIP":"V8R5C4","VERTICES":5},"geometry":{"type":"Point","coordinates":[-123.3219705,48.44185]}},{"type":"Feature","properties":{"ZIP":"V8R5P8","VERTICES":5},"geometry":{"type":"Point","coordinates":[-123.31676300000001,48.4356075]}},{"type":"Feature","properties":{"ZIP":"V8R6P1","VERTICES":5},"geometry":{"type":"Point","coordinates":[-123.3043655,48.441492499999995]}},{"type":"Feature","properties":{"ZIP":"V8R1S9","VERTICES":5},"geometry":{"type":"Point","coordinates":[-123.324653,48.4301595]}},{"type":"Feature","properties":{"ZIP":"V8R2E1","VERTICES":5},"geometry":{"type":"Point","coordinates":[-123.3165925,48.434200000000004]}},{"type":"Feature","properties":{"ZIP":"V8R2P8","VERTICES":5},"geometry":{"type":"Point","coordinates":[-123.3180635,48.437447500000005]}},{"type":"Feature","properties":{"ZIP":"V8R4G7","VERTICES":5},"geometry":{"type":"Point","coordinates":[-123.336104,48.436791]}},{"type":"Feature","properties":{"ZIP":"V8R4T8","VERTICES":5},"geometry":{"type":"Point","coordinates":[-123.32789249999999,48.443565]}},{"type":"Feature","properties":{"ZIP":"V8R5S7","VERTICES":5},"geometry":{"type":"Point","coordinates":[-123.3152935,48.432504]}},{"type":"Feature","properties":{"ZIP":"V8R6J9","VERTICES":5},"geometry":{"type":"Point","coordinates":[-123.30560349999999,48.4329965]}},{"type":"Feature","properties":{"ZIP":"V8R1H5","VERTICES":5},"geometry":{"type":"Point","coordinates":[-123.337816,48.427137]}},{"type":"Feature","properties":{"ZIP":"V8R2A3","VERTICES":5},"geometry":{"type":"Point","coordinates":[-123.3449495,48.43445749999999]}},{"type":"Feature","properties":{"ZIP":"V8R2G7","VERTICES":5},"geometry":{"type":"Point","coordinates":[-123.3053345,48.432566]}},{"type":"Feature","properties":{"ZIP":"V8R3R5","VERTICES":5},"geometry":{"type":"Point","coordinates":[-123.2951465,48.443864]}},{"type":"Feature","properties":{"ZIP":"V8R5N6","VERTICES":5},"geometry":{"type":"Point","coordinates":[-123.318003,48.4291415]}},{"type":"Feature","properties":{"ZIP":"V8R1C1","VERTICES":5},"geometry":{"type":"Point","coordinates":[-123.33282299999999,48.426492499999995]}},{"type":"Feature","properties":{"ZIP":"V8R1R5","VERTICES":5},"geometry":{"type":"Point","coordinates":[-123.31557000000001,48.4296315]}},{"type":"Feature","properties":{"ZIP":"V8R3E6","VERTICES":5},"geometry":{"type":"Point","coordinates":[-123.31367399999999,48.441618]}},{"type":"Feature","properties":{"ZIP":"V8R3Y8","VERTICES":5},"geometry":{"type":"Point","coordinates":[-123.33873,48.4281565]}},{"type":"Feature","properties":{"ZIP":"V8R4E4","VERTICES":5},"geometry":{"type":"Point","coordinates":[-123.33720149999999,48.4384335]}},{"type":"Feature","properties":{"ZIP":"V8R5K2","VERTICES":5},"geometry":{"type":"Point","coordinates":[-123.306901,48.446716]}},{"type":"Feature","properties":{"ZIP":"V8R1E7","VERTICES":5},"geometry":{"type":"Point","coordinates":[-123.318603,48.426483000000005]}},{"type":"Feature","properties":{"ZIP":"V8R1T1","VERTICES":5},"geometry":{"type":"Point","coordinates":[-123.3230835,48.430059]}},{"type":"Feature","properties":{"ZIP":"V8R2E2","VERTICES":5},"geometry":{"type":"Point","coordinates":[-123.3153815,48.434203]}},{"type":"Feature","properties":{"ZIP":"V8R2K9","VERTICES":5},"geometry":{"type":"Point","coordinates":[-123.334405,48.436205]}},{"type":"Feature","properties":{"ZIP":"V8R3N8","VERTICES":5},"geometry":{"type":"Point","coordinates":[-123.293261,48.4426395]}},{"type":"Feature","properties":{"ZIP":"V8R4T9","VERTICES":5},"geometry":{"type":"Point","coordinates":[-123.328243,48.445843999999994]}},{"type":"Feature","properties":{"ZIP":"V8R5S8","VERTICES":5},"geometry":{"type":"Point","coordinates":[-123.31513050000001,48.432840999999996]}},{"type":"Feature","properties":{"ZIP":"V8R6B9","VERTICES":5},"geometry":{"type":"Point","coordinates":[-123.3041875,48.449887000000004]}},{"type":"Feature","properties":{"ZIP":"V8R1H6","VERTICES":5},"geometry":{"type":"Point","coordinates":[-123.32195949999999,48.427150999999995]}},{"type":"Feature","properties":{"ZIP":"V8R2G8","VERTICES":5},"geometry":{"type":"Point","coordinates":[-123.3053345,48.432566]}},{"type":"Feature","properties":{"ZIP":"V8R3K5","VERTICES":5},"geometry":{"type":"Point","coordinates":[-123.314035,48.4437075]}},{"type":"Feature","properties":{"ZIP":"V8R3X6","VERTICES":5},"geometry":{"type":"Point","coordinates":[-123.342109,48.4308365]}},{"type":"Feature","properties":{"ZIP":"V8R5B4","VERTICES":5},"geometry":{"type":"Point","coordinates":[-123.3220865,48.439321]}},{"type":"Feature","properties":{"ZIP":"V8R5V1","VERTICES":5},"geometry":{"type":"Point","coordinates":[-123.3123725,48.4340895]}},{"type":"Feature","properties":{"ZIP":"V8R1C2","VERTICES":5},"geometry":{"type":"Point","coordinates":[-123.327693,48.426477000000006]}},{"type":"Feature","properties":{"ZIP":"V8R2J5","VERTICES":5},"geometry":{"type":"Point","coordinates":[-123.343762,48.4362175]}},{"type":"Feature","properties":{"ZIP":"V8R2N8","VERTICES":5},"geometry":{"type":"Point","coordinates":[-123.33424,48.438034]}},{"type":"Feature","properties":{"ZIP":"V8R2T4","VERTICES":5},"geometry":{"type":"Point","coordinates":[-123.306408,48.437016]}},{"type":"Feature","properties":{"ZIP":"V8R2Z2","VERTICES":5},"geometry":{"type":"Point","coordinates":[-123.3341295,48.4419705]}},{"type":"Feature","properties":{"ZIP":"V8R3Z2","VERTICES":5},"geometry":{"type":"Point","coordinates":[-123.3391165,48.428968499999996]}},{"type":"Feature","properties":{"ZIP":"V8R4S5","VERTICES":5},"geometry":{"type":"Point","coordinates":[-123.32881850000001,48.440339]}},{"type":"Feature","properties":{"ZIP":"V8R4Y4","VERTICES":5},"geometry":{"type":"Point","coordinates":[-123.3246685,48.4423735]}},{"type":"Feature","properties":{"ZIP":"V8R5C6","VERTICES":5},"geometry":{"type":"Point","coordinates":[-123.321928,48.442771]}},{"type":"Feature","properties":{"ZIP":"V8R2V9","VERTICES":5},"geometry":{"type":"Point","coordinates":[-123.341789,48.4400405]}},{"type":"Feature","properties":{"ZIP":"V8R3N9","VERTICES":5},"geometry":{"type":"Point","coordinates":[-123.30957699999999,48.4454785]}},{"type":"Feature","properties":{"ZIP":"V8R3W3","VERTICES":5},"geometry":{"type":"Point","coordinates":[-123.342218,48.4370585]}},{"type":"Feature","properties":{"ZIP":"V8R5A1","VERTICES":5},"geometry":{"type":"Point","coordinates":[-123.3227225,48.426964999999996]}},{"type":"Feature","properties":{"ZIP":"V8R5X7","VERTICES":5},"geometry":{"type":"Point","coordinates":[-123.309167,48.4274165]}},{"type":"Feature","properties":{"ZIP":"V8R2X7","VERTICES":5},"geometry":{"type":"Point","coordinates":[-123.3328135,48.439912500000005]}},{"type":"Feature","properties":{"ZIP":"V8R3X7","VERTICES":5},"geometry":{"type":"Point","coordinates":[-123.3421175,48.430751]}},{"type":"Feature","properties":{"ZIP":"V8R5B5","VERTICES":5},"geometry":{"type":"Point","coordinates":[-123.3220705,48.4394675]}},{"type":"Feature","properties":{"ZIP":"V8R5J1","VERTICES":5},"geometry":{"type":"Point","coordinates":[-123.31287900000001,48.43757050000001]}},{"type":"Feature","properties":{"ZIP":"V8R5N8","VERTICES":5},"geometry":{"type":"Point","coordinates":[-123.31617399999999,48.443096499999996]}},{"type":"Feature","properties":{"ZIP":"V8R1K6","VERTICES":5},"geometry":{"type":"Point","coordinates":[-123.3424915,48.4269025]}},{"type":"Feature","properties":{"ZIP":"V8R4E6","VERTICES":5},"geometry":{"type":"Point","coordinates":[-123.335801,48.4298065]}},{"type":"Feature","properties":{"ZIP":"V8R4Y6","VERTICES":5},"geometry":{"type":"Point","coordinates":[-123.32464,48.4431965]}},{"type":"Feature","properties":{"ZIP":"V8R5K6","VERTICES":5},"geometry":{"type":"Point","coordinates":[-123.302434,48.4534375]}},{"type":"Feature","properties":{"ZIP":"V8R2E5","VERTICES":5},"geometry":{"type":"Point","coordinates":[-123.3126775,48.433698]}},{"type":"Feature","properties":{"ZIP":"V8R3P1","VERTICES":5},"geometry":{"type":"Point","coordinates":[-123.30957699999999,48.4454785]}},{"type":"Feature","properties":{"ZIP":"V8R3W4","VERTICES":5},"geometry":{"type":"Point","coordinates":[-123.3423445,48.4391255]}},{"type":"Feature","properties":{"ZIP":"V8R4V5","VERTICES":5},"geometry":{"type":"Point","coordinates":[-123.3288905,48.42667]}},{"type":"Feature","properties":{"ZIP":"V8R1H8","VERTICES":5},"geometry":{"type":"Point","coordinates":[-123.33506299999999,48.4273255]}},{"type":"Feature","properties":{"ZIP":"V8R3S1","VERTICES":5},"geometry":{"type":"Point","coordinates":[-123.30839950000001,48.4475685]}},{"type":"Feature","properties":{"ZIP":"V8R3X9","VERTICES":5},"geometry":{"type":"Point","coordinates":[-123.3412985,48.427049499999995]}},{"type":"Feature","properties":{"ZIP":"V8R5B6","VERTICES":5},"geometry":{"type":"Point","coordinates":[-123.32204300000001,48.4400465]}},{"type":"Feature","properties":{"ZIP":"V8R6M1","VERTICES":5},"geometry":{"type":"Point","coordinates":[-123.295345,48.449091499999994]}},{"type":"Feature","properties":{"ZIP":"V8R1C6","VERTICES":5},"geometry":{"type":"Point","coordinates":[-123.3264755,48.4262515]}},{"type":"Feature","properties":{"ZIP":"V8R1X9","VERTICES":5},"geometry":{"type":"Point","coordinates":[-123.335018,48.432598]}},{"type":"Feature","properties":{"ZIP":"V8R2J8","VERTICES":5},"geometry":{"type":"Point","coordinates":[-123.34043650000001,48.4360825]}},{"type":"Feature","properties":{"ZIP":"V8R3G1","VERTICES":5},"geometry":{"type":"Point","coordinates":[-123.32892799999999,48.443312]}},{"type":"Feature","properties":{"ZIP":"V8R4E8","VERTICES":5},"geometry":{"type":"Point","coordinates":[-123.33576550000001,48.430651499999996]}},{"type":"Feature","properties":{"ZIP":"V8R4L2","VERTICES":5},"geometry":{"type":"Point","coordinates":[-123.3329765,48.432094000000006]}},{"type":"Feature","properties":{"ZIP":"V8R4S9","VERTICES":5},"geometry":{"type":"Point","coordinates":[-123.3283945,48.437371999999996]}},{"type":"Feature","properties":{"ZIP":"V8R4Y9","VERTICES":5},"geometry":{"type":"Point","coordinates":[-123.32452900000001,48.4448705]}},{"type":"Feature","properties":{"ZIP":"V8R5C8","VERTICES":5},"geometry":{"type":"Point","coordinates":[-123.32189550000001,48.443473999999995]}},{"type":"Feature","properties":{"ZIP":"V8R5W7","VERTICES":5},"geometry":{"type":"Point","coordinates":[-123.3111555,48.43054]}},{"type":"Feature","properties":{"ZIP":"V8R6A7","VERTICES":5},"geometry":{"type":"Point","coordinates":[-123.304007,48.4376465]}},{"type":"Feature","properties":{"ZIP":"V8R6J1","VERTICES":5},"geometry":{"type":"Point","coordinates":[-123.307879,48.428928]}},{"type":"Feature","properties":{"ZIP":"V8R1M8","VERTICES":5},"geometry":{"type":"Point","coordinates":[-123.33074250000001,48.428304]}},{"type":"Feature","properties":{"ZIP":"V8R2E6","VERTICES":5},"geometry":{"type":"Point","coordinates":[-123.3125535,48.433662]}},{"type":"Feature","properties":{"ZIP":"V8R2L3","VERTICES":5},"geometry":{"type":"Point","coordinates":[-123.326664,48.435768499999995]}},{"type":"Feature","properties":{"ZIP":"V8R4M6","VERTICES":5},"geometry":{"type":"Point","coordinates":[-123.33362299999999,48.443111]}},{"type":"Feature","properties":{"ZIP":"V8R5X9","VERTICES":5},"geometry":{"type":"Point","coordinates":[-123.310504,48.434545]}},{"type":"Feature","properties":{"ZIP":"V8R1H9","VERTICES":5},"geometry":{"type":"Point","coordinates":[-123.3349005,48.42784]}},{"type":"Feature","properties":{"ZIP":"V8R2A8","VERTICES":5},"geometry":{"type":"Point","coordinates":[-123.3404155,48.4343355]}},{"type":"Feature","properties":{"ZIP":"V8R2X9","VERTICES":5},"geometry":{"type":"Point","coordinates":[-123.34376499999999,48.4402265]}},{"type":"Feature","properties":{"ZIP":"V8R3L2","VERTICES":5},"geometry":{"type":"Point","coordinates":[-123.3088095,48.438319500000006]}},{"type":"Feature","properties":{"ZIP":"V8R3S3","VERTICES":5},"geometry":{"type":"Point","coordinates":[-123.3065225,48.446941499999994]}},{"type":"Feature","properties":{"ZIP":"V8R5B7","VERTICES":5},"geometry":{"type":"Point","coordinates":[-123.3220515,48.440091499999994]}},{"type":"Feature","properties":{"ZIP":"V8R5J3","VERTICES":5},"geometry":{"type":"Point","coordinates":[-123.3122365,48.438688]}},{"type":"Feature","properties":{"ZIP":"V8R1C8","VERTICES":5},"geometry":{"type":"Point","coordinates":[-123.32511299999999,48.4263345]}},{"type":"Feature","properties":{"ZIP":"V8R1K9","VERTICES":5},"geometry":{"type":"Point","coordinates":[-123.33675,48.4289985]}},{"type":"Feature","properties":{"ZIP":"V8R1Y1","VERTICES":5},"geometry":{"type":"Point","coordinates":[-123.335375,48.432598999999996]}},{"type":"Feature","properties":{"ZIP":"V8R2K1","VERTICES":5},"geometry":{"type":"Point","coordinates":[-123.3392475,48.4361355]}},{"type":"Feature","properties":{"ZIP":"V8R4Z1","VERTICES":5},"geometry":{"type":"Point","coordinates":[-123.323849,48.4448395]}},{"type":"Feature","properties":{"ZIP":"V8R5C9","VERTICES":5},"geometry":{"type":"Point","coordinates":[-123.3218785,48.4438425]}},{"type":"Feature","properties":{"ZIP":"V8R5R9","VERTICES":5},"geometry":{"type":"Point","coordinates":[-123.3137675,48.443128]}},{"type":"Feature","properties":{"ZIP":"V8R6J2","VERTICES":5},"geometry":{"type":"Point","coordinates":[-123.307653,48.429499]}},{"type":"Feature","properties":{"ZIP":"V8R6T3","VERTICES":5},"geometry":{"type":"Point","coordinates":[-123.3388775,48.4418445]}},{"type":"Feature","properties":{"ZIP":"V8R1N2","VERTICES":5},"geometry":{"type":"Point","coordinates":[-123.3262135,48.4284105]}},{"type":"Feature","properties":{"ZIP":"V8R1V4","VERTICES":5},"geometry":{"type":"Point","coordinates":[-123.3442695,48.4315085]}},{"type":"Feature","properties":{"ZIP":"V8R2E9","VERTICES":5},"geometry":{"type":"Point","coordinates":[-123.30892750000001,48.4326395]}},{"type":"Feature","properties":{"ZIP":"V8R6E2","VERTICES":5},"geometry":{"type":"Point","coordinates":[-123.30461199999999,48.445569]}},{"type":"Feature","properties":{"ZIP":"V8R5J4","VERTICES":5},"geometry":{"type":"Point","coordinates":[-123.3137835,48.439249000000004]}},{"type":"Feature","properties":{"ZIP":"V8R5P2","VERTICES":5},"geometry":{"type":"Point","coordinates":[-123.31481550000001,48.443125]}},{"type":"Feature","properties":{"ZIP":"V8R1E1","VERTICES":5},"geometry":{"type":"Point","coordinates":[-123.3239125,48.426427000000004]}},{"type":"Feature","properties":{"ZIP":"V8R1L3","VERTICES":5},"geometry":{"type":"Point","coordinates":[-123.33458300000001,48.429844]}},{"type":"Feature","properties":{"ZIP":"V8R4T2","VERTICES":5},"geometry":{"type":"Point","coordinates":[-123.32853449999999,48.4430495]}},{"type":"Feature","properties":{"ZIP":"V8R6B1","VERTICES":5},"geometry":{"type":"Point","coordinates":[-123.3111665,48.443391500000004]}},{"type":"Feature","properties":{"ZIP":"V8R6T5","VERTICES":5},"geometry":{"type":"Point","coordinates":[-123.333445,48.438797]}},{"type":"Feature","properties":{"ZIP":"V8R1V5","VERTICES":5},"geometry":{"type":"Point","coordinates":[-123.34330600000001,48.431405]}},{"type":"Feature","properties":{"ZIP":"V8R1Z7","VERTICES":5},"geometry":{"type":"Point","coordinates":[-123.3127155,48.4313905]}},{"type":"Feature","properties":{"ZIP":"V8R3P4","VERTICES":5},"geometry":{"type":"Point","coordinates":[-123.303744,48.444783]}},{"type":"Feature","properties":{"ZIP":"V8R4B5","VERTICES":5},"geometry":{"type":"Point","coordinates":[-123.3383865,48.4314695]}},{"type":"Feature","properties":{"ZIP":"V8R4N1","VERTICES":5},"geometry":{"type":"Point","coordinates":[-123.33314200000001,48.427246499999995]}},{"type":"Feature","properties":{"ZIP":"V8R4V8","VERTICES":5},"geometry":{"type":"Point","coordinates":[-123.3275385,48.427564000000004]}},{"type":"Feature","properties":{"ZIP":"V8R5A5","VERTICES":5},"geometry":{"type":"Point","coordinates":[-123.32257050000001,48.429441499999996]}},{"type":"Feature","properties":{"ZIP":"V8R5Y2","VERTICES":5},"geometry":{"type":"Point","coordinates":[-123.3093605,48.436150999999995]}},{"type":"Feature","properties":{"ZIP":"V8R6E3","VERTICES":5},"geometry":{"type":"Point","coordinates":[-123.304258,48.449608]}},{"type":"Feature","properties":{"ZIP":"V8R6K7","VERTICES":5},"geometry":{"type":"Point","coordinates":[-123.296648,48.439186]}},{"type":"Feature","properties":{"ZIP":"V8R1J3","VERTICES":5},"geometry":{"type":"Point","coordinates":[-123.331156,48.429188]}},{"type":"Feature","properties":{"ZIP":"V8R2B1","VERTICES":5},"geometry":{"type":"Point","coordinates":[-123.339087,48.4342265]}},{"type":"Feature","properties":{"ZIP":"V8R3S7","VERTICES":5},"geometry":{"type":"Point","coordinates":[-123.3058055,48.4502885]}},{"type":"Feature","properties":{"ZIP":"V8R5P3","VERTICES":5},"geometry":{"type":"Point","coordinates":[-123.31481550000001,48.443125]}},{"type":"Feature","properties":{"ZIP":"V8R1E2","VERTICES":5},"geometry":{"type":"Point","coordinates":[-123.3244075,48.426336500000005]}},{"type":"Feature","properties":{"ZIP":"V8R2K4","VERTICES":5},"geometry":{"type":"Point","coordinates":[-123.3379435,48.436114]}},{"type":"Feature","properties":{"ZIP":"V8R3A2","VERTICES":5},"geometry":{"type":"Point","coordinates":[-123.3342735,48.4435875]}},{"type":"Feature","properties":{"ZIP":"V8R4L7","VERTICES":5},"geometry":{"type":"Point","coordinates":[-123.33373,48.435611]}},{"type":"Feature","properties":{"ZIP":"V8R5E4","VERTICES":5},"geometry":{"type":"Point","coordinates":[-123.321809,48.445350000000005]}},{"type":"Feature","properties":{"ZIP":"V8R6T9","VERTICES":5},"geometry":{"type":"Point","coordinates":[-123.333352,48.4417955]}},{"type":"Feature","properties":{"ZIP":"V8R2W5","VERTICES":5},"geometry":{"type":"Point","coordinates":[-123.337151,48.442344000000006]}},{"type":"Feature","properties":{"ZIP":"V8R3B9","VERTICES":5},"geometry":{"type":"Point","coordinates":[-123.32028550000001,48.441027]}},{"type":"Feature","properties":{"ZIP":"V8R4H6","VERTICES":5},"geometry":{"type":"Point","coordinates":[-123.3357485,48.443917]}},{"type":"Feature","properties":{"ZIP":"V8R5A6","VERTICES":5},"geometry":{"type":"Point","coordinates":[-123.322451,48.430499499999996]}},{"type":"Feature","properties":{"ZIP":"V8R6E4","VERTICES":5},"geometry":{"type":"Point","coordinates":[-123.30465799999999,48.447209]}},{"type":"Feature","properties":{"ZIP":"V8R1J4","VERTICES":5},"geometry":{"type":"Point","coordinates":[-123.33120600000001,48.428993]}},{"type":"Feature","properties":{"ZIP":"V8R2H7","VERTICES":5},"geometry":{"type":"Point","coordinates":[-123.30908600000001,48.434541]}},{"type":"Feature","properties":{"ZIP":"V8R2Y5","VERTICES":5},"geometry":{"type":"Point","coordinates":[-123.33965699999999,48.441317999999995]}},{"type":"Feature","properties":{"ZIP":"V8R1E3","VERTICES":5},"geometry":{"type":"Point","coordinates":[-123.3229075,48.4263945]}},{"type":"Feature","properties":{"ZIP":"V8R2K5","VERTICES":5},"geometry":{"type":"Point","coordinates":[-123.33649650000001,48.4361325]}},{"type":"Feature","properties":{"ZIP":"V8R4A1","VERTICES":5},"geometry":{"type":"Point","coordinates":[-123.33971700000001,48.4330915]}},{"type":"Feature","properties":{"ZIP":"V8R4G4","VERTICES":5},"geometry":{"type":"Point","coordinates":[-123.3356315,48.433263]}},{"type":"Feature","properties":{"ZIP":"V8R4L8","VERTICES":5},"geometry":{"type":"Point","coordinates":[-123.33367899999999,48.436352]}},{"type":"Feature","properties":{"ZIP":"V8R1G7","VERTICES":5},"geometry":{"type":"Point","coordinates":[-123.314223,48.4263635]}},{"type":"Feature","properties":{"ZIP":"V8R1Z9","VERTICES":5},"geometry":{"type":"Point","coordinates":[-123.310291,48.430695]}},{"type":"Feature","properties":{"ZIP":"V8R2G3","VERTICES":5},"geometry":{"type":"Point","coordinates":[-123.3056115,48.431683]}},{"type":"Feature","properties":{"ZIP":"V8R3X2","VERTICES":5},"geometry":{"type":"Point","coordinates":[-123.3422425,48.429030499999996]}},{"type":"Feature","properties":{"ZIP":"V8R4N3","VERTICES":5},"geometry":{"type":"Point","coordinates":[-123.331574,48.427279999999996]}},{"type":"Feature","properties":{"ZIP":"V8R5A7","VERTICES":5},"geometry":{"type":"Point","coordinates":[-123.323092,48.4310825]}},{"type":"Feature","properties":{"ZIP":"V8R5G9","VERTICES":5},"geometry":{"type":"Point","coordinates":[-123.3176685,48.434253999999996]}},{"type":"Feature","properties":{"ZIP":"V8R1J5","VERTICES":5},"geometry":{"type":"Point","coordinates":[-123.33034549999999,48.429382000000004]}},{"type":"Feature","properties":{"ZIP":"V8R2Y6","VERTICES":5},"geometry":{"type":"Point","coordinates":[-123.33631700000001,48.441181]}},{"type":"Feature","properties":{"ZIP":"V8R3L6","VERTICES":5},"geometry":{"type":"Point","coordinates":[-123.311394,48.442026999999996]}},{"type":"Feature","properties":{"ZIP":"V8R3T1","VERTICES":5},"geometry":{"type":"Point","coordinates":[-123.2936655,48.4486505]}},{"type":"Feature","properties":{"ZIP":"V8R4P7","VERTICES":5},"geometry":{"type":"Point","coordinates":[-123.330242,48.4270165]}},{"type":"Feature","properties":{"ZIP":"V8R4X4","VERTICES":5},"geometry":{"type":"Point","coordinates":[-123.3249405,48.4362595]}},{"type":"Feature","properties":{"ZIP":"V8R5C2","VERTICES":5},"geometry":{"type":"Point","coordinates":[-123.3220025,48.4411465]}},{"type":"Feature","properties":{"ZIP":"V8R1G9","VERTICES":4},"geometry":{"type":"Point","coordinates":[-123.31225549999999,48.426286000000005]}},{"type":"Feature","properties":{"ZIP":"V8R2K7","VERTICES":4},"geometry":{"type":"Point","coordinates":[-123.3357185,48.436128499999995]}},{"type":"Feature","properties":{"ZIP":"V8R1B9","VERTICES":4},"geometry":{"type":"Point","coordinates":[-123.328757,48.426792500000005]}},{"type":"Feature","properties":{"ZIP":"V8R1K1","VERTICES":4},"geometry":{"type":"Point","coordinates":[-123.327181,48.430792]}},{"type":"Feature","properties":{"ZIP":"V8R1W3","VERTICES":4},"geometry":{"type":"Point","coordinates":[-123.334897,48.431135499999996]}},{"type":"Feature","properties":{"ZIP":"V8R4C2","VERTICES":4},"geometry":{"type":"Point","coordinates":[-123.338538,48.4370985]}},{"type":"Feature","properties":{"ZIP":"V8R6P9","VERTICES":4},"geometry":{"type":"Point","coordinates":[-123.33922749999999,48.426193]}},{"type":"Feature","properties":{"ZIP":"V8R1E9","VERTICES":4},"geometry":{"type":"Point","coordinates":[-123.31783200000001,48.426485]}},{"type":"Feature","properties":{"ZIP":"V8R6R7","VERTICES":4},"geometry":{"type":"Point","coordinates":[-123.3332525,48.441959]}},{"type":"Feature","properties":{"ZIP":"V8R2X8","VERTICES":4},"geometry":{"type":"Point","coordinates":[-123.336293,48.4405235]}},{"type":"Feature","properties":{"ZIP":"V8R3T7","VERTICES":4},"geometry":{"type":"Point","coordinates":[-123.343596,48.4371825]}},{"type":"Feature","properties":{"ZIP":"V8R2L4","VERTICES":4},"geometry":{"type":"Point","coordinates":[-123.3267965,48.4357865]}},{"type":"Feature","properties":{"ZIP":"V8R1A8","VERTICES":4},"geometry":{"type":"Point","coordinates":[-123.3385545,48.426587]}},{"type":"Feature","properties":{"ZIP":"V8R1N6","VERTICES":4},"geometry":{"type":"Point","coordinates":[-123.323152,48.4283825]}},{"type":"Feature","properties":{"ZIP":"V8R3P7","VERTICES":4},"geometry":{"type":"Point","coordinates":[-123.3017065,48.44437]}},{"type":"Feature","properties":{"ZIP":"V8R3S8","VERTICES":4},"geometry":{"type":"Point","coordinates":[-123.305724,48.451354499999994]}},{"type":"Feature","properties":{"ZIP":"V8R5E6","VERTICES":4},"geometry":{"type":"Point","coordinates":[-123.32128399999999,48.4305085]}},{"type":"Feature","properties":{"ZIP":"V8R6K9","VERTICES":4},"geometry":{"type":"Point","coordinates":[-123.2942835,48.4404955]}},{"type":"Feature","properties":{"ZIP":"V8R6G9","VERTICES":4},"geometry":{"type":"Point","coordinates":[-123.2990725,48.449865]}},{"type":"Feature","properties":{"ZIP":"V8R1J8","VERTICES":3},"geometry":{"type":"Point","coordinates":[-123.32880499999999,48.431998]}}]}