{"type":"FeatureCollection","features":[{"type":"Feature","properties":{"ZIP":"V9T3K8","VERTICES":16},"geometry":{"type":"Point","coordinates":[-123.9954055,49.196177500000005]}},{"type":"Feature","properties":{"ZIP":"V9T5N4","VERTICES":15},"geometry":{"type":"Point","coordinates":[-124.0147225,49.230427000000006]}},{"type":"Feature","properties":{"ZIP":"V9T6H6","VERTICES":14},"geometry":{"type":"Point","coordinates":[-124.0550015,49.227046]}},{"type":"Feature","properties":{"ZIP":"V9T4X5","VERTICES":14},"geometry":{"type":"Point","coordinates":[-124.0134735,49.2117655]}},{"type":"Feature","properties":{"ZIP":"V9T6B9","VERTICES":13},"geometry":{"type":"Point","coordinates":[-124.04426849999999,49.204567]}},{"type":"Feature","properties":{"ZIP":"V9T6G1","VERTICES":13},"geometry":{"type":"Point","coordinates":[-124.03751399999999,49.227604]}},{"type":"Feature","properties":{"ZIP":"V9T5A1","VERTICES":12},"geometry":{"type":"Point","coordinates":[-123.9587525,49.2216985]}},{"type":"Feature","properties":{"ZIP":"V9T5W1","VERTICES":12},"geometry":{"type":"Point","coordinates":[-124.036387,49.212154]}},{"type":"Feature","properties":{"ZIP":"V9T6H9","VERTICES":12},"geometry":{"type":"Point","coordinates":[-124.048648,49.2210045]}},{"type":"Feature","properties":{"ZIP":"V9T6K4","VERTICES":12},"geometry":{"type":"Point","coordinates":[-123.98079050000001,49.230548999999996]}},{"type":"Feature","properties":{"ZIP":"V9T6E5","VERTICES":12},"geometry":{"type":"Point","coordinates":[-124.02187,49.227872000000005]}},{"type":"Feature","properties":{"ZIP":"V9T6K7","VERTICES":12},"geometry":{"type":"Point","coordinates":[-124.019437,49.221650499999996]}},{"type":"Feature","properties":{"ZIP":"V9T5R6","VERTICES":12},"geometry":{"type":"Point","coordinates":[-124.0061325,49.229057]}},{"type":"Feature","properties":{"ZIP":"V9T6H7","VERTICES":11},"geometry":{"type":"Point","coordinates":[-124.0542605,49.2273705]}},{"type":"Feature","properties":{"ZIP":"V9T2S5","VERTICES":11},"geometry":{"type":"Point","coordinates":[-124.0071315,49.2129235]}},{"type":"Feature","properties":{"ZIP":"V9T5N5","VERTICES":11},"geometry":{"type":"Point","coordinates":[-124.01622,49.2314545]}},{"type":"Feature","properties":{"ZIP":"V9T6E1","VERTICES":11},"geometry":{"type":"Point","coordinates":[-123.9459185,49.2148385]}},{"type":"Feature","properties":{"ZIP":"V9T3C8","VERTICES":11},"geometry":{"type":"Point","coordinates":[-123.9847835,49.211017]}},{"type":"Feature","properties":{"ZIP":"V9T5L3","VERTICES":11},"geometry":{"type":"Point","coordinates":[-123.95620650000001,49.2213845]}},{"type":"Feature","properties":{"ZIP":"V9T3R5","VERTICES":11},"geometry":{"type":"Point","coordinates":[-123.9951005,49.1945985]}},{"type":"Feature","properties":{"ZIP":"V9T6J2","VERTICES":11},"geometry":{"type":"Point","coordinates":[-124.0490045,49.22687]}},{"type":"Feature","properties":{"ZIP":"V9T6S4","VERTICES":11},"geometry":{"type":"Point","coordinates":[-124.00554650000001,49.193985]}},{"type":"Feature","properties":{"ZIP":"V9T5S4","VERTICES":11},"geometry":{"type":"Point","coordinates":[-124.0121555,49.197236000000004]}},{"type":"Feature","properties":{"ZIP":"V9T6J3","VERTICES":11},"geometry":{"type":"Point","coordinates":[-124.05493849999999,49.227792]}},{"type":"Feature","properties":{"ZIP":"V9T2X7","VERTICES":11},"geometry":{"type":"Point","coordinates":[-123.9880125,49.20806]}},{"type":"Feature","properties":{"ZIP":"V9T3R7","VERTICES":11},"geometry":{"type":"Point","coordinates":[-124.0027975,49.196173]}},{"type":"Feature","properties":{"ZIP":"V9T2K6","VERTICES":11},"geometry":{"type":"Point","coordinates":[-124.034915,49.2156705]}},{"type":"Feature","properties":{"ZIP":"V9T4Y9","VERTICES":11},"geometry":{"type":"Point","coordinates":[-124.011276,49.198149]}},{"type":"Feature","properties":{"ZIP":"V9T6E8","VERTICES":11},"geometry":{"type":"Point","coordinates":[-124.008397,49.1934485]}},{"type":"Feature","properties":{"ZIP":"V9T3R9","VERTICES":11},"geometry":{"type":"Point","coordinates":[-124.011173,49.1954935]}},{"type":"Feature","properties":{"ZIP":"V9T5X2","VERTICES":11},"geometry":{"type":"Point","coordinates":[-124.0256025,49.2208375]}},{"type":"Feature","properties":{"ZIP":"V9T5S9","VERTICES":11},"geometry":{"type":"Point","coordinates":[-124.026037,49.2215745]}},{"type":"Feature","properties":{"ZIP":"V9T4E7","VERTICES":10},"geometry":{"type":"Point","coordinates":[-123.949714,49.2172875]}},{"type":"Feature","properties":{"ZIP":"V9T6P6","VERTICES":10},"geometry":{"type":"Point","coordinates":[-124.024715,49.227034]}},{"type":"Feature","properties":{"ZIP":"V9T5K2","VERTICES":10},"geometry":{"type":"Point","coordinates":[-124.01664550000001,49.220154]}},{"type":"Feature","properties":{"ZIP":"V9T6G3","VERTICES":10},"geometry":{"type":"Point","coordinates":[-123.972204,49.229848000000004]}},{"type":"Feature","properties":{"ZIP":"V9T1M9","VERTICES":10},"geometry":{"type":"Point","coordinates":[-123.9507445,49.2242535]}},{"type":"Feature","properties":{"ZIP":"V9T5R8","VERTICES":10},"geometry":{"type":"Point","coordinates":[-124.054559,49.2336725]}},{"type":"Feature","properties":{"ZIP":"V9T6T2","VERTICES":10},"geometry":{"type":"Point","coordinates":[-124.0382415,49.1998685]}},{"type":"Feature","properties":{"ZIP":"V9T3M5","VERTICES":10},"geometry":{"type":"Point","coordinates":[-124.0017395,49.199276999999995]}},{"type":"Feature","properties":{"ZIP":"V9T1R8","VERTICES":10},"geometry":{"type":"Point","coordinates":[-123.994287,49.205096499999996]}},{"type":"Feature","properties":{"ZIP":"V9T4C6","VERTICES":10},"geometry":{"type":"Point","coordinates":[-124.01622499999999,49.2185795]}},{"type":"Feature","properties":{"ZIP":"V9T4E9","VERTICES":10},"geometry":{"type":"Point","coordinates":[-123.9912935,49.212231]}},{"type":"Feature","properties":{"ZIP":"V9T5A4","VERTICES":10},"geometry":{"type":"Point","coordinates":[-124.018807,49.2144055]}},{"type":"Feature","properties":{"ZIP":"V9T5G3","VERTICES":10},"geometry":{"type":"Point","coordinates":[-124.007887,49.2297065]}},{"type":"Feature","properties":{"ZIP":"V9T4B5","VERTICES":10},"geometry":{"type":"Point","coordinates":[-124.00313700000001,49.208439999999996]}},{"type":"Feature","properties":{"ZIP":"V9T4H5","VERTICES":10},"geometry":{"type":"Point","coordinates":[-123.9551945,49.223127500000004]}},{"type":"Feature","properties":{"ZIP":"V9T5N6","VERTICES":10},"geometry":{"type":"Point","coordinates":[-124.028073,49.229040499999996]}},{"type":"Feature","properties":{"ZIP":"V9T3T9","VERTICES":10},"geometry":{"type":"Point","coordinates":[-124.02194399999999,49.2004975]}},{"type":"Feature","properties":{"ZIP":"V9T4C8","VERTICES":10},"geometry":{"type":"Point","coordinates":[-123.99045050000001,49.2037995]}},{"type":"Feature","properties":{"ZIP":"V9T6S1","VERTICES":10},"geometry":{"type":"Point","coordinates":[-124.0182705,49.227537999999996]}},{"type":"Feature","properties":{"ZIP":"V9T5B9","VERTICES":10},"geometry":{"type":"Point","coordinates":[-123.9850265,49.230065499999995]}},{"type":"Feature","properties":{"ZIP":"V9T6A4","VERTICES":10},"geometry":{"type":"Point","coordinates":[-124.0331635,49.2325075]}},{"type":"Feature","properties":{"ZIP":"V9T3W5","VERTICES":10},"geometry":{"type":"Point","coordinates":[-124.00974450000001,49.1982275]}},{"type":"Feature","properties":{"ZIP":"V9T6A5","VERTICES":10},"geometry":{"type":"Point","coordinates":[-124.0134655,49.228917499999994]}},{"type":"Feature","properties":{"ZIP":"V9T4G4","VERTICES":10},"geometry":{"type":"Point","coordinates":[-124.0073145,49.21803]}},{"type":"Feature","properties":{"ZIP":"V9T6K6","VERTICES":10},"geometry":{"type":"Point","coordinates":[-124.0120115,49.194667499999994]}},{"type":"Feature","properties":{"ZIP":"V9T5A9","VERTICES":10},"geometry":{"type":"Point","coordinates":[-123.977856,49.230881499999995]}},{"type":"Feature","properties":{"ZIP":"V9T0A2","VERTICES":10},"geometry":{"type":"Point","coordinates":[-124.03474399999999,49.2281935]}},{"type":"Feature","properties":{"ZIP":"V9T3E3","VERTICES":10},"geometry":{"type":"Point","coordinates":[-123.99724900000001,49.2053055]}},{"type":"Feature","properties":{"ZIP":"V9T5W7","VERTICES":10},"geometry":{"type":"Point","coordinates":[-124.014521,49.2292625]}},{"type":"Feature","properties":{"ZIP":"V9T1E2","VERTICES":10},"geometry":{"type":"Point","coordinates":[-123.965149,49.20864]}},{"type":"Feature","properties":{"ZIP":"V9T1G5","VERTICES":10},"geometry":{"type":"Point","coordinates":[-123.9671535,49.208855]}},{"type":"Feature","properties":{"ZIP":"V9T2T2","VERTICES":10},"geometry":{"type":"Point","coordinates":[-123.99820650000001,49.2124095]}},{"type":"Feature","properties":{"ZIP":"V9T4V9","VERTICES":10},"geometry":{"type":"Point","coordinates":[-124.019606,49.203931499999996]}},{"type":"Feature","properties":{"ZIP":"V9T5Z7","VERTICES":10},"geometry":{"type":"Point","coordinates":[-124.0216495,49.2300375]}},{"type":"Feature","properties":{"ZIP":"V9T6L2","VERTICES":10},"geometry":{"type":"Point","coordinates":[-124.0358985,49.2300745]}},{"type":"Feature","properties":{"ZIP":"V9T6R5","VERTICES":10},"geometry":{"type":"Point","coordinates":[-124.03263,49.233886]}},{"type":"Feature","properties":{"ZIP":"V9T1H8","VERTICES":10},"geometry":{"type":"Point","coordinates":[-123.9798705,49.210918]}},{"type":"Feature","properties":{"ZIP":"V9T4M3","VERTICES":10},"geometry":{"type":"Point","coordinates":[-123.95826249999999,49.224579500000004]}},{"type":"Feature","properties":{"ZIP":"V9T5Y6","VERTICES":10},"geometry":{"type":"Point","coordinates":[-124.0321615,49.229074]}},{"type":"Feature","properties":{"ZIP":"V9T4E6","VERTICES":10},"geometry":{"type":"Point","coordinates":[-123.949779,49.2172875]}},{"type":"Feature","properties":{"ZIP":"V9T6B1","VERTICES":10},"geometry":{"type":"Point","coordinates":[-124.0334015,49.231927]}},{"type":"Feature","properties":{"ZIP":"V9T4H1","VERTICES":10},"geometry":{"type":"Point","coordinates":[-124.0126075,49.216937]}},{"type":"Feature","properties":{"ZIP":"V9T2T5","VERTICES":10},"geometry":{"type":"Point","coordinates":[-124.003186,49.215896]}},{"type":"Feature","properties":{"ZIP":"V9T5K1","VERTICES":10},"geometry":{"type":"Point","coordinates":[-123.9584265,49.220735]}},{"type":"Feature","properties":{"ZIP":"V9T1C4","VERTICES":9},"geometry":{"type":"Point","coordinates":[-123.991387,49.2100145]}},{"type":"Feature","properties":{"ZIP":"V9T3V8","VERTICES":9},"geometry":{"type":"Point","coordinates":[-124.00948500000001,49.214082000000005]}},{"type":"Feature","properties":{"ZIP":"V9T6B2","VERTICES":9},"geometry":{"type":"Point","coordinates":[-124.03500600000001,49.2327455]}},{"type":"Feature","properties":{"ZIP":"V9T2H2","VERTICES":9},"geometry":{"type":"Point","coordinates":[-124.025151,49.20888]}},{"type":"Feature","properties":{"ZIP":"V9T3S2","VERTICES":9},"geometry":{"type":"Point","coordinates":[-124.01685,49.195166]}},{"type":"Feature","properties":{"ZIP":"V9T5T1","VERTICES":9},"geometry":{"type":"Point","coordinates":[-124.007975,49.194629500000005]}},{"type":"Feature","properties":{"ZIP":"V9T5Y8","VERTICES":9},"geometry":{"type":"Point","coordinates":[-124.013257,49.229369500000004]}},{"type":"Feature","properties":{"ZIP":"V9T2N5","VERTICES":9},"geometry":{"type":"Point","coordinates":[-124.04056399999999,49.2220235]}},{"type":"Feature","properties":{"ZIP":"V9T2Y3","VERTICES":9},"geometry":{"type":"Point","coordinates":[-123.983513,49.207248]}},{"type":"Feature","properties":{"ZIP":"V9T5P6","VERTICES":9},"geometry":{"type":"Point","coordinates":[-124.022329,49.203416000000004]}},{"type":"Feature","properties":{"ZIP":"V9T6R8","VERTICES":9},"geometry":{"type":"Point","coordinates":[-124.03004899999999,49.200698]}},{"type":"Feature","properties":{"ZIP":"V9T6B3","VERTICES":9},"geometry":{"type":"Point","coordinates":[-124.0296955,49.23115799999999]}},{"type":"Feature","properties":{"ZIP":"V9T5H4","VERTICES":9},"geometry":{"type":"Point","coordinates":[-124.0161155,49.22844]}},{"type":"Feature","properties":{"ZIP":"V9T5P7","VERTICES":9},"geometry":{"type":"Point","coordinates":[-124.0271835,49.2057245]}},{"type":"Feature","properties":{"ZIP":"V9T6R9","VERTICES":9},"geometry":{"type":"Point","coordinates":[-124.0396165,49.2013075]}},{"type":"Feature","properties":{"ZIP":"V9T1C6","VERTICES":9},"geometry":{"type":"Point","coordinates":[-123.99775249999999,49.208712]}},{"type":"Feature","properties":{"ZIP":"V9T4L3","VERTICES":9},"geometry":{"type":"Point","coordinates":[-123.966361,49.2110025]}},{"type":"Feature","properties":{"ZIP":"V9T6B4","VERTICES":9},"geometry":{"type":"Point","coordinates":[-123.96840850000001,49.2291385]}},{"type":"Feature","properties":{"ZIP":"V9T2S6","VERTICES":9},"geometry":{"type":"Point","coordinates":[-124.00627850000001,49.215751999999995]}},{"type":"Feature","properties":{"ZIP":"V9T3S7","VERTICES":9},"geometry":{"type":"Point","coordinates":[-124.016926,49.196984]}},{"type":"Feature","properties":{"ZIP":"V9T5B8","VERTICES":9},"geometry":{"type":"Point","coordinates":[-123.98437050000001,49.2306655]}},{"type":"Feature","properties":{"ZIP":"V9T1L9","VERTICES":9},"geometry":{"type":"Point","coordinates":[-123.94739899999999,49.217726]}},{"type":"Feature","properties":{"ZIP":"V9T2L3","VERTICES":9},"geometry":{"type":"Point","coordinates":[-124.038806,49.220701000000005]}},{"type":"Feature","properties":{"ZIP":"V9T4S4","VERTICES":9},"geometry":{"type":"Point","coordinates":[-123.96121500000001,49.214488]}},{"type":"Feature","properties":{"ZIP":"V9T5A5","VERTICES":9},"geometry":{"type":"Point","coordinates":[-123.99048049999999,49.20488]}},{"type":"Feature","properties":{"ZIP":"V9T6B5","VERTICES":9},"geometry":{"type":"Point","coordinates":[-123.9649365,49.22807400000001]}},{"type":"Feature","properties":{"ZIP":"V9T1K6","VERTICES":9},"geometry":{"type":"Point","coordinates":[-123.959011,49.2119965]}},{"type":"Feature","properties":{"ZIP":"V9T1H3","VERTICES":9},"geometry":{"type":"Point","coordinates":[-123.980808,49.210488999999995]}},{"type":"Feature","properties":{"ZIP":"V9T2K2","VERTICES":9},"geometry":{"type":"Point","coordinates":[-124.04158050000001,49.2182245]}},{"type":"Feature","properties":{"ZIP":"V9T2T9","VERTICES":9},"geometry":{"type":"Point","coordinates":[-124.01083399999999,49.216901]}},{"type":"Feature","properties":{"ZIP":"V9T3V1","VERTICES":9},"geometry":{"type":"Point","coordinates":[-124.0356175,49.213843]}},{"type":"Feature","properties":{"ZIP":"V9T5E3","VERTICES":9},"geometry":{"type":"Point","coordinates":[-123.99553900000001,49.2291125]}},{"type":"Feature","properties":{"ZIP":"V9T5P9","VERTICES":9},"geometry":{"type":"Point","coordinates":[-124.0456135,49.203804000000005]}},{"type":"Feature","properties":{"ZIP":"V9T4A4","VERTICES":9},"geometry":{"type":"Point","coordinates":[-123.9753185,49.211431000000005]}},{"type":"Feature","properties":{"ZIP":"V9T5M6","VERTICES":9},"geometry":{"type":"Point","coordinates":[-124.02310800000001,49.233345]}},{"type":"Feature","properties":{"ZIP":"V9T3M8","VERTICES":9},"geometry":{"type":"Point","coordinates":[-124.011586,49.199229]}},{"type":"Feature","properties":{"ZIP":"V9T4V5","VERTICES":9},"geometry":{"type":"Point","coordinates":[-123.9872775,49.206447499999996]}},{"type":"Feature","properties":{"ZIP":"V9T6R1","VERTICES":9},"geometry":{"type":"Point","coordinates":[-124.033677,49.202471]}},{"type":"Feature","properties":{"ZIP":"V9T2K3","VERTICES":9},"geometry":{"type":"Point","coordinates":[-124.0418675,49.2189705]}},{"type":"Feature","properties":{"ZIP":"V9T4E1","VERTICES":9},"geometry":{"type":"Point","coordinates":[-123.9897695,49.204981000000004]}},{"type":"Feature","properties":{"ZIP":"V9T5E4","VERTICES":9},"geometry":{"type":"Point","coordinates":[-123.993549,49.22885]}},{"type":"Feature","properties":{"ZIP":"V9T1T5","VERTICES":9},"geometry":{"type":"Point","coordinates":[-123.993724,49.212494500000005]}},{"type":"Feature","properties":{"ZIP":"V9T1S3","VERTICES":9},"geometry":{"type":"Point","coordinates":[-123.99387250000001,49.205828499999996]}},{"type":"Feature","properties":{"ZIP":"V9T2P3","VERTICES":9},"geometry":{"type":"Point","coordinates":[-123.989897,49.211165]}},{"type":"Feature","properties":{"ZIP":"V9T4E2","VERTICES":9},"geometry":{"type":"Point","coordinates":[-124.01499100000001,49.218439000000004]}},{"type":"Feature","properties":{"ZIP":"V9T5R2","VERTICES":9},"geometry":{"type":"Point","coordinates":[-124.01774850000001,49.2137655]}},{"type":"Feature","properties":{"ZIP":"V9T5W6","VERTICES":9},"geometry":{"type":"Point","coordinates":[-124.0214945,49.1983355]}},{"type":"Feature","properties":{"ZIP":"V9T6G8","VERTICES":9},"geometry":{"type":"Point","coordinates":[-124.058564,49.228686499999995]}},{"type":"Feature","properties":{"ZIP":"V9T1N5","VERTICES":9},"geometry":{"type":"Point","coordinates":[-123.9663005,49.231419]}},{"type":"Feature","properties":{"ZIP":"V9T3R6","VERTICES":9},"geometry":{"type":"Point","coordinates":[-124.003044,49.1958435]}},{"type":"Feature","properties":{"ZIP":"V9T4L7","VERTICES":9},"geometry":{"type":"Point","coordinates":[-124.0090525,49.1991915]}},{"type":"Feature","properties":{"ZIP":"V9T1G4","VERTICES":9},"geometry":{"type":"Point","coordinates":[-123.9618995,49.227425499999995]}},{"type":"Feature","properties":{"ZIP":"V9T3V4","VERTICES":9},"geometry":{"type":"Point","coordinates":[-123.9797255,49.211361]}},{"type":"Feature","properties":{"ZIP":"V9T6S5","VERTICES":9},"geometry":{"type":"Point","coordinates":[-124.0232,49.198265500000005]}},{"type":"Feature","properties":{"ZIP":"V9T3L9","VERTICES":9},"geometry":{"type":"Point","coordinates":[-124.0158725,49.196375]}},{"type":"Feature","properties":{"ZIP":"V9T4A7","VERTICES":9},"geometry":{"type":"Point","coordinates":[-123.9742105,49.212317999999996]}},{"type":"Feature","properties":{"ZIP":"V9T2J3","VERTICES":9},"geometry":{"type":"Point","coordinates":[-124.04029399999999,49.214899]}},{"type":"Feature","properties":{"ZIP":"V9T3N3","VERTICES":9},"geometry":{"type":"Point","coordinates":[-124.016033,49.20082]}},{"type":"Feature","properties":{"ZIP":"V9T5V2","VERTICES":9},"geometry":{"type":"Point","coordinates":[-123.9811445,49.213034]}},{"type":"Feature","properties":{"ZIP":"V9T3N4","VERTICES":9},"geometry":{"type":"Point","coordinates":[-124.01744500000001,49.201548]}},{"type":"Feature","properties":{"ZIP":"V9T5C5","VERTICES":9},"geometry":{"type":"Point","coordinates":[-123.98080250000001,49.227222]}},{"type":"Feature","properties":{"ZIP":"V9T2K7","VERTICES":9},"geometry":{"type":"Point","coordinates":[-124.0329785,49.2160315]}},{"type":"Feature","properties":{"ZIP":"V9T1N9","VERTICES":9},"geometry":{"type":"Point","coordinates":[-123.97108,49.2115135]}},{"type":"Feature","properties":{"ZIP":"V9T2Y1","VERTICES":9},"geometry":{"type":"Point","coordinates":[-123.984169,49.209178]}},{"type":"Feature","properties":{"ZIP":"V9T3T5","VERTICES":9},"geometry":{"type":"Point","coordinates":[-124.015848,49.198084]}},{"type":"Feature","properties":{"ZIP":"V9T1M7","VERTICES":9},"geometry":{"type":"Point","coordinates":[-123.95677,49.225306]}},{"type":"Feature","properties":{"ZIP":"V9T4K8","VERTICES":9},"geometry":{"type":"Point","coordinates":[-123.9662535,49.210998000000004]}},{"type":"Feature","properties":{"ZIP":"V9T6S8","VERTICES":9},"geometry":{"type":"Point","coordinates":[-123.9628985,49.2097645]}},{"type":"Feature","properties":{"ZIP":"V9T1P1","VERTICES":9},"geometry":{"type":"Point","coordinates":[-123.9729165,49.212209]}},{"type":"Feature","properties":{"ZIP":"V9T5N3","VERTICES":9},"geometry":{"type":"Point","coordinates":[-124.0186175,49.233793500000004]}},{"type":"Feature","properties":{"ZIP":"V9T5Y7","VERTICES":9},"geometry":{"type":"Point","coordinates":[-124.031744,49.2310945]}},{"type":"Feature","properties":{"ZIP":"V9T2Y2","VERTICES":9},"geometry":{"type":"Point","coordinates":[-123.9835085,49.2080935]}},{"type":"Feature","properties":{"ZIP":"V9T1M8","VERTICES":8},"geometry":{"type":"Point","coordinates":[-123.9503795,49.223883]}},{"type":"Feature","properties":{"ZIP":"V9T3K9","VERTICES":8},"geometry":{"type":"Point","coordinates":[-123.99749,49.197492499999996]}},{"type":"Feature","properties":{"ZIP":"V9T4K9","VERTICES":8},"geometry":{"type":"Point","coordinates":[-123.96931649999999,49.2118885]}},{"type":"Feature","properties":{"ZIP":"V9T5M2","VERTICES":8},"geometry":{"type":"Point","coordinates":[-124.01417000000001,49.211896499999995]}},{"type":"Feature","properties":{"ZIP":"V9T5R7","VERTICES":8},"geometry":{"type":"Point","coordinates":[-124.05795599999999,49.2336665]}},{"type":"Feature","properties":{"ZIP":"V9T6S9","VERTICES":8},"geometry":{"type":"Point","coordinates":[-123.9926785,49.2326775]}},{"type":"Feature","properties":{"ZIP":"V9T6C8","VERTICES":8},"geometry":{"type":"Point","coordinates":[-124.034676,49.229329]}},{"type":"Feature","properties":{"ZIP":"V9T2T6","VERTICES":8},"geometry":{"type":"Point","coordinates":[-124.0065875,49.2164815]}},{"type":"Feature","properties":{"ZIP":"V9T3J8","VERTICES":8},"geometry":{"type":"Point","coordinates":[-124.005713,49.198049]}},{"type":"Feature","properties":{"ZIP":"V9T5V9","VERTICES":8},"geometry":{"type":"Point","coordinates":[-124.0351995,49.20864]}},{"type":"Feature","properties":{"ZIP":"V9T6A1","VERTICES":8},"geometry":{"type":"Point","coordinates":[-123.948453,49.212538]}},{"type":"Feature","properties":{"ZIP":"V9T0A7","VERTICES":8},"geometry":{"type":"Point","coordinates":[-123.97606400000001,49.228673]}},{"type":"Feature","properties":{"ZIP":"V9T1C5","VERTICES":8},"geometry":{"type":"Point","coordinates":[-123.990816,49.210034]}},{"type":"Feature","properties":{"ZIP":"V9T1T1","VERTICES":8},"geometry":{"type":"Point","coordinates":[-123.993608,49.2082815]}},{"type":"Feature","properties":{"ZIP":"V9T3V9","VERTICES":8},"geometry":{"type":"Point","coordinates":[-124.009702,49.2142845]}},{"type":"Feature","properties":{"ZIP":"V9T4A1","VERTICES":8},"geometry":{"type":"Point","coordinates":[-123.9733425,49.211611500000004]}},{"type":"Feature","properties":{"ZIP":"V9T4E8","VERTICES":8},"geometry":{"type":"Point","coordinates":[-123.9867725,49.203700999999995]}},{"type":"Feature","properties":{"ZIP":"V9T5X5","VERTICES":8},"geometry":{"type":"Point","coordinates":[-124.005908,49.1941585]}},{"type":"Feature","properties":{"ZIP":"V9T2M3","VERTICES":8},"geometry":{"type":"Point","coordinates":[-124.036889,49.220822999999996]}},{"type":"Feature","properties":{"ZIP":"V9T5T2","VERTICES":8},"geometry":{"type":"Point","coordinates":[-123.966321,49.2091415]}},{"type":"Feature","properties":{"ZIP":"V9T1H1","VERTICES":8},"geometry":{"type":"Point","coordinates":[-123.9743105,49.209181]}},{"type":"Feature","properties":{"ZIP":"V9T1W9","VERTICES":8},"geometry":{"type":"Point","coordinates":[-123.986782,49.212235500000006]}},{"type":"Feature","properties":{"ZIP":"V9T3J9","VERTICES":8},"geometry":{"type":"Point","coordinates":[-124.0056225,49.198067]}},{"type":"Feature","properties":{"ZIP":"V9T3T8","VERTICES":8},"geometry":{"type":"Point","coordinates":[-124.02103149999999,49.20004350000001]}},{"type":"Feature","properties":{"ZIP":"V9T6T3","VERTICES":8},"geometry":{"type":"Point","coordinates":[-123.9944945,49.2306315]}},{"type":"Feature","properties":{"ZIP":"V9T1K5","VERTICES":8},"geometry":{"type":"Point","coordinates":[-123.9582315,49.212623]}},{"type":"Feature","properties":{"ZIP":"V9T1V4","VERTICES":8},"geometry":{"type":"Point","coordinates":[-123.99616950000001,49.2060945]}},{"type":"Feature","properties":{"ZIP":"V9T2B7","VERTICES":8},"geometry":{"type":"Point","coordinates":[-124.015682,49.208946999999995]}},{"type":"Feature","properties":{"ZIP":"V9T2N7","VERTICES":8},"geometry":{"type":"Point","coordinates":[-124.0407455,49.22716]}},{"type":"Feature","properties":{"ZIP":"V9T2Y5","VERTICES":8},"geometry":{"type":"Point","coordinates":[-123.982223,49.207395500000004]}},{"type":"Feature","properties":{"ZIP":"V9T6G5","VERTICES":8},"geometry":{"type":"Point","coordinates":[-124.03094949999999,49.228444999999994]}},{"type":"Feature","properties":{"ZIP":"V9T5M5","VERTICES":8},"geometry":{"type":"Point","coordinates":[-124.0263265,49.232310999999996]}},{"type":"Feature","properties":{"ZIP":"V9T5S1","VERTICES":8},"geometry":{"type":"Point","coordinates":[-124.0529635,49.2300355]}},{"type":"Feature","properties":{"ZIP":"V9T5X8","VERTICES":8},"geometry":{"type":"Point","coordinates":[-123.984795,49.204888]}},{"type":"Feature","properties":{"ZIP":"V9T1V5","VERTICES":8},"geometry":{"type":"Point","coordinates":[-123.99631049999999,49.20655549999999]}},{"type":"Feature","properties":{"ZIP":"V9T3S8","VERTICES":8},"geometry":{"type":"Point","coordinates":[-124.0173715,49.196912499999996]}},{"type":"Feature","properties":{"ZIP":"V9T5Z2","VERTICES":8},"geometry":{"type":"Point","coordinates":[-124.022544,49.2318015]}},{"type":"Feature","properties":{"ZIP":"V9T2N8","VERTICES":8},"geometry":{"type":"Point","coordinates":[-124.0399015,49.2262555]}},{"type":"Feature","properties":{"ZIP":"V9T1T4","VERTICES":8},"geometry":{"type":"Point","coordinates":[-123.992276,49.209865]}},{"type":"Feature","properties":{"ZIP":"V9T3R4","VERTICES":8},"geometry":{"type":"Point","coordinates":[-123.9962625,49.19512]}},{"type":"Feature","properties":{"ZIP":"V9T5X9","VERTICES":8},"geometry":{"type":"Point","coordinates":[-123.98638600000001,49.2055025]}},{"type":"Feature","properties":{"ZIP":"V9T6J1","VERTICES":8},"geometry":{"type":"Point","coordinates":[-123.984937,49.214676]}},{"type":"Feature","properties":{"ZIP":"V9T1G2","VERTICES":8},"geometry":{"type":"Point","coordinates":[-123.95602650000001,49.224138999999994]}},{"type":"Feature","properties":{"ZIP":"V9T4N3","VERTICES":8},"geometry":{"type":"Point","coordinates":[-124.0031365,49.197495]}},{"type":"Feature","properties":{"ZIP":"V9T5N8","VERTICES":8},"geometry":{"type":"Point","coordinates":[-124.0315625,49.2281035]}},{"type":"Feature","properties":{"ZIP":"V9T1B4","VERTICES":8},"geometry":{"type":"Point","coordinates":[-123.9804565,49.2093025]}},{"type":"Feature","properties":{"ZIP":"V9T2W4","VERTICES":8},"geometry":{"type":"Point","coordinates":[-123.995745,49.211350499999995]}},{"type":"Feature","properties":{"ZIP":"V9T3A3","VERTICES":8},"geometry":{"type":"Point","coordinates":[-123.980941,49.206221]}},{"type":"Feature","properties":{"ZIP":"V9T4L6","VERTICES":8},"geometry":{"type":"Point","coordinates":[-123.978297,49.213853]}},{"type":"Feature","properties":{"ZIP":"V9T5S3","VERTICES":8},"geometry":{"type":"Point","coordinates":[-124.0213115,49.219761]}},{"type":"Feature","properties":{"ZIP":"V9T3Y1","VERTICES":8},"geometry":{"type":"Point","coordinates":[-124.0095575,49.2155935]}},{"type":"Feature","properties":{"ZIP":"V9T4V6","VERTICES":8},"geometry":{"type":"Point","coordinates":[-123.987112,49.206423]}},{"type":"Feature","properties":{"ZIP":"V9T5E5","VERTICES":8},"geometry":{"type":"Point","coordinates":[-123.9980365,49.22919]}},{"type":"Feature","properties":{"ZIP":"V9T1E1","VERTICES":8},"geometry":{"type":"Point","coordinates":[-123.96614199999999,49.2082685]}},{"type":"Feature","properties":{"ZIP":"V9T4G5","VERTICES":8},"geometry":{"type":"Point","coordinates":[-124.007285,49.218041]}},{"type":"Feature","properties":{"ZIP":"V9T1V8","VERTICES":8},"geometry":{"type":"Point","coordinates":[-123.9981425,49.206392]}},{"type":"Feature","properties":{"ZIP":"V9T4N5","VERTICES":8},"geometry":{"type":"Point","coordinates":[-123.991278,49.212168]}},{"type":"Feature","properties":{"ZIP":"V9T4V8","VERTICES":8},"geometry":{"type":"Point","coordinates":[-124.023008,49.199477]}},{"type":"Feature","properties":{"ZIP":"V9T5Z5","VERTICES":8},"geometry":{"type":"Point","coordinates":[-124.03678049999999,49.2118175]}},{"type":"Feature","properties":{"ZIP":"V9T1M4","VERTICES":8},"geometry":{"type":"Point","coordinates":[-123.9532845,49.22209]}},{"type":"Feature","properties":{"ZIP":"V9T4K5","VERTICES":8},"geometry":{"type":"Point","coordinates":[-124.0176765,49.2177095]}},{"type":"Feature","properties":{"ZIP":"V9T5E6","VERTICES":8},"geometry":{"type":"Point","coordinates":[-123.9985225,49.229744]}},{"type":"Feature","properties":{"ZIP":"V9T6M4","VERTICES":8},"geometry":{"type":"Point","coordinates":[-124.0362045,49.224791499999995]}},{"type":"Feature","properties":{"ZIP":"V9T4L8","VERTICES":8},"geometry":{"type":"Point","coordinates":[-124.0125255,49.215076999999994]}},{"type":"Feature","properties":{"ZIP":"V9T1A2","VERTICES":8},"geometry":{"type":"Point","coordinates":[-123.97975299999999,49.2076335]}},{"type":"Feature","properties":{"ZIP":"V9T4J2","VERTICES":8},"geometry":{"type":"Point","coordinates":[-124.00090700000001,49.1981245]}},{"type":"Feature","properties":{"ZIP":"V9T5C4","VERTICES":8},"geometry":{"type":"Point","coordinates":[-123.98060000000001,49.2275145]}},{"type":"Feature","properties":{"ZIP":"V9T1H7","VERTICES":8},"geometry":{"type":"Point","coordinates":[-123.983204,49.2104755]}},{"type":"Feature","properties":{"ZIP":"V9T2W7","VERTICES":8},"geometry":{"type":"Point","coordinates":[-123.99856349999999,49.209883000000005]}},{"type":"Feature","properties":{"ZIP":"V9T3G6","VERTICES":8},"geometry":{"type":"Point","coordinates":[-123.9921585,49.2050335]}},{"type":"Feature","properties":{"ZIP":"V9T3M1","VERTICES":8},"geometry":{"type":"Point","coordinates":[-124.0250805,49.200796]}},{"type":"Feature","properties":{"ZIP":"V9T3R8","VERTICES":8},"geometry":{"type":"Point","coordinates":[-124.01006799999999,49.1955535]}},{"type":"Feature","properties":{"ZIP":"V9T5N1","VERTICES":8},"geometry":{"type":"Point","coordinates":[-124.0065235,49.2335275]}},{"type":"Feature","properties":{"ZIP":"V9T6P3","VERTICES":8},"geometry":{"type":"Point","coordinates":[-124.0104445,49.2282735]}},{"type":"Feature","properties":{"ZIP":"V9T1G6","VERTICES":8},"geometry":{"type":"Point","coordinates":[-123.96677299999999,49.209106500000004]}},{"type":"Feature","properties":{"ZIP":"V9T4J3","VERTICES":8},"geometry":{"type":"Point","coordinates":[-124.0009205,49.198639]}},{"type":"Feature","properties":{"ZIP":"V9T1S6","VERTICES":8},"geometry":{"type":"Point","coordinates":[-123.9943955,49.2052595]}},{"type":"Feature","properties":{"ZIP":"V9T5E8","VERTICES":8},"geometry":{"type":"Point","coordinates":[-124.0024145,49.229882]}},{"type":"Feature","properties":{"ZIP":"V9T1K1","VERTICES":8},"geometry":{"type":"Point","coordinates":[-123.9621935,49.211113]}},{"type":"Feature","properties":{"ZIP":"V9T1T9","VERTICES":8},"geometry":{"type":"Point","coordinates":[-123.998156,49.207391]}},{"type":"Feature","properties":{"ZIP":"V9T3G7","VERTICES":8},"geometry":{"type":"Point","coordinates":[-123.991728,49.20632]}},{"type":"Feature","properties":{"ZIP":"V9T3X1","VERTICES":8},"geometry":{"type":"Point","coordinates":[-124.0258785,49.202234]}},{"type":"Feature","properties":{"ZIP":"V9T4A9","VERTICES":8},"geometry":{"type":"Point","coordinates":[-123.97959700000001,49.211353]}},{"type":"Feature","properties":{"ZIP":"V9T2T4","VERTICES":8},"geometry":{"type":"Point","coordinates":[-124.00178600000001,49.215008999999995]}},{"type":"Feature","properties":{"ZIP":"V9T4J4","VERTICES":8},"geometry":{"type":"Point","coordinates":[-124.00149300000001,49.197033000000005]}},{"type":"Feature","properties":{"ZIP":"V9T4P2","VERTICES":8},"geometry":{"type":"Point","coordinates":[-123.9886695,49.2047955]}},{"type":"Feature","properties":{"ZIP":"V9T5Z8","VERTICES":8},"geometry":{"type":"Point","coordinates":[-124.0199995,49.229192499999996]}},{"type":"Feature","properties":{"ZIP":"V9T4R8","VERTICES":8},"geometry":{"type":"Point","coordinates":[-124.01361,49.2197845]}},{"type":"Feature","properties":{"ZIP":"V9T1K2","VERTICES":8},"geometry":{"type":"Point","coordinates":[-123.94658150000001,49.214418]}},{"type":"Feature","properties":{"ZIP":"V9T1V1","VERTICES":8},"geometry":{"type":"Point","coordinates":[-123.996295,49.208085499999996]}},{"type":"Feature","properties":{"ZIP":"V9T3B1","VERTICES":8},"geometry":{"type":"Point","coordinates":[-123.9924345,49.2079085]}},{"type":"Feature","properties":{"ZIP":"V9T6C5","VERTICES":8},"geometry":{"type":"Point","coordinates":[-124.02412749999999,49.2200005]}},{"type":"Feature","properties":{"ZIP":"V9T1G8","VERTICES":8},"geometry":{"type":"Point","coordinates":[-123.9701815,49.208426]}},{"type":"Feature","properties":{"ZIP":"V9T5P5","VERTICES":8},"geometry":{"type":"Point","coordinates":[-124.022975,49.20464]}},{"type":"Feature","properties":{"ZIP":"V9T5Z9","VERTICES":8},"geometry":{"type":"Point","coordinates":[-124.0186395,49.227712999999994]}},{"type":"Feature","properties":{"ZIP":"V9T6R7","VERTICES":8},"geometry":{"type":"Point","coordinates":[-124.0302695,49.2016895]}},{"type":"Feature","properties":{"ZIP":"V9T1Y1","VERTICES":7},"geometry":{"type":"Point","coordinates":[-124.0104685,49.2085625]}},{"type":"Feature","properties":{"ZIP":"V9T2Z5","VERTICES":7},"geometry":{"type":"Point","coordinates":[-124.0388645,49.2139515]}},{"type":"Feature","properties":{"ZIP":"V9T3P8","VERTICES":7},"geometry":{"type":"Point","coordinates":[-124.00849450000001,49.198097000000004]}},{"type":"Feature","properties":{"ZIP":"V9T5G1","VERTICES":7},"geometry":{"type":"Point","coordinates":[-124.001037,49.230687]}},{"type":"Feature","properties":{"ZIP":"V9T1E7","VERTICES":7},"geometry":{"type":"Point","coordinates":[-123.9530285,49.218709000000004]}},{"type":"Feature","properties":{"ZIP":"V9T1P2","VERTICES":7},"geometry":{"type":"Point","coordinates":[-123.98948150000001,49.207513500000005]}},{"type":"Feature","properties":{"ZIP":"V9T5B6","VERTICES":7},"geometry":{"type":"Point","coordinates":[-123.99073949999999,49.2326535]}},{"type":"Feature","properties":{"ZIP":"V9T5H3","VERTICES":7},"geometry":{"type":"Point","coordinates":[-124.0160085,49.228417]}},{"type":"Feature","properties":{"ZIP":"V9T1G9","VERTICES":7},"geometry":{"type":"Point","coordinates":[-123.973569,49.2087155]}},{"type":"Feature","properties":{"ZIP":"V9T1W8","VERTICES":7},"geometry":{"type":"Point","coordinates":[-123.986648,49.212268]}},{"type":"Feature","properties":{"ZIP":"V9T6L5","VERTICES":7},"geometry":{"type":"Point","coordinates":[-124.0271835,49.2022175]}},{"type":"Feature","properties":{"ZIP":"V9T2P9","VERTICES":7},"geometry":{"type":"Point","coordinates":[-124.0004705,49.212761]}},{"type":"Feature","properties":{"ZIP":"V9T2Z6","VERTICES":7},"geometry":{"type":"Point","coordinates":[-123.989364,49.209413999999995]}},{"type":"Feature","properties":{"ZIP":"V9T1K4","VERTICES":7},"geometry":{"type":"Point","coordinates":[-124.01297,49.2315045]}},{"type":"Feature","properties":{"ZIP":"V9T1P3","VERTICES":7},"geometry":{"type":"Point","coordinates":[-123.98938749999999,49.207426]}},{"type":"Feature","properties":{"ZIP":"V9T2H3","VERTICES":7},"geometry":{"type":"Point","coordinates":[-124.022178,49.207768]}},{"type":"Feature","properties":{"ZIP":"V9T3X6","VERTICES":7},"geometry":{"type":"Point","coordinates":[-124.008591,49.217534]}},{"type":"Feature","properties":{"ZIP":"V9T4M8","VERTICES":7},"geometry":{"type":"Point","coordinates":[-124.0436795,49.214104]}},{"type":"Feature","properties":{"ZIP":"V9T5B7","VERTICES":7},"geometry":{"type":"Point","coordinates":[-123.98678949999999,49.230864499999996]}},{"type":"Feature","properties":{"ZIP":"V9T6P7","VERTICES":7},"geometry":{"type":"Point","coordinates":[-124.0339745,49.201519000000005]}},{"type":"Feature","properties":{"ZIP":"V9T1L8","VERTICES":7},"geometry":{"type":"Point","coordinates":[-123.94959750000001,49.219479]}},{"type":"Feature","properties":{"ZIP":"V9T2Y4","VERTICES":7},"geometry":{"type":"Point","coordinates":[-123.98221849999999,49.2073975]}},{"type":"Feature","properties":{"ZIP":"V9T6L6","VERTICES":7},"geometry":{"type":"Point","coordinates":[-124.01867200000001,49.222372]}},{"type":"Feature","properties":{"ZIP":"V9T2L2","VERTICES":7},"geometry":{"type":"Point","coordinates":[-124.036524,49.218793]}},{"type":"Feature","properties":{"ZIP":"V9T6H8","VERTICES":7},"geometry":{"type":"Point","coordinates":[-124.0270785,49.2326315]}},{"type":"Feature","properties":{"ZIP":"V9T1E9","VERTICES":7},"geometry":{"type":"Point","coordinates":[-123.95081149999999,49.222436]}},{"type":"Feature","properties":{"ZIP":"V9T4M9","VERTICES":7},"geometry":{"type":"Point","coordinates":[-124.015327,49.215822]}},{"type":"Feature","properties":{"ZIP":"V9T1H2","VERTICES":7},"geometry":{"type":"Point","coordinates":[-123.9807995,49.2104865]}},{"type":"Feature","properties":{"ZIP":"V9T1R9","VERTICES":7},"geometry":{"type":"Point","coordinates":[-123.99334999999999,49.206314]}},{"type":"Feature","properties":{"ZIP":"V9T4J9","VERTICES":7},"geometry":{"type":"Point","coordinates":[-124.0192145,49.220324500000004]}},{"type":"Feature","properties":{"ZIP":"V9T4Y1","VERTICES":7},"geometry":{"type":"Point","coordinates":[-124.01172700000001,49.2123965]}},{"type":"Feature","properties":{"ZIP":"V9T5E2","VERTICES":7},"geometry":{"type":"Point","coordinates":[-123.984955,49.2274155]}},{"type":"Feature","properties":{"ZIP":"V9T5P8","VERTICES":7},"geometry":{"type":"Point","coordinates":[-124.03306599999999,49.2071265]}},{"type":"Feature","properties":{"ZIP":"V9T6A3","VERTICES":7},"geometry":{"type":"Point","coordinates":[-124.00988000000001,49.194253]}},{"type":"Feature","properties":{"ZIP":"V9T6L7","VERTICES":7},"geometry":{"type":"Point","coordinates":[-124.012972,49.2215125]}},{"type":"Feature","properties":{"ZIP":"V9T4A3","VERTICES":7},"geometry":{"type":"Point","coordinates":[-123.972666,49.211344499999996]}},{"type":"Feature","properties":{"ZIP":"V9T4L4","VERTICES":7},"geometry":{"type":"Point","coordinates":[-123.96489,49.2123245]}},{"type":"Feature","properties":{"ZIP":"V9T5G4","VERTICES":7},"geometry":{"type":"Point","coordinates":[-124.0090905,49.2294895]}},{"type":"Feature","properties":{"ZIP":"V9T2S7","VERTICES":7},"geometry":{"type":"Point","coordinates":[-124.0059305,49.215789]}},{"type":"Feature","properties":{"ZIP":"V9T4H7","VERTICES":7},"geometry":{"type":"Point","coordinates":[-124.0202075,49.2182595]}},{"type":"Feature","properties":{"ZIP":"V9T5N7","VERTICES":7},"geometry":{"type":"Point","coordinates":[-124.0284855,49.2276605]}},{"type":"Feature","properties":{"ZIP":"V9T1M1","VERTICES":7},"geometry":{"type":"Point","coordinates":[-123.94748200000001,49.21752]}},{"type":"Feature","properties":{"ZIP":"V9T1S1","VERTICES":7},"geometry":{"type":"Point","coordinates":[-123.994117,49.206514]}},{"type":"Feature","properties":{"ZIP":"V9T3P1","VERTICES":7},"geometry":{"type":"Point","coordinates":[-124.015417,49.198862500000004]}},{"type":"Feature","properties":{"ZIP":"V9T4C9","VERTICES":7},"geometry":{"type":"Point","coordinates":[-123.986752,49.2036935]}},{"type":"Feature","properties":{"ZIP":"V9T5L2","VERTICES":7},"geometry":{"type":"Point","coordinates":[-124.01987249999999,49.2159175]}},{"type":"Feature","properties":{"ZIP":"V9T5W3","VERTICES":7},"geometry":{"type":"Point","coordinates":[-123.9833575,49.2157395]}},{"type":"Feature","properties":{"ZIP":"V9T6S2","VERTICES":7},"geometry":{"type":"Point","coordinates":[-124.00919999999999,49.233565]}},{"type":"Feature","properties":{"ZIP":"V9T4L5","VERTICES":7},"geometry":{"type":"Point","coordinates":[-123.96487149999999,49.2122125]}},{"type":"Feature","properties":{"ZIP":"V9T4S5","VERTICES":7},"geometry":{"type":"Point","coordinates":[-123.960826,49.213531]}},{"type":"Feature","properties":{"ZIP":"V9T6N6","VERTICES":7},"geometry":{"type":"Point","coordinates":[-124.01199600000001,49.222547500000005]}},{"type":"Feature","properties":{"ZIP":"V9T1P6","VERTICES":7},"geometry":{"type":"Point","coordinates":[-123.992502,49.203638]}},{"type":"Feature","properties":{"ZIP":"V9T2H9","VERTICES":7},"geometry":{"type":"Point","coordinates":[-124.03858299999999,49.2145055]}},{"type":"Feature","properties":{"ZIP":"V9T2X5","VERTICES":7},"geometry":{"type":"Point","coordinates":[-123.988171,49.207606]}},{"type":"Feature","properties":{"ZIP":"V9T4H8","VERTICES":7},"geometry":{"type":"Point","coordinates":[-124.0202075,49.2182595]}},{"type":"Feature","properties":{"ZIP":"V9T5T5","VERTICES":7},"geometry":{"type":"Point","coordinates":[-123.951386,49.218757]}},{"type":"Feature","properties":{"ZIP":"V9T1H4","VERTICES":7},"geometry":{"type":"Point","coordinates":[-123.97574850000001,49.2091035]}},{"type":"Feature","properties":{"ZIP":"V9T1M2","VERTICES":7},"geometry":{"type":"Point","coordinates":[-123.9500755,49.220703]}},{"type":"Feature","properties":{"ZIP":"V9T4K3","VERTICES":7},"geometry":{"type":"Point","coordinates":[-123.968496,49.212429]}},{"type":"Feature","properties":{"ZIP":"V9T4R3","VERTICES":7},"geometry":{"type":"Point","coordinates":[-124.01622950000001,49.220153999999994]}},{"type":"Feature","properties":{"ZIP":"V9T5R1","VERTICES":7},"geometry":{"type":"Point","coordinates":[-124.037122,49.201312]}},{"type":"Feature","properties":{"ZIP":"V9T6G7","VERTICES":7},"geometry":{"type":"Point","coordinates":[-124.05373900000001,49.221344]}},{"type":"Feature","properties":{"ZIP":"V9T2L5","VERTICES":7},"geometry":{"type":"Point","coordinates":[-124.041741,49.222474500000004]}},{"type":"Feature","properties":{"ZIP":"V9T3G3","VERTICES":7},"geometry":{"type":"Point","coordinates":[-123.964661,49.229567]}},{"type":"Feature","properties":{"ZIP":"V9T3L7","VERTICES":7},"geometry":{"type":"Point","coordinates":[-124.0141385,49.200272999999996]}},{"type":"Feature","properties":{"ZIP":"V9T4A5","VERTICES":7},"geometry":{"type":"Point","coordinates":[-123.9753195,49.211379]}},{"type":"Feature","properties":{"ZIP":"V9T5G6","VERTICES":7},"geometry":{"type":"Point","coordinates":[-124.00885450000001,49.2303]}},{"type":"Feature","properties":{"ZIP":"V9T5M7","VERTICES":7},"geometry":{"type":"Point","coordinates":[-124.02490449999999,49.2325255]}},{"type":"Feature","properties":{"ZIP":"V9T5Y1","VERTICES":7},"geometry":{"type":"Point","coordinates":[-124.04212849999999,49.2342455]}},{"type":"Feature","properties":{"ZIP":"V9T6B8","VERTICES":7},"geometry":{"type":"Point","coordinates":[-124.0295955,49.2182425]}},{"type":"Feature","properties":{"ZIP":"V9T1G3","VERTICES":7},"geometry":{"type":"Point","coordinates":[-123.95927900000001,49.227106]}},{"type":"Feature","properties":{"ZIP":"V9T1V7","VERTICES":7},"geometry":{"type":"Point","coordinates":[-123.9981255,49.2065595]}},{"type":"Feature","properties":{"ZIP":"V9T2V2","VERTICES":7},"geometry":{"type":"Point","coordinates":[-124.009049,49.216255000000004]}},{"type":"Feature","properties":{"ZIP":"V9T3V3","VERTICES":7},"geometry":{"type":"Point","coordinates":[-123.977035,49.211988500000004]}},{"type":"Feature","properties":{"ZIP":"V9T4K4","VERTICES":7},"geometry":{"type":"Point","coordinates":[-123.96852,49.212518]}},{"type":"Feature","properties":{"ZIP":"V9T3A4","VERTICES":7},"geometry":{"type":"Point","coordinates":[-123.981077,49.2063715]}},{"type":"Feature","properties":{"ZIP":"V9T3G4","VERTICES":7},"geometry":{"type":"Point","coordinates":[-123.9621945,49.2111085]}},{"type":"Feature","properties":{"ZIP":"V9T4T1","VERTICES":7},"geometry":{"type":"Point","coordinates":[-123.96300450000001,49.214046]}},{"type":"Feature","properties":{"ZIP":"V9T5M8","VERTICES":7},"geometry":{"type":"Point","coordinates":[-124.018193,49.231018000000006]}},{"type":"Feature","properties":{"ZIP":"V9T2J2","VERTICES":7},"geometry":{"type":"Point","coordinates":[-124.0390905,49.216523499999994]}},{"type":"Feature","properties":{"ZIP":"V9T4B9","VERTICES":7},"geometry":{"type":"Point","coordinates":[-124.0098785,49.197481499999995]}},{"type":"Feature","properties":{"ZIP":"V9T5P1","VERTICES":7},"geometry":{"type":"Point","coordinates":[-124.02387999999999,49.2195305]}},{"type":"Feature","properties":{"ZIP":"V9T2K5","VERTICES":7},"geometry":{"type":"Point","coordinates":[-124.0340995,49.2155825]}},{"type":"Feature","properties":{"ZIP":"V9T2P4","VERTICES":7},"geometry":{"type":"Point","coordinates":[-123.990061,49.211191]}},{"type":"Feature","properties":{"ZIP":"V9T2V3","VERTICES":7},"geometry":{"type":"Point","coordinates":[-124.0115075,49.215996000000004]}},{"type":"Feature","properties":{"ZIP":"V9T3Z5","VERTICES":7},"geometry":{"type":"Point","coordinates":[-124.01489,49.2160755]}},{"type":"Feature","properties":{"ZIP":"V9T4R5","VERTICES":7},"geometry":{"type":"Point","coordinates":[-124.01219,49.2198025]}},{"type":"Feature","properties":{"ZIP":"V9T4Y8","VERTICES":7},"geometry":{"type":"Point","coordinates":[-123.9802095,49.2141765]}},{"type":"Feature","properties":{"ZIP":"V9T5L6","VERTICES":7},"geometry":{"type":"Point","coordinates":[-123.986767,49.2299555]}},{"type":"Feature","properties":{"ZIP":"V9T6G9","VERTICES":7},"geometry":{"type":"Point","coordinates":[-124.066152,49.212328]}},{"type":"Feature","properties":{"ZIP":"V9T3W8","VERTICES":7},"geometry":{"type":"Point","coordinates":[-124.02582100000001,49.2001195]}},{"type":"Feature","properties":{"ZIP":"V9T5M9","VERTICES":7},"geometry":{"type":"Point","coordinates":[-123.9980745,49.2335585]}},{"type":"Feature","properties":{"ZIP":"V9T6C2","VERTICES":7},"geometry":{"type":"Point","coordinates":[-124.027341,49.2316745]}},{"type":"Feature","properties":{"ZIP":"V9T2X8","VERTICES":7},"geometry":{"type":"Point","coordinates":[-123.985361,49.208972]}},{"type":"Feature","properties":{"ZIP":"V9T5P2","VERTICES":7},"geometry":{"type":"Point","coordinates":[-124.01688,49.2210155]}},{"type":"Feature","properties":{"ZIP":"V9T5Z6","VERTICES":7},"geometry":{"type":"Point","coordinates":[-124.024944,49.2299125]}},{"type":"Feature","properties":{"ZIP":"V9T6E7","VERTICES":7},"geometry":{"type":"Point","coordinates":[-124.0441055,49.2260495]}},{"type":"Feature","properties":{"ZIP":"V9T6R4","VERTICES":7},"geometry":{"type":"Point","coordinates":[-124.024492,49.226121000000006]}},{"type":"Feature","properties":{"ZIP":"V9T1C1","VERTICES":7},"geometry":{"type":"Point","coordinates":[-123.9869415,49.210228]}},{"type":"Feature","properties":{"ZIP":"V9T1X7","VERTICES":7},"geometry":{"type":"Point","coordinates":[-124.00903650000001,49.2082845]}},{"type":"Feature","properties":{"ZIP":"V9T5E7","VERTICES":7},"geometry":{"type":"Point","coordinates":[-124.00245699999999,49.2299435]}},{"type":"Feature","properties":{"ZIP":"V9T5W9","VERTICES":7},"geometry":{"type":"Point","coordinates":[-123.9511525,49.212382500000004]}},{"type":"Feature","properties":{"ZIP":"V9T6M5","VERTICES":7},"geometry":{"type":"Point","coordinates":[-123.9485235,49.214828999999995]}},{"type":"Feature","properties":{"ZIP":"V9T1E4","VERTICES":7},"geometry":{"type":"Point","coordinates":[-123.9554805,49.2156]}},{"type":"Feature","properties":{"ZIP":"V9T1T8","VERTICES":7},"geometry":{"type":"Point","coordinates":[-123.99902,49.2071885]}},{"type":"Feature","properties":{"ZIP":"V9T4A8","VERTICES":7},"geometry":{"type":"Point","coordinates":[-123.9674355,49.229766]}},{"type":"Feature","properties":{"ZIP":"V9T4T4","VERTICES":7},"geometry":{"type":"Point","coordinates":[-123.9784815,49.215511]}},{"type":"Feature","properties":{"ZIP":"V9T6C3","VERTICES":7},"geometry":{"type":"Point","coordinates":[-124.0282785,49.2303895]}},{"type":"Feature","properties":{"ZIP":"V9T1L2","VERTICES":7},"geometry":{"type":"Point","coordinates":[-123.95978450000001,49.212457]}},{"type":"Feature","properties":{"ZIP":"V9T1R1","VERTICES":7},"geometry":{"type":"Point","coordinates":[-123.9940945,49.203477]}},{"type":"Feature","properties":{"ZIP":"V9T1W1","VERTICES":7},"geometry":{"type":"Point","coordinates":[-123.9977245,49.202443]}},{"type":"Feature","properties":{"ZIP":"V9T2X9","VERTICES":7},"geometry":{"type":"Point","coordinates":[-123.9854585,49.2089745]}},{"type":"Feature","properties":{"ZIP":"V9T5J8","VERTICES":7},"geometry":{"type":"Point","coordinates":[-123.9527805,49.22026]}},{"type":"Feature","properties":{"ZIP":"V9T5P3","VERTICES":7},"geometry":{"type":"Point","coordinates":[-124.0123495,49.220755]}},{"type":"Feature","properties":{"ZIP":"V9T5V3","VERTICES":7},"geometry":{"type":"Point","coordinates":[-123.99170799999999,49.21825]}},{"type":"Feature","properties":{"ZIP":"V9T0A4","VERTICES":7},"geometry":{"type":"Point","coordinates":[-124.03728799999999,49.2009735]}},{"type":"Feature","properties":{"ZIP":"V9T2C4","VERTICES":7},"geometry":{"type":"Point","coordinates":[-124.010825,49.208018]}},{"type":"Feature","properties":{"ZIP":"V9T3P6","VERTICES":7},"geometry":{"type":"Point","coordinates":[-124.014037,49.198319]}},{"type":"Feature","properties":{"ZIP":"V9T4K7","VERTICES":7},"geometry":{"type":"Point","coordinates":[-124.017212,49.217475]}},{"type":"Feature","properties":{"ZIP":"V9T5R5","VERTICES":7},"geometry":{"type":"Point","coordinates":[-123.9826025,49.215071]}},{"type":"Feature","properties":{"ZIP":"V9T5X1","VERTICES":7},"geometry":{"type":"Point","coordinates":[-123.949625,49.213826]}},{"type":"Feature","properties":{"ZIP":"V9T6A9","VERTICES":7},"geometry":{"type":"Point","coordinates":[-124.035878,49.233380499999996]}},{"type":"Feature","properties":{"ZIP":"V9T6H2","VERTICES":7},"geometry":{"type":"Point","coordinates":[-123.9615225,49.2226855]}},{"type":"Feature","properties":{"ZIP":"V9T1E5","VERTICES":7},"geometry":{"type":"Point","coordinates":[-123.956113,49.214131]}},{"type":"Feature","properties":{"ZIP":"V9T2L9","VERTICES":7},"geometry":{"type":"Point","coordinates":[-124.0455255,49.232198499999996]}},{"type":"Feature","properties":{"ZIP":"V9T4T6","VERTICES":7},"geometry":{"type":"Point","coordinates":[-123.9511705,49.218309000000005]}},{"type":"Feature","properties":{"ZIP":"V9T5N2","VERTICES":7},"geometry":{"type":"Point","coordinates":[-124.013253,49.2340675]}},{"type":"Feature","properties":{"ZIP":"V9T6C4","VERTICES":7},"geometry":{"type":"Point","coordinates":[-124.02508399999999,49.221687]}},{"type":"Feature","properties":{"ZIP":"V9T1G7","VERTICES":7},"geometry":{"type":"Point","coordinates":[-123.97012649999999,49.2078475]}},{"type":"Feature","properties":{"ZIP":"V9T5P4","VERTICES":7},"geometry":{"type":"Point","coordinates":[-124.019586,49.2057355]}},{"type":"Feature","properties":{"ZIP":"V9T2V6","VERTICES":7},"geometry":{"type":"Point","coordinates":[-123.9951065,49.215084000000004]}},{"type":"Feature","properties":{"ZIP":"V9T5M1","VERTICES":7},"geometry":{"type":"Point","coordinates":[-124.0191105,49.214745]}},{"type":"Feature","properties":{"ZIP":"V9T2H1","VERTICES":7},"geometry":{"type":"Point","coordinates":[-124.0117215,49.2048235]}},{"type":"Feature","properties":{"ZIP":"V9T3S1","VERTICES":7},"geometry":{"type":"Point","coordinates":[-124.0151775,49.1953965]}},{"type":"Feature","properties":{"ZIP":"V9T3X2","VERTICES":7},"geometry":{"type":"Point","coordinates":[-124.0108455,49.1971075]}},{"type":"Feature","properties":{"ZIP":"V9T5B5","VERTICES":7},"geometry":{"type":"Point","coordinates":[-123.9922155,49.2333765]}},{"type":"Feature","properties":{"ZIP":"V9T1L5","VERTICES":7},"geometry":{"type":"Point","coordinates":[-123.955175,49.215830499999996]}},{"type":"Feature","properties":{"ZIP":"V9T3C4","VERTICES":7},"geometry":{"type":"Point","coordinates":[-123.990215,49.2064445]}},{"type":"Feature","properties":{"ZIP":"V9T3N6","VERTICES":7},"geometry":{"type":"Point","coordinates":[-124.0192945,49.203358]}},{"type":"Feature","properties":{"ZIP":"V9T0A6","VERTICES":6},"geometry":{"type":"Point","coordinates":[-124.0382485,49.201747499999996]}},{"type":"Feature","properties":{"ZIP":"V9T1J1","VERTICES":6},"geometry":{"type":"Point","coordinates":[-123.9717675,49.2091275]}},{"type":"Feature","properties":{"ZIP":"V9T2C6","VERTICES":6},"geometry":{"type":"Point","coordinates":[-124.0148375,49.209495000000004]}},{"type":"Feature","properties":{"ZIP":"V9T2P8","VERTICES":6},"geometry":{"type":"Point","coordinates":[-124.00166949999999,49.2116055]}},{"type":"Feature","properties":{"ZIP":"V9T2V7","VERTICES":6},"geometry":{"type":"Point","coordinates":[-123.99809350000001,49.2143655]}},{"type":"Feature","properties":{"ZIP":"V9T0C3","VERTICES":6},"geometry":{"type":"Point","coordinates":[-123.9584935,49.216088]}},{"type":"Feature","properties":{"ZIP":"V9T1K3","VERTICES":6},"geometry":{"type":"Point","coordinates":[-123.949287,49.2112045]}},{"type":"Feature","properties":{"ZIP":"V9T1V2","VERTICES":6},"geometry":{"type":"Point","coordinates":[-123.9955395,49.2072415]}},{"type":"Feature","properties":{"ZIP":"V9T2S4","VERTICES":6},"geometry":{"type":"Point","coordinates":[-124.00354949999999,49.210003]}},{"type":"Feature","properties":{"ZIP":"V9T3X5","VERTICES":6},"geometry":{"type":"Point","coordinates":[-124.008561,49.2175285]}},{"type":"Feature","properties":{"ZIP":"V9T4M7","VERTICES":6},"geometry":{"type":"Point","coordinates":[-123.964928,49.2115725]}},{"type":"Feature","properties":{"ZIP":"V9T1L7","VERTICES":6},"geometry":{"type":"Point","coordinates":[-123.9550455,49.218205499999996]}},{"type":"Feature","properties":{"ZIP":"V9T1R7","VERTICES":6},"geometry":{"type":"Point","coordinates":[-123.99433400000001,49.204491000000004]}},{"type":"Feature","properties":{"ZIP":"V9T2J7","VERTICES":6},"geometry":{"type":"Point","coordinates":[-124.042148,49.2177905]}},{"type":"Feature","properties":{"ZIP":"V9T3N7","VERTICES":6},"geometry":{"type":"Point","coordinates":[-123.998341,49.1979865]}},{"type":"Feature","properties":{"ZIP":"V9T4C5","VERTICES":6},"geometry":{"type":"Point","coordinates":[-124.016674,49.218714000000006]}},{"type":"Feature","properties":{"ZIP":"V9T4P5","VERTICES":6},"geometry":{"type":"Point","coordinates":[-123.99028000000001,49.20355]}},{"type":"Feature","properties":{"ZIP":"V9T5C9","VERTICES":6},"geometry":{"type":"Point","coordinates":[-123.9855655,49.2275695]}},{"type":"Feature","properties":{"ZIP":"V9T2V8","VERTICES":6},"geometry":{"type":"Point","coordinates":[-123.9980915,49.215151]}},{"type":"Feature","properties":{"ZIP":"V9T3E8","VERTICES":6},"geometry":{"type":"Point","coordinates":[-123.95060649999999,49.2207245]}},{"type":"Feature","properties":{"ZIP":"V9T3L1","VERTICES":6},"geometry":{"type":"Point","coordinates":[-123.998156,49.198499]}},{"type":"Feature","properties":{"ZIP":"V9T3P9","VERTICES":6},"geometry":{"type":"Point","coordinates":[-124.00849450000001,49.198097000000004]}},{"type":"Feature","properties":{"ZIP":"V9T4S1","VERTICES":6},"geometry":{"type":"Point","coordinates":[-124.04298349999999,49.2229815]}},{"type":"Feature","properties":{"ZIP":"V9T1E8","VERTICES":6},"geometry":{"type":"Point","coordinates":[-123.9501875,49.220759]}},{"type":"Feature","properties":{"ZIP":"V9T4B3","VERTICES":6},"geometry":{"type":"Point","coordinates":[-124.0135635,49.216054]}},{"type":"Feature","properties":{"ZIP":"V9T4T9","VERTICES":6},"geometry":{"type":"Point","coordinates":[-124.040262,49.2162685]}},{"type":"Feature","properties":{"ZIP":"V9T3C6","VERTICES":6},"geometry":{"type":"Point","coordinates":[-123.9902665,49.206674500000005]}},{"type":"Feature","properties":{"ZIP":"V9T3N8","VERTICES":6},"geometry":{"type":"Point","coordinates":[-124.017714,49.202821]}},{"type":"Feature","properties":{"ZIP":"V9T3Y9","VERTICES":6},"geometry":{"type":"Point","coordinates":[-124.02589549999999,49.2018275]}},{"type":"Feature","properties":{"ZIP":"V9T4J8","VERTICES":6},"geometry":{"type":"Point","coordinates":[-124.019119,49.219067]}},{"type":"Feature","properties":{"ZIP":"V9T4X7","VERTICES":6},"geometry":{"type":"Point","coordinates":[-124.0149065,49.2133755]}},{"type":"Feature","properties":{"ZIP":"V9T5K5","VERTICES":6},"geometry":{"type":"Point","coordinates":[-124.01769949999999,49.2159015]}},{"type":"Feature","properties":{"ZIP":"V9T6A2","VERTICES":6},"geometry":{"type":"Point","coordinates":[-124.032555,49.231196]}},{"type":"Feature","properties":{"ZIP":"V9T0A8","VERTICES":6},"geometry":{"type":"Point","coordinates":[-123.976032,49.2286505]}},{"type":"Feature","properties":{"ZIP":"V9T1J3","VERTICES":6},"geometry":{"type":"Point","coordinates":[-123.97318,49.2096605]}},{"type":"Feature","properties":{"ZIP":"V9T2V9","VERTICES":6},"geometry":{"type":"Point","coordinates":[-123.9978135,49.2157]}},{"type":"Feature","properties":{"ZIP":"V9T2Z7","VERTICES":6},"geometry":{"type":"Point","coordinates":[-123.9716875,49.206111]}},{"type":"Feature","properties":{"ZIP":"V9T3L2","VERTICES":6},"geometry":{"type":"Point","coordinates":[-124.000361,49.201238000000004]}},{"type":"Feature","properties":{"ZIP":"V9T3R1","VERTICES":6},"geometry":{"type":"Point","coordinates":[-124.0099065,49.1968065]}},{"type":"Feature","properties":{"ZIP":"V9T4S2","VERTICES":6},"geometry":{"type":"Point","coordinates":[-123.9889815,49.2034825]}},{"type":"Feature","properties":{"ZIP":"V9T5M4","VERTICES":6},"geometry":{"type":"Point","coordinates":[-124.0334015,49.2338355]}},{"type":"Feature","properties":{"ZIP":"V9T5X7","VERTICES":6},"geometry":{"type":"Point","coordinates":[-123.98458600000001,49.205343]}},{"type":"Feature","properties":{"ZIP":"V9T2M4","VERTICES":6},"geometry":{"type":"Point","coordinates":[-124.0355785,49.218916500000006]}},{"type":"Feature","properties":{"ZIP":"V9T2X3","VERTICES":6},"geometry":{"type":"Point","coordinates":[-123.98854850000001,49.2119375]}},{"type":"Feature","properties":{"ZIP":"V9T3B4","VERTICES":6},"geometry":{"type":"Point","coordinates":[-123.994069,49.207703499999994]}},{"type":"Feature","properties":{"ZIP":"V9T3H3","VERTICES":6},"geometry":{"type":"Point","coordinates":[-123.9955035,49.2048205]}},{"type":"Feature","properties":{"ZIP":"V9T3M6","VERTICES":6},"geometry":{"type":"Point","coordinates":[-124.003218,49.199413500000006]}},{"type":"Feature","properties":{"ZIP":"V9T5H5","VERTICES":6},"geometry":{"type":"Point","coordinates":[-123.946429,49.2161605]}},{"type":"Feature","properties":{"ZIP":"V9T1B2","VERTICES":6},"geometry":{"type":"Point","coordinates":[-123.979652,49.2066715]}},{"type":"Feature","properties":{"ZIP":"V9T2T8","VERTICES":6},"geometry":{"type":"Point","coordinates":[-124.00879499999999,49.21688]}},{"type":"Feature","properties":{"ZIP":"V9T3K1","VERTICES":6},"geometry":{"type":"Point","coordinates":[-124.017125,49.1995565]}},{"type":"Feature","properties":{"ZIP":"V9T3Z1","VERTICES":6},"geometry":{"type":"Point","coordinates":[-124.0052295,49.2082275]}},{"type":"Feature","properties":{"ZIP":"V9T5K6","VERTICES":6},"geometry":{"type":"Point","coordinates":[-124.0183195,49.2161835]}},{"type":"Feature","properties":{"ZIP":"V9T5W2","VERTICES":6},"geometry":{"type":"Point","coordinates":[-123.9992325,49.2284965]}},{"type":"Feature","properties":{"ZIP":"V9T1C7","VERTICES":6},"geometry":{"type":"Point","coordinates":[-123.996291,49.209331]}},{"type":"Feature","properties":{"ZIP":"V9T1Z1","VERTICES":6},"geometry":{"type":"Point","coordinates":[-124.017223,49.2079035]}},{"type":"Feature","properties":{"ZIP":"V9T2R4","VERTICES":6},"geometry":{"type":"Point","coordinates":[-124.001542,49.2123525]}},{"type":"Feature","properties":{"ZIP":"V9T2W2","VERTICES":6},"geometry":{"type":"Point","coordinates":[-123.9991605,49.216807]}},{"type":"Feature","properties":{"ZIP":"V9T2Z8","VERTICES":6},"geometry":{"type":"Point","coordinates":[-123.9762075,49.206218500000006]}},{"type":"Feature","properties":{"ZIP":"V9T6N5","VERTICES":6},"geometry":{"type":"Point","coordinates":[-124.011787,49.222795500000004]}},{"type":"Feature","properties":{"ZIP":"V9T2M5","VERTICES":6},"geometry":{"type":"Point","coordinates":[-124.03667899999999,49.22128]}},{"type":"Feature","properties":{"ZIP":"V9T2X4","VERTICES":6},"geometry":{"type":"Point","coordinates":[-123.9885645,49.211756]}},{"type":"Feature","properties":{"ZIP":"V9T3B5","VERTICES":6},"geometry":{"type":"Point","coordinates":[-123.99372199999999,49.207291]}},{"type":"Feature","properties":{"ZIP":"V9T3H4","VERTICES":6},"geometry":{"type":"Point","coordinates":[-124.04329150000001,49.2200105]}},{"type":"Feature","properties":{"ZIP":"V9T4N2","VERTICES":6},"geometry":{"type":"Point","coordinates":[-124.0031585,49.1983645]}},{"type":"Feature","properties":{"ZIP":"V9T4V3","VERTICES":6},"geometry":{"type":"Point","coordinates":[-124.02528649999999,49.2022355]}},{"type":"Feature","properties":{"ZIP":"V9T2B8","VERTICES":6},"geometry":{"type":"Point","coordinates":[-124.017045,49.209588]}},{"type":"Feature","properties":{"ZIP":"V9T3C9","VERTICES":6},"geometry":{"type":"Point","coordinates":[-123.98488950000001,49.2110835]}},{"type":"Feature","properties":{"ZIP":"V9T4Y2","VERTICES":6},"geometry":{"type":"Point","coordinates":[-124.014122,49.2128825]}},{"type":"Feature","properties":{"ZIP":"V9T6G6","VERTICES":6},"geometry":{"type":"Point","coordinates":[-124.0259305,49.222356500000004]}},{"type":"Feature","properties":{"ZIP":"V9T6L8","VERTICES":6},"geometry":{"type":"Point","coordinates":[-124.03589149999999,49.225172]}},{"type":"Feature","properties":{"ZIP":"V9T1N3","VERTICES":6},"geometry":{"type":"Point","coordinates":[-123.954432,49.2261695]}},{"type":"Feature","properties":{"ZIP":"V9T2L4","VERTICES":6},"geometry":{"type":"Point","coordinates":[-124.0394745,49.219307]}},{"type":"Feature","properties":{"ZIP":"V9T2R5","VERTICES":6},"geometry":{"type":"Point","coordinates":[-123.99999,49.21323]}},{"type":"Feature","properties":{"ZIP":"V9T2W3","VERTICES":6},"geometry":{"type":"Point","coordinates":[-123.9959265,49.2109195]}},{"type":"Feature","properties":{"ZIP":"V9T3G2","VERTICES":6},"geometry":{"type":"Point","coordinates":[-123.9885975,49.2061225]}},{"type":"Feature","properties":{"ZIP":"V9T3L6","VERTICES":6},"geometry":{"type":"Point","coordinates":[-124.00345300000001,49.2019155]}},{"type":"Feature","properties":{"ZIP":"V9T5G5","VERTICES":6},"geometry":{"type":"Point","coordinates":[-124.00950549999999,49.230286]}},{"type":"Feature","properties":{"ZIP":"V9T5S2","VERTICES":6},"geometry":{"type":"Point","coordinates":[-123.989543,49.2129755]}},{"type":"Feature","properties":{"ZIP":"V9T1K7","VERTICES":6},"geometry":{"type":"Point","coordinates":[-123.96137150000001,49.212468]}},{"type":"Feature","properties":{"ZIP":"V9T2S8","VERTICES":6},"geometry":{"type":"Point","coordinates":[-123.99747500000001,49.2104315]}},{"type":"Feature","properties":{"ZIP":"V9T3B6","VERTICES":6},"geometry":{"type":"Point","coordinates":[-124.0428205,49.226811999999995]}},{"type":"Feature","properties":{"ZIP":"V9T3S9","VERTICES":6},"geometry":{"type":"Point","coordinates":[-123.997755,49.1966915]}},{"type":"Feature","properties":{"ZIP":"V9T5C1","VERTICES":6},"geometry":{"type":"Point","coordinates":[-123.9821225,49.230053]}},{"type":"Feature","properties":{"ZIP":"V9T5Z3","VERTICES":6},"geometry":{"type":"Point","coordinates":[-124.039044,49.212234]}},{"type":"Feature","properties":{"ZIP":"V9T6K5","VERTICES":6},"geometry":{"type":"Point","coordinates":[-123.99322000000001,49.232714]}},{"type":"Feature","properties":{"ZIP":"V9T2V1","VERTICES":6},"geometry":{"type":"Point","coordinates":[-124.0089025,49.216319999999996]}},{"type":"Feature","properties":{"ZIP":"V9T3K3","VERTICES":6},"geometry":{"type":"Point","coordinates":[-124.02007850000001,49.200803]}},{"type":"Feature","properties":{"ZIP":"V9T3Z3","VERTICES":6},"geometry":{"type":"Point","coordinates":[-123.968433,49.21037]}},{"type":"Feature","properties":{"ZIP":"V9T1Z3","VERTICES":6},"geometry":{"type":"Point","coordinates":[-124.018306,49.2084325]}},{"type":"Feature","properties":{"ZIP":"V9T2R7","VERTICES":6},"geometry":{"type":"Point","coordinates":[-124.0004175,49.211721499999996]}},{"type":"Feature","properties":{"ZIP":"V9T5A8","VERTICES":6},"geometry":{"type":"Point","coordinates":[-123.968617,49.230566499999995]}},{"type":"Feature","properties":{"ZIP":"V9T1K8","VERTICES":6},"geometry":{"type":"Point","coordinates":[-123.9614415,49.212509]}},{"type":"Feature","properties":{"ZIP":"V9T2A7","VERTICES":6},"geometry":{"type":"Point","coordinates":[-124.0176645,49.209016500000004]}},{"type":"Feature","properties":{"ZIP":"V9T2M8","VERTICES":6},"geometry":{"type":"Point","coordinates":[-124.03659350000001,49.2205905]}},{"type":"Feature","properties":{"ZIP":"V9T2S9","VERTICES":6},"geometry":{"type":"Point","coordinates":[-123.997556,49.210186500000006]}},{"type":"Feature","properties":{"ZIP":"V9T3B7","VERTICES":6},"geometry":{"type":"Point","coordinates":[-124.042346,49.226566000000005]}},{"type":"Feature","properties":{"ZIP":"V9T3T1","VERTICES":6},"geometry":{"type":"Point","coordinates":[-124.0192575,49.1979285]}},{"type":"Feature","properties":{"ZIP":"V9T4N4","VERTICES":6},"geometry":{"type":"Point","coordinates":[-123.9666315,49.2125465]}},{"type":"Feature","properties":{"ZIP":"V9T5C2","VERTICES":6},"geometry":{"type":"Point","coordinates":[-123.9795655,49.228193000000005]}},{"type":"Feature","properties":{"ZIP":"V9T5Z4","VERTICES":6},"geometry":{"type":"Point","coordinates":[-124.038056,49.2111185]}},{"type":"Feature","properties":{"ZIP":"V9T1B6","VERTICES":6},"geometry":{"type":"Point","coordinates":[-123.97521850000001,49.207206]}},{"type":"Feature","properties":{"ZIP":"V9T1H5","VERTICES":6},"geometry":{"type":"Point","coordinates":[-123.97574850000001,49.2091035]}},{"type":"Feature","properties":{"ZIP":"V9T1M3","VERTICES":6},"geometry":{"type":"Point","coordinates":[-123.953394,49.2219375]}},{"type":"Feature","properties":{"ZIP":"V9T2C1","VERTICES":6},"geometry":{"type":"Point","coordinates":[-124.00882849999999,49.207507]}},{"type":"Feature","properties":{"ZIP":"V9T2Y9","VERTICES":6},"geometry":{"type":"Point","coordinates":[-124.002102,49.21676]}},{"type":"Feature","properties":{"ZIP":"V9T3K4","VERTICES":6},"geometry":{"type":"Point","coordinates":[-124.020105,49.200812]}},{"type":"Feature","properties":{"ZIP":"V9T3P3","VERTICES":6},"geometry":{"type":"Point","coordinates":[-124.01414,49.196284500000004]}},{"type":"Feature","properties":{"ZIP":"V9T4R4","VERTICES":6},"geometry":{"type":"Point","coordinates":[-124.0151165,49.2190655]}},{"type":"Feature","properties":{"ZIP":"V9T5L4","VERTICES":6},"geometry":{"type":"Point","coordinates":[-123.9840875,49.211764]}},{"type":"Feature","properties":{"ZIP":"V9T0B5","VERTICES":6},"geometry":{"type":"Point","coordinates":[-124.028967,49.2216155]}},{"type":"Feature","properties":{"ZIP":"V9T1J7","VERTICES":6},"geometry":{"type":"Point","coordinates":[-123.96990299999999,49.209991]}},{"type":"Feature","properties":{"ZIP":"V9T2L6","VERTICES":6},"geometry":{"type":"Point","coordinates":[-124.04168899999999,49.226667500000005]}},{"type":"Feature","properties":{"ZIP":"V9T4A6","VERTICES":6},"geometry":{"type":"Point","coordinates":[-123.9758635,49.2128955]}},{"type":"Feature","properties":{"ZIP":"V9T6N9","VERTICES":6},"geometry":{"type":"Point","coordinates":[-124.0095335,49.206313]}},{"type":"Feature","properties":{"ZIP":"V9T2A9","VERTICES":6},"geometry":{"type":"Point","coordinates":[-124.0187675,49.209601]}},{"type":"Feature","properties":{"ZIP":"V9T2T1","VERTICES":6},"geometry":{"type":"Point","coordinates":[-123.99814599999999,49.21192]}},{"type":"Feature","properties":{"ZIP":"V9T3B8","VERTICES":6},"geometry":{"type":"Point","coordinates":[-124.042418,49.2278155]}},{"type":"Feature","properties":{"ZIP":"V9T3J1","VERTICES":6},"geometry":{"type":"Point","coordinates":[-124.0371515,49.2148945]}},{"type":"Feature","properties":{"ZIP":"V9T3N1","VERTICES":6},"geometry":{"type":"Point","coordinates":[-124.01449299999999,49.199497]}},{"type":"Feature","properties":{"ZIP":"V9T3Y2","VERTICES":6},"geometry":{"type":"Point","coordinates":[-124.0376985,49.2131495]}},{"type":"Feature","properties":{"ZIP":"V9T4J1","VERTICES":6},"geometry":{"type":"Point","coordinates":[-123.988984,49.2033885]}},{"type":"Feature","properties":{"ZIP":"V9T5C3","VERTICES":6},"geometry":{"type":"Point","coordinates":[-123.9788135,49.228079]}},{"type":"Feature","properties":{"ZIP":"V9T5J6","VERTICES":6},"geometry":{"type":"Point","coordinates":[-123.9882275,49.2056635]}},{"type":"Feature","properties":{"ZIP":"V9T6R3","VERTICES":6},"geometry":{"type":"Point","coordinates":[-124.0084825,49.2283375]}},{"type":"Feature","properties":{"ZIP":"V9T1B7","VERTICES":6},"geometry":{"type":"Point","coordinates":[-123.97970649999999,49.208738499999995]}},{"type":"Feature","properties":{"ZIP":"V9T2C2","VERTICES":6},"geometry":{"type":"Point","coordinates":[-124.0090005,49.2075535]}},{"type":"Feature","properties":{"ZIP":"V9T2Z1","VERTICES":6},"geometry":{"type":"Point","coordinates":[-124.0037915,49.2171965]}},{"type":"Feature","properties":{"ZIP":"V9T3K5","VERTICES":6},"geometry":{"type":"Point","coordinates":[-124.0153265,49.200500500000004]}},{"type":"Feature","properties":{"ZIP":"V9T3P4","VERTICES":6},"geometry":{"type":"Point","coordinates":[-124.01408699999999,49.196395]}},{"type":"Feature","properties":{"ZIP":"V9T1N7","VERTICES":6},"geometry":{"type":"Point","coordinates":[-123.973551,49.206998999999996]}},{"type":"Feature","properties":{"ZIP":"V9T1T7","VERTICES":6},"geometry":{"type":"Point","coordinates":[-123.99613,49.207847]}},{"type":"Feature","properties":{"ZIP":"V9T2R9","VERTICES":6},"geometry":{"type":"Point","coordinates":[-124.0009895,49.2131415]}},{"type":"Feature","properties":{"ZIP":"V9T2W6","VERTICES":6},"geometry":{"type":"Point","coordinates":[-123.996993,49.2120725]}},{"type":"Feature","properties":{"ZIP":"V9T4G7","VERTICES":6},"geometry":{"type":"Point","coordinates":[-123.94834,49.216626500000004]}},{"type":"Feature","properties":{"ZIP":"V9T5S5","VERTICES":6},"geometry":{"type":"Point","coordinates":[-124.0270745,49.2150655]}},{"type":"Feature","properties":{"ZIP":"V9T5Y3","VERTICES":6},"geometry":{"type":"Point","coordinates":[-123.9874795,49.228384]}},{"type":"Feature","properties":{"ZIP":"V9T6P2","VERTICES":6},"geometry":{"type":"Point","coordinates":[-124.010379,49.228008]}},{"type":"Feature","properties":{"ZIP":"V9T2B1","VERTICES":6},"geometry":{"type":"Point","coordinates":[-124.00913750000001,49.206829]}},{"type":"Feature","properties":{"ZIP":"V9T2N1","VERTICES":6},"geometry":{"type":"Point","coordinates":[-124.0387875,49.218379999999996]}},{"type":"Feature","properties":{"ZIP":"V9T3B9","VERTICES":6},"geometry":{"type":"Point","coordinates":[-123.9628385,49.22866500000001]}},{"type":"Feature","properties":{"ZIP":"V9T3T3","VERTICES":6},"geometry":{"type":"Point","coordinates":[-124.017928,49.19801]}},{"type":"Feature","properties":{"ZIP":"V9T5J7","VERTICES":6},"geometry":{"type":"Point","coordinates":[-124.0203085,49.214697]}},{"type":"Feature","properties":{"ZIP":"V9T1M5","VERTICES":6},"geometry":{"type":"Point","coordinates":[-123.95262199999999,49.223203999999996]}},{"type":"Feature","properties":{"ZIP":"V9T2C3","VERTICES":6},"geometry":{"type":"Point","coordinates":[-124.0104945,49.2078185]}},{"type":"Feature","properties":{"ZIP":"V9T2P5","VERTICES":6},"geometry":{"type":"Point","coordinates":[-123.997069,49.213055]}},{"type":"Feature","properties":{"ZIP":"V9T2Z2","VERTICES":6},"geometry":{"type":"Point","coordinates":[-124.0346695,49.2135875]}},{"type":"Feature","properties":{"ZIP":"V9T3V5","VERTICES":6},"geometry":{"type":"Point","coordinates":[-124.0123165,49.2160745]}},{"type":"Feature","properties":{"ZIP":"V9T4K6","VERTICES":6},"geometry":{"type":"Point","coordinates":[-124.0267285,49.214948500000006]}},{"type":"Feature","properties":{"ZIP":"V9T5L7","VERTICES":6},"geometry":{"type":"Point","coordinates":[-123.98855,49.230222]}},{"type":"Feature","properties":{"ZIP":"V9T5R4","VERTICES":6},"geometry":{"type":"Point","coordinates":[-124.01215450000001,49.213195]}},{"type":"Feature","properties":{"ZIP":"V9T6A8","VERTICES":6},"geometry":{"type":"Point","coordinates":[-123.9808515,49.216138]}},{"type":"Feature","properties":{"ZIP":"V9T6S6","VERTICES":6},"geometry":{"type":"Point","coordinates":[-123.975841,49.229911]}},{"type":"Feature","properties":{"ZIP":"V9T1J9","VERTICES":6},"geometry":{"type":"Point","coordinates":[-123.97228849999999,49.2111865]}},{"type":"Feature","properties":{"ZIP":"V9T1N8","VERTICES":6},"geometry":{"type":"Point","coordinates":[-123.97626650000001,49.207578999999996]}},{"type":"Feature","properties":{"ZIP":"V9T2L8","VERTICES":6},"geometry":{"type":"Point","coordinates":[-124.0430425,49.2304915]}},{"type":"Feature","properties":{"ZIP":"V9T2S1","VERTICES":6},"geometry":{"type":"Point","coordinates":[-124.0032815,49.212655]}},{"type":"Feature","properties":{"ZIP":"V9T5B3","VERTICES":6},"geometry":{"type":"Point","coordinates":[-123.974388,49.232678]}},{"type":"Feature","properties":{"ZIP":"V9T5G9","VERTICES":6},"geometry":{"type":"Point","coordinates":[-124.0111395,49.2295175]}},{"type":"Feature","properties":{"ZIP":"V9T2B2","VERTICES":6},"geometry":{"type":"Point","coordinates":[-124.0094955,49.2069085]}},{"type":"Feature","properties":{"ZIP":"V9T2N2","VERTICES":6},"geometry":{"type":"Point","coordinates":[-124.0383995,49.2191275]}},{"type":"Feature","properties":{"ZIP":"V9T3C2","VERTICES":6},"geometry":{"type":"Point","coordinates":[-124.0291,49.2094025]}},{"type":"Feature","properties":{"ZIP":"V9T1M6","VERTICES":6},"geometry":{"type":"Point","coordinates":[-123.95441,49.2244095]}},{"type":"Feature","properties":{"ZIP":"V9T2P6","VERTICES":6},"geometry":{"type":"Point","coordinates":[-123.997378,49.21312]}},{"type":"Feature","properties":{"ZIP":"V9T2V5","VERTICES":6},"geometry":{"type":"Point","coordinates":[-123.995788,49.21513]}},{"type":"Feature","properties":{"ZIP":"V9T2Z3","VERTICES":6},"geometry":{"type":"Point","coordinates":[-124.03647000000001,49.213988]}},{"type":"Feature","properties":{"ZIP":"V9T3V6","VERTICES":6},"geometry":{"type":"Point","coordinates":[-124.0112915,49.215635]}},{"type":"Feature","properties":{"ZIP":"V9T3Z7","VERTICES":6},"geometry":{"type":"Point","coordinates":[-124.039909,49.2130735]}},{"type":"Feature","properties":{"ZIP":"V9T4R7","VERTICES":6},"geometry":{"type":"Point","coordinates":[-124.01118349999999,49.219629]}},{"type":"Feature","properties":{"ZIP":"V9T4Z3","VERTICES":6},"geometry":{"type":"Point","coordinates":[-124.0471315,49.215971499999995]}},{"type":"Feature","properties":{"ZIP":"V9T6M6","VERTICES":6},"geometry":{"type":"Point","coordinates":[-124.01496900000001,49.222545]}},{"type":"Feature","properties":{"ZIP":"V9T6S7","VERTICES":6},"geometry":{"type":"Point","coordinates":[-123.97587899999999,49.2300335]}},{"type":"Feature","properties":{"ZIP":"V9T1Z7","VERTICES":6},"geometry":{"type":"Point","coordinates":[-124.011617,49.206891999999996]}},{"type":"Feature","properties":{"ZIP":"V9T2S2","VERTICES":6},"geometry":{"type":"Point","coordinates":[-124.0025125,49.2123285]}},{"type":"Feature","properties":{"ZIP":"V9T3A9","VERTICES":6},"geometry":{"type":"Point","coordinates":[-123.9921875,49.207829000000004]}},{"type":"Feature","properties":{"ZIP":"V9T5B4","VERTICES":6},"geometry":{"type":"Point","coordinates":[-123.98589849999999,49.23187]}},{"type":"Feature","properties":{"ZIP":"V9T5H1","VERTICES":6},"geometry":{"type":"Point","coordinates":[-124.01156700000001,49.2287595]}},{"type":"Feature","properties":{"ZIP":"V9T5S7","VERTICES":6},"geometry":{"type":"Point","coordinates":[-123.98608300000001,49.207691]}},{"type":"Feature","properties":{"ZIP":"V9T6J6","VERTICES":6},"geometry":{"type":"Point","coordinates":[-124.046895,49.23054]}},{"type":"Feature","properties":{"ZIP":"V9T1A4","VERTICES":6},"geometry":{"type":"Point","coordinates":[-123.9811215,49.207294000000005]}},{"type":"Feature","properties":{"ZIP":"V9T1L3","VERTICES":6},"geometry":{"type":"Point","coordinates":[-123.959221,49.2125705]}},{"type":"Feature","properties":{"ZIP":"V9T1R2","VERTICES":6},"geometry":{"type":"Point","coordinates":[-123.9942875,49.203496]}},{"type":"Feature","properties":{"ZIP":"V9T2B3","VERTICES":6},"geometry":{"type":"Point","coordinates":[-124.01076800000001,49.207205]}},{"type":"Feature","properties":{"ZIP":"V9T2J5","VERTICES":6},"geometry":{"type":"Point","coordinates":[-124.039868,49.2157775]}},{"type":"Feature","properties":{"ZIP":"V9T3C3","VERTICES":6},"geometry":{"type":"Point","coordinates":[-123.97638599999999,49.210214500000006]}},{"type":"Feature","properties":{"ZIP":"V9T3Y6","VERTICES":6},"geometry":{"type":"Point","coordinates":[-124.00352749999999,49.208475]}},{"type":"Feature","properties":{"ZIP":"V9T4C3","VERTICES":6},"geometry":{"type":"Point","coordinates":[-124.014464,49.2169575]}},{"type":"Feature","properties":{"ZIP":"V9T6R6","VERTICES":6},"geometry":{"type":"Point","coordinates":[-124.0109085,49.222489499999995]}},{"type":"Feature","properties":{"ZIP":"V9T1C3","VERTICES":6},"geometry":{"type":"Point","coordinates":[-123.987511,49.21009]}},{"type":"Feature","properties":{"ZIP":"V9T1X9","VERTICES":6},"geometry":{"type":"Point","coordinates":[-124.010263,49.208597499999996]}},{"type":"Feature","properties":{"ZIP":"V9T2P7","VERTICES":6},"geometry":{"type":"Point","coordinates":[-124.00112200000001,49.2124155]}},{"type":"Feature","properties":{"ZIP":"V9T3P7","VERTICES":6},"geometry":{"type":"Point","coordinates":[-124.0140895,49.198615000000004]}},{"type":"Feature","properties":{"ZIP":"V9T3V7","VERTICES":6},"geometry":{"type":"Point","coordinates":[-124.0112915,49.215635]}},{"type":"Feature","properties":{"ZIP":"V9T3Z8","VERTICES":6},"geometry":{"type":"Point","coordinates":[-123.971416,49.209618500000005]}},{"type":"Feature","properties":{"ZIP":"V9T5E9","VERTICES":6},"geometry":{"type":"Point","coordinates":[-124.0035635,49.229887500000004]}},{"type":"Feature","properties":{"ZIP":"V9T6H3","VERTICES":6},"geometry":{"type":"Point","coordinates":[-123.9599045,49.2225245]}},{"type":"Feature","properties":{"ZIP":"V9T1E6","VERTICES":6},"geometry":{"type":"Point","coordinates":[-123.95391000000001,49.2173195]}},{"type":"Feature","properties":{"ZIP":"V9T1Z8","VERTICES":6},"geometry":{"type":"Point","coordinates":[-124.01316750000001,49.2071935]}},{"type":"Feature","properties":{"ZIP":"V9T4B1","VERTICES":6},"geometry":{"type":"Point","coordinates":[-123.998887,49.205753]}},{"type":"Feature","properties":{"ZIP":"V9T4M5","VERTICES":6},"geometry":{"type":"Point","coordinates":[-124.020048,49.2181585]}},{"type":"Feature","properties":{"ZIP":"V9T5H2","VERTICES":6},"geometry":{"type":"Point","coordinates":[-124.011628,49.2287375]}},{"type":"Feature","properties":{"ZIP":"V9T6P5","VERTICES":6},"geometry":{"type":"Point","coordinates":[-124.009987,49.228488]}},{"type":"Feature","properties":{"ZIP":"V9T2B4","VERTICES":6},"geometry":{"type":"Point","coordinates":[-124.01128399999999,49.2073185]}},{"type":"Feature","properties":{"ZIP":"V9T3J6","VERTICES":6},"geometry":{"type":"Point","coordinates":[-123.9684055,49.2098355]}},{"type":"Feature","properties":{"ZIP":"V9T4C4","VERTICES":6},"geometry":{"type":"Point","coordinates":[-124.0151395,49.2177475]}},{"type":"Feature","properties":{"ZIP":"V9T4J5","VERTICES":6},"geometry":{"type":"Point","coordinates":[-123.987935,49.20496]}},{"type":"Feature","properties":{"ZIP":"V9T6G2","VERTICES":6},"geometry":{"type":"Point","coordinates":[-124.0466735,49.215226]}},{"type":"Feature","properties":{"ZIP":"V9T6L4","VERTICES":6},"geometry":{"type":"Point","coordinates":[-124.02058600000001,49.2218165]}},{"type":"Feature","properties":{"ZIP":"V9T1S8","VERTICES":5},"geometry":{"type":"Point","coordinates":[-123.992827,49.2064435]}},{"type":"Feature","properties":{"ZIP":"V9T3E7","VERTICES":5},"geometry":{"type":"Point","coordinates":[-123.9516615,49.220346]}},{"type":"Feature","properties":{"ZIP":"V9T3Z9","VERTICES":5},"geometry":{"type":"Point","coordinates":[-123.973275,49.211438]}},{"type":"Feature","properties":{"ZIP":"V9T4R9","VERTICES":5},"geometry":{"type":"Point","coordinates":[-124.0123205,49.219721]}},{"type":"Feature","properties":{"ZIP":"V9T6M8","VERTICES":5},"geometry":{"type":"Point","coordinates":[-124.0274075,49.219906]}},{"type":"Feature","properties":{"ZIP":"V9T2M2","VERTICES":5},"geometry":{"type":"Point","coordinates":[-124.0364605,49.218205]}},{"type":"Feature","properties":{"ZIP":"V9T2X1","VERTICES":5},"geometry":{"type":"Point","coordinates":[-123.997077,49.2114985]}},{"type":"Feature","properties":{"ZIP":"V9T3B2","VERTICES":5},"geometry":{"type":"Point","coordinates":[-123.992815,49.207154]}},{"type":"Feature","properties":{"ZIP":"V9T3H1","VERTICES":5},"geometry":{"type":"Point","coordinates":[-123.967518,49.209768499999996]}},{"type":"Feature","properties":{"ZIP":"V9T3M4","VERTICES":5},"geometry":{"type":"Point","coordinates":[-124.007294,49.2028655]}},{"type":"Feature","properties":{"ZIP":"V9T4B2","VERTICES":5},"geometry":{"type":"Point","coordinates":[-123.998224,49.2058335]}},{"type":"Feature","properties":{"ZIP":"V9T6K1","VERTICES":5},"geometry":{"type":"Point","coordinates":[-124.032751,49.2226955]}},{"type":"Feature","properties":{"ZIP":"V9T1A8","VERTICES":5},"geometry":{"type":"Point","coordinates":[-123.97827849999999,49.2070765]}},{"type":"Feature","properties":{"ZIP":"V9T2B5","VERTICES":5},"geometry":{"type":"Point","coordinates":[-124.0125615,49.20761]}},{"type":"Feature","properties":{"ZIP":"V9T3C5","VERTICES":5},"geometry":{"type":"Point","coordinates":[-123.99033800000001,49.206486]}},{"type":"Feature","properties":{"ZIP":"V9T3T7","VERTICES":5},"geometry":{"type":"Point","coordinates":[-124.018463,49.198803999999996]}},{"type":"Feature","properties":{"ZIP":"V9T3Y8","VERTICES":5},"geometry":{"type":"Point","coordinates":[-124.038989,49.21454799999999]}},{"type":"Feature","properties":{"ZIP":"V9T4J7","VERTICES":5},"geometry":{"type":"Point","coordinates":[-124.01933,49.218798]}},{"type":"Feature","properties":{"ZIP":"V9T1J2","VERTICES":5},"geometry":{"type":"Point","coordinates":[-123.9729155,49.2095905]}},{"type":"Feature","properties":{"ZIP":"V9T2L1","VERTICES":5},"geometry":{"type":"Point","coordinates":[-124.0377995,49.218222]}},{"type":"Feature","properties":{"ZIP":"V9T4L2","VERTICES":5},"geometry":{"type":"Point","coordinates":[-123.9673815,49.21221]}},{"type":"Feature","properties":{"ZIP":"V9T5G2","VERTICES":5},"geometry":{"type":"Point","coordinates":[-124.0039625,49.2311245]}},{"type":"Feature","properties":{"ZIP":"V9T5M3","VERTICES":5},"geometry":{"type":"Point","coordinates":[-123.97868700000001,49.2157605]}},{"type":"Feature","properties":{"ZIP":"V9T6M9","VERTICES":5},"geometry":{"type":"Point","coordinates":[-124.040758,49.2347565]}},{"type":"Feature","properties":{"ZIP":"V9T1V3","VERTICES":5},"geometry":{"type":"Point","coordinates":[-123.994733,49.2088325]}},{"type":"Feature","properties":{"ZIP":"V9T3H2","VERTICES":5},"geometry":{"type":"Point","coordinates":[-123.96751750000001,49.209768499999996]}},{"type":"Feature","properties":{"ZIP":"V9T3S6","VERTICES":5},"geometry":{"type":"Point","coordinates":[-124.0149225,49.1969045]}},{"type":"Feature","properties":{"ZIP":"V9T5Y9","VERTICES":5},"geometry":{"type":"Point","coordinates":[-124.0351525,49.218318]}},{"type":"Feature","properties":{"ZIP":"V9T1B1","VERTICES":5},"geometry":{"type":"Point","coordinates":[-123.979652,49.2065935]}},{"type":"Feature","properties":{"ZIP":"V9T2J8","VERTICES":5},"geometry":{"type":"Point","coordinates":[-124.03777600000001,49.215271]}},{"type":"Feature","properties":{"ZIP":"V9T2T7","VERTICES":5},"geometry":{"type":"Point","coordinates":[-124.0059535,49.2163735]}},{"type":"Feature","properties":{"ZIP":"V9T1N1","VERTICES":5},"geometry":{"type":"Point","coordinates":[-123.9529965,49.226223000000005]}},{"type":"Feature","properties":{"ZIP":"V9T1Y9","VERTICES":5},"geometry":{"type":"Point","coordinates":[-124.017098,49.2079985]}},{"type":"Feature","properties":{"ZIP":"V9T2R3","VERTICES":5},"geometry":{"type":"Point","coordinates":[-124.0019535,49.2121305]}},{"type":"Feature","properties":{"ZIP":"V9T3W2","VERTICES":5},"geometry":{"type":"Point","coordinates":[-123.99446449999999,49.213225]}},{"type":"Feature","properties":{"ZIP":"V9T4A2","VERTICES":5},"geometry":{"type":"Point","coordinates":[-123.972729,49.210989999999995]}},{"type":"Feature","properties":{"ZIP":"V9T6N1","VERTICES":5},"geometry":{"type":"Point","coordinates":[-124.0356345,49.226646]}},{"type":"Feature","properties":{"ZIP":"V9T2A4","VERTICES":5},"geometry":{"type":"Point","coordinates":[-124.016324,49.208454]}},{"type":"Feature","properties":{"ZIP":"V9T2H5","VERTICES":5},"geometry":{"type":"Point","coordinates":[-124.0296965,49.212582]}},{"type":"Feature","properties":{"ZIP":"V9T4V1","VERTICES":5},"geometry":{"type":"Point","coordinates":[-123.9866255,49.204043999999996]}},{"type":"Feature","properties":{"ZIP":"V9T6K3","VERTICES":5},"geometry":{"type":"Point","coordinates":[-124.03279549999999,49.2226425]}},{"type":"Feature","properties":{"ZIP":"V9T6P8","VERTICES":5},"geometry":{"type":"Point","coordinates":[-124.0395385,49.2242255]}},{"type":"Feature","properties":{"ZIP":"V9T4R1","VERTICES":5},"geometry":{"type":"Point","coordinates":[-123.95810750000001,49.224897]}},{"type":"Feature","properties":{"ZIP":"V9T0B2","VERTICES":5},"geometry":{"type":"Point","coordinates":[-124.022437,49.1969955]}},{"type":"Feature","properties":{"ZIP":"V9T1J4","VERTICES":5},"geometry":{"type":"Point","coordinates":[-123.968504,49.208997499999995]}},{"type":"Feature","properties":{"ZIP":"V9T1T3","VERTICES":5},"geometry":{"type":"Point","coordinates":[-123.994445,49.209194999999994]}},{"type":"Feature","properties":{"ZIP":"V9T3L3","VERTICES":5},"geometry":{"type":"Point","coordinates":[-124.0005055,49.20184]}},{"type":"Feature","properties":{"ZIP":"V9T3W3","VERTICES":5},"geometry":{"type":"Point","coordinates":[-123.9944205,49.213279]}},{"type":"Feature","properties":{"ZIP":"V9T4G1","VERTICES":5},"geometry":{"type":"Point","coordinates":[-123.9752915,49.2121985]}},{"type":"Feature","properties":{"ZIP":"V9T6T4","VERTICES":5},"geometry":{"type":"Point","coordinates":[-123.949608,49.215834]}},{"type":"Feature","properties":{"ZIP":"V9T1G1","VERTICES":5},"geometry":{"type":"Point","coordinates":[-123.95488950000001,49.225556499999996]}},{"type":"Feature","properties":{"ZIP":"V9T2H8","VERTICES":5},"geometry":{"type":"Point","coordinates":[-124.0344705,49.211357]}},{"type":"Feature","properties":{"ZIP":"V9T3X8","VERTICES":5},"geometry":{"type":"Point","coordinates":[-123.9470625,49.21986]}},{"type":"Feature","properties":{"ZIP":"V9T6E2","VERTICES":5},"geometry":{"type":"Point","coordinates":[-123.962589,49.2269905]}},{"type":"Feature","properties":{"ZIP":"V9T3K2","VERTICES":5},"geometry":{"type":"Point","coordinates":[-124.017701,49.199813]}},{"type":"Feature","properties":{"ZIP":"V9T4K1","VERTICES":5},"geometry":{"type":"Point","coordinates":[-124.01912949999999,49.219995999999995]}},{"type":"Feature","properties":{"ZIP":"V9T1C8","VERTICES":5},"geometry":{"type":"Point","coordinates":[-123.9980705,49.208811499999996]}},{"type":"Feature","properties":{"ZIP":"V9T1Z2","VERTICES":5},"geometry":{"type":"Point","coordinates":[-124.0183065,49.2084325]}},{"type":"Feature","properties":{"ZIP":"V9T2E7","VERTICES":5},"geometry":{"type":"Point","coordinates":[-124.01236,49.206680000000006]}},{"type":"Feature","properties":{"ZIP":"V9T4G3","VERTICES":5},"geometry":{"type":"Point","coordinates":[-124.010018,49.218338]}},{"type":"Feature","properties":{"ZIP":"V9T1V6","VERTICES":5},"geometry":{"type":"Point","coordinates":[-123.9970175,49.2076405]}},{"type":"Feature","properties":{"ZIP":"V9T3H7","VERTICES":5},"geometry":{"type":"Point","coordinates":[-123.9470625,49.21986]}},{"type":"Feature","properties":{"ZIP":"V9T3X9","VERTICES":5},"geometry":{"type":"Point","coordinates":[-124.0267925,49.202422]}},{"type":"Feature","properties":{"ZIP":"V9T4B7","VERTICES":5},"geometry":{"type":"Point","coordinates":[-124.0006185,49.2079475]}},{"type":"Feature","properties":{"ZIP":"V9T1S2","VERTICES":5},"geometry":{"type":"Point","coordinates":[-123.993787,49.2065535]}},{"type":"Feature","properties":{"ZIP":"V9T1X3","VERTICES":5},"geometry":{"type":"Point","coordinates":[-124.00286600000001,49.2064715]}},{"type":"Feature","properties":{"ZIP":"V9T2B9","VERTICES":5},"geometry":{"type":"Point","coordinates":[-124.01679999999999,49.209473]}},{"type":"Feature","properties":{"ZIP":"V9T2N9","VERTICES":5},"geometry":{"type":"Point","coordinates":[-124.042438,49.228361500000005]}},{"type":"Feature","properties":{"ZIP":"V9T3E1","VERTICES":5},"geometry":{"type":"Point","coordinates":[-123.94557,49.2129335]}},{"type":"Feature","properties":{"ZIP":"V9T3V2","VERTICES":5},"geometry":{"type":"Point","coordinates":[-123.974358,49.2101895]}},{"type":"Feature","properties":{"ZIP":"V9T4Y6","VERTICES":5},"geometry":{"type":"Point","coordinates":[-123.946442,49.2160075]}},{"type":"Feature","properties":{"ZIP":"V9T1C9","VERTICES":5},"geometry":{"type":"Point","coordinates":[-124.0021475,49.206601]}},{"type":"Feature","properties":{"ZIP":"V9T1J6","VERTICES":5},"geometry":{"type":"Point","coordinates":[-123.9691235,49.209486]}},{"type":"Feature","properties":{"ZIP":"V9T1N4","VERTICES":5},"geometry":{"type":"Point","coordinates":[-123.95439300000001,49.226181]}},{"type":"Feature","properties":{"ZIP":"V9T3W6","VERTICES":5},"geometry":{"type":"Point","coordinates":[-124.0134745,49.215509499999996]}},{"type":"Feature","properties":{"ZIP":"V9T2J1","VERTICES":5},"geometry":{"type":"Point","coordinates":[-124.03791050000001,49.216934]}},{"type":"Feature","properties":{"ZIP":"V9T3M9","VERTICES":5},"geometry":{"type":"Point","coordinates":[-124.012428,49.1992305]}},{"type":"Feature","properties":{"ZIP":"V9T5N9","VERTICES":5},"geometry":{"type":"Point","coordinates":[-124.02126799999999,49.2258285]}},{"type":"Feature","properties":{"ZIP":"V9T6R2","VERTICES":5},"geometry":{"type":"Point","coordinates":[-124.0170165,49.23294]}},{"type":"Feature","properties":{"ZIP":"V9T0A1","VERTICES":5},"geometry":{"type":"Point","coordinates":[-124.0352,49.228402]}},{"type":"Feature","properties":{"ZIP":"V9T2K4","VERTICES":5},"geometry":{"type":"Point","coordinates":[-124.0260155,49.2126655]}},{"type":"Feature","properties":{"ZIP":"V9T3E2","VERTICES":5},"geometry":{"type":"Point","coordinates":[-123.946154,49.2124845]}},{"type":"Feature","properties":{"ZIP":"V9T1T6","VERTICES":5},"geometry":{"type":"Point","coordinates":[-123.9876015,49.216002]}},{"type":"Feature","properties":{"ZIP":"V9T2W5","VERTICES":5},"geometry":{"type":"Point","coordinates":[-123.996015,49.2123285]}},{"type":"Feature","properties":{"ZIP":"V9T3L8","VERTICES":5},"geometry":{"type":"Point","coordinates":[-124.0142735,49.2005305]}},{"type":"Feature","properties":{"ZIP":"V9T3W7","VERTICES":5},"geometry":{"type":"Point","coordinates":[-124.0183935,49.201668999999995]}},{"type":"Feature","properties":{"ZIP":"V9T5G7","VERTICES":5},"geometry":{"type":"Point","coordinates":[-124.0108115,49.2296235]}},{"type":"Feature","properties":{"ZIP":"V9T1P8","VERTICES":5},"geometry":{"type":"Point","coordinates":[-123.99276599999999,49.204331499999995]}},{"type":"Feature","properties":{"ZIP":"V9T3T2","VERTICES":5},"geometry":{"type":"Point","coordinates":[-124.0191485,49.198356000000004]}},{"type":"Feature","properties":{"ZIP":"V9T5V1","VERTICES":5},"geometry":{"type":"Point","coordinates":[-124.03053550000001,49.2220225]}},{"type":"Feature","properties":{"ZIP":"V9T1H6","VERTICES":5},"geometry":{"type":"Point","coordinates":[-123.976497,49.2102685]}},{"type":"Feature","properties":{"ZIP":"V9T1S4","VERTICES":5},"geometry":{"type":"Point","coordinates":[-123.9940355,49.205579]}},{"type":"Feature","properties":{"ZIP":"V9T4E3","VERTICES":5},"geometry":{"type":"Point","coordinates":[-124.01593299999999,49.216545499999995]}},{"type":"Feature","properties":{"ZIP":"V9T5R3","VERTICES":5},"geometry":{"type":"Point","coordinates":[-123.9858115,49.206109999999995]}},{"type":"Feature","properties":{"ZIP":"V9T6A7","VERTICES":5},"geometry":{"type":"Point","coordinates":[-124.034257,49.208504]}},{"type":"Feature","properties":{"ZIP":"V9T1J8","VERTICES":5},"geometry":{"type":"Point","coordinates":[-123.970848,49.210546]}},{"type":"Feature","properties":{"ZIP":"V9T2L7","VERTICES":5},"geometry":{"type":"Point","coordinates":[-124.0434025,49.2273065]}},{"type":"Feature","properties":{"ZIP":"V9T3A5","VERTICES":5},"geometry":{"type":"Point","coordinates":[-123.9836005,49.2062465]}},{"type":"Feature","properties":{"ZIP":"V9T4T3","VERTICES":5},"geometry":{"type":"Point","coordinates":[-123.978026,49.2155695]}},{"type":"Feature","properties":{"ZIP":"V9T5B1","VERTICES":5},"geometry":{"type":"Point","coordinates":[-123.977389,49.231312]}},{"type":"Feature","properties":{"ZIP":"V9T5G8","VERTICES":5},"geometry":{"type":"Point","coordinates":[-124.010888,49.2296915]}},{"type":"Feature","properties":{"ZIP":"V9T1L1","VERTICES":5},"geometry":{"type":"Point","coordinates":[-123.96017950000001,49.211850999999996]}},{"type":"Feature","properties":{"ZIP":"V9T1P9","VERTICES":5},"geometry":{"type":"Point","coordinates":[-123.992993,49.2044815]}},{"type":"Feature","properties":{"ZIP":"V9T3J2","VERTICES":5},"geometry":{"type":"Point","coordinates":[-124.0390795,49.215323]}},{"type":"Feature","properties":{"ZIP":"V9T4C1","VERTICES":5},"geometry":{"type":"Point","coordinates":[-123.999791,49.2056415]}},{"type":"Feature","properties":{"ZIP":"V9T4N6","VERTICES":5},"geometry":{"type":"Point","coordinates":[-124.003174,49.197514999999996]}},{"type":"Feature","properties":{"ZIP":"V9T2V4","VERTICES":5},"geometry":{"type":"Point","coordinates":[-124.009878,49.215761]}},{"type":"Feature","properties":{"ZIP":"V9T3E4","VERTICES":5},"geometry":{"type":"Point","coordinates":[-123.9497605,49.2199155]}},{"type":"Feature","properties":{"ZIP":"V9T3K6","VERTICES":5},"geometry":{"type":"Point","coordinates":[-124.01519099999999,49.2007825]}},{"type":"Feature","properties":{"ZIP":"V9T3Z6","VERTICES":5},"geometry":{"type":"Point","coordinates":[-124.0399795,49.213158]}},{"type":"Feature","properties":{"ZIP":"V9T4E4","VERTICES":5},"geometry":{"type":"Point","coordinates":[-123.9895855,49.203888500000005]}},{"type":"Feature","properties":{"ZIP":"V9T1Z6","VERTICES":5},"geometry":{"type":"Point","coordinates":[-124.0113265,49.2066145]}},{"type":"Feature","properties":{"ZIP":"V9T3W9","VERTICES":5},"geometry":{"type":"Point","coordinates":[-124.0258515,49.201018000000005]}},{"type":"Feature","properties":{"ZIP":"V9T4L9","VERTICES":5},"geometry":{"type":"Point","coordinates":[-124.009481,49.213496500000005]}},{"type":"Feature","properties":{"ZIP":"V9T5S6","VERTICES":5},"geometry":{"type":"Point","coordinates":[-123.984511,49.2062315]}},{"type":"Feature","properties":{"ZIP":"V9T6J5","VERTICES":5},"geometry":{"type":"Point","coordinates":[-124.02084099999999,49.220832]}},{"type":"Feature","properties":{"ZIP":"V9T1A3","VERTICES":5},"geometry":{"type":"Point","coordinates":[-123.98026999999999,49.207685]}},{"type":"Feature","properties":{"ZIP":"V9T3Y4","VERTICES":5},"geometry":{"type":"Point","coordinates":[-124.007198,49.2028625]}},{"type":"Feature","properties":{"ZIP":"V9T4C2","VERTICES":5},"geometry":{"type":"Point","coordinates":[-124.0158905,49.2166555]}},{"type":"Feature","properties":{"ZIP":"V9T1X8","VERTICES":5},"geometry":{"type":"Point","coordinates":[-124.00796,49.2081055]}},{"type":"Feature","properties":{"ZIP":"V9T3E5","VERTICES":5},"geometry":{"type":"Point","coordinates":[-123.9503845,49.219693]}},{"type":"Feature","properties":{"ZIP":"V9T0B8","VERTICES":5},"geometry":{"type":"Point","coordinates":[-124.00246100000001,49.232684500000005]}},{"type":"Feature","properties":{"ZIP":"V9T2W8","VERTICES":5},"geometry":{"type":"Point","coordinates":[-123.998403,49.210195999999996]}},{"type":"Feature","properties":{"ZIP":"V9T3M2","VERTICES":5},"geometry":{"type":"Point","coordinates":[-124.024461,49.201279]}},{"type":"Feature","properties":{"ZIP":"V9T6P4","VERTICES":5},"geometry":{"type":"Point","coordinates":[-124.012081,49.2277185]}},{"type":"Feature","properties":{"ZIP":"V9T2N3","VERTICES":5},"geometry":{"type":"Point","coordinates":[-124.041257,49.220876000000004]}},{"type":"Feature","properties":{"ZIP":"V9T3J4","VERTICES":5},"geometry":{"type":"Point","coordinates":[-124.0294125,49.2101105]}},{"type":"Feature","properties":{"ZIP":"V9T3N5","VERTICES":5},"geometry":{"type":"Point","coordinates":[-124.018753,49.202608999999995]}},{"type":"Feature","properties":{"ZIP":"V9T4W4","VERTICES":5},"geometry":{"type":"Point","coordinates":[-124.02543,49.1998065]}},{"type":"Feature","properties":{"ZIP":"V9T5C6","VERTICES":5},"geometry":{"type":"Point","coordinates":[-123.991035,49.228603500000006]}},{"type":"Feature","properties":{"ZIP":"V9T5J9","VERTICES":5},"geometry":{"type":"Point","coordinates":[-123.9563495,49.220738999999995]}},{"type":"Feature","properties":{"ZIP":"V9T5V4","VERTICES":5},"geometry":{"type":"Point","coordinates":[-123.9671985,49.186746]}},{"type":"Feature","properties":{"ZIP":"V9T1H9","VERTICES":5},"geometry":{"type":"Point","coordinates":[-123.976752,49.211794499999996]}},{"type":"Feature","properties":{"ZIP":"V9T1S7","VERTICES":5},"geometry":{"type":"Point","coordinates":[-123.9952945,49.2062545]}},{"type":"Feature","properties":{"ZIP":"V9T2C5","VERTICES":5},"geometry":{"type":"Point","coordinates":[-124.01380449999999,49.2091415]}},{"type":"Feature","properties":{"ZIP":"V9T2K8","VERTICES":5},"geometry":{"type":"Point","coordinates":[-124.0319005,49.2163135]}},{"type":"Feature","properties":{"ZIP":"V9T2Z4","VERTICES":5},"geometry":{"type":"Point","coordinates":[-124.039353,49.2140105]}},{"type":"Feature","properties":{"ZIP":"V9T3E6","VERTICES":5},"geometry":{"type":"Point","coordinates":[-123.96390600000001,49.228802]}},{"type":"Feature","properties":{"ZIP":"V9T4Z4","VERTICES":5},"geometry":{"type":"Point","coordinates":[-124.0249215,49.216267]}},{"type":"Feature","properties":{"ZIP":"V9T2M1","VERTICES":5},"geometry":{"type":"Point","coordinates":[-124.03582349999999,49.2182855]}},{"type":"Feature","properties":{"ZIP":"V9T2S3","VERTICES":5},"geometry":{"type":"Point","coordinates":[-124.005601,49.2122285]}},{"type":"Feature","properties":{"ZIP":"V9T2W9","VERTICES":5},"geometry":{"type":"Point","coordinates":[-123.997165,49.211436500000005]}},{"type":"Feature","properties":{"ZIP":"V9T6J9","VERTICES":5},"geometry":{"type":"Point","coordinates":[-123.994242,49.200407999999996]}},{"type":"Feature","properties":{"ZIP":"V9T1A6","VERTICES":5},"geometry":{"type":"Point","coordinates":[-123.9794915,49.208009000000004]}},{"type":"Feature","properties":{"ZIP":"V9T1W6","VERTICES":5},"geometry":{"type":"Point","coordinates":[-124.02535800000001,49.2130485]}},{"type":"Feature","properties":{"ZIP":"V9T3T6","VERTICES":5},"geometry":{"type":"Point","coordinates":[-124.0179685,49.198826499999996]}},{"type":"Feature","properties":{"ZIP":"V9T4P3","VERTICES":5},"geometry":{"type":"Point","coordinates":[-124.0170235,49.2161115]}},{"type":"Feature","properties":{"ZIP":"V9T5C8","VERTICES":5},"geometry":{"type":"Point","coordinates":[-123.985534,49.227611499999995]}},{"type":"Feature","properties":{"ZIP":"V9T2K9","VERTICES":4},"geometry":{"type":"Point","coordinates":[-124.0359685,49.2171935]}},{"type":"Feature","properties":{"ZIP":"V9T4Z7","VERTICES":4},"geometry":{"type":"Point","coordinates":[-123.988646,49.209792]}},{"type":"Feature","properties":{"ZIP":"V9T5X4","VERTICES":4},"geometry":{"type":"Point","coordinates":[-123.98104599999999,49.225691499999996]}},{"type":"Feature","properties":{"ZIP":"V9T1Z9","VERTICES":4},"geometry":{"type":"Point","coordinates":[-124.012756,49.2070095]}},{"type":"Feature","properties":{"ZIP":"V9T4H2","VERTICES":4},"geometry":{"type":"Point","coordinates":[-123.988763,49.205532500000004]}},{"type":"Feature","properties":{"ZIP":"V9T4T8","VERTICES":4},"geometry":{"type":"Point","coordinates":[-123.9979955,49.2044295]}},{"type":"Feature","properties":{"ZIP":"V9T1Y4","VERTICES":4},"geometry":{"type":"Point","coordinates":[-124.01261149999999,49.208688499999994]}},{"type":"Feature","properties":{"ZIP":"V9T2C9","VERTICES":4},"geometry":{"type":"Point","coordinates":[-124.016745,49.209075]}},{"type":"Feature","properties":{"ZIP":"V9T0C9","VERTICES":4},"geometry":{"type":"Point","coordinates":[-123.9871115,49.216339500000004]}},{"type":"Feature","properties":{"ZIP":"V9T2A1","VERTICES":4},"geometry":{"type":"Point","coordinates":[-124.0141975,49.2073875]}},{"type":"Feature","properties":{"ZIP":"V9T2X2","VERTICES":4},"geometry":{"type":"Point","coordinates":[-123.9886355,49.210567999999995]}},{"type":"Feature","properties":{"ZIP":"V9T3B3","VERTICES":4},"geometry":{"type":"Point","coordinates":[-123.99204499999999,49.2066105]}},{"type":"Feature","properties":{"ZIP":"V9T4H4","VERTICES":4},"geometry":{"type":"Point","coordinates":[-124.00986449999999,49.203393500000004]}},{"type":"Feature","properties":{"ZIP":"V9T6C9","VERTICES":4},"geometry":{"type":"Point","coordinates":[-124.0352965,49.210528]}},{"type":"Feature","properties":{"ZIP":"V9T2B6","VERTICES":4},"geometry":{"type":"Point","coordinates":[-124.0137585,49.208019]}},{"type":"Feature","properties":{"ZIP":"V9T4P8","VERTICES":4},"geometry":{"type":"Point","coordinates":[-123.95044200000001,49.2182405]}},{"type":"Feature","properties":{"ZIP":"V9T5E1","VERTICES":4},"geometry":{"type":"Point","coordinates":[-123.985926,49.227924]}},{"type":"Feature","properties":{"ZIP":"V9T1T2","VERTICES":4},"geometry":{"type":"Point","coordinates":[-123.99503899999999,49.20821]}},{"type":"Feature","properties":{"ZIP":"V9T2E3","VERTICES":4},"geometry":{"type":"Point","coordinates":[-124.0143355,49.2089725]}},{"type":"Feature","properties":{"ZIP":"V9T3E9","VERTICES":4},"geometry":{"type":"Point","coordinates":[-123.989479,49.206697000000005]}},{"type":"Feature","properties":{"ZIP":"V9T5R9","VERTICES":4},"geometry":{"type":"Point","coordinates":[-124.05325099999999,49.2309235]}},{"type":"Feature","properties":{"ZIP":"V9T1P4","VERTICES":4},"geometry":{"type":"Point","coordinates":[-123.99320850000001,49.203663000000006]}},{"type":"Feature","properties":{"ZIP":"V9T5Z1","VERTICES":4},"geometry":{"type":"Point","coordinates":[-123.948217,49.215837500000006]}},{"type":"Feature","properties":{"ZIP":"V9T2J9","VERTICES":4},"geometry":{"type":"Point","coordinates":[-124.038826,49.2161495]}},{"type":"Feature","properties":{"ZIP":"V9T3N9","VERTICES":4},"geometry":{"type":"Point","coordinates":[-124.0157445,49.198419]}},{"type":"Feature","properties":{"ZIP":"V9T1N2","VERTICES":4},"geometry":{"type":"Point","coordinates":[-123.953147,49.226009000000005]}},{"type":"Feature","properties":{"ZIP":"V9T3G1","VERTICES":4},"geometry":{"type":"Point","coordinates":[-123.95143,49.219301]}},{"type":"Feature","properties":{"ZIP":"V9T3R2","VERTICES":4},"geometry":{"type":"Point","coordinates":[-124.007181,49.196693499999995]}},{"type":"Feature","properties":{"ZIP":"V9T1P5","VERTICES":4},"geometry":{"type":"Point","coordinates":[-123.99320449999999,49.2036595]}},{"type":"Feature","properties":{"ZIP":"V9T2A5","VERTICES":4},"geometry":{"type":"Point","coordinates":[-124.01676599999999,49.208578]}},{"type":"Feature","properties":{"ZIP":"V9T3M7","VERTICES":4},"geometry":{"type":"Point","coordinates":[-124.009105,49.199179]}},{"type":"Feature","properties":{"ZIP":"V9T4B6","VERTICES":4},"geometry":{"type":"Point","coordinates":[-123.975007,49.212906000000004]}},{"type":"Feature","properties":{"ZIP":"V9T5H8","VERTICES":4},"geometry":{"type":"Point","coordinates":[-124.01183,49.208259]}},{"type":"Feature","properties":{"ZIP":"V9T5T4","VERTICES":4},"geometry":{"type":"Point","coordinates":[-124.0187235,49.200036]}},{"type":"Feature","properties":{"ZIP":"V9T1X2","VERTICES":4},"geometry":{"type":"Point","coordinates":[-124.0442015,49.23429]}},{"type":"Feature","properties":{"ZIP":"V9T2Y6","VERTICES":4},"geometry":{"type":"Point","coordinates":[-123.97257450000001,49.207980500000005]}},{"type":"Feature","properties":{"ZIP":"V9T3Z2","VERTICES":4},"geometry":{"type":"Point","coordinates":[-123.9496,49.2183145]}},{"type":"Feature","properties":{"ZIP":"V9T1J5","VERTICES":4},"geometry":{"type":"Point","coordinates":[-123.9685385,49.2090035]}},{"type":"Feature","properties":{"ZIP":"V9T6B7","VERTICES":4},"geometry":{"type":"Point","coordinates":[-123.997891,49.1966735]}},{"type":"Feature","properties":{"ZIP":"V9T2A6","VERTICES":4},"geometry":{"type":"Point","coordinates":[-124.0176955,49.2091625]}},{"type":"Feature","properties":{"ZIP":"V9T6E3","VERTICES":4},"geometry":{"type":"Point","coordinates":[-124.0036805,49.2086475]}},{"type":"Feature","properties":{"ZIP":"V9T2Y8","VERTICES":4},"geometry":{"type":"Point","coordinates":[-123.9988755,49.216499]}},{"type":"Feature","properties":{"ZIP":"V9T3P2","VERTICES":4},"geometry":{"type":"Point","coordinates":[-124.011487,49.199467999999996]}},{"type":"Feature","properties":{"ZIP":"V9T5W5","VERTICES":4},"geometry":{"type":"Point","coordinates":[-124.002074,49.208429499999994]}},{"type":"Feature","properties":{"ZIP":"V9T6L9","VERTICES":4},"geometry":{"type":"Point","coordinates":[-124.00304349999999,49.210237000000006]}},{"type":"Feature","properties":{"ZIP":"V9T6S3","VERTICES":4},"geometry":{"type":"Point","coordinates":[-124.042152,49.213910999999996]}},{"type":"Feature","properties":{"ZIP":"V9T2E9","VERTICES":4},"geometry":{"type":"Point","coordinates":[-124.01174900000001,49.2078005]}},{"type":"Feature","properties":{"ZIP":"V9T6N8","VERTICES":4},"geometry":{"type":"Point","coordinates":[-124.050427,49.239016]}},{"type":"Feature","properties":{"ZIP":"V9T1P7","VERTICES":4},"geometry":{"type":"Point","coordinates":[-123.9924075,49.203364]}},{"type":"Feature","properties":{"ZIP":"V9T2X6","VERTICES":4},"geometry":{"type":"Point","coordinates":[-123.988696,49.20662]}},{"type":"Feature","properties":{"ZIP":"V9T3H8","VERTICES":4},"geometry":{"type":"Point","coordinates":[-123.97267049999999,49.2061185]}},{"type":"Feature","properties":{"ZIP":"V9T4H9","VERTICES":4},"geometry":{"type":"Point","coordinates":[-124.0155925,49.2186355]}},{"type":"Feature","properties":{"ZIP":"V9T5T7","VERTICES":4},"geometry":{"type":"Point","coordinates":[-123.947418,49.2213765]}},{"type":"Feature","properties":{"ZIP":"V9T6E4","VERTICES":4},"geometry":{"type":"Point","coordinates":[-123.991649,49.2150475]}},{"type":"Feature","properties":{"ZIP":"V9T3Z4","VERTICES":4},"geometry":{"type":"Point","coordinates":[-123.9690455,49.209334999999996]}},{"type":"Feature","properties":{"ZIP":"V9T6A6","VERTICES":4},"geometry":{"type":"Point","coordinates":[-124.0351535,49.209756]}},{"type":"Feature","properties":{"ZIP":"V9T6M2","VERTICES":4},"geometry":{"type":"Point","coordinates":[-124.01523850000001,49.208798]}},{"type":"Feature","properties":{"ZIP":"V9T1Z4","VERTICES":4},"geometry":{"type":"Point","coordinates":[-124.01911050000001,49.208822]}},{"type":"Feature","properties":{"ZIP":"V9T2G1","VERTICES":4},"geometry":{"type":"Point","coordinates":[-124.0116715,49.2078]}},{"type":"Feature","properties":{"ZIP":"V9T2R8","VERTICES":4},"geometry":{"type":"Point","coordinates":[-124.0010145,49.213885000000005]}},{"type":"Feature","properties":{"ZIP":"V9T1A1","VERTICES":4},"geometry":{"type":"Point","coordinates":[-123.9790595,49.207702999999995]}},{"type":"Feature","properties":{"ZIP":"V9T1K9","VERTICES":4},"geometry":{"type":"Point","coordinates":[-123.962503,49.2128285]}},{"type":"Feature","properties":{"ZIP":"V9T2M9","VERTICES":4},"geometry":{"type":"Point","coordinates":[-124.03885149999999,49.2184395]}},{"type":"Feature","properties":{"ZIP":"V9T1Z5","VERTICES":4},"geometry":{"type":"Point","coordinates":[-124.019262,49.208965500000005]}},{"type":"Feature","properties":{"ZIP":"V9T2G3","VERTICES":4},"geometry":{"type":"Point","coordinates":[-124.01023,49.2067215]}},{"type":"Feature","properties":{"ZIP":"V9T3G5","VERTICES":4},"geometry":{"type":"Point","coordinates":[-124.0099075,49.217271]}},{"type":"Feature","properties":{"ZIP":"V9T3Y3","VERTICES":4},"geometry":{"type":"Point","coordinates":[-124.0042065,49.202918]}},{"type":"Feature","properties":{"ZIP":"V9T6K8","VERTICES":4},"geometry":{"type":"Point","coordinates":[-124.0295835,49.209854500000006]}},{"type":"Feature","properties":{"ZIP":"V9T1S5","VERTICES":4},"geometry":{"type":"Point","coordinates":[-123.9955145,49.203058]}},{"type":"Feature","properties":{"ZIP":"V9T3P5","VERTICES":4},"geometry":{"type":"Point","coordinates":[-124.014103,49.1975515]}},{"type":"Feature","properties":{"ZIP":"V9T4R6","VERTICES":4},"geometry":{"type":"Point","coordinates":[-124.0133505,49.219947000000005]}},{"type":"Feature","properties":{"ZIP":"V9T6H1","VERTICES":4},"geometry":{"type":"Point","coordinates":[-124.06801949999999,49.216128999999995]}},{"type":"Feature","properties":{"ZIP":"V9T0B7","VERTICES":4},"geometry":{"type":"Point","coordinates":[-124.0022845,49.2328415]}},{"type":"Feature","properties":{"ZIP":"V9T2G6","VERTICES":4},"geometry":{"type":"Point","coordinates":[-124.007992,49.206939000000006]}},{"type":"Feature","properties":{"ZIP":"V9T3A6","VERTICES":4},"geometry":{"type":"Point","coordinates":[-123.9822935,49.206337000000005]}},{"type":"Feature","properties":{"ZIP":"V9T4G8","VERTICES":4},"geometry":{"type":"Point","coordinates":[-123.948217,49.216785]}},{"type":"Feature","properties":{"ZIP":"V9T2J4","VERTICES":4},"geometry":{"type":"Point","coordinates":[-124.040333,49.214519]}},{"type":"Feature","properties":{"ZIP":"V9T2T3","VERTICES":4},"geometry":{"type":"Point","coordinates":[-123.99852999999999,49.2134165]}},{"type":"Feature","properties":{"ZIP":"V9T3J3","VERTICES":4},"geometry":{"type":"Point","coordinates":[-124.0388125,49.215432500000006]}},{"type":"Feature","properties":{"ZIP":"V9T3T4","VERTICES":4},"geometry":{"type":"Point","coordinates":[-124.0148575,49.197999499999995]}},{"type":"Feature","properties":{"ZIP":"V9T4N9","VERTICES":4},"geometry":{"type":"Point","coordinates":[-124.01850999999999,49.219672]}},{"type":"Feature","properties":{"ZIP":"V9T3K7","VERTICES":4},"geometry":{"type":"Point","coordinates":[-123.9963025,49.196772]}},{"type":"Feature","properties":{"ZIP":"V9T4E5","VERTICES":4},"geometry":{"type":"Point","coordinates":[-124.015589,49.2184765]}},{"type":"Feature","properties":{"ZIP":"V9T5L8","VERTICES":4},"geometry":{"type":"Point","coordinates":[-124.02137450000001,49.2186945]}},{"type":"Feature","properties":{"ZIP":"V9T2G7","VERTICES":4},"geometry":{"type":"Point","coordinates":[-124.007641,49.2076425]}},{"type":"Feature","properties":{"ZIP":"V9T4G9","VERTICES":4},"geometry":{"type":"Point","coordinates":[-124.007945,49.212419]}},{"type":"Feature","properties":{"ZIP":"V9T1W5","VERTICES":4},"geometry":{"type":"Point","coordinates":[-124.015496,49.206985]}},{"type":"Feature","properties":{"ZIP":"V9T6L3","VERTICES":4},"geometry":{"type":"Point","coordinates":[-123.999142,49.2338805]}},{"type":"Feature","properties":{"ZIP":"V9T6M7","VERTICES":4},"geometry":{"type":"Point","coordinates":[-124.0228765,49.2286625]}},{"type":"Feature","properties":{"ZIP":"V9T0C2","VERTICES":4},"geometry":{"type":"Point","coordinates":[-123.96501599999999,49.2157125]}},{"type":"Feature","properties":{"ZIP":"V9T3G9","VERTICES":4},"geometry":{"type":"Point","coordinates":[-123.9907875,49.2043805]}},{"type":"Feature","properties":{"ZIP":"V9T3M3","VERTICES":4},"geometry":{"type":"Point","coordinates":[-124.0047215,49.20395]}},{"type":"Feature","properties":{"ZIP":"V9T4T7","VERTICES":4},"geometry":{"type":"Point","coordinates":[-124.04609049999999,49.234929]}},{"type":"Feature","properties":{"ZIP":"V9T1R6","VERTICES":4},"geometry":{"type":"Point","coordinates":[-123.9962685,49.2043325]}},{"type":"Feature","properties":{"ZIP":"V9T2J6","VERTICES":4},"geometry":{"type":"Point","coordinates":[-124.04161250000001,49.2176865]}},{"type":"Feature","properties":{"ZIP":"V9T2N4","VERTICES":4},"geometry":{"type":"Point","coordinates":[-124.04142350000001,49.220870500000004]}},{"type":"Feature","properties":{"ZIP":"V9T3Y7","VERTICES":4},"geometry":{"type":"Point","coordinates":[-124.0052705,49.2075355]}},{"type":"Feature","properties":{"ZIP":"V9T4W5","VERTICES":4},"geometry":{"type":"Point","coordinates":[-123.947157,49.215661499999996]}},{"type":"Feature","properties":{"ZIP":"V9T5V7","VERTICES":4},"geometry":{"type":"Point","coordinates":[-123.9830705,49.230540000000005]}}]}