{"type":"FeatureCollection","features":[{"type":"Feature","properties":{"ZIP":"P4N6J8","VERTICES":13},"geometry":{"type":"Point","coordinates":[-81.3295705,48.4762765]}},{"type":"Feature","properties":{"ZIP":"P4N7C2","VERTICES":13},"geometry":{"type":"Point","coordinates":[-81.286597,48.4490355]}},{"type":"Feature","properties":{"ZIP":"P4N8L2","VERTICES":12},"geometry":{"type":"Point","coordinates":[-81.3388775,48.492427]}},{"type":"Feature","properties":{"ZIP":"P4N5K2","VERTICES":12},"geometry":{"type":"Point","coordinates":[-81.3521945,48.4900345]}},{"type":"Feature","properties":{"ZIP":"P4N7R9","VERTICES":12},"geometry":{"type":"Point","coordinates":[-81.35188099999999,48.4924125]}},{"type":"Feature","properties":{"ZIP":"P4N7Z3","VERTICES":12},"geometry":{"type":"Point","coordinates":[-81.335724,48.4630755]}},{"type":"Feature","properties":{"ZIP":"P4N7C3","VERTICES":12},"geometry":{"type":"Point","coordinates":[-81.41927849999999,48.4907535]}},{"type":"Feature","properties":{"ZIP":"P4N6T7","VERTICES":11},"geometry":{"type":"Point","coordinates":[-81.3248135,48.4867925]}},{"type":"Feature","properties":{"ZIP":"P4N2E6","VERTICES":11},"geometry":{"type":"Point","coordinates":[-81.330827,48.476027]}},{"type":"Feature","properties":{"ZIP":"P4N6V4","VERTICES":11},"geometry":{"type":"Point","coordinates":[-81.3211845,48.481973999999994]}},{"type":"Feature","properties":{"ZIP":"P4N2W9","VERTICES":11},"geometry":{"type":"Point","coordinates":[-81.3383785,48.4739005]}},{"type":"Feature","properties":{"ZIP":"P4N7M6","VERTICES":11},"geometry":{"type":"Point","coordinates":[-81.3467825,48.4915745]}},{"type":"Feature","properties":{"ZIP":"P4N4P8","VERTICES":11},"geometry":{"type":"Point","coordinates":[-81.3478885,48.490077]}},{"type":"Feature","properties":{"ZIP":"P4N7N1","VERTICES":11},"geometry":{"type":"Point","coordinates":[-81.347623,48.4924135]}},{"type":"Feature","properties":{"ZIP":"P4N6W9","VERTICES":11},"geometry":{"type":"Point","coordinates":[-81.3222015,48.483269]}},{"type":"Feature","properties":{"ZIP":"P4N4B9","VERTICES":11},"geometry":{"type":"Point","coordinates":[-81.356831,48.481086]}},{"type":"Feature","properties":{"ZIP":"P4N7A1","VERTICES":11},"geometry":{"type":"Point","coordinates":[-81.321229,48.480453]}},{"type":"Feature","properties":{"ZIP":"P4N6H2","VERTICES":11},"geometry":{"type":"Point","coordinates":[-81.3308435,48.476281]}},{"type":"Feature","properties":{"ZIP":"P4N4A8","VERTICES":10},"geometry":{"type":"Point","coordinates":[-81.35564450000001,48.479638]}},{"type":"Feature","properties":{"ZIP":"P4N6H3","VERTICES":10},"geometry":{"type":"Point","coordinates":[-81.33074149999999,48.4699015]}},{"type":"Feature","properties":{"ZIP":"P4N3G5","VERTICES":10},"geometry":{"type":"Point","coordinates":[-81.34020699999999,48.468901]}},{"type":"Feature","properties":{"ZIP":"P4N2P8","VERTICES":10},"geometry":{"type":"Point","coordinates":[-81.324758,48.4714855]}},{"type":"Feature","properties":{"ZIP":"P4N6R4","VERTICES":10},"geometry":{"type":"Point","coordinates":[-81.32597000000001,48.483165]}},{"type":"Feature","properties":{"ZIP":"P4N8R7","VERTICES":10},"geometry":{"type":"Point","coordinates":[-81.3347895,48.4531315]}},{"type":"Feature","properties":{"ZIP":"P4N3G6","VERTICES":10},"geometry":{"type":"Point","coordinates":[-81.340282,48.468901]}},{"type":"Feature","properties":{"ZIP":"P4N4R5","VERTICES":10},"geometry":{"type":"Point","coordinates":[-81.35222049999999,48.4913605]}},{"type":"Feature","properties":{"ZIP":"P4N3Y3","VERTICES":10},"geometry":{"type":"Point","coordinates":[-81.3629905,48.479725]}},{"type":"Feature","properties":{"ZIP":"P4N6R5","VERTICES":10},"geometry":{"type":"Point","coordinates":[-81.32597000000001,48.4839275]}},{"type":"Feature","properties":{"ZIP":"P4N4W7","VERTICES":10},"geometry":{"type":"Point","coordinates":[-81.3350755,48.484765499999995]}},{"type":"Feature","properties":{"ZIP":"P4N6R6","VERTICES":10},"geometry":{"type":"Point","coordinates":[-81.3259535,48.4850305]}},{"type":"Feature","properties":{"ZIP":"P4N4G7","VERTICES":10},"geometry":{"type":"Point","coordinates":[-81.3393285,48.4793105]}},{"type":"Feature","properties":{"ZIP":"P4N5J1","VERTICES":10},"geometry":{"type":"Point","coordinates":[-81.3443375,48.4903345]}},{"type":"Feature","properties":{"ZIP":"P4N4J2","VERTICES":10},"geometry":{"type":"Point","coordinates":[-81.33918349999999,48.481107]}},{"type":"Feature","properties":{"ZIP":"P4N2Y2","VERTICES":10},"geometry":{"type":"Point","coordinates":[-81.3366085,48.4732075]}},{"type":"Feature","properties":{"ZIP":"P4N3C4","VERTICES":10},"geometry":{"type":"Point","coordinates":[-81.33658299999999,48.4702915]}},{"type":"Feature","properties":{"ZIP":"P4N7W5","VERTICES":10},"geometry":{"type":"Point","coordinates":[-81.336689,48.4904155]}},{"type":"Feature","properties":{"ZIP":"P4N7L1","VERTICES":10},"geometry":{"type":"Point","coordinates":[-81.36295150000001,48.481615500000004]}},{"type":"Feature","properties":{"ZIP":"P4N1W7","VERTICES":10},"geometry":{"type":"Point","coordinates":[-81.3344955,48.475711000000004]}},{"type":"Feature","properties":{"ZIP":"P4N4E6","VERTICES":10},"geometry":{"type":"Point","coordinates":[-81.3372005,48.478683000000004]}},{"type":"Feature","properties":{"ZIP":"P4N6A6","VERTICES":10},"geometry":{"type":"Point","coordinates":[-81.33449999999999,48.4728595]}},{"type":"Feature","properties":{"ZIP":"P4N4B8","VERTICES":10},"geometry":{"type":"Point","coordinates":[-81.356831,48.4812735]}},{"type":"Feature","properties":{"ZIP":"P4N6J4","VERTICES":10},"geometry":{"type":"Point","coordinates":[-81.32956250000001,48.475905499999996]}},{"type":"Feature","properties":{"ZIP":"P4N6J7","VERTICES":10},"geometry":{"type":"Point","coordinates":[-81.32957,48.4762635]}},{"type":"Feature","properties":{"ZIP":"P4N6T6","VERTICES":10},"geometry":{"type":"Point","coordinates":[-81.3248175,48.486452]}},{"type":"Feature","properties":{"ZIP":"P4N2E1","VERTICES":10},"geometry":{"type":"Point","coordinates":[-81.3308555,48.4758925]}},{"type":"Feature","properties":{"ZIP":"P4N5H6","VERTICES":10},"geometry":{"type":"Point","coordinates":[-81.34325000000001,48.4881665]}},{"type":"Feature","properties":{"ZIP":"P4N7S9","VERTICES":10},"geometry":{"type":"Point","coordinates":[-81.3342005,48.4618445]}},{"type":"Feature","properties":{"ZIP":"P4N2Y8","VERTICES":9},"geometry":{"type":"Point","coordinates":[-81.34240650000001,48.473170999999994]}},{"type":"Feature","properties":{"ZIP":"P4N6M8","VERTICES":9},"geometry":{"type":"Point","coordinates":[-81.3269885,48.476062999999996]}},{"type":"Feature","properties":{"ZIP":"P4N4Y4","VERTICES":9},"geometry":{"type":"Point","coordinates":[-81.3377495,48.4846955]}},{"type":"Feature","properties":{"ZIP":"P4N6C2","VERTICES":9},"geometry":{"type":"Point","coordinates":[-81.33340799999999,48.48201]}},{"type":"Feature","properties":{"ZIP":"P4N6E6","VERTICES":9},"geometry":{"type":"Point","coordinates":[-81.3320555,48.470133]}},{"type":"Feature","properties":{"ZIP":"P4N5K1","VERTICES":9},"geometry":{"type":"Point","coordinates":[-81.349784,48.4907835]}},{"type":"Feature","properties":{"ZIP":"P4N7P2","VERTICES":9},"geometry":{"type":"Point","coordinates":[-81.336693,48.490809999999996]}},{"type":"Feature","properties":{"ZIP":"P4N5G5","VERTICES":9},"geometry":{"type":"Point","coordinates":[-81.339962,48.490328]}},{"type":"Feature","properties":{"ZIP":"P4N6J9","VERTICES":9},"geometry":{"type":"Point","coordinates":[-81.3295645,48.4763005]}},{"type":"Feature","properties":{"ZIP":"P4N1Y9","VERTICES":9},"geometry":{"type":"Point","coordinates":[-81.333351,48.4760265]}},{"type":"Feature","properties":{"ZIP":"P4N3C1","VERTICES":9},"geometry":{"type":"Point","coordinates":[-81.340293,48.4710195]}},{"type":"Feature","properties":{"ZIP":"P4N5H8","VERTICES":9},"geometry":{"type":"Point","coordinates":[-81.3432495,48.490331499999996]}},{"type":"Feature","properties":{"ZIP":"P4N6L5","VERTICES":9},"geometry":{"type":"Point","coordinates":[-81.3283215,48.484066999999996]}},{"type":"Feature","properties":{"ZIP":"P4N5V7","VERTICES":9},"geometry":{"type":"Point","coordinates":[-81.315954,48.4847425]}},{"type":"Feature","properties":{"ZIP":"P4N4R6","VERTICES":9},"geometry":{"type":"Point","coordinates":[-81.3525655,48.491660499999995]}},{"type":"Feature","properties":{"ZIP":"P4N6K1","VERTICES":9},"geometry":{"type":"Point","coordinates":[-81.3295635,48.476201]}},{"type":"Feature","properties":{"ZIP":"P4N2E5","VERTICES":9},"geometry":{"type":"Point","coordinates":[-81.33084099999999,48.476049]}},{"type":"Feature","properties":{"ZIP":"P4N3C2","VERTICES":9},"geometry":{"type":"Point","coordinates":[-81.34241750000001,48.471007]}},{"type":"Feature","properties":{"ZIP":"P4N5H9","VERTICES":9},"geometry":{"type":"Point","coordinates":[-81.3432495,48.490331]}},{"type":"Feature","properties":{"ZIP":"P4N7A5","VERTICES":9},"geometry":{"type":"Point","coordinates":[-81.3168635,48.4853985]}},{"type":"Feature","properties":{"ZIP":"P4N7T3","VERTICES":9},"geometry":{"type":"Point","coordinates":[-81.3308985,48.4627015]}},{"type":"Feature","properties":{"ZIP":"P4N2J2","VERTICES":9},"geometry":{"type":"Point","coordinates":[-81.3295425,48.4760895]}},{"type":"Feature","properties":{"ZIP":"P4N4S1","VERTICES":9},"geometry":{"type":"Point","coordinates":[-81.3467825,48.4915745]}},{"type":"Feature","properties":{"ZIP":"P4N6C7","VERTICES":9},"geometry":{"type":"Point","coordinates":[-81.332074,48.476472]}},{"type":"Feature","properties":{"ZIP":"P4N4T9","VERTICES":9},"geometry":{"type":"Point","coordinates":[-81.3467275,48.47896]}},{"type":"Feature","properties":{"ZIP":"P4N6R7","VERTICES":9},"geometry":{"type":"Point","coordinates":[-81.325948,48.485327999999996]}},{"type":"Feature","properties":{"ZIP":"P4N7A6","VERTICES":9},"geometry":{"type":"Point","coordinates":[-81.3160375,48.485213]}},{"type":"Feature","properties":{"ZIP":"P4N8S5","VERTICES":9},"geometry":{"type":"Point","coordinates":[-81.332787,48.4903705]}},{"type":"Feature","properties":{"ZIP":"P4N3E5","VERTICES":9},"geometry":{"type":"Point","coordinates":[-81.3402815,48.469592500000005]}},{"type":"Feature","properties":{"ZIP":"P4N6S9","VERTICES":9},"geometry":{"type":"Point","coordinates":[-81.324837,48.4817475]}},{"type":"Feature","properties":{"ZIP":"P4N8K1","VERTICES":9},"geometry":{"type":"Point","coordinates":[-81.3610925,48.4816915]}},{"type":"Feature","properties":{"ZIP":"P4N4K7","VERTICES":9},"geometry":{"type":"Point","coordinates":[-81.336487,48.482932500000004]}},{"type":"Feature","properties":{"ZIP":"P4N7K9","VERTICES":9},"geometry":{"type":"Point","coordinates":[-81.36301950000001,48.481421999999995]}},{"type":"Feature","properties":{"ZIP":"P4N7Y9","VERTICES":9},"geometry":{"type":"Point","coordinates":[-81.345694,48.487648]}},{"type":"Feature","properties":{"ZIP":"P4N8L9","VERTICES":9},"geometry":{"type":"Point","coordinates":[-81.3362075,48.49281]}},{"type":"Feature","properties":{"ZIP":"P4N4G8","VERTICES":9},"geometry":{"type":"Point","coordinates":[-81.3393285,48.4793105]}},{"type":"Feature","properties":{"ZIP":"P4N2A8","VERTICES":9},"geometry":{"type":"Point","coordinates":[-81.33207250000001,48.472883]}},{"type":"Feature","properties":{"ZIP":"P4N2J5","VERTICES":9},"geometry":{"type":"Point","coordinates":[-81.3295315,48.476376]}},{"type":"Feature","properties":{"ZIP":"P4N4K8","VERTICES":9},"geometry":{"type":"Point","coordinates":[-81.33653699999999,48.482864500000005]}},{"type":"Feature","properties":{"ZIP":"P4N4Z1","VERTICES":9},"geometry":{"type":"Point","coordinates":[-81.33771300000001,48.488338999999996]}},{"type":"Feature","properties":{"ZIP":"P4N5H1","VERTICES":9},"geometry":{"type":"Point","coordinates":[-81.34213650000001,48.490325]}},{"type":"Feature","properties":{"ZIP":"P4N6Z3","VERTICES":9},"geometry":{"type":"Point","coordinates":[-81.319466,48.4893335]}},{"type":"Feature","properties":{"ZIP":"P4N6W7","VERTICES":9},"geometry":{"type":"Point","coordinates":[-81.32364000000001,48.482607]}},{"type":"Feature","properties":{"ZIP":"P4N2B1","VERTICES":9},"geometry":{"type":"Point","coordinates":[-81.3320645,48.471483000000006]}},{"type":"Feature","properties":{"ZIP":"P4N2V8","VERTICES":9},"geometry":{"type":"Point","coordinates":[-81.34241549999999,48.474556500000006]}},{"type":"Feature","properties":{"ZIP":"P4N4M6","VERTICES":9},"geometry":{"type":"Point","coordinates":[-81.342019,48.486036999999996]}},{"type":"Feature","properties":{"ZIP":"P4N5J5","VERTICES":9},"geometry":{"type":"Point","coordinates":[-81.3450105,48.491194]}},{"type":"Feature","properties":{"ZIP":"P4N7T9","VERTICES":9},"geometry":{"type":"Point","coordinates":[-81.35372050000001,48.493364]}},{"type":"Feature","properties":{"ZIP":"P4N8H4","VERTICES":9},"geometry":{"type":"Point","coordinates":[-81.343786,48.4914245]}},{"type":"Feature","properties":{"ZIP":"P4N1W9","VERTICES":9},"geometry":{"type":"Point","coordinates":[-81.3345075,48.471491]}},{"type":"Feature","properties":{"ZIP":"P4N2M9","VERTICES":9},"geometry":{"type":"Point","coordinates":[-81.32705999999999,48.475829]}},{"type":"Feature","properties":{"ZIP":"P4N6B8","VERTICES":9},"geometry":{"type":"Point","coordinates":[-81.333346,48.479245500000005]}},{"type":"Feature","properties":{"ZIP":"P4N6T4","VERTICES":9},"geometry":{"type":"Point","coordinates":[-81.32484199999999,48.4846155]}},{"type":"Feature","properties":{"ZIP":"P4N4E7","VERTICES":9},"geometry":{"type":"Point","coordinates":[-81.3369965,48.478682]}},{"type":"Feature","properties":{"ZIP":"P4N5J7","VERTICES":9},"geometry":{"type":"Point","coordinates":[-81.3454725,48.4893985]}},{"type":"Feature","properties":{"ZIP":"P4N6H1","VERTICES":9},"geometry":{"type":"Point","coordinates":[-81.33085449999999,48.476141]}},{"type":"Feature","properties":{"ZIP":"P4N7B2","VERTICES":9},"geometry":{"type":"Point","coordinates":[-81.321698,48.489695]}},{"type":"Feature","properties":{"ZIP":"P4N7V2","VERTICES":9},"geometry":{"type":"Point","coordinates":[-81.352148,48.492421]}},{"type":"Feature","properties":{"ZIP":"P4N4R2","VERTICES":9},"geometry":{"type":"Point","coordinates":[-81.351277,48.4909405]}},{"type":"Feature","properties":{"ZIP":"P4N6J5","VERTICES":9},"geometry":{"type":"Point","coordinates":[-81.32957099999999,48.476167000000004]}},{"type":"Feature","properties":{"ZIP":"P4N6T5","VERTICES":9},"geometry":{"type":"Point","coordinates":[-81.3248375,48.484896500000005]}},{"type":"Feature","properties":{"ZIP":"P4N6K9","VERTICES":9},"geometry":{"type":"Point","coordinates":[-81.32839,48.479389999999995]}},{"type":"Feature","properties":{"ZIP":"P4N6R2","VERTICES":9},"geometry":{"type":"Point","coordinates":[-81.32597000000001,48.4816795]}},{"type":"Feature","properties":{"ZIP":"P4N7Z7","VERTICES":9},"geometry":{"type":"Point","coordinates":[-81.349288,48.489346999999995]}},{"type":"Feature","properties":{"ZIP":"P4N5B7","VERTICES":9},"geometry":{"type":"Point","coordinates":[-81.34347199999999,48.478862500000005]}},{"type":"Feature","properties":{"ZIP":"P4N2H5","VERTICES":9},"geometry":{"type":"Point","coordinates":[-81.329567,48.476158]}},{"type":"Feature","properties":{"ZIP":"P4N6C1","VERTICES":9},"geometry":{"type":"Point","coordinates":[-81.3333395,48.480715000000004]}},{"type":"Feature","properties":{"ZIP":"P4N7R3","VERTICES":9},"geometry":{"type":"Point","coordinates":[-81.3638945,48.4826085]}},{"type":"Feature","properties":{"ZIP":"P4N4L4","VERTICES":9},"geometry":{"type":"Point","coordinates":[-81.341691,48.4833525]}},{"type":"Feature","properties":{"ZIP":"P4N4Z6","VERTICES":9},"geometry":{"type":"Point","coordinates":[-81.3410095,48.475685]}},{"type":"Feature","properties":{"ZIP":"P4N7A2","VERTICES":9},"geometry":{"type":"Point","coordinates":[-81.319649,48.482085]}},{"type":"Feature","properties":{"ZIP":"P4N1X3","VERTICES":8},"geometry":{"type":"Point","coordinates":[-81.3344985,48.4702955]}},{"type":"Feature","properties":{"ZIP":"P4N2B5","VERTICES":8},"geometry":{"type":"Point","coordinates":[-81.33205000000001,48.4691115]}},{"type":"Feature","properties":{"ZIP":"P4N2H6","VERTICES":8},"geometry":{"type":"Point","coordinates":[-81.32956200000001,48.47605]}},{"type":"Feature","properties":{"ZIP":"P4N5G4","VERTICES":8},"geometry":{"type":"Point","coordinates":[-81.338859,48.4903345]}},{"type":"Feature","properties":{"ZIP":"P4N6Y6","VERTICES":8},"geometry":{"type":"Point","coordinates":[-81.3199225,48.4843135]}},{"type":"Feature","properties":{"ZIP":"P4N5H7","VERTICES":8},"geometry":{"type":"Point","coordinates":[-81.3431735,48.487157999999994]}},{"type":"Feature","properties":{"ZIP":"P4N4W6","VERTICES":8},"geometry":{"type":"Point","coordinates":[-81.33501050000001,48.484928999999994]}},{"type":"Feature","properties":{"ZIP":"P4N7B5","VERTICES":8},"geometry":{"type":"Point","coordinates":[-81.3400975,48.465509]}},{"type":"Feature","properties":{"ZIP":"P4N7V6","VERTICES":8},"geometry":{"type":"Point","coordinates":[-81.367558,48.477834]}},{"type":"Feature","properties":{"ZIP":"P4N1X4","VERTICES":8},"geometry":{"type":"Point","coordinates":[-81.33448200000001,48.469376]}},{"type":"Feature","properties":{"ZIP":"P4N3W1","VERTICES":8},"geometry":{"type":"Point","coordinates":[-81.3594485,48.476574]}},{"type":"Feature","properties":{"ZIP":"P4N6C3","VERTICES":8},"geometry":{"type":"Point","coordinates":[-81.333351,48.482362]}},{"type":"Feature","properties":{"ZIP":"P4N6P2","VERTICES":8},"geometry":{"type":"Point","coordinates":[-81.327042,48.47656]}},{"type":"Feature","properties":{"ZIP":"P4N7K6","VERTICES":8},"geometry":{"type":"Point","coordinates":[-81.362098,48.4797215]}},{"type":"Feature","properties":{"ZIP":"P4N8L4","VERTICES":8},"geometry":{"type":"Point","coordinates":[-81.34329600000001,48.480211]}},{"type":"Feature","properties":{"ZIP":"P4N4L6","VERTICES":8},"geometry":{"type":"Point","coordinates":[-81.3391925,48.484282]}},{"type":"Feature","properties":{"ZIP":"P4N7A4","VERTICES":8},"geometry":{"type":"Point","coordinates":[-81.31686149999999,48.4853375]}},{"type":"Feature","properties":{"ZIP":"P4N6B2","VERTICES":8},"geometry":{"type":"Point","coordinates":[-81.3343895,48.482279500000004]}},{"type":"Feature","properties":{"ZIP":"P4N6N1","VERTICES":8},"geometry":{"type":"Point","coordinates":[-81.3270355,48.475768]}},{"type":"Feature","properties":{"ZIP":"P4N8J8","VERTICES":8},"geometry":{"type":"Point","coordinates":[-81.36149850000001,48.481955]}},{"type":"Feature","properties":{"ZIP":"P4N1X5","VERTICES":8},"geometry":{"type":"Point","coordinates":[-81.3343865,48.4759315]}},{"type":"Feature","properties":{"ZIP":"P4N2B7","VERTICES":8},"geometry":{"type":"Point","coordinates":[-81.332039,48.467518]}},{"type":"Feature","properties":{"ZIP":"P4N7K7","VERTICES":8},"geometry":{"type":"Point","coordinates":[-81.3517085,48.490168]}},{"type":"Feature","properties":{"ZIP":"P4N2X8","VERTICES":8},"geometry":{"type":"Point","coordinates":[-81.3460305,48.4738955]}},{"type":"Feature","properties":{"ZIP":"P4N7M2","VERTICES":8},"geometry":{"type":"Point","coordinates":[-81.36300349999999,48.480734]}},{"type":"Feature","properties":{"ZIP":"P4N8R9","VERTICES":8},"geometry":{"type":"Point","coordinates":[-81.30779100000001,48.493233000000004]}},{"type":"Feature","properties":{"ZIP":"P4N7B7","VERTICES":8},"geometry":{"type":"Point","coordinates":[-81.339951,48.466796]}},{"type":"Feature","properties":{"ZIP":"P4N7P5","VERTICES":8},"geometry":{"type":"Point","coordinates":[-81.346303,48.492408499999996]}},{"type":"Feature","properties":{"ZIP":"P4N7W3","VERTICES":8},"geometry":{"type":"Point","coordinates":[-81.32592550000001,48.489591000000004]}},{"type":"Feature","properties":{"ZIP":"P4N2B8","VERTICES":8},"geometry":{"type":"Point","coordinates":[-81.332042,48.468017]}},{"type":"Feature","properties":{"ZIP":"P4N3G8","VERTICES":8},"geometry":{"type":"Point","coordinates":[-81.342384,48.468904499999994]}},{"type":"Feature","properties":{"ZIP":"P4N5G7","VERTICES":8},"geometry":{"type":"Point","coordinates":[-81.34104099999999,48.490331]}},{"type":"Feature","properties":{"ZIP":"P4N8L8","VERTICES":8},"geometry":{"type":"Point","coordinates":[-81.3356205,48.493217]}},{"type":"Feature","properties":{"ZIP":"P4N6A1","VERTICES":8},"geometry":{"type":"Point","coordinates":[-81.334383,48.475863000000004]}},{"type":"Feature","properties":{"ZIP":"P4N6L7","VERTICES":8},"geometry":{"type":"Point","coordinates":[-81.32830949999999,48.485366]}},{"type":"Feature","properties":{"ZIP":"P4N4P4","VERTICES":8},"geometry":{"type":"Point","coordinates":[-81.3483115,48.4893785]}},{"type":"Feature","properties":{"ZIP":"P4N6N3","VERTICES":8},"geometry":{"type":"Point","coordinates":[-81.32705899999999,48.476153]}},{"type":"Feature","properties":{"ZIP":"P4N7W4","VERTICES":8},"geometry":{"type":"Point","coordinates":[-81.3675605,48.4790145]}},{"type":"Feature","properties":{"ZIP":"P4N1X7","VERTICES":8},"geometry":{"type":"Point","coordinates":[-81.33443550000001,48.4679285]}},{"type":"Feature","properties":{"ZIP":"P4N2W7","VERTICES":8},"geometry":{"type":"Point","coordinates":[-81.3363865,48.473873499999996]}},{"type":"Feature","properties":{"ZIP":"P4N5G8","VERTICES":8},"geometry":{"type":"Point","coordinates":[-81.34104099999999,48.490331]}},{"type":"Feature","properties":{"ZIP":"P4N7S1","VERTICES":8},"geometry":{"type":"Point","coordinates":[-81.350631,48.4937835]}},{"type":"Feature","properties":{"ZIP":"P4N2E7","VERTICES":8},"geometry":{"type":"Point","coordinates":[-81.33072949999999,48.469215500000004]}},{"type":"Feature","properties":{"ZIP":"P4N4M2","VERTICES":8},"geometry":{"type":"Point","coordinates":[-81.3365585,48.486053]}},{"type":"Feature","properties":{"ZIP":"P4N6G6","VERTICES":8},"geometry":{"type":"Point","coordinates":[-81.3308625,48.4762645]}},{"type":"Feature","properties":{"ZIP":"P4N6L8","VERTICES":8},"geometry":{"type":"Point","coordinates":[-81.32830899999999,48.485383]}},{"type":"Feature","properties":{"ZIP":"P4N3E6","VERTICES":8},"geometry":{"type":"Point","coordinates":[-81.34249299999999,48.4695865]}},{"type":"Feature","properties":{"ZIP":"P4N4P5","VERTICES":8},"geometry":{"type":"Point","coordinates":[-81.347317,48.489355]}},{"type":"Feature","properties":{"ZIP":"P4N6B5","VERTICES":8},"geometry":{"type":"Point","coordinates":[-81.33335,48.477816]}},{"type":"Feature","properties":{"ZIP":"P4N4C9","VERTICES":8},"geometry":{"type":"Point","coordinates":[-81.369067,48.475570000000005]}},{"type":"Feature","properties":{"ZIP":"P4N6L9","VERTICES":8},"geometry":{"type":"Point","coordinates":[-81.3284175,48.476408]}},{"type":"Feature","properties":{"ZIP":"P4N6R9","VERTICES":8},"geometry":{"type":"Point","coordinates":[-81.3259265,48.487265]}},{"type":"Feature","properties":{"ZIP":"P4N6W6","VERTICES":8},"geometry":{"type":"Point","coordinates":[-81.3235445,48.4808435]}},{"type":"Feature","properties":{"ZIP":"P4N7M5","VERTICES":8},"geometry":{"type":"Point","coordinates":[-81.3493535,48.492411000000004]}},{"type":"Feature","properties":{"ZIP":"P4N3E7","VERTICES":8},"geometry":{"type":"Point","coordinates":[-81.342502,48.4695865]}},{"type":"Feature","properties":{"ZIP":"P4N4X2","VERTICES":8},"geometry":{"type":"Point","coordinates":[-81.336675,48.4883895]}},{"type":"Feature","properties":{"ZIP":"P4N6T2","VERTICES":8},"geometry":{"type":"Point","coordinates":[-81.32485,48.4833875]}},{"type":"Feature","properties":{"ZIP":"P4N7W6","VERTICES":8},"geometry":{"type":"Point","coordinates":[-81.3355905,48.490461499999995]}},{"type":"Feature","properties":{"ZIP":"P4N2J7","VERTICES":8},"geometry":{"type":"Point","coordinates":[-81.32952900000001,48.476040999999995]}},{"type":"Feature","properties":{"ZIP":"P4N4S7","VERTICES":8},"geometry":{"type":"Point","coordinates":[-81.34827849999999,48.476822999999996]}},{"type":"Feature","properties":{"ZIP":"P4N6V5","VERTICES":8},"geometry":{"type":"Point","coordinates":[-81.3203895,48.482468499999996]}},{"type":"Feature","properties":{"ZIP":"P4N3C6","VERTICES":8},"geometry":{"type":"Point","coordinates":[-81.338308,48.4703045]}},{"type":"Feature","properties":{"ZIP":"P4N4M5","VERTICES":8},"geometry":{"type":"Point","coordinates":[-81.342019,48.486036999999996]}},{"type":"Feature","properties":{"ZIP":"P4N5B3","VERTICES":8},"geometry":{"type":"Point","coordinates":[-81.341865,48.4827965]}},{"type":"Feature","properties":{"ZIP":"P4N5J4","VERTICES":8},"geometry":{"type":"Point","coordinates":[-81.34447449999999,48.487984499999996]}},{"type":"Feature","properties":{"ZIP":"P4N6G8","VERTICES":8},"geometry":{"type":"Point","coordinates":[-81.3308625,48.4761785]}},{"type":"Feature","properties":{"ZIP":"P4N6M1","VERTICES":8},"geometry":{"type":"Point","coordinates":[-81.3283375,48.487715]}},{"type":"Feature","properties":{"ZIP":"P4N3G1","VERTICES":8},"geometry":{"type":"Point","coordinates":[-81.336612,48.468912]}},{"type":"Feature","properties":{"ZIP":"P4N4B7","VERTICES":8},"geometry":{"type":"Point","coordinates":[-81.35684,48.479578000000004]}},{"type":"Feature","properties":{"ZIP":"P4N6J3","VERTICES":8},"geometry":{"type":"Point","coordinates":[-81.3295325,48.4760105]}},{"type":"Feature","properties":{"ZIP":"P4N6N6","VERTICES":8},"geometry":{"type":"Point","coordinates":[-81.32718349999999,48.468160499999996]}},{"type":"Feature","properties":{"ZIP":"P4N8K5","VERTICES":8},"geometry":{"type":"Point","coordinates":[-81.338021,48.491424]}},{"type":"Feature","properties":{"ZIP":"P4N6P9","VERTICES":8},"geometry":{"type":"Point","coordinates":[-81.3259695,48.4806545]}},{"type":"Feature","properties":{"ZIP":"P4N6V6","VERTICES":8},"geometry":{"type":"Point","coordinates":[-81.3189735,48.4838765]}},{"type":"Feature","properties":{"ZIP":"P4N6Z4","VERTICES":8},"geometry":{"type":"Point","coordinates":[-81.3194665,48.489285499999994]}},{"type":"Feature","properties":{"ZIP":"P4N7Z5","VERTICES":8},"geometry":{"type":"Point","coordinates":[-81.33625,48.46265]}},{"type":"Feature","properties":{"ZIP":"P4N2Y5","VERTICES":8},"geometry":{"type":"Point","coordinates":[-81.3383665,48.473197]}},{"type":"Feature","properties":{"ZIP":"P4N4H4","VERTICES":8},"geometry":{"type":"Point","coordinates":[-81.3363565,48.4802315]}},{"type":"Feature","properties":{"ZIP":"P4N6G9","VERTICES":8},"geometry":{"type":"Point","coordinates":[-81.330828,48.471411]}},{"type":"Feature","properties":{"ZIP":"P4N2B2","VERTICES":8},"geometry":{"type":"Point","coordinates":[-81.332066,48.4715925]}},{"type":"Feature","properties":{"ZIP":"P4N2H3","VERTICES":8},"geometry":{"type":"Point","coordinates":[-81.3295725,48.4758975]}},{"type":"Feature","properties":{"ZIP":"P4N6N7","VERTICES":8},"geometry":{"type":"Point","coordinates":[-81.327056,48.476181999999994]}},{"type":"Feature","properties":{"ZIP":"P4N2P4","VERTICES":8},"geometry":{"type":"Point","coordinates":[-81.32555350000001,48.4696415]}},{"type":"Feature","properties":{"ZIP":"P4N6E3","VERTICES":8},"geometry":{"type":"Point","coordinates":[-81.33207300000001,48.4755975]}},{"type":"Feature","properties":{"ZIP":"P4N6R1","VERTICES":8},"geometry":{"type":"Point","coordinates":[-81.3259695,48.480654]}},{"type":"Feature","properties":{"ZIP":"P4N6V7","VERTICES":8},"geometry":{"type":"Point","coordinates":[-81.318917,48.483987]}},{"type":"Feature","properties":{"ZIP":"P4N1Z7","VERTICES":8},"geometry":{"type":"Point","coordinates":[-81.333474,48.4839525]}},{"type":"Feature","properties":{"ZIP":"P4N3J8","VERTICES":8},"geometry":{"type":"Point","coordinates":[-81.3385655,48.46579]}},{"type":"Feature","properties":{"ZIP":"P4N4V8","VERTICES":8},"geometry":{"type":"Point","coordinates":[-81.3357575,48.4792235]}},{"type":"Feature","properties":{"ZIP":"P4N6A7","VERTICES":8},"geometry":{"type":"Point","coordinates":[-81.33438000000001,48.4792415]}},{"type":"Feature","properties":{"ZIP":"P4N6S3","VERTICES":8},"geometry":{"type":"Point","coordinates":[-81.32484,48.47763]}},{"type":"Feature","properties":{"ZIP":"P4N1X1","VERTICES":8},"geometry":{"type":"Point","coordinates":[-81.33439100000001,48.4806195]}},{"type":"Feature","properties":{"ZIP":"P4N2H4","VERTICES":8},"geometry":{"type":"Point","coordinates":[-81.3295655,48.4760115]}},{"type":"Feature","properties":{"ZIP":"P4N6B9","VERTICES":8},"geometry":{"type":"Point","coordinates":[-81.33340000000001,48.48052]}},{"type":"Feature","properties":{"ZIP":"P4N6N8","VERTICES":8},"geometry":{"type":"Point","coordinates":[-81.3271735,48.467416]}},{"type":"Feature","properties":{"ZIP":"P4N6Y4","VERTICES":8},"geometry":{"type":"Point","coordinates":[-81.32169300000001,48.482729]}},{"type":"Feature","properties":{"ZIP":"P4N7R2","VERTICES":8},"geometry":{"type":"Point","coordinates":[-81.36501849999999,48.482135]}},{"type":"Feature","properties":{"ZIP":"P4N2X4","VERTICES":8},"geometry":{"type":"Point","coordinates":[-81.34239149999999,48.473902499999994]}},{"type":"Feature","properties":{"ZIP":"P4N4Z5","VERTICES":8},"geometry":{"type":"Point","coordinates":[-81.340946,48.476277499999995]}},{"type":"Feature","properties":{"ZIP":"P4N6E4","VERTICES":8},"geometry":{"type":"Point","coordinates":[-81.3320655,48.4715505]}},{"type":"Feature","properties":{"ZIP":"P4N6V8","VERTICES":8},"geometry":{"type":"Point","coordinates":[-81.3184415,48.4854725]}},{"type":"Feature","properties":{"ZIP":"P4N3C9","VERTICES":8},"geometry":{"type":"Point","coordinates":[-81.342761,48.4703175]}},{"type":"Feature","properties":{"ZIP":"P4N5J8","VERTICES":8},"geometry":{"type":"Point","coordinates":[-81.3454625,48.4903365]}},{"type":"Feature","properties":{"ZIP":"P4N8J3","VERTICES":8},"geometry":{"type":"Point","coordinates":[-81.34543149999999,48.492287000000005]}},{"type":"Feature","properties":{"ZIP":"P4N1X2","VERTICES":8},"geometry":{"type":"Point","coordinates":[-81.334451,48.481859]}},{"type":"Feature","properties":{"ZIP":"P4N2B4","VERTICES":8},"geometry":{"type":"Point","coordinates":[-81.33205799999999,48.470335]}},{"type":"Feature","properties":{"ZIP":"P4N2W2","VERTICES":8},"geometry":{"type":"Point","coordinates":[-81.3446075,48.474535]}},{"type":"Feature","properties":{"ZIP":"P4N3A3","VERTICES":8},"geometry":{"type":"Point","coordinates":[-81.3425175,48.472483499999996]}},{"type":"Feature","properties":{"ZIP":"P4N4R3","VERTICES":8},"geometry":{"type":"Point","coordinates":[-81.3524785,48.490974]}},{"type":"Feature","properties":{"ZIP":"P4N6N9","VERTICES":8},"geometry":{"type":"Point","coordinates":[-81.3270515,48.476126]}},{"type":"Feature","properties":{"ZIP":"P4N8K9","VERTICES":8},"geometry":{"type":"Point","coordinates":[-81.3452835,48.4934365]}},{"type":"Feature","properties":{"ZIP":"P4N6L1","VERTICES":8},"geometry":{"type":"Point","coordinates":[-81.328341,48.4794045]}},{"type":"Feature","properties":{"ZIP":"P4N6V9","VERTICES":8},"geometry":{"type":"Point","coordinates":[-81.31833599999999,48.485292]}},{"type":"Feature","properties":{"ZIP":"P4N7Z8","VERTICES":8},"geometry":{"type":"Point","coordinates":[-81.349288,48.489348]}},{"type":"Feature","properties":{"ZIP":"P4N3E1","VERTICES":7},"geometry":{"type":"Point","coordinates":[-81.33654250000001,48.469591]}},{"type":"Feature","properties":{"ZIP":"P4N3K1","VERTICES":7},"geometry":{"type":"Point","coordinates":[-81.3365945,48.4648755]}},{"type":"Feature","properties":{"ZIP":"P4N4W4","VERTICES":7},"geometry":{"type":"Point","coordinates":[-81.33510100000001,48.4824285]}},{"type":"Feature","properties":{"ZIP":"P4N7B4","VERTICES":7},"geometry":{"type":"Point","coordinates":[-81.3220595,48.486938499999994]}},{"type":"Feature","properties":{"ZIP":"P4N7P1","VERTICES":7},"geometry":{"type":"Point","coordinates":[-81.365223,48.482154]}},{"type":"Feature","properties":{"ZIP":"P4N3A4","VERTICES":7},"geometry":{"type":"Point","coordinates":[-81.3424065,48.4724845]}},{"type":"Feature","properties":{"ZIP":"P4N6P1","VERTICES":7},"geometry":{"type":"Point","coordinates":[-81.3270965,48.476707000000005]}},{"type":"Feature","properties":{"ZIP":"P4N7R4","VERTICES":7},"geometry":{"type":"Point","coordinates":[-81.3471195,48.49375]}},{"type":"Feature","properties":{"ZIP":"P4N2E3","VERTICES":7},"geometry":{"type":"Point","coordinates":[-81.330855,48.4759435]}},{"type":"Feature","properties":{"ZIP":"P4N2K6","VERTICES":7},"geometry":{"type":"Point","coordinates":[-81.32837549999999,48.4762805]}},{"type":"Feature","properties":{"ZIP":"P4N2X6","VERTICES":7},"geometry":{"type":"Point","coordinates":[-81.344056,48.473901999999995]}},{"type":"Feature","properties":{"ZIP":"P4N3Y2","VERTICES":7},"geometry":{"type":"Point","coordinates":[-81.358611,48.4797245]}},{"type":"Feature","properties":{"ZIP":"P4N6L4","VERTICES":7},"geometry":{"type":"Point","coordinates":[-81.32833049999999,48.482296500000004]}},{"type":"Feature","properties":{"ZIP":"P4N7A3","VERTICES":7},"geometry":{"type":"Point","coordinates":[-81.31948349999999,48.4822785]}},{"type":"Feature","properties":{"ZIP":"P4N1J8","VERTICES":7},"geometry":{"type":"Point","coordinates":[-81.3313695,48.470918499999996]}},{"type":"Feature","properties":{"ZIP":"P4N6X3","VERTICES":7},"geometry":{"type":"Point","coordinates":[-81.32105250000001,48.4849105]}},{"type":"Feature","properties":{"ZIP":"P4N1B7","VERTICES":7},"geometry":{"type":"Point","coordinates":[-81.32008099999999,48.4768155]}},{"type":"Feature","properties":{"ZIP":"P4N2N5","VERTICES":7},"geometry":{"type":"Point","coordinates":[-81.3270465,48.476144000000005]}},{"type":"Feature","properties":{"ZIP":"P4N2W4","VERTICES":7},"geometry":{"type":"Point","coordinates":[-81.34629799999999,48.474584500000006]}},{"type":"Feature","properties":{"ZIP":"P4N2K7","VERTICES":7},"geometry":{"type":"Point","coordinates":[-81.3283485,48.4757705]}},{"type":"Feature","properties":{"ZIP":"P4N3J1","VERTICES":7},"geometry":{"type":"Point","coordinates":[-81.3366815,48.467487000000006]}},{"type":"Feature","properties":{"ZIP":"P4N6E7","VERTICES":7},"geometry":{"type":"Point","coordinates":[-81.332055,48.469912]}},{"type":"Feature","properties":{"ZIP":"P4N2A2","VERTICES":7},"geometry":{"type":"Point","coordinates":[-81.3333485,48.47581]}},{"type":"Feature","properties":{"ZIP":"P4N4H9","VERTICES":7},"geometry":{"type":"Point","coordinates":[-81.33646350000001,48.481114500000004]}},{"type":"Feature","properties":{"ZIP":"P4N5C3","VERTICES":7},"geometry":{"type":"Point","coordinates":[-81.34407949999999,48.4768245]}},{"type":"Feature","properties":{"ZIP":"P4N6H6","VERTICES":7},"geometry":{"type":"Point","coordinates":[-81.33087,48.487012]}},{"type":"Feature","properties":{"ZIP":"P4N7P4","VERTICES":7},"geometry":{"type":"Point","coordinates":[-81.34705149999999,48.493375]}},{"type":"Feature","properties":{"ZIP":"P4N7W1","VERTICES":7},"geometry":{"type":"Point","coordinates":[-81.33660449999999,48.4664765]}},{"type":"Feature","properties":{"ZIP":"P4N3W2","VERTICES":7},"geometry":{"type":"Point","coordinates":[-81.36510150000001,48.475207]}},{"type":"Feature","properties":{"ZIP":"P4N5G6","VERTICES":7},"geometry":{"type":"Point","coordinates":[-81.339962,48.490305]}},{"type":"Feature","properties":{"ZIP":"P4N6V1","VERTICES":7},"geometry":{"type":"Point","coordinates":[-81.3222015,48.4804675]}},{"type":"Feature","properties":{"ZIP":"P4N6Y8","VERTICES":7},"geometry":{"type":"Point","coordinates":[-81.3194455,48.4851865]}},{"type":"Feature","properties":{"ZIP":"P4N7R6","VERTICES":7},"geometry":{"type":"Point","coordinates":[-81.333272,48.466466999999994]}},{"type":"Feature","properties":{"ZIP":"P4N1S8","VERTICES":7},"geometry":{"type":"Point","coordinates":[-81.33574949999999,48.4759335]}},{"type":"Feature","properties":{"ZIP":"P4N1Z1","VERTICES":7},"geometry":{"type":"Point","coordinates":[-81.3334035,48.476040499999996]}},{"type":"Feature","properties":{"ZIP":"P4N6L6","VERTICES":7},"geometry":{"type":"Point","coordinates":[-81.328322,48.483974]}},{"type":"Feature","properties":{"ZIP":"P4N3E4","VERTICES":7},"geometry":{"type":"Point","coordinates":[-81.3383705,48.469595]}},{"type":"Feature","properties":{"ZIP":"P4N4B2","VERTICES":7},"geometry":{"type":"Point","coordinates":[-81.35684599999999,48.477661]}},{"type":"Feature","properties":{"ZIP":"P4N4J1","VERTICES":7},"geometry":{"type":"Point","coordinates":[-81.3392245,48.4811715]}},{"type":"Feature","properties":{"ZIP":"P4N6N2","VERTICES":7},"geometry":{"type":"Point","coordinates":[-81.32714849999999,48.472076]}},{"type":"Feature","properties":{"ZIP":"P4N1C5","VERTICES":7},"geometry":{"type":"Point","coordinates":[-81.297653,48.474996000000004]}},{"type":"Feature","properties":{"ZIP":"P4N1X6","VERTICES":7},"geometry":{"type":"Point","coordinates":[-81.339,48.4680745]}},{"type":"Feature","properties":{"ZIP":"P4N6K2","VERTICES":7},"geometry":{"type":"Point","coordinates":[-81.32955799999999,48.476041]}},{"type":"Feature","properties":{"ZIP":"P4N6V2","VERTICES":7},"geometry":{"type":"Point","coordinates":[-81.32412249999999,48.479423]}},{"type":"Feature","properties":{"ZIP":"P4N6Y9","VERTICES":7},"geometry":{"type":"Point","coordinates":[-81.31951849999999,48.485290000000006]}},{"type":"Feature","properties":{"ZIP":"P4N7Y8","VERTICES":7},"geometry":{"type":"Point","coordinates":[-81.36756,48.477348]}},{"type":"Feature","properties":{"ZIP":"P4N1Z2","VERTICES":7},"geometry":{"type":"Point","coordinates":[-81.3333495,48.476102]}},{"type":"Feature","properties":{"ZIP":"P4N3C3","VERTICES":7},"geometry":{"type":"Point","coordinates":[-81.3423455,48.4710075]}},{"type":"Feature","properties":{"ZIP":"P4N5A5","VERTICES":7},"geometry":{"type":"Point","coordinates":[-81.340494,48.485138]}},{"type":"Feature","properties":{"ZIP":"P4N1W2","VERTICES":7},"geometry":{"type":"Point","coordinates":[-81.3357395,48.4646685]}},{"type":"Feature","properties":{"ZIP":"P4N2M3","VERTICES":7},"geometry":{"type":"Point","coordinates":[-81.328442,48.463449]}},{"type":"Feature","properties":{"ZIP":"P4N4B4","VERTICES":7},"geometry":{"type":"Point","coordinates":[-81.356848,48.478425]}},{"type":"Feature","properties":{"ZIP":"P4N7P6","VERTICES":7},"geometry":{"type":"Point","coordinates":[-81.3667875,48.481004999999996]}},{"type":"Feature","properties":{"ZIP":"P4N1C7","VERTICES":7},"geometry":{"type":"Point","coordinates":[-81.29603,48.4750685]}},{"type":"Feature","properties":{"ZIP":"P4N2C1","VERTICES":7},"geometry":{"type":"Point","coordinates":[-81.331387,48.465872000000005]}},{"type":"Feature","properties":{"ZIP":"P4N2J4","VERTICES":7},"geometry":{"type":"Point","coordinates":[-81.3295305,48.4761685]}},{"type":"Feature","properties":{"ZIP":"P4N6K3","VERTICES":7},"geometry":{"type":"Point","coordinates":[-81.32896450000001,48.476297]}},{"type":"Feature","properties":{"ZIP":"P4N6Z1","VERTICES":7},"geometry":{"type":"Point","coordinates":[-81.31948349999999,48.4872105]}},{"type":"Feature","properties":{"ZIP":"P4N1T1","VERTICES":7},"geometry":{"type":"Point","coordinates":[-81.3357455,48.4756965]}},{"type":"Feature","properties":{"ZIP":"P4N1Z3","VERTICES":7},"geometry":{"type":"Point","coordinates":[-81.333392,48.4759295]}},{"type":"Feature","properties":{"ZIP":"P4N5T1","VERTICES":7},"geometry":{"type":"Point","coordinates":[-81.32332099999999,48.477989]}},{"type":"Feature","properties":{"ZIP":"P4N6W5","VERTICES":7},"geometry":{"type":"Point","coordinates":[-81.32362599999999,48.4811755]}},{"type":"Feature","properties":{"ZIP":"P4N7A7","VERTICES":7},"geometry":{"type":"Point","coordinates":[-81.3160855,48.4852815]}},{"type":"Feature","properties":{"ZIP":"P4N6T1","VERTICES":7},"geometry":{"type":"Point","coordinates":[-81.3248395,48.4818]}},{"type":"Feature","properties":{"ZIP":"P4N1X9","VERTICES":7},"geometry":{"type":"Point","coordinates":[-81.334372,48.4659765]}},{"type":"Feature","properties":{"ZIP":"P4N2C2","VERTICES":7},"geometry":{"type":"Point","coordinates":[-81.33202700000001,48.465872000000005]}},{"type":"Feature","properties":{"ZIP":"P4N2W8","VERTICES":7},"geometry":{"type":"Point","coordinates":[-81.336604,48.4738755]}},{"type":"Feature","properties":{"ZIP":"P4N3B3","VERTICES":7},"geometry":{"type":"Point","coordinates":[-81.3402965,48.4717395]}},{"type":"Feature","properties":{"ZIP":"P4N5G9","VERTICES":7},"geometry":{"type":"Point","coordinates":[-81.34215649999999,48.488251]}},{"type":"Feature","properties":{"ZIP":"P4N6K4","VERTICES":7},"geometry":{"type":"Point","coordinates":[-81.3295545,48.488661]}},{"type":"Feature","properties":{"ZIP":"P4N7S2","VERTICES":7},"geometry":{"type":"Point","coordinates":[-81.3508875,48.4937235]}},{"type":"Feature","properties":{"ZIP":"P4N2E8","VERTICES":7},"geometry":{"type":"Point","coordinates":[-81.330816,48.475886]}},{"type":"Feature","properties":{"ZIP":"P4N4A3","VERTICES":7},"geometry":{"type":"Point","coordinates":[-81.355478,48.47684]}},{"type":"Feature","properties":{"ZIP":"P4N4M3","VERTICES":7},"geometry":{"type":"Point","coordinates":[-81.3365585,48.486053]}},{"type":"Feature","properties":{"ZIP":"P4N5B1","VERTICES":7},"geometry":{"type":"Point","coordinates":[-81.34214650000001,48.479457999999994]}},{"type":"Feature","properties":{"ZIP":"P4N5J3","VERTICES":7},"geometry":{"type":"Point","coordinates":[-81.3442855,48.488407]}},{"type":"Feature","properties":{"ZIP":"P4N7A8","VERTICES":7},"geometry":{"type":"Point","coordinates":[-81.3236135,48.486528500000006]}},{"type":"Feature","properties":{"ZIP":"P4N2Z8","VERTICES":7},"geometry":{"type":"Point","coordinates":[-81.338622,48.472490500000006]}},{"type":"Feature","properties":{"ZIP":"P4N4P6","VERTICES":7},"geometry":{"type":"Point","coordinates":[-81.3489575,48.4902245]}},{"type":"Feature","properties":{"ZIP":"P4N6B6","VERTICES":7},"geometry":{"type":"Point","coordinates":[-81.3333385,48.475896000000006]}},{"type":"Feature","properties":{"ZIP":"P4N6N5","VERTICES":7},"geometry":{"type":"Point","coordinates":[-81.32705849999999,48.476191]}},{"type":"Feature","properties":{"ZIP":"P4N8K3","VERTICES":7},"geometry":{"type":"Point","coordinates":[-81.360928,48.4820605]}},{"type":"Feature","properties":{"ZIP":"P4N3B4","VERTICES":7},"geometry":{"type":"Point","coordinates":[-81.3402965,48.4717395]}},{"type":"Feature","properties":{"ZIP":"P4N4K9","VERTICES":7},"geometry":{"type":"Point","coordinates":[-81.33917600000001,48.4828565]}},{"type":"Feature","properties":{"ZIP":"P4N1Z5","VERTICES":7},"geometry":{"type":"Point","coordinates":[-81.33341300000001,48.482718500000004]}},{"type":"Feature","properties":{"ZIP":"P4N2E9","VERTICES":7},"geometry":{"type":"Point","coordinates":[-81.3308025,48.4756165]}},{"type":"Feature","properties":{"ZIP":"P4N2Y4","VERTICES":7},"geometry":{"type":"Point","coordinates":[-81.338304,48.4733305]}},{"type":"Feature","properties":{"ZIP":"P4N4H3","VERTICES":7},"geometry":{"type":"Point","coordinates":[-81.347626,48.4797365]}},{"type":"Feature","properties":{"ZIP":"P4N4V3","VERTICES":7},"geometry":{"type":"Point","coordinates":[-81.348337,48.478906]}},{"type":"Feature","properties":{"ZIP":"P4N7A9","VERTICES":7},"geometry":{"type":"Point","coordinates":[-81.323609,48.486591]}},{"type":"Feature","properties":{"ZIP":"P4N8E5","VERTICES":7},"geometry":{"type":"Point","coordinates":[-81.338916,48.488815]}},{"type":"Feature","properties":{"ZIP":"P4N6B7","VERTICES":7},"geometry":{"type":"Point","coordinates":[-81.333402,48.4763585]}},{"type":"Feature","properties":{"ZIP":"P4N7P9","VERTICES":7},"geometry":{"type":"Point","coordinates":[-81.3664695,48.4826585]}},{"type":"Feature","properties":{"ZIP":"P4N2C4","VERTICES":7},"geometry":{"type":"Point","coordinates":[-81.3320075,48.46446]}},{"type":"Feature","properties":{"ZIP":"P4N2J8","VERTICES":7},"geometry":{"type":"Point","coordinates":[-81.32827850000001,48.47535499999999]}},{"type":"Feature","properties":{"ZIP":"P4N2X1","VERTICES":7},"geometry":{"type":"Point","coordinates":[-81.3383105,48.4739005]}},{"type":"Feature","properties":{"ZIP":"P4N5H2","VERTICES":7},"geometry":{"type":"Point","coordinates":[-81.34213650000001,48.490325]}},{"type":"Feature","properties":{"ZIP":"P4N7L3","VERTICES":7},"geometry":{"type":"Point","coordinates":[-81.364429,48.4811705]}},{"type":"Feature","properties":{"ZIP":"P4N1Z6","VERTICES":7},"geometry":{"type":"Point","coordinates":[-81.3332705,48.4759875]}},{"type":"Feature","properties":{"ZIP":"P4N3J7","VERTICES":7},"geometry":{"type":"Point","coordinates":[-81.338565,48.4657895]}},{"type":"Feature","properties":{"ZIP":"P4N6M2","VERTICES":7},"geometry":{"type":"Point","coordinates":[-81.32844650000001,48.489525]}},{"type":"Feature","properties":{"ZIP":"P4N6S2","VERTICES":7},"geometry":{"type":"Point","coordinates":[-81.32597000000001,48.4901515]}},{"type":"Feature","properties":{"ZIP":"P4N3A1","VERTICES":7},"geometry":{"type":"Point","coordinates":[-81.3405565,48.472488999999996]}},{"type":"Feature","properties":{"ZIP":"P4N3G2","VERTICES":7},"geometry":{"type":"Point","coordinates":[-81.33664300000001,48.4689125]}},{"type":"Feature","properties":{"ZIP":"P4N4R1","VERTICES":7},"geometry":{"type":"Point","coordinates":[-81.3469,48.490322]}},{"type":"Feature","properties":{"ZIP":"P4N5E2","VERTICES":7},"geometry":{"type":"Point","coordinates":[-81.345198,48.477837]}},{"type":"Feature","properties":{"ZIP":"P4N7R1","VERTICES":7},"geometry":{"type":"Point","coordinates":[-81.365829,48.4822125]}},{"type":"Feature","properties":{"ZIP":"P4N1Y3","VERTICES":7},"geometry":{"type":"Point","coordinates":[-81.33437649999999,48.4646335]}},{"type":"Feature","properties":{"ZIP":"P4N2C5","VERTICES":7},"geometry":{"type":"Point","coordinates":[-81.33201249999999,48.463404499999996]}},{"type":"Feature","properties":{"ZIP":"P4N2X2","VERTICES":7},"geometry":{"type":"Point","coordinates":[-81.34030849999999,48.473898500000004]}},{"type":"Feature","properties":{"ZIP":"P4N3H5","VERTICES":7},"geometry":{"type":"Point","coordinates":[-81.3383595,48.468160499999996]}},{"type":"Feature","properties":{"ZIP":"P4N4L2","VERTICES":7},"geometry":{"type":"Point","coordinates":[-81.336467,48.483352]}},{"type":"Feature","properties":{"ZIP":"P4N4T3","VERTICES":7},"geometry":{"type":"Point","coordinates":[-81.3481955,48.4775475]}},{"type":"Feature","properties":{"ZIP":"P4N5H4","VERTICES":7},"geometry":{"type":"Point","coordinates":[-81.3434885,48.485318]}},{"type":"Feature","properties":{"ZIP":"P4N7L5","VERTICES":7},"geometry":{"type":"Point","coordinates":[-81.3509025,48.489124000000004]}},{"type":"Feature","properties":{"ZIP":"P4N7S7","VERTICES":7},"geometry":{"type":"Point","coordinates":[-81.332589,48.460803]}},{"type":"Feature","properties":{"ZIP":"P4N2Y6","VERTICES":7},"geometry":{"type":"Point","coordinates":[-81.3398625,48.4732575]}},{"type":"Feature","properties":{"ZIP":"P4N3C8","VERTICES":7},"geometry":{"type":"Point","coordinates":[-81.34244799999999,48.4703145]}},{"type":"Feature","properties":{"ZIP":"P4N3A2","VERTICES":7},"geometry":{"type":"Point","coordinates":[-81.3405025,48.472488999999996]}},{"type":"Feature","properties":{"ZIP":"P4N3G3","VERTICES":7},"geometry":{"type":"Point","coordinates":[-81.338359,48.468907]}},{"type":"Feature","properties":{"ZIP":"P4N8K8","VERTICES":7},"geometry":{"type":"Point","coordinates":[-81.3444555,48.4930105]}},{"type":"Feature","properties":{"ZIP":"P4N1R8","VERTICES":7},"geometry":{"type":"Point","coordinates":[-81.334203,48.464101]}},{"type":"Feature","properties":{"ZIP":"P4N2K1","VERTICES":7},"geometry":{"type":"Point","coordinates":[-81.328326,48.4758945]}},{"type":"Feature","properties":{"ZIP":"P4N3B7","VERTICES":7},"geometry":{"type":"Point","coordinates":[-81.3366125,48.4710345]}},{"type":"Feature","properties":{"ZIP":"P4N4T4","VERTICES":7},"geometry":{"type":"Point","coordinates":[-81.3481635,48.477547]}},{"type":"Feature","properties":{"ZIP":"P4N7L7","VERTICES":7},"geometry":{"type":"Point","coordinates":[-81.3579095,48.4790905]}},{"type":"Feature","properties":{"ZIP":"P4N1T9","VERTICES":7},"geometry":{"type":"Point","coordinates":[-81.33574999999999,48.469247499999994]}},{"type":"Feature","properties":{"ZIP":"P4N1Z8","VERTICES":7},"geometry":{"type":"Point","coordinates":[-81.3333605,48.483542]}},{"type":"Feature","properties":{"ZIP":"P4N2Y7","VERTICES":7},"geometry":{"type":"Point","coordinates":[-81.3400275,48.473186999999996]}},{"type":"Feature","properties":{"ZIP":"P4N3J9","VERTICES":7},"geometry":{"type":"Point","coordinates":[-81.3365945,48.4648755]}},{"type":"Feature","properties":{"ZIP":"P4N5T9","VERTICES":7},"geometry":{"type":"Point","coordinates":[-81.32405800000001,48.482288499999996]}},{"type":"Feature","properties":{"ZIP":"P4N6A8","VERTICES":7},"geometry":{"type":"Point","coordinates":[-81.3344535,48.471376]}},{"type":"Feature","properties":{"ZIP":"P4N6S4","VERTICES":7},"geometry":{"type":"Point","coordinates":[-81.3248375,48.4778055]}},{"type":"Feature","properties":{"ZIP":"P4N7B3","VERTICES":7},"geometry":{"type":"Point","coordinates":[-81.322124,48.486723]}},{"type":"Feature","properties":{"ZIP":"P4N7N9","VERTICES":7},"geometry":{"type":"Point","coordinates":[-81.3653245,48.4820765]}},{"type":"Feature","properties":{"ZIP":"P4N7V3","VERTICES":7},"geometry":{"type":"Point","coordinates":[-81.350488,48.4937805]}},{"type":"Feature","properties":{"ZIP":"P4N5G3","VERTICES":7},"geometry":{"type":"Point","coordinates":[-81.33879400000001,48.490445]}},{"type":"Feature","properties":{"ZIP":"P4N2X5","VERTICES":7},"geometry":{"type":"Point","coordinates":[-81.34251599999999,48.473902499999994]}},{"type":"Feature","properties":{"ZIP":"P4N3X5","VERTICES":7},"geometry":{"type":"Point","coordinates":[-81.3532535,48.4792305]}},{"type":"Feature","properties":{"ZIP":"P4N4T5","VERTICES":7},"geometry":{"type":"Point","coordinates":[-81.346578,48.478333500000005]}},{"type":"Feature","properties":{"ZIP":"P4N5Z3","VERTICES":7},"geometry":{"type":"Point","coordinates":[-81.3221375,48.488105000000004]}},{"type":"Feature","properties":{"ZIP":"P4N1V4","VERTICES":6},"geometry":{"type":"Point","coordinates":[-81.3357435,48.467699499999995]}},{"type":"Feature","properties":{"ZIP":"P4N1Z9","VERTICES":6},"geometry":{"type":"Point","coordinates":[-81.33336700000001,48.475894]}},{"type":"Feature","properties":{"ZIP":"P4N4N1","VERTICES":6},"geometry":{"type":"Point","coordinates":[-81.3418315,48.486902]}},{"type":"Feature","properties":{"ZIP":"P4N5B8","VERTICES":6},"geometry":{"type":"Point","coordinates":[-81.343487,48.47852]}},{"type":"Feature","properties":{"ZIP":"P4N5J9","VERTICES":6},"geometry":{"type":"Point","coordinates":[-81.3499465,48.490076]}},{"type":"Feature","properties":{"ZIP":"P4N6A9","VERTICES":6},"geometry":{"type":"Point","coordinates":[-81.3343895,48.480585000000005]}},{"type":"Feature","properties":{"ZIP":"P4N7V5","VERTICES":6},"geometry":{"type":"Point","coordinates":[-81.3588785,48.481762]}},{"type":"Feature","properties":{"ZIP":"P4N8J6","VERTICES":6},"geometry":{"type":"Point","coordinates":[-81.3613165,48.4818115]}},{"type":"Feature","properties":{"ZIP":"P4N1B6","VERTICES":6},"geometry":{"type":"Point","coordinates":[-81.332615,48.4765395]}},{"type":"Feature","properties":{"ZIP":"P4N2W3","VERTICES":6},"geometry":{"type":"Point","coordinates":[-81.34624299999999,48.474584500000006]}},{"type":"Feature","properties":{"ZIP":"P4N3V9","VERTICES":6},"geometry":{"type":"Point","coordinates":[-81.35642949999999,48.47692]}},{"type":"Feature","properties":{"ZIP":"P4N5X2","VERTICES":6},"geometry":{"type":"Point","coordinates":[-81.3254925,48.485952]}},{"type":"Feature","properties":{"ZIP":"P4N1Y8","VERTICES":6},"geometry":{"type":"Point","coordinates":[-81.33340050000001,48.4766075]}},{"type":"Feature","properties":{"ZIP":"P4N4Z9","VERTICES":6},"geometry":{"type":"Point","coordinates":[-81.341437,48.469392]}},{"type":"Feature","properties":{"ZIP":"P4N5Z4","VERTICES":6},"geometry":{"type":"Point","coordinates":[-81.3228215,48.488103]}},{"type":"Feature","properties":{"ZIP":"P4N6W1","VERTICES":6},"geometry":{"type":"Point","coordinates":[-81.318302,48.4870145]}},{"type":"Feature","properties":{"ZIP":"P4N7T1","VERTICES":6},"geometry":{"type":"Point","coordinates":[-81.334615,48.461976]}},{"type":"Feature","properties":{"ZIP":"P4N2A1","VERTICES":6},"geometry":{"type":"Point","coordinates":[-81.3333675,48.484194]}},{"type":"Feature","properties":{"ZIP":"P4N2L9","VERTICES":6},"geometry":{"type":"Point","coordinates":[-81.32836950000001,48.48784]}},{"type":"Feature","properties":{"ZIP":"P4N2Y9","VERTICES":6},"geometry":{"type":"Point","coordinates":[-81.34151,48.4732465]}},{"type":"Feature","properties":{"ZIP":"P4N3K2","VERTICES":6},"geometry":{"type":"Point","coordinates":[-81.3348095,48.464111]}},{"type":"Feature","properties":{"ZIP":"P4N4N3","VERTICES":6},"geometry":{"type":"Point","coordinates":[-81.3358455,48.488128]}},{"type":"Feature","properties":{"ZIP":"P4N5V2","VERTICES":6},"geometry":{"type":"Point","coordinates":[-81.32386500000001,48.4839495]}},{"type":"Feature","properties":{"ZIP":"P4N6H4","VERTICES":6},"geometry":{"type":"Point","coordinates":[-81.330713,48.468334999999996]}},{"type":"Feature","properties":{"ZIP":"P4N6M9","VERTICES":6},"geometry":{"type":"Point","coordinates":[-81.3271005,48.4758595]}},{"type":"Feature","properties":{"ZIP":"P4N8J7","VERTICES":6},"geometry":{"type":"Point","coordinates":[-81.3609635,48.4806855]}},{"type":"Feature","properties":{"ZIP":"P4N4C3","VERTICES":6},"geometry":{"type":"Point","coordinates":[-81.3588785,48.481762]}},{"type":"Feature","properties":{"ZIP":"P4N4Y6","VERTICES":6},"geometry":{"type":"Point","coordinates":[-81.3378185,48.484621000000004]}},{"type":"Feature","properties":{"ZIP":"P4N5X3","VERTICES":6},"geometry":{"type":"Point","coordinates":[-81.32418849999999,48.4859455]}},{"type":"Feature","properties":{"ZIP":"P4N6Y7","VERTICES":6},"geometry":{"type":"Point","coordinates":[-81.31988849999999,48.4843415]}},{"type":"Feature","properties":{"ZIP":"P4N7R5","VERTICES":6},"geometry":{"type":"Point","coordinates":[-81.3476435,48.4938715]}},{"type":"Feature","properties":{"ZIP":"P4N1G1","VERTICES":6},"geometry":{"type":"Point","coordinates":[-81.2988525,48.4755855]}},{"type":"Feature","properties":{"ZIP":"P4N2E4","VERTICES":6},"geometry":{"type":"Point","coordinates":[-81.3307655,48.47153]}},{"type":"Feature","properties":{"ZIP":"P4N2P9","VERTICES":6},"geometry":{"type":"Point","coordinates":[-81.324867,48.471456]}},{"type":"Feature","properties":{"ZIP":"P4N6W2","VERTICES":6},"geometry":{"type":"Point","coordinates":[-81.318303,48.4869235]}},{"type":"Feature","properties":{"ZIP":"P4N7T2","VERTICES":6},"geometry":{"type":"Point","coordinates":[-81.33078950000001,48.4626375]}},{"type":"Feature","properties":{"ZIP":"P4N8A6","VERTICES":6},"geometry":{"type":"Point","coordinates":[-81.3664295,48.476661500000006]}},{"type":"Feature","properties":{"ZIP":"P4N1V7","VERTICES":6},"geometry":{"type":"Point","coordinates":[-81.3348155,48.4697075]}},{"type":"Feature","properties":{"ZIP":"P4N2M1","VERTICES":6},"geometry":{"type":"Point","coordinates":[-81.328362,48.489028000000005]}},{"type":"Feature","properties":{"ZIP":"P4N3E3","VERTICES":6},"geometry":{"type":"Point","coordinates":[-81.338371,48.469595]}},{"type":"Feature","properties":{"ZIP":"P4N3K3","VERTICES":6},"geometry":{"type":"Point","coordinates":[-81.3347425,48.464107]}},{"type":"Feature","properties":{"ZIP":"P4N6S7","VERTICES":6},"geometry":{"type":"Point","coordinates":[-81.324826,48.4806085]}},{"type":"Feature","properties":{"ZIP":"P4N6X4","VERTICES":6},"geometry":{"type":"Point","coordinates":[-81.3207205,48.485422]}},{"type":"Feature","properties":{"ZIP":"P4N7B6","VERTICES":6},"geometry":{"type":"Point","coordinates":[-81.34003200000001,48.4669535]}},{"type":"Feature","properties":{"ZIP":"P4N1C3","VERTICES":6},"geometry":{"type":"Point","coordinates":[-81.323429,48.474933]}},{"type":"Feature","properties":{"ZIP":"P4N2N6","VERTICES":6},"geometry":{"type":"Point","coordinates":[-81.327164,48.4665675]}},{"type":"Feature","properties":{"ZIP":"P4N3A8","VERTICES":6},"geometry":{"type":"Point","coordinates":[-81.33660449999999,48.471743000000004]}},{"type":"Feature","properties":{"ZIP":"P4N4C5","VERTICES":6},"geometry":{"type":"Point","coordinates":[-81.359835,48.478421499999996]}},{"type":"Feature","properties":{"ZIP":"P4N5X4","VERTICES":6},"geometry":{"type":"Point","coordinates":[-81.323482,48.485946999999996]}},{"type":"Feature","properties":{"ZIP":"P4N6C6","VERTICES":6},"geometry":{"type":"Point","coordinates":[-81.3333725,48.48466]}},{"type":"Feature","properties":{"ZIP":"P4N6P3","VERTICES":6},"geometry":{"type":"Point","coordinates":[-81.32699600000001,48.4902225]}},{"type":"Feature","properties":{"ZIP":"P4N8L6","VERTICES":6},"geometry":{"type":"Point","coordinates":[-81.3308095,48.4664355]}},{"type":"Feature","properties":{"ZIP":"P4N2K8","VERTICES":6},"geometry":{"type":"Point","coordinates":[-81.32834,48.480920499999996]}},{"type":"Feature","properties":{"ZIP":"P4N3J2","VERTICES":6},"geometry":{"type":"Point","coordinates":[-81.338355,48.4674895]}},{"type":"Feature","properties":{"ZIP":"P4N6W3","VERTICES":6},"geometry":{"type":"Point","coordinates":[-81.323552,48.480322]}},{"type":"Feature","properties":{"ZIP":"P4N8A9","VERTICES":6},"geometry":{"type":"Point","coordinates":[-81.3220255,48.485333499999996]}},{"type":"Feature","properties":{"ZIP":"P4N2T7","VERTICES":6},"geometry":{"type":"Point","coordinates":[-81.34644750000001,48.4753475]}},{"type":"Feature","properties":{"ZIP":"P4N2Z2","VERTICES":6},"geometry":{"type":"Point","coordinates":[-81.343462,48.4732335]}},{"type":"Feature","properties":{"ZIP":"P4N4W8","VERTICES":6},"geometry":{"type":"Point","coordinates":[-81.33505500000001,48.486487499999996]}},{"type":"Feature","properties":{"ZIP":"P4N5C4","VERTICES":6},"geometry":{"type":"Point","coordinates":[-81.344132,48.47704]}},{"type":"Feature","properties":{"ZIP":"P4N5K6","VERTICES":6},"geometry":{"type":"Point","coordinates":[-81.3327985,48.477228499999995]}},{"type":"Feature","properties":{"ZIP":"P4N6S8","VERTICES":6},"geometry":{"type":"Point","coordinates":[-81.3248255,48.480655]}},{"type":"Feature","properties":{"ZIP":"P4N8J9","VERTICES":6},"geometry":{"type":"Point","coordinates":[-81.3615285,48.4828885]}},{"type":"Feature","properties":{"ZIP":"P4N2N7","VERTICES":6},"geometry":{"type":"Point","coordinates":[-81.327042,48.475758]}},{"type":"Feature","properties":{"ZIP":"P4N4K6","VERTICES":6},"geometry":{"type":"Point","coordinates":[-81.341213,48.4822315]}},{"type":"Feature","properties":{"ZIP":"P4N5X5","VERTICES":6},"geometry":{"type":"Point","coordinates":[-81.3230495,48.485944]}},{"type":"Feature","properties":{"ZIP":"P4N7K8","VERTICES":6},"geometry":{"type":"Point","coordinates":[-81.351528,48.4901855]}},{"type":"Feature","properties":{"ZIP":"P4N1H1","VERTICES":6},"geometry":{"type":"Point","coordinates":[-81.3018905,48.476440499999995]}},{"type":"Feature","properties":{"ZIP":"P4N1S9","VERTICES":6},"geometry":{"type":"Point","coordinates":[-81.335752,48.476087]}},{"type":"Feature","properties":{"ZIP":"P4N2K9","VERTICES":6},"geometry":{"type":"Point","coordinates":[-81.32834,48.48094]}},{"type":"Feature","properties":{"ZIP":"P4N2R4","VERTICES":6},"geometry":{"type":"Point","coordinates":[-81.339485,48.476085499999996]}},{"type":"Feature","properties":{"ZIP":"P4N2X9","VERTICES":6},"geometry":{"type":"Point","coordinates":[-81.34513749999999,48.473961]}},{"type":"Feature","properties":{"ZIP":"P4N3J3","VERTICES":6},"geometry":{"type":"Point","coordinates":[-81.3402705,48.467479999999995]}},{"type":"Feature","properties":{"ZIP":"P4N5S6","VERTICES":6},"geometry":{"type":"Point","coordinates":[-81.3244675,48.4811325]}},{"type":"Feature","properties":{"ZIP":"P4N7M3","VERTICES":6},"geometry":{"type":"Point","coordinates":[-81.36531,48.480716]}},{"type":"Feature","properties":{"ZIP":"P4N1K3","VERTICES":6},"geometry":{"type":"Point","coordinates":[-81.32863449999999,48.4709245]}},{"type":"Feature","properties":{"ZIP":"P4N4W9","VERTICES":6},"geometry":{"type":"Point","coordinates":[-81.335185,48.488629]}},{"type":"Feature","properties":{"ZIP":"P4N5C5","VERTICES":6},"geometry":{"type":"Point","coordinates":[-81.34408350000001,48.477962000000005]}},{"type":"Feature","properties":{"ZIP":"P4N5K7","VERTICES":6},"geometry":{"type":"Point","coordinates":[-81.332717,48.477228499999995]}},{"type":"Feature","properties":{"ZIP":"P4N7B8","VERTICES":6},"geometry":{"type":"Point","coordinates":[-81.33972750000001,48.465834]}},{"type":"Feature","properties":{"ZIP":"P4N2N8","VERTICES":6},"geometry":{"type":"Point","coordinates":[-81.327153,48.465841]}},{"type":"Feature","properties":{"ZIP":"P4N3W4","VERTICES":6},"geometry":{"type":"Point","coordinates":[-81.3615305,48.474734]}},{"type":"Feature","properties":{"ZIP":"P4N4Y9","VERTICES":6},"geometry":{"type":"Point","coordinates":[-81.3378025,48.4866825]}},{"type":"Feature","properties":{"ZIP":"P4N5X6","VERTICES":6},"geometry":{"type":"Point","coordinates":[-81.3209015,48.485956]}},{"type":"Feature","properties":{"ZIP":"P4N6C8","VERTICES":6},"geometry":{"type":"Point","coordinates":[-81.332059,48.4754155]}},{"type":"Feature","properties":{"ZIP":"P4N6V3","VERTICES":6},"geometry":{"type":"Point","coordinates":[-81.32352,48.47999]}},{"type":"Feature","properties":{"ZIP":"P4N2L1","VERTICES":6},"geometry":{"type":"Point","coordinates":[-81.328327,48.482754]}},{"type":"Feature","properties":{"ZIP":"P4N3J4","VERTICES":6},"geometry":{"type":"Point","coordinates":[-81.336889,48.466456]}},{"type":"Feature","properties":{"ZIP":"P4N4V1","VERTICES":6},"geometry":{"type":"Point","coordinates":[-81.34682000000001,48.4789605]}},{"type":"Feature","properties":{"ZIP":"P4N5A7","VERTICES":6},"geometry":{"type":"Point","coordinates":[-81.340451,48.4864815]}},{"type":"Feature","properties":{"ZIP":"P4N5J2","VERTICES":6},"geometry":{"type":"Point","coordinates":[-81.3442795,48.490331499999996]}},{"type":"Feature","properties":{"ZIP":"P4N6A3","VERTICES":6},"geometry":{"type":"Point","coordinates":[-81.33445449999999,48.475950499999996]}},{"type":"Feature","properties":{"ZIP":"P4N6R8","VERTICES":6},"geometry":{"type":"Point","coordinates":[-81.32587050000001,48.4870385]}},{"type":"Feature","properties":{"ZIP":"P4N7M4","VERTICES":6},"geometry":{"type":"Point","coordinates":[-81.3588875,48.480721]}},{"type":"Feature","properties":{"ZIP":"P4N8C7","VERTICES":6},"geometry":{"type":"Point","coordinates":[-81.359121,48.4792765]}},{"type":"Feature","properties":{"ZIP":"P4N1K4","VERTICES":6},"geometry":{"type":"Point","coordinates":[-81.32855,48.4709245]}},{"type":"Feature","properties":{"ZIP":"P4N2M4","VERTICES":6},"geometry":{"type":"Point","coordinates":[-81.32710900000001,48.473824]}},{"type":"Feature","properties":{"ZIP":"P4N2V2","VERTICES":6},"geometry":{"type":"Point","coordinates":[-81.3367345,48.474564]}},{"type":"Feature","properties":{"ZIP":"P4N2Z7","VERTICES":6},"geometry":{"type":"Point","coordinates":[-81.3370485,48.472552500000006]}},{"type":"Feature","properties":{"ZIP":"P4N3M7","VERTICES":6},"geometry":{"type":"Point","coordinates":[-81.3392785,48.474975]}},{"type":"Feature","properties":{"ZIP":"P4N4J4","VERTICES":6},"geometry":{"type":"Point","coordinates":[-81.342557,48.480703500000004]}},{"type":"Feature","properties":{"ZIP":"P4N6N4","VERTICES":6},"geometry":{"type":"Point","coordinates":[-81.3271915,48.469841]}},{"type":"Feature","properties":{"ZIP":"P4N6X8","VERTICES":6},"geometry":{"type":"Point","coordinates":[-81.32070949999999,48.4892865]}},{"type":"Feature","properties":{"ZIP":"P4N7P7","VERTICES":6},"geometry":{"type":"Point","coordinates":[-81.3667885,48.481006]}},{"type":"Feature","properties":{"ZIP":"P4N8K2","VERTICES":6},"geometry":{"type":"Point","coordinates":[-81.3607095,48.482256500000005]}},{"type":"Feature","properties":{"ZIP":"P4N1C8","VERTICES":6},"geometry":{"type":"Point","coordinates":[-81.294288,48.474612]}},{"type":"Feature","properties":{"ZIP":"P4N2N9","VERTICES":6},"geometry":{"type":"Point","coordinates":[-81.32704,48.4765845]}},{"type":"Feature","properties":{"ZIP":"P4N3H2","VERTICES":6},"geometry":{"type":"Point","coordinates":[-81.3368885,48.468160999999995]}},{"type":"Feature","properties":{"ZIP":"P4N4S6","VERTICES":6},"geometry":{"type":"Point","coordinates":[-81.3484385,48.4768315]}},{"type":"Feature","properties":{"ZIP":"P4N5Y1","VERTICES":6},"geometry":{"type":"Point","coordinates":[-81.334294,48.4881345]}},{"type":"Feature","properties":{"ZIP":"P4N6C9","VERTICES":6},"geometry":{"type":"Point","coordinates":[-81.332073,48.4761955]}},{"type":"Feature","properties":{"ZIP":"P4N6Z2","VERTICES":6},"geometry":{"type":"Point","coordinates":[-81.31948249999999,48.4874435]}},{"type":"Feature","properties":{"ZIP":"P4N1T4","VERTICES":6},"geometry":{"type":"Point","coordinates":[-81.3357405,48.4714695]}},{"type":"Feature","properties":{"ZIP":"P4N1Z4","VERTICES":6},"geometry":{"type":"Point","coordinates":[-81.333348,48.481885500000004]}},{"type":"Feature","properties":{"ZIP":"P4N4V2","VERTICES":6},"geometry":{"type":"Point","coordinates":[-81.3482535,48.478975000000005]}},{"type":"Feature","properties":{"ZIP":"P4N5T2","VERTICES":6},"geometry":{"type":"Point","coordinates":[-81.323211,48.478021]}},{"type":"Feature","properties":{"ZIP":"P4N6A4","VERTICES":6},"geometry":{"type":"Point","coordinates":[-81.334494,48.476113]}},{"type":"Feature","properties":{"ZIP":"P4N6G7","VERTICES":6},"geometry":{"type":"Point","coordinates":[-81.330824,48.4761125]}},{"type":"Feature","properties":{"ZIP":"P4N8C9","VERTICES":6},"geometry":{"type":"Point","coordinates":[-81.3608925,48.478609]}},{"type":"Feature","properties":{"ZIP":"P4N2A9","VERTICES":6},"geometry":{"type":"Point","coordinates":[-81.3320695,48.472255000000004]}},{"type":"Feature","properties":{"ZIP":"P4N2H1","VERTICES":6},"geometry":{"type":"Point","coordinates":[-81.329571,48.475785]}},{"type":"Feature","properties":{"ZIP":"P4N2M5","VERTICES":6},"geometry":{"type":"Point","coordinates":[-81.3270505,48.4742295]}},{"type":"Feature","properties":{"ZIP":"P4N5K9","VERTICES":6},"geometry":{"type":"Point","coordinates":[-81.33138249999999,48.477232]}},{"type":"Feature","properties":{"ZIP":"P4N6J2","VERTICES":6},"geometry":{"type":"Point","coordinates":[-81.32950249999999,48.4758995]}},{"type":"Feature","properties":{"ZIP":"P4N7P8","VERTICES":6},"geometry":{"type":"Point","coordinates":[-81.3664695,48.4826585]}},{"type":"Feature","properties":{"ZIP":"P4N1C9","VERTICES":6},"geometry":{"type":"Point","coordinates":[-81.29219850000001,48.474541]}},{"type":"Feature","properties":{"ZIP":"P4N1N8","VERTICES":6},"geometry":{"type":"Point","coordinates":[-81.3353875,48.466443999999996]}},{"type":"Feature","properties":{"ZIP":"P4N3H3","VERTICES":6},"geometry":{"type":"Point","coordinates":[-81.3365995,48.468227999999996]}},{"type":"Feature","properties":{"ZIP":"P4N4E1","VERTICES":6},"geometry":{"type":"Point","coordinates":[-81.367492,48.475416]}},{"type":"Feature","properties":{"ZIP":"P4N5Y2","VERTICES":6},"geometry":{"type":"Point","coordinates":[-81.3336165,48.4881335]}},{"type":"Feature","properties":{"ZIP":"P4N6E1","VERTICES":6},"geometry":{"type":"Point","coordinates":[-81.3320775,48.4759645]}},{"type":"Feature","properties":{"ZIP":"P4N7L2","VERTICES":6},"geometry":{"type":"Point","coordinates":[-81.36428649999999,48.480990000000006]}},{"type":"Feature","properties":{"ZIP":"P4N7Z4","VERTICES":6},"geometry":{"type":"Point","coordinates":[-81.335711,48.462286500000005]}},{"type":"Feature","properties":{"ZIP":"P4N1T5","VERTICES":6},"geometry":{"type":"Point","coordinates":[-81.3357445,48.471344]}},{"type":"Feature","properties":{"ZIP":"P4N2L3","VERTICES":6},"geometry":{"type":"Point","coordinates":[-81.328321,48.4842755]}},{"type":"Feature","properties":{"ZIP":"P4N6A5","VERTICES":6},"geometry":{"type":"Point","coordinates":[-81.3343885,48.477586]}},{"type":"Feature","properties":{"ZIP":"P4N1L7","VERTICES":6},"geometry":{"type":"Point","coordinates":[-81.3281805,48.469684]}},{"type":"Feature","properties":{"ZIP":"P4N2H2","VERTICES":6},"geometry":{"type":"Point","coordinates":[-81.32957099999999,48.4759685]}},{"type":"Feature","properties":{"ZIP":"P4N6Y1","VERTICES":6},"geometry":{"type":"Point","coordinates":[-81.3207125,48.490027999999995]}},{"type":"Feature","properties":{"ZIP":"P4N3H4","VERTICES":6},"geometry":{"type":"Point","coordinates":[-81.3383595,48.468160499999996]}},{"type":"Feature","properties":{"ZIP":"P4N4L1","VERTICES":6},"geometry":{"type":"Point","coordinates":[-81.33891,48.4828575]}},{"type":"Feature","properties":{"ZIP":"P4N6E2","VERTICES":6},"geometry":{"type":"Point","coordinates":[-81.3320695,48.4721945]}},{"type":"Feature","properties":{"ZIP":"P4N7S6","VERTICES":6},"geometry":{"type":"Point","coordinates":[-81.33213649999999,48.4621675]}},{"type":"Feature","properties":{"ZIP":"P4N1T6","VERTICES":6},"geometry":{"type":"Point","coordinates":[-81.3357555,48.470254499999996]}},{"type":"Feature","properties":{"ZIP":"P4N2L4","VERTICES":6},"geometry":{"type":"Point","coordinates":[-81.3283215,48.484413]}},{"type":"Feature","properties":{"ZIP":"P4N3C7","VERTICES":6},"geometry":{"type":"Point","coordinates":[-81.338308,48.4703045]}},{"type":"Feature","properties":{"ZIP":"P4N5B4","VERTICES":6},"geometry":{"type":"Point","coordinates":[-81.34187800000001,48.482476000000005]}},{"type":"Feature","properties":{"ZIP":"P4N5T5","VERTICES":6},"geometry":{"type":"Point","coordinates":[-81.32344,48.4787605]}},{"type":"Feature","properties":{"ZIP":"P4N6W8","VERTICES":6},"geometry":{"type":"Point","coordinates":[-81.323631,48.483283]}},{"type":"Feature","properties":{"ZIP":"P4N7B1","VERTICES":6},"geometry":{"type":"Point","coordinates":[-81.3215035,48.489905]}},{"type":"Feature","properties":{"ZIP":"P4N1L8","VERTICES":6},"geometry":{"type":"Point","coordinates":[-81.327805,48.469682500000005]}},{"type":"Feature","properties":{"ZIP":"P4N4J9","VERTICES":6},"geometry":{"type":"Point","coordinates":[-81.342439,48.481449999999995]}},{"type":"Feature","properties":{"ZIP":"P4N5W8","VERTICES":6},"geometry":{"type":"Point","coordinates":[-81.3288275,48.485938000000004]}},{"type":"Feature","properties":{"ZIP":"P4N6Y3","VERTICES":6},"geometry":{"type":"Point","coordinates":[-81.3227315,48.48152949999999]}},{"type":"Feature","properties":{"ZIP":"P4N7W9","VERTICES":6},"geometry":{"type":"Point","coordinates":[-81.6308425,48.583048000000005]}},{"type":"Feature","properties":{"ZIP":"P4N8K7","VERTICES":6},"geometry":{"type":"Point","coordinates":[-81.3430865,48.492427]}},{"type":"Feature","properties":{"ZIP":"P4N2J9","VERTICES":6},"geometry":{"type":"Point","coordinates":[-81.3283925,48.475935]}},{"type":"Feature","properties":{"ZIP":"P4N6Z9","VERTICES":6},"geometry":{"type":"Point","coordinates":[-81.32122100000001,48.480094]}},{"type":"Feature","properties":{"ZIP":"P4N2L5","VERTICES":6},"geometry":{"type":"Point","coordinates":[-81.3284185,48.4759035]}},{"type":"Feature","properties":{"ZIP":"P4N4A6","VERTICES":6},"geometry":{"type":"Point","coordinates":[-81.35540950000001,48.478151999999994]}},{"type":"Feature","properties":{"ZIP":"P4N4H5","VERTICES":6},"geometry":{"type":"Point","coordinates":[-81.336394,48.480292]}},{"type":"Feature","properties":{"ZIP":"P4N5B5","VERTICES":6},"geometry":{"type":"Point","coordinates":[-81.343527,48.4776655]}},{"type":"Feature","properties":{"ZIP":"P4N7N8","VERTICES":6},"geometry":{"type":"Point","coordinates":[-81.3493795,48.492999999999995]}},{"type":"Feature","properties":{"ZIP":"P4N8J2","VERTICES":6},"geometry":{"type":"Point","coordinates":[-81.34544,48.492098999999996]}},{"type":"Feature","properties":{"ZIP":"P4N1A7","VERTICES":6},"geometry":{"type":"Point","coordinates":[-81.3337715,48.4760875]}},{"type":"Feature","properties":{"ZIP":"P4N2B3","VERTICES":6},"geometry":{"type":"Point","coordinates":[-81.33205699999999,48.470275]}},{"type":"Feature","properties":{"ZIP":"P4N2W1","VERTICES":6},"geometry":{"type":"Point","coordinates":[-81.3443485,48.4745865]}},{"type":"Feature","properties":{"ZIP":"P4N5E3","VERTICES":6},"geometry":{"type":"Point","coordinates":[-81.34508,48.478002000000004]}},{"type":"Feature","properties":{"ZIP":"P4N5W9","VERTICES":6},"geometry":{"type":"Point","coordinates":[-81.32789199999999,48.485938000000004]}},{"type":"Feature","properties":{"ZIP":"P4N7X9","VERTICES":6},"geometry":{"type":"Point","coordinates":[-81.333423,48.4618755]}},{"type":"Feature","properties":{"ZIP":"P4N2P5","VERTICES":6},"geometry":{"type":"Point","coordinates":[-81.3254125,48.467365]}},{"type":"Feature","properties":{"ZIP":"P4N7S8","VERTICES":6},"geometry":{"type":"Point","coordinates":[-81.3433115,48.479904000000005]}},{"type":"Feature","properties":{"ZIP":"P4N2G3","VERTICES":6},"geometry":{"type":"Point","coordinates":[-81.33067550000001,48.4646365]}},{"type":"Feature","properties":{"ZIP":"P4N2L6","VERTICES":6},"geometry":{"type":"Point","coordinates":[-81.328351,48.476006]}},{"type":"Feature","properties":{"ZIP":"P4N4A7","VERTICES":6},"geometry":{"type":"Point","coordinates":[-81.35540950000001,48.478151999999994]}},{"type":"Feature","properties":{"ZIP":"P4N6M7","VERTICES":6},"geometry":{"type":"Point","coordinates":[-81.326994,48.4759495]}},{"type":"Feature","properties":{"ZIP":"P4N6X1","VERTICES":6},"geometry":{"type":"Point","coordinates":[-81.3220175,48.484055]}},{"type":"Feature","properties":{"ZIP":"P4N1M6","VERTICES":6},"geometry":{"type":"Point","coordinates":[-81.3277435,48.4685115]}},{"type":"Feature","properties":{"ZIP":"P4N2N2","VERTICES":6},"geometry":{"type":"Point","coordinates":[-81.3271885,48.468937999999994]}},{"type":"Feature","properties":{"ZIP":"P4N5X1","VERTICES":6},"geometry":{"type":"Point","coordinates":[-81.3263855,48.485946]}},{"type":"Feature","properties":{"ZIP":"P4N6Y5","VERTICES":6},"geometry":{"type":"Point","coordinates":[-81.32154750000001,48.4829515]}},{"type":"Feature","properties":{"ZIP":"P4N7Y1","VERTICES":6},"geometry":{"type":"Point","coordinates":[-81.3335055,48.462118000000004]}},{"type":"Feature","properties":{"ZIP":"P4N2K3","VERTICES":6},"geometry":{"type":"Point","coordinates":[-81.3283715,48.475958]}},{"type":"Feature","properties":{"ZIP":"P4N2P6","VERTICES":6},"geometry":{"type":"Point","coordinates":[-81.32559,48.469513]}},{"type":"Feature","properties":{"ZIP":"P4N3B8","VERTICES":6},"geometry":{"type":"Point","coordinates":[-81.3367135,48.4710985]}},{"type":"Feature","properties":{"ZIP":"P4N4G3","VERTICES":6},"geometry":{"type":"Point","coordinates":[-81.34096299999999,48.4779185]}},{"type":"Feature","properties":{"ZIP":"P4N6E5","VERTICES":6},"geometry":{"type":"Point","coordinates":[-81.332065,48.4715655]}},{"type":"Feature","properties":{"ZIP":"P4N7L8","VERTICES":6},"geometry":{"type":"Point","coordinates":[-81.3637565,48.480477]}},{"type":"Feature","properties":{"ZIP":"P4N8R2","VERTICES":6},"geometry":{"type":"Point","coordinates":[-81.3568265,48.484033499999995]}},{"type":"Feature","properties":{"ZIP":"P4N2L7","VERTICES":5},"geometry":{"type":"Point","coordinates":[-81.3283505,48.4656405]}},{"type":"Feature","properties":{"ZIP":"P4N6X2","VERTICES":5},"geometry":{"type":"Point","coordinates":[-81.32132849999999,48.484534]}},{"type":"Feature","properties":{"ZIP":"P4N1M7","VERTICES":5},"geometry":{"type":"Point","coordinates":[-81.3278895,48.4685135]}},{"type":"Feature","properties":{"ZIP":"P4N2N3","VERTICES":5},"geometry":{"type":"Point","coordinates":[-81.327182,48.467915500000004]}},{"type":"Feature","properties":{"ZIP":"P4N4C2","VERTICES":5},"geometry":{"type":"Point","coordinates":[-81.35778250000001,48.479231999999996]}},{"type":"Feature","properties":{"ZIP":"P4N4R4","VERTICES":5},"geometry":{"type":"Point","coordinates":[-81.3536105,48.490967]}},{"type":"Feature","properties":{"ZIP":"P4N7K5","VERTICES":5},"geometry":{"type":"Point","coordinates":[-81.365677,48.479729500000005]}},{"type":"Feature","properties":{"ZIP":"P4N7Y2","VERTICES":5},"geometry":{"type":"Point","coordinates":[-81.3344525,48.462151]}},{"type":"Feature","properties":{"ZIP":"P4N1S4","VERTICES":5},"geometry":{"type":"Point","coordinates":[-81.3356785,48.475324]}},{"type":"Feature","properties":{"ZIP":"P4N4G4","VERTICES":5},"geometry":{"type":"Point","coordinates":[-81.34173999999999,48.4779585]}},{"type":"Feature","properties":{"ZIP":"P4N4L5","VERTICES":5},"geometry":{"type":"Point","coordinates":[-81.3391925,48.484282]}},{"type":"Feature","properties":{"ZIP":"P4N4T6","VERTICES":5},"geometry":{"type":"Point","coordinates":[-81.346864,48.478266000000005]}},{"type":"Feature","properties":{"ZIP":"P4N5R3","VERTICES":5},"geometry":{"type":"Point","coordinates":[-81.3339,48.481213]}},{"type":"Feature","properties":{"ZIP":"P4N7L9","VERTICES":5},"geometry":{"type":"Point","coordinates":[-81.36378049999999,48.480477]}},{"type":"Feature","properties":{"ZIP":"P4N8A1","VERTICES":5},"geometry":{"type":"Point","coordinates":[-81.33547250000001,48.4902355]}},{"type":"Feature","properties":{"ZIP":"P4N1V5","VERTICES":5},"geometry":{"type":"Point","coordinates":[-81.33574300000001,48.467785]}},{"type":"Feature","properties":{"ZIP":"P4N2G5","VERTICES":5},"geometry":{"type":"Point","coordinates":[-81.3296355,48.475772]}},{"type":"Feature","properties":{"ZIP":"P4N3E2","VERTICES":5},"geometry":{"type":"Point","coordinates":[-81.336509,48.469590999999994]}},{"type":"Feature","properties":{"ZIP":"P4N4A9","VERTICES":5},"geometry":{"type":"Point","coordinates":[-81.355413,48.478590499999996]}},{"type":"Feature","properties":{"ZIP":"P4N4H8","VERTICES":5},"geometry":{"type":"Point","coordinates":[-81.336588,48.481184999999996]}},{"type":"Feature","properties":{"ZIP":"P4N5B9","VERTICES":5},"geometry":{"type":"Point","coordinates":[-81.343355,48.479288]}},{"type":"Feature","properties":{"ZIP":"P4N6B1","VERTICES":5},"geometry":{"type":"Point","coordinates":[-81.334496,48.476116000000005]}},{"type":"Feature","properties":{"ZIP":"P4N2B6","VERTICES":5},"geometry":{"type":"Point","coordinates":[-81.33204900000001,48.4689755]}},{"type":"Feature","properties":{"ZIP":"P4N2H9","VERTICES":5},"geometry":{"type":"Point","coordinates":[-81.3295305,48.466762]}},{"type":"Feature","properties":{"ZIP":"P4N6T9","VERTICES":5},"geometry":{"type":"Point","coordinates":[-81.324074,48.478573499999996]}},{"type":"Feature","properties":{"ZIP":"P4N7Y3","VERTICES":5},"geometry":{"type":"Point","coordinates":[-81.33445449999999,48.4622415]}},{"type":"Feature","properties":{"ZIP":"P4N2X7","VERTICES":5},"geometry":{"type":"Point","coordinates":[-81.3440045,48.473902499999994]}},{"type":"Feature","properties":{"ZIP":"P4N4T7","VERTICES":5},"geometry":{"type":"Point","coordinates":[-81.347955,48.478266500000004]}},{"type":"Feature","properties":{"ZIP":"P4N5A3","VERTICES":5},"geometry":{"type":"Point","coordinates":[-81.3405255,48.4842545]}},{"type":"Feature","properties":{"ZIP":"P4N5R4","VERTICES":5},"geometry":{"type":"Point","coordinates":[-81.33270949999999,48.4812075]}},{"type":"Feature","properties":{"ZIP":"P4N7M1","VERTICES":5},"geometry":{"type":"Point","coordinates":[-81.3631685,48.4804805]}},{"type":"Feature","properties":{"ZIP":"P4N8R8","VERTICES":5},"geometry":{"type":"Point","coordinates":[-81.443386,48.445543]}},{"type":"Feature","properties":{"ZIP":"P4N2G6","VERTICES":5},"geometry":{"type":"Point","coordinates":[-81.329479,48.4759945]}},{"type":"Feature","properties":{"ZIP":"P4N2T6","VERTICES":5},"geometry":{"type":"Point","coordinates":[-81.344312,48.475344]}},{"type":"Feature","properties":{"ZIP":"P4N4B1","VERTICES":5},"geometry":{"type":"Point","coordinates":[-81.3568375,48.4771655]}},{"type":"Feature","properties":{"ZIP":"P4N4N5","VERTICES":5},"geometry":{"type":"Point","coordinates":[-81.33753250000001,48.4893065]}},{"type":"Feature","properties":{"ZIP":"P4N2W5","VERTICES":5},"geometry":{"type":"Point","coordinates":[-81.3482425,48.4745835]}},{"type":"Feature","properties":{"ZIP":"P4N3G7","VERTICES":5},"geometry":{"type":"Point","coordinates":[-81.34196850000001,48.468905]}},{"type":"Feature","properties":{"ZIP":"P4N4K5","VERTICES":5},"geometry":{"type":"Point","coordinates":[-81.3411515,48.4822305]}},{"type":"Feature","properties":{"ZIP":"P4N4Y7","VERTICES":5},"geometry":{"type":"Point","coordinates":[-81.337795,48.4856145]}},{"type":"Feature","properties":{"ZIP":"P4N1G9","VERTICES":5},"geometry":{"type":"Point","coordinates":[-81.3018905,48.476440499999995]}},{"type":"Feature","properties":{"ZIP":"P4N2R3","VERTICES":5},"geometry":{"type":"Point","coordinates":[-81.33686399999999,48.476131499999994]}},{"type":"Feature","properties":{"ZIP":"P4N4T8","VERTICES":5},"geometry":{"type":"Point","coordinates":[-81.3482925,48.478266500000004]}},{"type":"Feature","properties":{"ZIP":"P4N6E9","VERTICES":5},"geometry":{"type":"Point","coordinates":[-81.3320075,48.4644825]}},{"type":"Feature","properties":{"ZIP":"P4N2G7","VERTICES":5},"geometry":{"type":"Point","coordinates":[-81.3296275,48.475967999999995]}},{"type":"Feature","properties":{"ZIP":"P4N2M2","VERTICES":5},"geometry":{"type":"Point","coordinates":[-81.328442,48.4895195]}},{"type":"Feature","properties":{"ZIP":"P4N3K4","VERTICES":5},"geometry":{"type":"Point","coordinates":[-81.3353095,48.4641075]}},{"type":"Feature","properties":{"ZIP":"P4N4N6","VERTICES":5},"geometry":{"type":"Point","coordinates":[-81.3372225,48.4892385]}},{"type":"Feature","properties":{"ZIP":"P4N6H7","VERTICES":5},"geometry":{"type":"Point","coordinates":[-81.3307345,48.464149500000005]}},{"type":"Feature","properties":{"ZIP":"P4N2W6","VERTICES":5},"geometry":{"type":"Point","coordinates":[-81.3482425,48.4745835]}},{"type":"Feature","properties":{"ZIP":"P4N3A9","VERTICES":5},"geometry":{"type":"Point","coordinates":[-81.336872,48.471807999999996]}},{"type":"Feature","properties":{"ZIP":"P4N3W3","VERTICES":5},"geometry":{"type":"Point","coordinates":[-81.367122,48.474233]}},{"type":"Feature","properties":{"ZIP":"P4N4C7","VERTICES":5},"geometry":{"type":"Point","coordinates":[-81.36636949999999,48.4750865]}},{"type":"Feature","properties":{"ZIP":"P4N4Y8","VERTICES":5},"geometry":{"type":"Point","coordinates":[-81.337797,48.486661999999995]}},{"type":"Feature","properties":{"ZIP":"P4N4M1","VERTICES":5},"geometry":{"type":"Point","coordinates":[-81.33855600000001,48.485255]}},{"type":"Feature","properties":{"ZIP":"P4N6G5","VERTICES":5},"geometry":{"type":"Point","coordinates":[-81.330808,48.4757315]}},{"type":"Feature","properties":{"ZIP":"P4N6W4","VERTICES":5},"geometry":{"type":"Point","coordinates":[-81.3235525,48.480287]}},{"type":"Feature","properties":{"ZIP":"P4N7T4","VERTICES":5},"geometry":{"type":"Point","coordinates":[-81.33415450000001,48.461919]}},{"type":"Feature","properties":{"ZIP":"P4N8C6","VERTICES":5},"geometry":{"type":"Point","coordinates":[-81.3591545,48.4792975]}},{"type":"Feature","properties":{"ZIP":"P4N2A6","VERTICES":5},"geometry":{"type":"Point","coordinates":[-81.33206799999999,48.474382000000006]}},{"type":"Feature","properties":{"ZIP":"P4N2G8","VERTICES":5},"geometry":{"type":"Point","coordinates":[-81.329502,48.474859]}},{"type":"Feature","properties":{"ZIP":"P4N2T9","VERTICES":5},"geometry":{"type":"Point","coordinates":[-81.34874099999999,48.475343499999994]}},{"type":"Feature","properties":{"ZIP":"P4N2Z6","VERTICES":5},"geometry":{"type":"Point","coordinates":[-81.33660499999999,48.472486]}},{"type":"Feature","properties":{"ZIP":"P4N3L2","VERTICES":5},"geometry":{"type":"Point","coordinates":[-81.337474,48.4721155]}},{"type":"Feature","properties":{"ZIP":"P4N6H8","VERTICES":5},"geometry":{"type":"Point","coordinates":[-81.32961599999999,48.476281]}},{"type":"Feature","properties":{"ZIP":"P4N1N6","VERTICES":5},"geometry":{"type":"Point","coordinates":[-81.32433900000001,48.466696]}},{"type":"Feature","properties":{"ZIP":"P4N3B2","VERTICES":5},"geometry":{"type":"Point","coordinates":[-81.3386845,48.471739]}},{"type":"Feature","properties":{"ZIP":"P4N3G9","VERTICES":5},"geometry":{"type":"Point","coordinates":[-81.33508699999999,48.468156500000006]}},{"type":"Feature","properties":{"ZIP":"P4N4C8","VERTICES":5},"geometry":{"type":"Point","coordinates":[-81.36761,48.474551]}},{"type":"Feature","properties":{"ZIP":"P4N4A2","VERTICES":5},"geometry":{"type":"Point","coordinates":[-81.3554905,48.478032999999996]}},{"type":"Feature","properties":{"ZIP":"P4N7T6","VERTICES":5},"geometry":{"type":"Point","coordinates":[-81.342685,48.480705]}},{"type":"Feature","properties":{"ZIP":"P4N1W6","VERTICES":5},"geometry":{"type":"Point","coordinates":[-81.3344375,48.4761695]}},{"type":"Feature","properties":{"ZIP":"P4N2G9","VERTICES":5},"geometry":{"type":"Point","coordinates":[-81.32956200000001,48.476058]}},{"type":"Feature","properties":{"ZIP":"P4N4X1","VERTICES":5},"geometry":{"type":"Point","coordinates":[-81.3350365,48.4875385]}},{"type":"Feature","properties":{"ZIP":"P4N5C8","VERTICES":5},"geometry":{"type":"Point","coordinates":[-81.3452465,48.4763295]}},{"type":"Feature","properties":{"ZIP":"P4N6J1","VERTICES":5},"geometry":{"type":"Point","coordinates":[-81.32959650000001,48.4759065]}},{"type":"Feature","properties":{"ZIP":"P4N1N7","VERTICES":5},"geometry":{"type":"Point","coordinates":[-81.3349225,48.466426]}},{"type":"Feature","properties":{"ZIP":"P4N3W7","VERTICES":5},"geometry":{"type":"Point","coordinates":[-81.3557015,48.477789]}},{"type":"Feature","properties":{"ZIP":"P4N8M1","VERTICES":5},"geometry":{"type":"Point","coordinates":[-81.3312075,48.467458]}},{"type":"Feature","properties":{"ZIP":"P4N2L2","VERTICES":5},"geometry":{"type":"Point","coordinates":[-81.3283235,48.4833525]}},{"type":"Feature","properties":{"ZIP":"P4N2Y3","VERTICES":5},"geometry":{"type":"Point","coordinates":[-81.3369745,48.473271499999996]}},{"type":"Feature","properties":{"ZIP":"P4N3C5","VERTICES":5},"geometry":{"type":"Point","coordinates":[-81.3367345,48.470293999999996]}},{"type":"Feature","properties":{"ZIP":"P4N3J5","VERTICES":5},"geometry":{"type":"Point","coordinates":[-81.336597,48.4657995]}},{"type":"Feature","properties":{"ZIP":"P4N4G9","VERTICES":5},"geometry":{"type":"Point","coordinates":[-81.33673250000001,48.479791500000005]}},{"type":"Feature","properties":{"ZIP":"P4N1K8","VERTICES":5},"geometry":{"type":"Point","coordinates":[-81.32514950000001,48.470836000000006]}},{"type":"Feature","properties":{"ZIP":"P4N2V7","VERTICES":5},"geometry":{"type":"Point","coordinates":[-81.3402035,48.4745765]}},{"type":"Feature","properties":{"ZIP":"P4N3N3","VERTICES":5},"geometry":{"type":"Point","coordinates":[-81.33932999999999,48.4725775]}},{"type":"Feature","properties":{"ZIP":"P4N4B6","VERTICES":5},"geometry":{"type":"Point","coordinates":[-81.35683399999999,48.4798815]}},{"type":"Feature","properties":{"ZIP":"P4N5C9","VERTICES":5},"geometry":{"type":"Point","coordinates":[-81.34519399999999,48.477224]}},{"type":"Feature","properties":{"ZIP":"P4N1Y1","VERTICES":5},"geometry":{"type":"Point","coordinates":[-81.33443349999999,48.4655495]}},{"type":"Feature","properties":{"ZIP":"P4N2C3","VERTICES":5},"geometry":{"type":"Point","coordinates":[-81.33207300000001,48.4647265]}},{"type":"Feature","properties":{"ZIP":"P4N2P1","VERTICES":5},"geometry":{"type":"Point","coordinates":[-81.327144,48.465396999999996]}},{"type":"Feature","properties":{"ZIP":"P4N4Z2","VERTICES":5},"geometry":{"type":"Point","coordinates":[-81.337752,48.488895]}},{"type":"Feature","properties":{"ZIP":"P4N6K5","VERTICES":5},"geometry":{"type":"Point","coordinates":[-81.329532,48.476301]}},{"type":"Feature","properties":{"ZIP":"P4N8M3","VERTICES":5},"geometry":{"type":"Point","coordinates":[-81.318352,48.48801]}},{"type":"Feature","properties":{"ZIP":"P4N3J6","VERTICES":5},"geometry":{"type":"Point","coordinates":[-81.33685349999999,48.465863999999996]}},{"type":"Feature","properties":{"ZIP":"P4N4A4","VERTICES":5},"geometry":{"type":"Point","coordinates":[-81.3554025,48.477331500000005]}},{"type":"Feature","properties":{"ZIP":"P4N5T4","VERTICES":5},"geometry":{"type":"Point","coordinates":[-81.323093,48.4787825]}},{"type":"Feature","properties":{"ZIP":"P4N6S1","VERTICES":5},"geometry":{"type":"Point","coordinates":[-81.32592349999999,48.4884695]}},{"type":"Feature","properties":{"ZIP":"P4N7T8","VERTICES":5},"geometry":{"type":"Point","coordinates":[-81.352877,48.4904215]}},{"type":"Feature","properties":{"ZIP":"P4N1W8","VERTICES":5},"geometry":{"type":"Point","coordinates":[-81.334382,48.4765525]}},{"type":"Feature","properties":{"ZIP":"P4N2M7","VERTICES":5},"geometry":{"type":"Point","coordinates":[-81.3271625,48.4720435]}},{"type":"Feature","properties":{"ZIP":"P4N3N8","VERTICES":5},"geometry":{"type":"Point","coordinates":[-81.3392585,48.4711355]}},{"type":"Feature","properties":{"ZIP":"P4N4J8","VERTICES":5},"geometry":{"type":"Point","coordinates":[-81.34206549999999,48.481446000000005]}},{"type":"Feature","properties":{"ZIP":"P4N4X3","VERTICES":5},"geometry":{"type":"Point","coordinates":[-81.33667299999999,48.487541500000006]}},{"type":"Feature","properties":{"ZIP":"P4N5E1","VERTICES":5},"geometry":{"type":"Point","coordinates":[-81.3450725,48.477269500000006]}},{"type":"Feature","properties":{"ZIP":"P4N5L1","VERTICES":5},"geometry":{"type":"Point","coordinates":[-81.33019350000001,48.4771665]}},{"type":"Feature","properties":{"ZIP":"P4N7W7","VERTICES":5},"geometry":{"type":"Point","coordinates":[-81.3390835,48.462950500000005]}},{"type":"Feature","properties":{"ZIP":"P4N1E2","VERTICES":5},"geometry":{"type":"Point","coordinates":[-81.2906105,48.474502]}},{"type":"Feature","properties":{"ZIP":"P4N1P2","VERTICES":5},"geometry":{"type":"Point","coordinates":[-81.327887,48.4659205]}},{"type":"Feature","properties":{"ZIP":"P4N1Y2","VERTICES":5},"geometry":{"type":"Point","coordinates":[-81.3343745,48.464526]}},{"type":"Feature","properties":{"ZIP":"P4N2P2","VERTICES":5},"geometry":{"type":"Point","coordinates":[-81.32713799999999,48.46486]}},{"type":"Feature","properties":{"ZIP":"P4N4T2","VERTICES":5},"geometry":{"type":"Point","coordinates":[-81.346913,48.477610999999996]}},{"type":"Feature","properties":{"ZIP":"P4N5Y4","VERTICES":5},"geometry":{"type":"Point","coordinates":[-81.33052599999999,48.488163]}},{"type":"Feature","properties":{"ZIP":"P4N6K6","VERTICES":5},"geometry":{"type":"Point","coordinates":[-81.3282725,48.477659]}},{"type":"Feature","properties":{"ZIP":"P4N8M7","VERTICES":5},"geometry":{"type":"Point","coordinates":[-81.332876,48.489579500000005]}},{"type":"Feature","properties":{"ZIP":"P4N2G1","VERTICES":5},"geometry":{"type":"Point","coordinates":[-81.33068800000001,48.4662305]}},{"type":"Feature","properties":{"ZIP":"P4N2S9","VERTICES":5},"geometry":{"type":"Point","coordinates":[-81.338064,48.475350000000006]}},{"type":"Feature","properties":{"ZIP":"P4N4A5","VERTICES":5},"geometry":{"type":"Point","coordinates":[-81.355404,48.477448]}},{"type":"Feature","properties":{"ZIP":"P4N1A5","VERTICES":5},"geometry":{"type":"Point","coordinates":[-81.335678,48.476083]}},{"type":"Feature","properties":{"ZIP":"P4N2V9","VERTICES":5},"geometry":{"type":"Point","coordinates":[-81.3430935,48.4745535]}},{"type":"Feature","properties":{"ZIP":"P4N3P4","VERTICES":5},"geometry":{"type":"Point","coordinates":[-81.339237,48.467825500000004]}},{"type":"Feature","properties":{"ZIP":"P4N5L2","VERTICES":5},"geometry":{"type":"Point","coordinates":[-81.330088,48.473729]}},{"type":"Feature","properties":{"ZIP":"P4N1E3","VERTICES":5},"geometry":{"type":"Point","coordinates":[-81.291066,48.4745135]}},{"type":"Feature","properties":{"ZIP":"P4N1P6","VERTICES":5},"geometry":{"type":"Point","coordinates":[-81.335048,48.465809]}},{"type":"Feature","properties":{"ZIP":"P4N3B6","VERTICES":5},"geometry":{"type":"Point","coordinates":[-81.34248249999999,48.471743000000004]}},{"type":"Feature","properties":{"ZIP":"P4N5Y5","VERTICES":5},"geometry":{"type":"Point","coordinates":[-81.32992250000001,48.488128]}},{"type":"Feature","properties":{"ZIP":"P4N7Z6","VERTICES":5},"geometry":{"type":"Point","coordinates":[-81.335931,48.4624865]}},{"type":"Feature","properties":{"ZIP":"P4N8N1","VERTICES":5},"geometry":{"type":"Point","coordinates":[-81.3357425,48.470027]}},{"type":"Feature","properties":{"ZIP":"P4N1J5","VERTICES":5},"geometry":{"type":"Point","coordinates":[-81.332518,48.470923]}},{"type":"Feature","properties":{"ZIP":"P4N1T7","VERTICES":5},"geometry":{"type":"Point","coordinates":[-81.3357585,48.470614999999995]}},{"type":"Feature","properties":{"ZIP":"P4N2G2","VERTICES":5},"geometry":{"type":"Point","coordinates":[-81.330807,48.486565999999996]}},{"type":"Feature","properties":{"ZIP":"P4N2T1","VERTICES":5},"geometry":{"type":"Point","coordinates":[-81.339901,48.475352]}},{"type":"Feature","properties":{"ZIP":"P4N5T8","VERTICES":5},"geometry":{"type":"Point","coordinates":[-81.3241835,48.482288499999996]}},{"type":"Feature","properties":{"ZIP":"P4N6M5","VERTICES":5},"geometry":{"type":"Point","coordinates":[-81.32843,48.4899215]}},{"type":"Feature","properties":{"ZIP":"P4N1M4","VERTICES":5},"geometry":{"type":"Point","coordinates":[-81.3289675,48.468451]}},{"type":"Feature","properties":{"ZIP":"P4N3S7","VERTICES":5},"geometry":{"type":"Point","coordinates":[-81.343467,48.4732065]}},{"type":"Feature","properties":{"ZIP":"P4N7H1","VERTICES":5},"geometry":{"type":"Point","coordinates":[-81.33328850000001,48.454641]}},{"type":"Feature","properties":{"ZIP":"P4N1E5","VERTICES":5},"geometry":{"type":"Point","coordinates":[-81.3297575,48.473727]}},{"type":"Feature","properties":{"ZIP":"P4N1Y6","VERTICES":5},"geometry":{"type":"Point","coordinates":[-81.333372,48.4762335]}},{"type":"Feature","properties":{"ZIP":"P4N2C7","VERTICES":5},"geometry":{"type":"Point","coordinates":[-81.3308805,48.475942]}},{"type":"Feature","properties":{"ZIP":"P4N4L3","VERTICES":5},"geometry":{"type":"Point","coordinates":[-81.33921000000001,48.483352]}},{"type":"Feature","properties":{"ZIP":"P4N5H5","VERTICES":5},"geometry":{"type":"Point","coordinates":[-81.343212,48.486321000000004]}},{"type":"Feature","properties":{"ZIP":"P4N8P2","VERTICES":5},"geometry":{"type":"Point","coordinates":[-81.3176225,48.486177]}},{"type":"Feature","properties":{"ZIP":"P4N2T2","VERTICES":5},"geometry":{"type":"Point","coordinates":[-81.340098,48.475351]}},{"type":"Feature","properties":{"ZIP":"P4N4M8","VERTICES":5},"geometry":{"type":"Point","coordinates":[-81.335864,48.487015]}},{"type":"Feature","properties":{"ZIP":"P4N4W1","VERTICES":5},"geometry":{"type":"Point","coordinates":[-81.33510749999999,48.4808355]}},{"type":"Feature","properties":{"ZIP":"P4N1B5","VERTICES":5},"geometry":{"type":"Point","coordinates":[-81.324822,48.47628]}},{"type":"Feature","properties":{"ZIP":"P4N3G4","VERTICES":5},"geometry":{"type":"Point","coordinates":[-81.338478,48.468905]}},{"type":"Feature","properties":{"ZIP":"P4N3T7","VERTICES":5},"geometry":{"type":"Point","coordinates":[-81.345495,48.472901]}},{"type":"Feature","properties":{"ZIP":"P4N4Y2","VERTICES":5},"geometry":{"type":"Point","coordinates":[-81.33782550000001,48.4824195]}},{"type":"Feature","properties":{"ZIP":"P4N1E8","VERTICES":5},"geometry":{"type":"Point","coordinates":[-81.300282,48.4756355]}},{"type":"Feature","properties":{"ZIP":"P4N1Y7","VERTICES":5},"geometry":{"type":"Point","coordinates":[-81.333348,48.4757205]}},{"type":"Feature","properties":{"ZIP":"P4N2G4","VERTICES":4},"geometry":{"type":"Point","coordinates":[-81.32945050000001,48.475705500000004]}},{"type":"Feature","properties":{"ZIP":"P4N2T3","VERTICES":4},"geometry":{"type":"Point","coordinates":[-81.342221,48.4753465]}},{"type":"Feature","properties":{"ZIP":"P4N5V1","VERTICES":4},"geometry":{"type":"Point","coordinates":[-81.32288249999999,48.4822915]}},{"type":"Feature","properties":{"ZIP":"P4N6S5","VERTICES":4},"geometry":{"type":"Point","coordinates":[-81.324829,48.479251000000005]}},{"type":"Feature","properties":{"ZIP":"P4N1G0","VERTICES":4},"geometry":{"type":"Point","coordinates":[-81.2854925,48.472982]}},{"type":"Feature","properties":{"ZIP":"P4N3H8","VERTICES":4},"geometry":{"type":"Point","coordinates":[-81.34178600000001,48.4681595]}},{"type":"Feature","properties":{"ZIP":"P4N6S6","VERTICES":4},"geometry":{"type":"Point","coordinates":[-81.324829,48.479251]}},{"type":"Feature","properties":{"ZIP":"P4N1N2","VERTICES":4},"geometry":{"type":"Point","coordinates":[-81.328,48.467459500000004]}},{"type":"Feature","properties":{"ZIP":"P4N1S6","VERTICES":4},"geometry":{"type":"Point","coordinates":[-81.33574250000001,48.4751265]}},{"type":"Feature","properties":{"ZIP":"P4N5Z8","VERTICES":4},"geometry":{"type":"Point","coordinates":[-81.320849,48.489209]}},{"type":"Feature","properties":{"ZIP":"P4N1J9","VERTICES":4},"geometry":{"type":"Point","coordinates":[-81.3305735,48.4709175]}},{"type":"Feature","properties":{"ZIP":"P4N2Z1","VERTICES":4},"geometry":{"type":"Point","coordinates":[-81.34375349999999,48.4731625]}},{"type":"Feature","properties":{"ZIP":"P4N1N4","VERTICES":4},"geometry":{"type":"Point","coordinates":[-81.32611399999999,48.4675055]}},{"type":"Feature","properties":{"ZIP":"P4N2J1","VERTICES":4},"geometry":{"type":"Point","coordinates":[-81.329527,48.466149]}},{"type":"Feature","properties":{"ZIP":"P4N7Y6","VERTICES":4},"geometry":{"type":"Point","coordinates":[-81.34794,48.4903615]}},{"type":"Feature","properties":{"ZIP":"P4N4L8","VERTICES":4},"geometry":{"type":"Point","coordinates":[-81.3411885,48.484294000000006]}},{"type":"Feature","properties":{"ZIP":"P4N5A4","VERTICES":4},"geometry":{"type":"Point","coordinates":[-81.341425,48.46819000000001]}},{"type":"Feature","properties":{"ZIP":"P4N5Z9","VERTICES":4},"geometry":{"type":"Point","coordinates":[-81.320847,48.489209]}},{"type":"Feature","properties":{"ZIP":"P4N1V9","VERTICES":4},"geometry":{"type":"Point","coordinates":[-81.335731,48.465513]}},{"type":"Feature","properties":{"ZIP":"P4N2A3","VERTICES":4},"geometry":{"type":"Point","coordinates":[-81.333371,48.4845385]}},{"type":"Feature","properties":{"ZIP":"P4N5V8","VERTICES":4},"geometry":{"type":"Point","coordinates":[-81.31544600000001,48.4848715]}},{"type":"Feature","properties":{"ZIP":"P4N6B3","VERTICES":4},"geometry":{"type":"Point","coordinates":[-81.333343,48.47664]}},{"type":"Feature","properties":{"ZIP":"P4N6X5","VERTICES":4},"geometry":{"type":"Point","coordinates":[-81.320708,48.487171000000004]}},{"type":"Feature","properties":{"ZIP":"P4N1N5","VERTICES":4},"geometry":{"type":"Point","coordinates":[-81.3261305,48.4673705]}},{"type":"Feature","properties":{"ZIP":"P4N6P5","VERTICES":4},"geometry":{"type":"Point","coordinates":[-81.325965,48.47925]}},{"type":"Feature","properties":{"ZIP":"P4N5W3","VERTICES":4},"geometry":{"type":"Point","coordinates":[-81.33061699999999,48.4868855]}},{"type":"Feature","properties":{"ZIP":"P4N6B4","VERTICES":4},"geometry":{"type":"Point","coordinates":[-81.333343,48.476214999999996]}},{"type":"Feature","properties":{"ZIP":"P4N6X6","VERTICES":4},"geometry":{"type":"Point","coordinates":[-81.320708,48.487658499999995]}},{"type":"Feature","properties":{"ZIP":"P4N6P6","VERTICES":4},"geometry":{"type":"Point","coordinates":[-81.325965,48.47925]}},{"type":"Feature","properties":{"ZIP":"P4N1H5","VERTICES":4},"geometry":{"type":"Point","coordinates":[-81.32986299999999,48.471909999999994]}},{"type":"Feature","properties":{"ZIP":"P4N8S6","VERTICES":4},"geometry":{"type":"Point","coordinates":[-81.3175795,48.4766475]}},{"type":"Feature","properties":{"ZIP":"P4N4B5","VERTICES":4},"geometry":{"type":"Point","coordinates":[-81.35685,48.4783135]}},{"type":"Feature","properties":{"ZIP":"P4N5K8","VERTICES":4},"geometry":{"type":"Point","coordinates":[-81.331275,48.4772325]}},{"type":"Feature","properties":{"ZIP":"P4N1H7","VERTICES":4},"geometry":{"type":"Point","coordinates":[-81.325152,48.471997]}},{"type":"Feature","properties":{"ZIP":"P4N7T7","VERTICES":4},"geometry":{"type":"Point","coordinates":[-81.34567849999999,48.4797035]}},{"type":"Feature","properties":{"ZIP":"P4N4J6","VERTICES":4},"geometry":{"type":"Point","coordinates":[-81.34160499999999,48.481508000000005]}},{"type":"Feature","properties":{"ZIP":"P4N5W6","VERTICES":4},"geometry":{"type":"Point","coordinates":[-81.33003450000001,48.4868875]}},{"type":"Feature","properties":{"ZIP":"P4N6X9","VERTICES":4},"geometry":{"type":"Point","coordinates":[-81.320718,48.4892095]}},{"type":"Feature","properties":{"ZIP":"P4N3X1","VERTICES":4},"geometry":{"type":"Point","coordinates":[-81.3550935,48.478804499999995]}},{"type":"Feature","properties":{"ZIP":"P4N7S3","VERTICES":4},"geometry":{"type":"Point","coordinates":[-81.346428,48.493721]}},{"type":"Feature","properties":{"ZIP":"P4N1H8","VERTICES":4},"geometry":{"type":"Point","coordinates":[-81.32463200000001,48.472105]}},{"type":"Feature","properties":{"ZIP":"P4N2S7","VERTICES":4},"geometry":{"type":"Point","coordinates":[-81.340939,48.476381]}},{"type":"Feature","properties":{"ZIP":"P4N5W7","VERTICES":4},"geometry":{"type":"Point","coordinates":[-81.32976,48.4868885]}},{"type":"Feature","properties":{"ZIP":"P4N6T3","VERTICES":4},"geometry":{"type":"Point","coordinates":[-81.324852,48.483122]}},{"type":"Feature","properties":{"ZIP":"P4N3X2","VERTICES":4},"geometry":{"type":"Point","coordinates":[-81.3551635,48.478804499999995]}},{"type":"Feature","properties":{"ZIP":"P4N4Z3","VERTICES":4},"geometry":{"type":"Point","coordinates":[-81.337768,48.490266]}},{"type":"Feature","properties":{"ZIP":"P4N1J1","VERTICES":4},"geometry":{"type":"Point","coordinates":[-81.3355745,48.4709215]}},{"type":"Feature","properties":{"ZIP":"P4N4V4","VERTICES":4},"geometry":{"type":"Point","coordinates":[-81.3489975,48.478983]}},{"type":"Feature","properties":{"ZIP":"P4N4X5","VERTICES":4},"geometry":{"type":"Point","coordinates":[-81.3379635,48.478342]}},{"type":"Feature","properties":{"ZIP":"P4N7E2","VERTICES":4},"geometry":{"type":"Point","coordinates":[-81.342837,48.4707335]}},{"type":"Feature","properties":{"ZIP":"P4N3X3","VERTICES":4},"geometry":{"type":"Point","coordinates":[-81.354773,48.4788695]}},{"type":"Feature","properties":{"ZIP":"P4N4Z4","VERTICES":4},"geometry":{"type":"Point","coordinates":[-81.337768,48.4903325]}},{"type":"Feature","properties":{"ZIP":"P4N5P1","VERTICES":4},"geometry":{"type":"Point","coordinates":[-81.331485,48.480087999999995]}},{"type":"Feature","properties":{"ZIP":"P4N6K8","VERTICES":4},"geometry":{"type":"Point","coordinates":[-81.328338,48.47768]}},{"type":"Feature","properties":{"ZIP":"P4N2N1","VERTICES":4},"geometry":{"type":"Point","coordinates":[-81.327195,48.4702255]}},{"type":"Feature","properties":{"ZIP":"P4N4X8","VERTICES":4},"geometry":{"type":"Point","coordinates":[-81.337822,48.480676]}},{"type":"Feature","properties":{"ZIP":"P4N3X4","VERTICES":4},"geometry":{"type":"Point","coordinates":[-81.35413199999999,48.4788025]}},{"type":"Feature","properties":{"ZIP":"P4N4E9","VERTICES":4},"geometry":{"type":"Point","coordinates":[-81.33833,48.478688500000004]}},{"type":"Feature","properties":{"ZIP":"P4N5Z1","VERTICES":4},"geometry":{"type":"Point","coordinates":[-81.3247695,48.488119]}},{"type":"Feature","properties":{"ZIP":"P4N4C1","VERTICES":4},"geometry":{"type":"Point","coordinates":[-81.356826,48.481897000000004]}},{"type":"Feature","properties":{"ZIP":"P4N5P7","VERTICES":4},"geometry":{"type":"Point","coordinates":[-81.33049650000001,48.4801205]}},{"type":"Feature","properties":{"ZIP":"P4N6R3","VERTICES":4},"geometry":{"type":"Point","coordinates":[-81.325973,48.48227]}},{"type":"Feature","properties":{"ZIP":"P4N7C9","VERTICES":3},"geometry":{"type":"Point","coordinates":[-81.3379955,48.471556]}}]}