{"type":"FeatureCollection","features":[{"type":"Feature","properties":{"ZIP":"T2Z0E9"},"geometry":{"type":"Point","coordinates":[-113.958557,50.9078365]}},{"type":"Feature","properties":{"ZIP":"T2Z2G3"},"geometry":{"type":"Point","coordinates":[-113.988855,50.9453515]}},{"type":"Feature","properties":{"ZIP":"T2Z4X6"},"geometry":{"type":"Point","coordinates":[-113.9308305,50.9111495]}},{"type":"Feature","properties":{"ZIP":"T2Z2J2"},"geometry":{"type":"Point","coordinates":[-113.97789449999999,50.915122]}},{"type":"Feature","properties":{"ZIP":"T2Z2H8"},"geometry":{"type":"Point","coordinates":[-113.986447,50.9383285]}},{"type":"Feature","properties":{"ZIP":"T2Z2P3"},"geometry":{"type":"Point","coordinates":[-113.987446,50.938209]}},{"type":"Feature","properties":{"ZIP":"T2Z0C7"},"geometry":{"type":"Point","coordinates":[-113.9510935,50.922706500000004]}},{"type":"Feature","properties":{"ZIP":"T2Z2K8"},"geometry":{"type":"Point","coordinates":[-114.0034475,50.9406155]}},{"type":"Feature","properties":{"ZIP":"T2Z4T6"},"geometry":{"type":"Point","coordinates":[-113.96847299999999,50.9059855]}},{"type":"Feature","properties":{"ZIP":"T2Z2Z6"},"geometry":{"type":"Point","coordinates":[-113.9941465,50.9021355]}},{"type":"Feature","properties":{"ZIP":"T2Z1K7"},"geometry":{"type":"Point","coordinates":[-114.009564,50.947340999999994]}},{"type":"Feature","properties":{"ZIP":"T2Z2J4"},"geometry":{"type":"Point","coordinates":[-114.00866500000001,50.943597499999996]}},{"type":"Feature","properties":{"ZIP":"T2Z0R1"},"geometry":{"type":"Point","coordinates":[-113.9410525,50.9193385]}},{"type":"Feature","properties":{"ZIP":"T2Z1M4"},"geometry":{"type":"Point","coordinates":[-113.9811015,50.911052999999995]}},{"type":"Feature","properties":{"ZIP":"T2Z4L6"},"geometry":{"type":"Point","coordinates":[-113.9432015,50.911923]}},{"type":"Feature","properties":{"ZIP":"T2Z4Z9"},"geometry":{"type":"Point","coordinates":[-113.965546,50.904841000000005]}},{"type":"Feature","properties":{"ZIP":"T2Z4G3"},"geometry":{"type":"Point","coordinates":[-113.959772,50.9108005]}},{"type":"Feature","properties":{"ZIP":"T2Z2J1"},"geometry":{"type":"Point","coordinates":[-113.97754,50.913112]}},{"type":"Feature","properties":{"ZIP":"T2Z0H8"},"geometry":{"type":"Point","coordinates":[-113.932219,50.9136175]}},{"type":"Feature","properties":{"ZIP":"T2Z2J3"},"geometry":{"type":"Point","coordinates":[-113.9780035,50.913985499999995]}},{"type":"Feature","properties":{"ZIP":"T2Z2H4"},"geometry":{"type":"Point","coordinates":[-113.9805585,50.9147685]}},{"type":"Feature","properties":{"ZIP":"T2Z2N4"},"geometry":{"type":"Point","coordinates":[-113.993375,50.9042965]}},{"type":"Feature","properties":{"ZIP":"T2Z1L1"},"geometry":{"type":"Point","coordinates":[-113.98205200000001,50.909737]}},{"type":"Feature","properties":{"ZIP":"T2Z1V4"},"geometry":{"type":"Point","coordinates":[-113.9876195,50.904227]}},{"type":"Feature","properties":{"ZIP":"T2Z4E8"},"geometry":{"type":"Point","coordinates":[-113.9599015,50.911088]}},{"type":"Feature","properties":{"ZIP":"T2Z2G4"},"geometry":{"type":"Point","coordinates":[-113.98611650000001,50.944953]}},{"type":"Feature","properties":{"ZIP":"T2Z4B3"},"geometry":{"type":"Point","coordinates":[-113.94694949999999,50.9214965]}},{"type":"Feature","properties":{"ZIP":"T2Z2V5"},"geometry":{"type":"Point","coordinates":[-113.9777085,50.9248015]}},{"type":"Feature","properties":{"ZIP":"T2Z0G1"},"geometry":{"type":"Point","coordinates":[-113.95482150000001,50.9080145]}},{"type":"Feature","properties":{"ZIP":"T2Z1V7"},"geometry":{"type":"Point","coordinates":[-114.00931399999999,50.946345]}},{"type":"Feature","properties":{"ZIP":"T2Z2K2"},"geometry":{"type":"Point","coordinates":[-114.007466,50.9448705]}},{"type":"Feature","properties":{"ZIP":"T2Z2G8"},"geometry":{"type":"Point","coordinates":[-113.991894,50.9068455]}},{"type":"Feature","properties":{"ZIP":"T2Z1Y5"},"geometry":{"type":"Point","coordinates":[-113.98776699999999,50.9002375]}},{"type":"Feature","properties":{"ZIP":"T2Z2X6"},"geometry":{"type":"Point","coordinates":[-113.96862899999999,50.914536999999996]}},{"type":"Feature","properties":{"ZIP":"T2Z4R1"},"geometry":{"type":"Point","coordinates":[-113.9648045,50.908468]}},{"type":"Feature","properties":{"ZIP":"T2Z1W1"},"geometry":{"type":"Point","coordinates":[-113.987888,50.903992]}},{"type":"Feature","properties":{"ZIP":"T2Z3G7"},"geometry":{"type":"Point","coordinates":[-113.9883755,50.917660999999995]}},{"type":"Feature","properties":{"ZIP":"T2Z0H9"},"geometry":{"type":"Point","coordinates":[-113.9317095,50.9136015]}},{"type":"Feature","properties":{"ZIP":"T2Z1T9"},"geometry":{"type":"Point","coordinates":[-113.98760899999999,50.904070000000004]}},{"type":"Feature","properties":{"ZIP":"T2Z2L7"},"geometry":{"type":"Point","coordinates":[-113.978612,50.92107]}},{"type":"Feature","properties":{"ZIP":"T2Z3G9"},"geometry":{"type":"Point","coordinates":[-113.9804585,50.928232]}},{"type":"Feature","properties":{"ZIP":"T2Z4N9"},"geometry":{"type":"Point","coordinates":[-113.9492285,50.918172]}},{"type":"Feature","properties":{"ZIP":"T2Z2A4"},"geometry":{"type":"Point","coordinates":[-113.9938665,50.942319]}},{"type":"Feature","properties":{"ZIP":"T2Z2J7"},"geometry":{"type":"Point","coordinates":[-113.97896,50.919032]}},{"type":"Feature","properties":{"ZIP":"T2Z3E7"},"geometry":{"type":"Point","coordinates":[-113.9822935,50.910389]}},{"type":"Feature","properties":{"ZIP":"T2Z4Y3"},"geometry":{"type":"Point","coordinates":[-113.96540949999999,50.923872]}},{"type":"Feature","properties":{"ZIP":"T2Z3N8"},"geometry":{"type":"Point","coordinates":[-113.9797145,50.929511]}},{"type":"Feature","properties":{"ZIP":"T2Z3Z7"},"geometry":{"type":"Point","coordinates":[-113.9701595,50.9191625]}},{"type":"Feature","properties":{"ZIP":"T2Z4B4"},"geometry":{"type":"Point","coordinates":[-113.9557455,50.9213805]}},{"type":"Feature","properties":{"ZIP":"T2Z3H4"},"geometry":{"type":"Point","coordinates":[-113.97847300000001,50.929388]}},{"type":"Feature","properties":{"ZIP":"T2Z4H7"},"geometry":{"type":"Point","coordinates":[-113.9677495,50.926597]}},{"type":"Feature","properties":{"ZIP":"T2Z2C3"},"geometry":{"type":"Point","coordinates":[-114.009777,50.945547]}},{"type":"Feature","properties":{"ZIP":"T2Z1Z6"},"geometry":{"type":"Point","coordinates":[-113.993078,50.942387]}},{"type":"Feature","properties":{"ZIP":"T2Z2C4"},"geometry":{"type":"Point","coordinates":[-114.009671,50.9462405]}},{"type":"Feature","properties":{"ZIP":"T2Z2M6"},"geometry":{"type":"Point","coordinates":[-113.98305049999999,50.920658]}},{"type":"Feature","properties":{"ZIP":"T2Z0C8"},"geometry":{"type":"Point","coordinates":[-113.951999,50.922561]}},{"type":"Feature","properties":{"ZIP":"T2Z3C8"},"geometry":{"type":"Point","coordinates":[-113.9839535,50.9263435]}},{"type":"Feature","properties":{"ZIP":"T2Z0V8"},"geometry":{"type":"Point","coordinates":[-113.9445025,50.9219595]}},{"type":"Feature","properties":{"ZIP":"T2Z1L6"},"geometry":{"type":"Point","coordinates":[-114.000311,50.9428495]}},{"type":"Feature","properties":{"ZIP":"T2Z3P3"},"geometry":{"type":"Point","coordinates":[-113.9839005,50.9256675]}},{"type":"Feature","properties":{"ZIP":"T2Z4W4"},"geometry":{"type":"Point","coordinates":[-113.95118500000001,50.9221855]}},{"type":"Feature","properties":{"ZIP":"T2Z3K2"},"geometry":{"type":"Point","coordinates":[-113.9721105,50.91331649999999]}},{"type":"Feature","properties":{"ZIP":"T2Z4G6"},"geometry":{"type":"Point","coordinates":[-113.95018250000001,50.918014]}},{"type":"Feature","properties":{"ZIP":"T2Z2C7"},"geometry":{"type":"Point","coordinates":[-114.0105125,50.9471485]}},{"type":"Feature","properties":{"ZIP":"T2Z3B9"},"geometry":{"type":"Point","coordinates":[-113.977709,50.926043]}},{"type":"Feature","properties":{"ZIP":"T2Z3N3"},"geometry":{"type":"Point","coordinates":[-113.9781965,50.9293715]}},{"type":"Feature","properties":{"ZIP":"T2Z4M6"},"geometry":{"type":"Point","coordinates":[-113.949623,50.918839000000006]}},{"type":"Feature","properties":{"ZIP":"T2Z4E5"},"geometry":{"type":"Point","coordinates":[-113.9666665,50.9225355]}},{"type":"Feature","properties":{"ZIP":"T2Z1X7"},"geometry":{"type":"Point","coordinates":[-114.008892,50.9461055]}},{"type":"Feature","properties":{"ZIP":"T2Z0T4"},"geometry":{"type":"Point","coordinates":[-113.9391995,50.9191765]}},{"type":"Feature","properties":{"ZIP":"T2Z2J6"},"geometry":{"type":"Point","coordinates":[-113.98011149999999,50.91864700000001]}},{"type":"Feature","properties":{"ZIP":"T2Z0P8"},"geometry":{"type":"Point","coordinates":[-113.939607,50.918769999999995]}},{"type":"Feature","properties":{"ZIP":"T2Z2M1"},"geometry":{"type":"Point","coordinates":[-113.9793005,50.9204335]}},{"type":"Feature","properties":{"ZIP":"T2Z2N5"},"geometry":{"type":"Point","coordinates":[-113.99225,50.904574499999995]}},{"type":"Feature","properties":{"ZIP":"T2Z4W9"},"geometry":{"type":"Point","coordinates":[-113.9420205,50.911570999999995]}},{"type":"Feature","properties":{"ZIP":"T2Z1M3"},"geometry":{"type":"Point","coordinates":[-113.98055,50.9038135]}},{"type":"Feature","properties":{"ZIP":"T2Z2H6"},"geometry":{"type":"Point","coordinates":[-113.994855,50.943461]}},{"type":"Feature","properties":{"ZIP":"T2Z2R9"},"geometry":{"type":"Point","coordinates":[-113.98703499999999,50.939014]}},{"type":"Feature","properties":{"ZIP":"T2Z3B3"},"geometry":{"type":"Point","coordinates":[-113.985605,50.93334]}},{"type":"Feature","properties":{"ZIP":"T2Z4C6"},"geometry":{"type":"Point","coordinates":[-113.94494,50.910428499999995]}},{"type":"Feature","properties":{"ZIP":"T2Z2P8"},"geometry":{"type":"Point","coordinates":[-114.038705,50.940935499999995]}},{"type":"Feature","properties":{"ZIP":"T2Z3R3"},"geometry":{"type":"Point","coordinates":[-113.995582,50.8997985]}},{"type":"Feature","properties":{"ZIP":"T2Z4Y4"},"geometry":{"type":"Point","coordinates":[-113.9661365,50.926815000000005]}},{"type":"Feature","properties":{"ZIP":"T2Z3M6"},"geometry":{"type":"Point","coordinates":[-114.0029065,50.9541145]}},{"type":"Feature","properties":{"ZIP":"T2Z4K2"},"geometry":{"type":"Point","coordinates":[-113.949423,50.9181275]}},{"type":"Feature","properties":{"ZIP":"T2Z3C6"},"geometry":{"type":"Point","coordinates":[-113.9956425,50.9024565]}},{"type":"Feature","properties":{"ZIP":"T2Z4X2"},"geometry":{"type":"Point","coordinates":[-113.9426325,50.9182195]}},{"type":"Feature","properties":{"ZIP":"T2Z2P9"},"geometry":{"type":"Point","coordinates":[-113.9864515,50.914482]}},{"type":"Feature","properties":{"ZIP":"T2Z3X4"},"geometry":{"type":"Point","coordinates":[-113.967204,50.9243795]}},{"type":"Feature","properties":{"ZIP":"T2Z0Y7"},"geometry":{"type":"Point","coordinates":[-113.945402,50.9246445]}},{"type":"Feature","properties":{"ZIP":"T2Z4K3"},"geometry":{"type":"Point","coordinates":[-113.9669845,50.925523999999996]}},{"type":"Feature","properties":{"ZIP":"T2Z1P9"},"geometry":{"type":"Point","coordinates":[-113.98008300000001,50.903807]}},{"type":"Feature","properties":{"ZIP":"T2Z0L3"},"geometry":{"type":"Point","coordinates":[-113.92970550000001,50.917256]}},{"type":"Feature","properties":{"ZIP":"T2Z2R1"},"geometry":{"type":"Point","coordinates":[-113.9914375,50.936848999999995]}},{"type":"Feature","properties":{"ZIP":"T2Z3R5"},"geometry":{"type":"Point","coordinates":[-113.983867,50.925257]}},{"type":"Feature","properties":{"ZIP":"T2Z3X5"},"geometry":{"type":"Point","coordinates":[-113.967501,50.9238835]}},{"type":"Feature","properties":{"ZIP":"T2Z3M9"},"geometry":{"type":"Point","coordinates":[-113.980163,50.928941]}},{"type":"Feature","properties":{"ZIP":"T2Z3P2"},"geometry":{"type":"Point","coordinates":[-113.9842525,50.926508999999996]}},{"type":"Feature","properties":{"ZIP":"T2Z2R2"},"geometry":{"type":"Point","coordinates":[-113.98864,50.9360035]}},{"type":"Feature","properties":{"ZIP":"T2Z4Y7"},"geometry":{"type":"Point","coordinates":[-113.96737350000001,50.9228745]}},{"type":"Feature","properties":{"ZIP":"T2Z1T6"},"geometry":{"type":"Point","coordinates":[-113.988187,50.9047165]}},{"type":"Feature","properties":{"ZIP":"T2Z4E2"},"geometry":{"type":"Point","coordinates":[-113.9674095,50.922163999999995]}},{"type":"Feature","properties":{"ZIP":"T2Z2C6"},"geometry":{"type":"Point","coordinates":[-114.010769,50.9486105]}},{"type":"Feature","properties":{"ZIP":"T2Z2M8"},"geometry":{"type":"Point","coordinates":[-114.01002600000001,50.9522615]}},{"type":"Feature","properties":{"ZIP":"T2Z2P2"},"geometry":{"type":"Point","coordinates":[-113.981027,50.911474999999996]}},{"type":"Feature","properties":{"ZIP":"T2Z0G5"},"geometry":{"type":"Point","coordinates":[-113.9286185,50.914474999999996]}},{"type":"Feature","properties":{"ZIP":"T2Z2L6"},"geometry":{"type":"Point","coordinates":[-113.978949,50.9201125]}},{"type":"Feature","properties":{"ZIP":"T2Z3R9"},"geometry":{"type":"Point","coordinates":[-113.983799,50.9265855]}},{"type":"Feature","properties":{"ZIP":"T2Z4J3"},"geometry":{"type":"Point","coordinates":[-113.9547,50.921705]}},{"type":"Feature","properties":{"ZIP":"T2Z3P5"},"geometry":{"type":"Point","coordinates":[-113.9671295,50.9110875]}},{"type":"Feature","properties":{"ZIP":"T2Z3S1"},"geometry":{"type":"Point","coordinates":[-113.984725,50.9264955]}},{"type":"Feature","properties":{"ZIP":"T2Z4C2"},"geometry":{"type":"Point","coordinates":[-113.943882,50.9103615]}},{"type":"Feature","properties":{"ZIP":"T2Z4N8"},"geometry":{"type":"Point","coordinates":[-113.950965,50.918026]}},{"type":"Feature","properties":{"ZIP":"T2Z1Y8"},"geometry":{"type":"Point","coordinates":[-113.98715250000001,50.9016255]}},{"type":"Feature","properties":{"ZIP":"T2Z2C8"},"geometry":{"type":"Point","coordinates":[-114.0077,50.945371]}},{"type":"Feature","properties":{"ZIP":"T2Z3K7"},"geometry":{"type":"Point","coordinates":[-113.9655065,50.912681]}},{"type":"Feature","properties":{"ZIP":"T2Z3P6"},"geometry":{"type":"Point","coordinates":[-113.967547,50.911055000000005]}},{"type":"Feature","properties":{"ZIP":"T2Z4M7"},"geometry":{"type":"Point","coordinates":[-113.94949299999999,50.918505499999995]}},{"type":"Feature","properties":{"ZIP":"T2Z2H3"},"geometry":{"type":"Point","coordinates":[-113.98251049999999,50.913673]}},{"type":"Feature","properties":{"ZIP":"T2Z0T3"},"geometry":{"type":"Point","coordinates":[-113.94133,50.919533]}},{"type":"Feature","properties":{"ZIP":"T2Z2J5"},"geometry":{"type":"Point","coordinates":[-114.008884,50.945722]}},{"type":"Feature","properties":{"ZIP":"T2Z2S8"},"geometry":{"type":"Point","coordinates":[-113.98578549999999,50.938857]}},{"type":"Feature","properties":{"ZIP":"T2Z3N5"},"geometry":{"type":"Point","coordinates":[-113.9799755,50.929127]}},{"type":"Feature","properties":{"ZIP":"T2Z4R6"},"geometry":{"type":"Point","coordinates":[-113.942257,50.9115985]}},{"type":"Feature","properties":{"ZIP":"T2Z0E4"},"geometry":{"type":"Point","coordinates":[-113.95033649999999,50.921396]}},{"type":"Feature","properties":{"ZIP":"T2Z4A9"},"geometry":{"type":"Point","coordinates":[-113.9662785,50.905624]}},{"type":"Feature","properties":{"ZIP":"T2Z4H1"},"geometry":{"type":"Point","coordinates":[-113.96725950000001,50.90612]}},{"type":"Feature","properties":{"ZIP":"T2Z2R7"},"geometry":{"type":"Point","coordinates":[-113.985104,50.9198665]}},{"type":"Feature","properties":{"ZIP":"T2Z2E1"},"geometry":{"type":"Point","coordinates":[-113.987358,50.901436000000004]}},{"type":"Feature","properties":{"ZIP":"T2Z3N6"},"geometry":{"type":"Point","coordinates":[-113.980002,50.928945]}},{"type":"Feature","properties":{"ZIP":"T2Z4W8"},"geometry":{"type":"Point","coordinates":[-113.9404165,50.9115865]}},{"type":"Feature","properties":{"ZIP":"T2Z3B2"},"geometry":{"type":"Point","coordinates":[-113.992621,50.943763000000004]}},{"type":"Feature","properties":{"ZIP":"T2Z4P5"},"geometry":{"type":"Point","coordinates":[-113.9645425,50.9250995]}},{"type":"Feature","properties":{"ZIP":"T2Z2T1"},"geometry":{"type":"Point","coordinates":[-113.990744,50.943075500000006]}},{"type":"Feature","properties":{"ZIP":"T2Z0P9"},"geometry":{"type":"Point","coordinates":[-113.9409615,50.918998]}},{"type":"Feature","properties":{"ZIP":"T2Z2P7"},"geometry":{"type":"Point","coordinates":[-113.9844075,50.917566]}},{"type":"Feature","properties":{"ZIP":"T2Z3M3"},"geometry":{"type":"Point","coordinates":[-113.967626,50.920908]}},{"type":"Feature","properties":{"ZIP":"T2Z4P6"},"geometry":{"type":"Point","coordinates":[-113.9641515,50.926789]}},{"type":"Feature","properties":{"ZIP":"T2Z0T9"},"geometry":{"type":"Point","coordinates":[-113.94552250000001,50.9214895]}},{"type":"Feature","properties":{"ZIP":"T2Z3V6"},"geometry":{"type":"Point","coordinates":[-113.99287799999999,50.950115499999995]}},{"type":"Feature","properties":{"ZIP":"T2Z4L5"},"geometry":{"type":"Point","coordinates":[-113.94217,50.910120000000006]}},{"type":"Feature","properties":{"ZIP":"T2Z0L1"},"geometry":{"type":"Point","coordinates":[-113.9243785,50.9179315]}},{"type":"Feature","properties":{"ZIP":"T2Z2L1"},"geometry":{"type":"Point","coordinates":[-113.998178,50.939467]}},{"type":"Feature","properties":{"ZIP":"T2Z3A2"},"geometry":{"type":"Point","coordinates":[-113.986913,50.933993]}},{"type":"Feature","properties":{"ZIP":"T2Z3L2"},"geometry":{"type":"Point","coordinates":[-113.969606,50.9134605]}},{"type":"Feature","properties":{"ZIP":"T2Z4T4"},"geometry":{"type":"Point","coordinates":[-113.9647865,50.909666]}},{"type":"Feature","properties":{"ZIP":"T2Z0Y4"},"geometry":{"type":"Point","coordinates":[-113.9595605,50.908564999999996]}},{"type":"Feature","properties":{"ZIP":"T2Z1T3"},"geometry":{"type":"Point","coordinates":[-113.983802,50.9035415]}},{"type":"Feature","properties":{"ZIP":"T2Z1Y2"},"geometry":{"type":"Point","coordinates":[-113.98953,50.9005735]}},{"type":"Feature","properties":{"ZIP":"T2Z3B4"},"geometry":{"type":"Point","coordinates":[-113.985041,50.933678]}},{"type":"Feature","properties":{"ZIP":"T2Z4Z8"},"geometry":{"type":"Point","coordinates":[-113.9663635,50.905516]}},{"type":"Feature","properties":{"ZIP":"T2Z0C6"},"geometry":{"type":"Point","coordinates":[-113.9513735,50.923109]}},{"type":"Feature","properties":{"ZIP":"T2Z0J6"},"geometry":{"type":"Point","coordinates":[-113.9542375,50.924229499999996]}},{"type":"Feature","properties":{"ZIP":"T2Z3J7"},"geometry":{"type":"Point","coordinates":[-113.983859,50.927965]}},{"type":"Feature","properties":{"ZIP":"T2Z3N9"},"geometry":{"type":"Point","coordinates":[-113.982839,50.927381]}},{"type":"Feature","properties":{"ZIP":"T2Z0L2"},"geometry":{"type":"Point","coordinates":[-113.924852,50.9208235]}},{"type":"Feature","properties":{"ZIP":"T2Z2L2"},"geometry":{"type":"Point","coordinates":[-113.99594049999999,50.90747]}},{"type":"Feature","properties":{"ZIP":"T2Z3A3"},"geometry":{"type":"Point","coordinates":[-113.9876175,50.9334375]}},{"type":"Feature","properties":{"ZIP":"T2Z4B6"},"geometry":{"type":"Point","coordinates":[-113.96529100000001,50.92054400000001]}},{"type":"Feature","properties":{"ZIP":"T2Z4N3"},"geometry":{"type":"Point","coordinates":[-113.96839299999999,50.906155999999996]}},{"type":"Feature","properties":{"ZIP":"T2Z0H5"},"geometry":{"type":"Point","coordinates":[-113.968987,50.923018]}},{"type":"Feature","properties":{"ZIP":"T2Z2S2"},"geometry":{"type":"Point","coordinates":[-113.979408,50.9234015]}},{"type":"Feature","properties":{"ZIP":"T2Z2K1"},"geometry":{"type":"Point","coordinates":[-113.99375950000001,50.908518]}},{"type":"Feature","properties":{"ZIP":"T2Z1X1"},"geometry":{"type":"Point","coordinates":[-114.01194050000001,50.948468]}},{"type":"Feature","properties":{"ZIP":"T2Z2B1"},"geometry":{"type":"Point","coordinates":[-113.999624,50.9401505]}},{"type":"Feature","properties":{"ZIP":"T2Z4B7"},"geometry":{"type":"Point","coordinates":[-113.9680275,50.9091455]}},{"type":"Feature","properties":{"ZIP":"T2Z0S6"},"geometry":{"type":"Point","coordinates":[-113.9561105,50.922912]}},{"type":"Feature","properties":{"ZIP":"T2Z1V8"},"geometry":{"type":"Point","coordinates":[-113.9872275,50.903675500000006]}},{"type":"Feature","properties":{"ZIP":"T2Z2N9"},"geometry":{"type":"Point","coordinates":[-113.99359050000001,50.903999]}},{"type":"Feature","properties":{"ZIP":"T2Z3W1"},"geometry":{"type":"Point","coordinates":[-113.965824,50.920781500000004]}},{"type":"Feature","properties":{"ZIP":"T2Z4B8"},"geometry":{"type":"Point","coordinates":[-113.967589,50.909155999999996]}},{"type":"Feature","properties":{"ZIP":"T2Z4T7"},"geometry":{"type":"Point","coordinates":[-113.96914749999999,50.9043175]}},{"type":"Feature","properties":{"ZIP":"T2Z0B6"},"geometry":{"type":"Point","coordinates":[-113.941828,50.915968500000005]}},{"type":"Feature","properties":{"ZIP":"T2Z1N9"},"geometry":{"type":"Point","coordinates":[-113.977982,50.9049565]}},{"type":"Feature","properties":{"ZIP":"T2Z2M7"},"geometry":{"type":"Point","coordinates":[-113.98335349999999,50.9185625]}},{"type":"Feature","properties":{"ZIP":"T2Z3H7"},"geometry":{"type":"Point","coordinates":[-113.97894149999999,50.935603]}},{"type":"Feature","properties":{"ZIP":"T2Z3N1"},"geometry":{"type":"Point","coordinates":[-113.9793405,50.9293185]}},{"type":"Feature","properties":{"ZIP":"T2Z2K3"},"geometry":{"type":"Point","coordinates":[-113.9973445,50.908333]}},{"type":"Feature","properties":{"ZIP":"T2Z2P1"},"geometry":{"type":"Point","coordinates":[-113.980785,50.910329000000004]}},{"type":"Feature","properties":{"ZIP":"T2Z2Z4"},"geometry":{"type":"Point","coordinates":[-113.9678705,50.914159]}},{"type":"Feature","properties":{"ZIP":"T2Z2G9"},"geometry":{"type":"Point","coordinates":[-113.99140249999999,50.907823500000006]}},{"type":"Feature","properties":{"ZIP":"T2Z2L5"},"geometry":{"type":"Point","coordinates":[-113.981585,50.921065999999996]}},{"type":"Feature","properties":{"ZIP":"T2Z3G6"},"geometry":{"type":"Point","coordinates":[-113.9882025,50.9178675]}},{"type":"Feature","properties":{"ZIP":"T2Z4T8"},"geometry":{"type":"Point","coordinates":[-113.9702115,50.9061415]}},{"type":"Feature","properties":{"ZIP":"T2Z1K5"},"geometry":{"type":"Point","coordinates":[-113.99378250000001,50.944798]}},{"type":"Feature","properties":{"ZIP":"T2Z1R3"},"geometry":{"type":"Point","coordinates":[-113.97805199999999,50.905473]}},{"type":"Feature","properties":{"ZIP":"T2Z2K4"},"geometry":{"type":"Point","coordinates":[-113.9974675,50.9085175]}},{"type":"Feature","properties":{"ZIP":"T2Z2T7"},"geometry":{"type":"Point","coordinates":[-113.9812695,50.9105385]}},{"type":"Feature","properties":{"ZIP":"T2Z3E1"},"geometry":{"type":"Point","coordinates":[-113.9715475,50.9143015]}},{"type":"Feature","properties":{"ZIP":"T2Z3P4"},"geometry":{"type":"Point","coordinates":[-113.98131950000001,50.910911]}},{"type":"Feature","properties":{"ZIP":"T2Z0X3"},"geometry":{"type":"Point","coordinates":[-113.928197,50.922081000000006]}},{"type":"Feature","properties":{"ZIP":"T2Z3X9"},"geometry":{"type":"Point","coordinates":[-113.967093,50.924924000000004]}},{"type":"Feature","properties":{"ZIP":"T2Z4N7"},"geometry":{"type":"Point","coordinates":[-113.949349,50.9181565]}},{"type":"Feature","properties":{"ZIP":"T2Z2S6"},"geometry":{"type":"Point","coordinates":[-113.986525,50.935597]}},{"type":"Feature","properties":{"ZIP":"T2Z4E4"},"geometry":{"type":"Point","coordinates":[-113.97254649999999,50.924179]}},{"type":"Feature","properties":{"ZIP":"T2Z4R4"},"geometry":{"type":"Point","coordinates":[-113.941949,50.911371]}},{"type":"Feature","properties":{"ZIP":"T2Z0E2"},"geometry":{"type":"Point","coordinates":[-113.95634100000001,50.9216625]}},{"type":"Feature","properties":{"ZIP":"T2Z0K3"},"geometry":{"type":"Point","coordinates":[-113.950725,50.923338]}},{"type":"Feature","properties":{"ZIP":"T2Z2K5"},"geometry":{"type":"Point","coordinates":[-113.9991225,50.9081175]}},{"type":"Feature","properties":{"ZIP":"T2Z3K6"},"geometry":{"type":"Point","coordinates":[-113.968136,50.90948]}},{"type":"Feature","properties":{"ZIP":"T2Z2B6"},"geometry":{"type":"Point","coordinates":[-114.008873,50.945623]}},{"type":"Feature","properties":{"ZIP":"T2Z2H2"},"geometry":{"type":"Point","coordinates":[-113.9828615,50.91458]}},{"type":"Feature","properties":{"ZIP":"T2Z3G8"},"geometry":{"type":"Point","coordinates":[-113.9885865,50.9157065]}},{"type":"Feature","properties":{"ZIP":"T2Z3L8"},"geometry":{"type":"Point","coordinates":[-113.96774450000001,50.9231565]}},{"type":"Feature","properties":{"ZIP":"T2Z0T2"},"geometry":{"type":"Point","coordinates":[-113.9411685,50.919220499999994]}},{"type":"Feature","properties":{"ZIP":"T2Z1P3"},"geometry":{"type":"Point","coordinates":[-113.9792925,50.903708]}},{"type":"Feature","properties":{"ZIP":"T2Z2N1"},"geometry":{"type":"Point","coordinates":[-114.01056,50.953694999999996]}},{"type":"Feature","properties":{"ZIP":"T2Z3C1"},"geometry":{"type":"Point","coordinates":[-113.97904750000001,50.9257465]}},{"type":"Feature","properties":{"ZIP":"T2Z3N4"},"geometry":{"type":"Point","coordinates":[-113.978162,50.928773]}},{"type":"Feature","properties":{"ZIP":"T2Z0P6"},"geometry":{"type":"Point","coordinates":[-113.925727,50.918269499999994]}},{"type":"Feature","properties":{"ZIP":"T2Z2P4"},"geometry":{"type":"Point","coordinates":[-113.986695,50.938925999999995]}},{"type":"Feature","properties":{"ZIP":"T2Z2Z7"},"geometry":{"type":"Point","coordinates":[-113.9933385,50.901933]}},{"type":"Feature","properties":{"ZIP":"T2Z4X9"},"geometry":{"type":"Point","coordinates":[-113.930763,50.909788500000005]}},{"type":"Feature","properties":{"ZIP":"T2Z1S8"},"geometry":{"type":"Point","coordinates":[-113.98321100000001,50.9039855]}},{"type":"Feature","properties":{"ZIP":"T2Z2W6"},"geometry":{"type":"Point","coordinates":[-113.9696675,50.913923]}},{"type":"Feature","properties":{"ZIP":"T2Z3S2"},"geometry":{"type":"Point","coordinates":[-113.98414,50.925765]}},{"type":"Feature","properties":{"ZIP":"T2Z4J5"},"geometry":{"type":"Point","coordinates":[-113.951195,50.9218215]}},{"type":"Feature","properties":{"ZIP":"T2Z0J2"},"geometry":{"type":"Point","coordinates":[-113.93544700000001,50.9146175]}},{"type":"Feature","properties":{"ZIP":"T2Z1Y9"},"geometry":{"type":"Point","coordinates":[-113.986923,50.901531500000004]}},{"type":"Feature","properties":{"ZIP":"T2Z4L2"},"geometry":{"type":"Point","coordinates":[-113.941496,50.911902]}},{"type":"Feature","properties":{"ZIP":"T2Z1R6"},"geometry":{"type":"Point","coordinates":[-113.9799055,50.9040785]}},{"type":"Feature","properties":{"ZIP":"T2Z1W4"},"geometry":{"type":"Point","coordinates":[-114.010953,50.9481205]}},{"type":"Feature","properties":{"ZIP":"T2Z2P5"},"geometry":{"type":"Point","coordinates":[-113.985888,50.937876]}},{"type":"Feature","properties":{"ZIP":"T2Z3K8"},"geometry":{"type":"Point","coordinates":[-113.9683095,50.91388]}},{"type":"Feature","properties":{"ZIP":"T2Z0L9"},"geometry":{"type":"Point","coordinates":[-113.9553935,50.9086935]}},{"type":"Feature","properties":{"ZIP":"T2Z1N3"},"geometry":{"type":"Point","coordinates":[-113.980426,50.9040605]}},{"type":"Feature","properties":{"ZIP":"T2Z1S9"},"geometry":{"type":"Point","coordinates":[-113.983847,50.904097]}},{"type":"Feature","properties":{"ZIP":"T2Z4J8"},"geometry":{"type":"Point","coordinates":[-113.962174,50.9108885]}},{"type":"Feature","properties":{"ZIP":"T2Z4L3"},"geometry":{"type":"Point","coordinates":[-113.94374450000001,50.911418499999996]}},{"type":"Feature","properties":{"ZIP":"T2Z2Z9"},"geometry":{"type":"Point","coordinates":[-113.9793865,50.9366795]}},{"type":"Feature","properties":{"ZIP":"T2Z3X1"},"geometry":{"type":"Point","coordinates":[-113.992764,50.947475]}},{"type":"Feature","properties":{"ZIP":"T2Z2H5"},"geometry":{"type":"Point","coordinates":[-113.9782755,50.911387]}},{"type":"Feature","properties":{"ZIP":"T2Z3M2"},"geometry":{"type":"Point","coordinates":[-113.96833050000001,50.920472000000004]}},{"type":"Feature","properties":{"ZIP":"T2Z3N7"},"geometry":{"type":"Point","coordinates":[-113.985903,50.915465]}},{"type":"Feature","properties":{"ZIP":"T2Z0E8"},"geometry":{"type":"Point","coordinates":[-113.9599925,50.9073675]}},{"type":"Feature","properties":{"ZIP":"T2Z1R8"},"geometry":{"type":"Point","coordinates":[-113.9789825,50.9059155]}},{"type":"Feature","properties":{"ZIP":"T2Z2V4"},"geometry":{"type":"Point","coordinates":[-113.9783205,50.924701999999996]}},{"type":"Feature","properties":{"ZIP":"T2Z3L1"},"geometry":{"type":"Point","coordinates":[-113.964317,50.911970499999995]}},{"type":"Feature","properties":{"ZIP":"T2Z0H1"},"geometry":{"type":"Point","coordinates":[-113.951184,50.9234935]}},{"type":"Feature","properties":{"ZIP":"T2Z2C1"},"geometry":{"type":"Point","coordinates":[-113.9893725,50.9128965]}},{"type":"Feature","properties":{"ZIP":"T2Z4K1"},"geometry":{"type":"Point","coordinates":[-113.95008250000001,50.918022]}},{"type":"Feature","properties":{"ZIP":"T2Z0C4"},"geometry":{"type":"Point","coordinates":[-113.9596085,50.9145685]}},{"type":"Feature","properties":{"ZIP":"T2Z0N8"},"geometry":{"type":"Point","coordinates":[-113.9474265,50.924079000000006]}},{"type":"Feature","properties":{"ZIP":"T2Z1R9"},"geometry":{"type":"Point","coordinates":[-113.97914850000001,50.904215]}},{"type":"Feature","properties":{"ZIP":"T2Z2A8"},"geometry":{"type":"Point","coordinates":[-113.995888,50.9397905]}},{"type":"Feature","properties":{"ZIP":"T2Z0H4"},"geometry":{"type":"Point","coordinates":[-113.9682185,50.9277165]}},{"type":"Feature","properties":{"ZIP":"T2Z2M4"},"geometry":{"type":"Point","coordinates":[-113.9796,50.9385025]}},{"type":"Feature","properties":{"ZIP":"T2Z2X1"},"geometry":{"type":"Point","coordinates":[-113.9713735,50.913939]}},{"type":"Feature","properties":{"ZIP":"T2Z3S6"},"geometry":{"type":"Point","coordinates":[-113.9669145,50.92276699999999]}},{"type":"Feature","properties":{"ZIP":"T2Z4C7"},"geometry":{"type":"Point","coordinates":[-113.9435735,50.908975]}},{"type":"Feature","properties":{"ZIP":"T2Z2N7"},"geometry":{"type":"Point","coordinates":[-113.99043549999999,50.908809500000004]}},{"type":"Feature","properties":{"ZIP":"T2Z3Z8"},"geometry":{"type":"Point","coordinates":[-113.97132350000001,50.918394500000005]}},{"type":"Feature","properties":{"ZIP":"T2Z0R2"},"geometry":{"type":"Point","coordinates":[-113.926197,50.921422]}},{"type":"Feature","properties":{"ZIP":"T2Z2A9"},"geometry":{"type":"Point","coordinates":[-113.996959,50.939763]}},{"type":"Feature","properties":{"ZIP":"T2Z4Y5"},"geometry":{"type":"Point","coordinates":[-113.96888150000001,50.927721500000004]}},{"type":"Feature","properties":{"ZIP":"T2Z0S5"},"geometry":{"type":"Point","coordinates":[-113.9509765,50.921779]}},{"type":"Feature","properties":{"ZIP":"T2Z2M5"},"geometry":{"type":"Point","coordinates":[-113.9945725,50.9381685]}},{"type":"Feature","properties":{"ZIP":"T2Z3B5"},"geometry":{"type":"Point","coordinates":[-113.985176,50.9332965]}},{"type":"Feature","properties":{"ZIP":"T2Z3H5"},"geometry":{"type":"Point","coordinates":[-113.978381,50.937625999999995]}},{"type":"Feature","properties":{"ZIP":"T2Z3Y7"},"geometry":{"type":"Point","coordinates":[-113.9677835,50.907176]}},{"type":"Feature","properties":{"ZIP":"T2Z0V6"},"geometry":{"type":"Point","coordinates":[-113.9487175,50.924577]}},{"type":"Feature","properties":{"ZIP":"T2Z2N8"},"geometry":{"type":"Point","coordinates":[-113.993843,50.9057535]}},{"type":"Feature","properties":{"ZIP":"T2Z3C7"},"geometry":{"type":"Point","coordinates":[-113.995732,50.900542]}},{"type":"Feature","properties":{"ZIP":"T2Z3P1"},"geometry":{"type":"Point","coordinates":[-113.984142,50.9229895]}},{"type":"Feature","properties":{"ZIP":"T2Z4L7"},"geometry":{"type":"Point","coordinates":[-113.93946650000001,50.9097635]}},{"type":"Feature","properties":{"ZIP":"T2Z4X3"},"geometry":{"type":"Point","coordinates":[-113.937207,50.9191215]}},{"type":"Feature","properties":{"ZIP":"T2Z0G2"},"geometry":{"type":"Point","coordinates":[-113.95671,50.907208499999996]}},{"type":"Feature","properties":{"ZIP":"T2Z1M6"},"geometry":{"type":"Point","coordinates":[-113.9816635,50.9037455]}},{"type":"Feature","properties":{"ZIP":"T2Z2G7"},"geometry":{"type":"Point","coordinates":[-113.98936,50.906336499999995]}},{"type":"Feature","properties":{"ZIP":"T2Z4Y6"},"geometry":{"type":"Point","coordinates":[-113.967501,50.9252765]}},{"type":"Feature","properties":{"ZIP":"T2Z1T5"},"geometry":{"type":"Point","coordinates":[-113.986288,50.9026195]}},{"type":"Feature","properties":{"ZIP":"T2Z2H9"},"geometry":{"type":"Point","coordinates":[-113.990729,50.940013]}},{"type":"Feature","properties":{"ZIP":"T2Z3B6"},"geometry":{"type":"Point","coordinates":[-113.980999,50.934152]}},{"type":"Feature","properties":{"ZIP":"T2Z4W2"},"geometry":{"type":"Point","coordinates":[-113.9505355,50.921341]}},{"type":"Feature","properties":{"ZIP":"T2Z0V7"},"geometry":{"type":"Point","coordinates":[-113.947383,50.924285]}},{"type":"Feature","properties":{"ZIP":"T2Z1L5"},"geometry":{"type":"Point","coordinates":[-114.0003695,50.943366499999996]}},{"type":"Feature","properties":{"ZIP":"T2Z2T5"},"geometry":{"type":"Point","coordinates":[-113.9812575,50.9107565]}},{"type":"Feature","properties":{"ZIP":"T2Z3J9"},"geometry":{"type":"Point","coordinates":[-113.984284,50.926250499999995]}},{"type":"Feature","properties":{"ZIP":"T2Z4X4"},"geometry":{"type":"Point","coordinates":[-113.934495,50.917727]}},{"type":"Feature","properties":{"ZIP":"T2Z0L4"},"geometry":{"type":"Point","coordinates":[-113.9294915,50.9155815]}},{"type":"Feature","properties":{"ZIP":"T2Z1M7"},"geometry":{"type":"Point","coordinates":[-113.981441,50.904078]}},{"type":"Feature","properties":{"ZIP":"T2Z3L5"},"geometry":{"type":"Point","coordinates":[-113.967097,50.924771]}},{"type":"Feature","properties":{"ZIP":"T2Z0H7"},"geometry":{"type":"Point","coordinates":[-113.951051,50.921578999999994]}},{"type":"Feature","properties":{"ZIP":"T2Z2C5"},"geometry":{"type":"Point","coordinates":[-114.011324,50.9470695]}},{"type":"Feature","properties":{"ZIP":"T2Z3B7"},"geometry":{"type":"Point","coordinates":[-113.9794545,50.936495]}},{"type":"Feature","properties":{"ZIP":"T2Z0C9"},"geometry":{"type":"Point","coordinates":[-113.952106,50.9230735]}},{"type":"Feature","properties":{"ZIP":"T2Z0P3"},"geometry":{"type":"Point","coordinates":[-113.926635,50.917169]}},{"type":"Feature","properties":{"ZIP":"T2Z1V9"},"geometry":{"type":"Point","coordinates":[-113.98725400000001,50.9035995]}},{"type":"Feature","properties":{"ZIP":"T2Z1Z8"},"geometry":{"type":"Point","coordinates":[-113.994982,50.941786]}},{"type":"Feature","properties":{"ZIP":"T2Z2T6"},"geometry":{"type":"Point","coordinates":[-113.98148900000001,50.9104135]}},{"type":"Feature","properties":{"ZIP":"T2Z4S4"},"geometry":{"type":"Point","coordinates":[-113.967376,50.9232235]}},{"type":"Feature","properties":{"ZIP":"T2Z0X2"},"geometry":{"type":"Point","coordinates":[-113.93497149999999,50.9167275]}},{"type":"Feature","properties":{"ZIP":"T2Z1X4"},"geometry":{"type":"Point","coordinates":[-113.988113,50.9009]}},{"type":"Feature","properties":{"ZIP":"T2Z3X7"},"geometry":{"type":"Point","coordinates":[-113.971267,50.9242195]}},{"type":"Feature","properties":{"ZIP":"T2Z4N6"},"geometry":{"type":"Point","coordinates":[-113.964986,50.9043375]}},{"type":"Feature","properties":{"ZIP":"T2Z0B7"},"geometry":{"type":"Point","coordinates":[-113.96187,50.9092445]}},{"type":"Feature","properties":{"ZIP":"T2Z3H8"},"geometry":{"type":"Point","coordinates":[-113.9680365,50.914308500000004]}},{"type":"Feature","properties":{"ZIP":"T2Z3N2"},"geometry":{"type":"Point","coordinates":[-113.979501,50.9296025]}},{"type":"Feature","properties":{"ZIP":"T2Z4K8"},"geometry":{"type":"Point","coordinates":[-113.966811,50.922952]}},{"type":"Feature","properties":{"ZIP":"T2Z4R3"},"geometry":{"type":"Point","coordinates":[-113.942147,50.9114225]}},{"type":"Feature","properties":{"ZIP":"T2Z1Z9"},"geometry":{"type":"Point","coordinates":[-113.994834,50.942077999999995]}},{"type":"Feature","properties":{"ZIP":"T2Z1M9"},"geometry":{"type":"Point","coordinates":[-113.9815545,50.9034185]}},{"type":"Feature","properties":{"ZIP":"T2Z2B5"},"geometry":{"type":"Point","coordinates":[-114.009428,50.946311]}},{"type":"Feature","properties":{"ZIP":"T2Z4C1"},"geometry":{"type":"Point","coordinates":[-113.94275400000001,50.910762500000004]}},{"type":"Feature","properties":{"ZIP":"T2Z4T9"},"geometry":{"type":"Point","coordinates":[-113.9455025,50.911978500000004]}},{"type":"Feature","properties":{"ZIP":"T2Z1K6"},"geometry":{"type":"Point","coordinates":[-113.99424350000001,50.943877]}},{"type":"Feature","properties":{"ZIP":"T2Z2A1"},"geometry":{"type":"Point","coordinates":[-113.99519000000001,50.942814999999996]}},{"type":"Feature","properties":{"ZIP":"T2Z2E9"},"geometry":{"type":"Point","coordinates":[-113.99074350000001,50.944011]}},{"type":"Feature","properties":{"ZIP":"T2Z2T8"},"geometry":{"type":"Point","coordinates":[-113.99383850000001,50.903729999999996]}},{"type":"Feature","properties":{"ZIP":"T2Z3E2"},"geometry":{"type":"Point","coordinates":[-113.9704715,50.9142]}},{"type":"Feature","properties":{"ZIP":"T2Z4G7"},"geometry":{"type":"Point","coordinates":[-113.953356,50.917236]}},{"type":"Feature","properties":{"ZIP":"T2Z4S6"},"geometry":{"type":"Point","coordinates":[-113.968648,50.9217315]}},{"type":"Feature","properties":{"ZIP":"T2Z4X8"},"geometry":{"type":"Point","coordinates":[-113.929118,50.913197499999995]}},{"type":"Feature","properties":{"ZIP":"T2Z3A8"},"geometry":{"type":"Point","coordinates":[-113.982174,50.934531500000006]}},{"type":"Feature","properties":{"ZIP":"T2Z4V1"},"geometry":{"type":"Point","coordinates":[-113.943544,50.9139555]}},{"type":"Feature","properties":{"ZIP":"T2Z4Z3"},"geometry":{"type":"Point","coordinates":[-113.94235549999999,50.912850500000005]}},{"type":"Feature","properties":{"ZIP":"T2Z0Z4"},"geometry":{"type":"Point","coordinates":[-113.927974,50.923891999999995]}},{"type":"Feature","properties":{"ZIP":"T2Z2S7"},"geometry":{"type":"Point","coordinates":[-113.986025,50.93801]}},{"type":"Feature","properties":{"ZIP":"T2Z3T8"},"geometry":{"type":"Point","coordinates":[-113.961065,50.9159965]}},{"type":"Feature","properties":{"ZIP":"T2Z0E3"},"geometry":{"type":"Point","coordinates":[-113.95294849999999,50.922725]}},{"type":"Feature","properties":{"ZIP":"T2Z1B4"},"geometry":{"type":"Point","coordinates":[-113.95271600000001,50.9080965]}},{"type":"Feature","properties":{"ZIP":"T2Z3E3"},"geometry":{"type":"Point","coordinates":[-113.97165799999999,50.913833999999994]}},{"type":"Feature","properties":{"ZIP":"T2Z4A8"},"geometry":{"type":"Point","coordinates":[-113.96831,50.906057000000004]}},{"type":"Feature","properties":{"ZIP":"T2Z4G8"},"geometry":{"type":"Point","coordinates":[-113.954001,50.921297499999994]}},{"type":"Feature","properties":{"ZIP":"T2Z0L8"},"geometry":{"type":"Point","coordinates":[-113.95605,50.90977650000001]}},{"type":"Feature","properties":{"ZIP":"T2Z2B7"},"geometry":{"type":"Point","coordinates":[-114.01001099999999,50.946301]}},{"type":"Feature","properties":{"ZIP":"T2Z3A9"},"geometry":{"type":"Point","coordinates":[-113.989959,50.9427935]}},{"type":"Feature","properties":{"ZIP":"T2Z4Z4"},"geometry":{"type":"Point","coordinates":[-113.94299000000001,50.912555499999996]}},{"type":"Feature","properties":{"ZIP":"T2Z1P4"},"geometry":{"type":"Point","coordinates":[-113.992494,50.913355499999994]}},{"type":"Feature","properties":{"ZIP":"T2Z2C9"},"geometry":{"type":"Point","coordinates":[-114.00899749999999,50.946228]}},{"type":"Feature","properties":{"ZIP":"T2Z2N3"},"geometry":{"type":"Point","coordinates":[-113.9920435,50.93804]}},{"type":"Feature","properties":{"ZIP":"T2Z3Z4"},"geometry":{"type":"Point","coordinates":[-113.9743475,50.9472385]}},{"type":"Feature","properties":{"ZIP":"T2Z4W7"},"geometry":{"type":"Point","coordinates":[-113.9341395,50.9127555]}},{"type":"Feature","properties":{"ZIP":"T2Z2G2"},"geometry":{"type":"Point","coordinates":[-113.9932095,50.910851]}},{"type":"Feature","properties":{"ZIP":"T2Z2K7"},"geometry":{"type":"Point","coordinates":[-114.00174000000001,50.940178]}},{"type":"Feature","properties":{"ZIP":"T2Z2Z8"},"geometry":{"type":"Point","coordinates":[-113.98380900000001,50.9349995]}},{"type":"Feature","properties":{"ZIP":"T2Z0G8"},"geometry":{"type":"Point","coordinates":[-113.92850849999999,50.9144705]}},{"type":"Feature","properties":{"ZIP":"T2Z2L9"},"geometry":{"type":"Point","coordinates":[-113.9790745,50.920157]}},{"type":"Feature","properties":{"ZIP":"T2Z2W7"},"geometry":{"type":"Point","coordinates":[-113.9701555,50.914476]}},{"type":"Feature","properties":{"ZIP":"T2Z3H1"},"geometry":{"type":"Point","coordinates":[-113.97974099999999,50.928979]}},{"type":"Feature","properties":{"ZIP":"T2Z3S3"},"geometry":{"type":"Point","coordinates":[-113.96601100000001,50.9231145]}},{"type":"Feature","properties":{"ZIP":"T2Z0N6"},"geometry":{"type":"Point","coordinates":[-113.9627605,50.9070885]}},{"type":"Feature","properties":{"ZIP":"T2Z2S9"},"geometry":{"type":"Point","coordinates":[-113.98310599999999,50.939081]}},{"type":"Feature","properties":{"ZIP":"T2Z1M2"},"geometry":{"type":"Point","coordinates":[-113.980445,50.904011999999994]}},{"type":"Feature","properties":{"ZIP":"T2Z2P6"},"geometry":{"type":"Point","coordinates":[-113.978387,50.938152]}},{"type":"Feature","properties":{"ZIP":"T2Z3K9"},"geometry":{"type":"Point","coordinates":[-113.96657350000001,50.912751]}},{"type":"Feature","properties":{"ZIP":"T2Z4H2"},"geometry":{"type":"Point","coordinates":[-113.96993,50.9224385]}},{"type":"Feature","properties":{"ZIP":"T2Z0S1"},"geometry":{"type":"Point","coordinates":[-113.954895,50.908547]}},{"type":"Feature","properties":{"ZIP":"T2Z0X8"},"geometry":{"type":"Point","coordinates":[-113.93826,50.917343]}},{"type":"Feature","properties":{"ZIP":"T2Z4V5"},"geometry":{"type":"Point","coordinates":[-113.943544,50.911724500000005]}},{"type":"Feature","properties":{"ZIP":"T2Z1P6"},"geometry":{"type":"Point","coordinates":[-113.9802355,50.905075999999994]}},{"type":"Feature","properties":{"ZIP":"T2Z1Z2"},"geometry":{"type":"Point","coordinates":[-113.996572,50.9422315]}},{"type":"Feature","properties":{"ZIP":"T2Z3C4"},"geometry":{"type":"Point","coordinates":[-113.97759199999999,50.9363165]}},{"type":"Feature","properties":{"ZIP":"T2Z3J5"},"geometry":{"type":"Point","coordinates":[-113.98175,50.9298325]}},{"type":"Feature","properties":{"ZIP":"T2Z4R8"},"geometry":{"type":"Point","coordinates":[-113.9410505,50.911607000000004]}},{"type":"Feature","properties":{"ZIP":"T2Z1W6"},"geometry":{"type":"Point","coordinates":[-113.9903665,50.901761500000006]}},{"type":"Feature","properties":{"ZIP":"T2Z2K9"},"geometry":{"type":"Point","coordinates":[-113.99867499999999,50.939704000000006]}},{"type":"Feature","properties":{"ZIP":"T2Z1Y1"},"geometry":{"type":"Point","coordinates":[-113.98049549999999,50.910279]}},{"type":"Feature","properties":{"ZIP":"T2Z1L2"},"geometry":{"type":"Point","coordinates":[-113.99154250000001,50.944168000000005]}},{"type":"Feature","properties":{"ZIP":"T2Z1Z3"},"geometry":{"type":"Point","coordinates":[-113.98895300000001,50.942695]}},{"type":"Feature","properties":{"ZIP":"T2Z2Y6"},"geometry":{"type":"Point","coordinates":[-113.96935400000001,50.914198]}},{"type":"Feature","properties":{"ZIP":"T2Z3C5"},"geometry":{"type":"Point","coordinates":[-113.99717749999999,50.902063]}},{"type":"Feature","properties":{"ZIP":"T2Z3J6"},"geometry":{"type":"Point","coordinates":[-113.9847845,50.9268405]}},{"type":"Feature","properties":{"ZIP":"T2Z4E9"},"geometry":{"type":"Point","coordinates":[-113.95797300000001,50.913513]}},{"type":"Feature","properties":{"ZIP":"T2Z4X1"},"geometry":{"type":"Point","coordinates":[-113.95083199999999,50.916204]}},{"type":"Feature","properties":{"ZIP":"T2Z1W7"},"geometry":{"type":"Point","coordinates":[-114.0111795,50.948572]}},{"type":"Feature","properties":{"ZIP":"T2Z2G5"},"geometry":{"type":"Point","coordinates":[-113.990753,50.9434885]}},{"type":"Feature","properties":{"ZIP":"T2Z0M4"},"geometry":{"type":"Point","coordinates":[-113.954058,50.909171]}},{"type":"Feature","properties":{"ZIP":"T2Z0S3"},"geometry":{"type":"Point","coordinates":[-113.955483,50.907126000000005]}},{"type":"Feature","properties":{"ZIP":"T2Z1N6"},"geometry":{"type":"Point","coordinates":[-113.980849,50.904149000000004]}},{"type":"Feature","properties":{"ZIP":"T2Z2C2"},"geometry":{"type":"Point","coordinates":[-114.01096100000001,50.9466735]}},{"type":"Feature","properties":{"ZIP":"T2Z2H7"},"geometry":{"type":"Point","coordinates":[-113.99081699999999,50.943074499999994]}},{"type":"Feature","properties":{"ZIP":"T2Z2S1"},"geometry":{"type":"Point","coordinates":[-113.986909,50.9355295]}},{"type":"Feature","properties":{"ZIP":"T2Z4P7"},"geometry":{"type":"Point","coordinates":[-113.966325,50.9263115]}},{"type":"Feature","properties":{"ZIP":"T2Z1L3"},"geometry":{"type":"Point","coordinates":[-113.995976,50.9443135]}},{"type":"Feature","properties":{"ZIP":"T2Z4S1"},"geometry":{"type":"Point","coordinates":[-113.929553,50.9136665]}},{"type":"Feature","properties":{"ZIP":"T2Z0W7"},"geometry":{"type":"Point","coordinates":[-113.95344850000001,50.9084795]}},{"type":"Feature","properties":{"ZIP":"T2Z3L3"},"geometry":{"type":"Point","coordinates":[-113.9672285,50.919568999999996]}},{"type":"Feature","properties":{"ZIP":"T2Z4T5"},"geometry":{"type":"Point","coordinates":[-113.96545449999999,50.904742]}},{"type":"Feature","properties":{"ZIP":"T2Z0M5"},"geometry":{"type":"Point","coordinates":[-113.955266,50.909029000000004]}},{"type":"Feature","properties":{"ZIP":"T2Z1N7"},"geometry":{"type":"Point","coordinates":[-113.9902535,50.9129095]}},{"type":"Feature","properties":{"ZIP":"T2Z4P8"},"geometry":{"type":"Point","coordinates":[-113.9606985,50.910760499999995]}},{"type":"Feature","properties":{"ZIP":"T2Z4W1"},"geometry":{"type":"Point","coordinates":[-113.965648,50.9043955]}},{"type":"Feature","properties":{"ZIP":"T2Z0J7"},"geometry":{"type":"Point","coordinates":[-113.9472475,50.916672]}},{"type":"Feature","properties":{"ZIP":"T2Z1A5"},"geometry":{"type":"Point","coordinates":[-113.9471715,50.924431999999996]}},{"type":"Feature","properties":{"ZIP":"T2Z2T4"},"geometry":{"type":"Point","coordinates":[-113.97887850000001,50.9372285]}},{"type":"Feature","properties":{"ZIP":"T2Z0R3"},"geometry":{"type":"Point","coordinates":[-113.92783750000001,50.9217705]}},{"type":"Feature","properties":{"ZIP":"T2Z1S2"},"geometry":{"type":"Point","coordinates":[-113.98280199999999,50.906372000000005]}},{"type":"Feature","properties":{"ZIP":"T2Z2L3"},"geometry":{"type":"Point","coordinates":[-113.9966255,50.906363999999996]}},{"type":"Feature","properties":{"ZIP":"T2Z3L4"},"geometry":{"type":"Point","coordinates":[-113.96732800000001,50.921117]}},{"type":"Feature","properties":{"ZIP":"T2Z1Y4"},"geometry":{"type":"Point","coordinates":[-113.9818285,50.910751000000005]}},{"type":"Feature","properties":{"ZIP":"T2Z2X5"},"geometry":{"type":"Point","coordinates":[-113.96733750000001,50.914362499999996]}},{"type":"Feature","properties":{"ZIP":"T2Z1Z7"},"geometry":{"type":"Point","coordinates":[-113.99654799999999,50.943607]}},{"type":"Feature","properties":{"ZIP":"T2Z4L8"},"geometry":{"type":"Point","coordinates":[-113.9419175,50.911157]}},{"type":"Feature","properties":{"ZIP":"T2Z1X3"},"geometry":{"type":"Point","coordinates":[-113.98738800000001,50.900752499999996]}},{"type":"Feature","properties":{"ZIP":"T2Z2B3"},"geometry":{"type":"Point","coordinates":[-113.99832599999999,50.9353865]}},{"type":"Feature","properties":{"ZIP":"T2Z2L4"},"geometry":{"type":"Point","coordinates":[-113.9815795,50.9184585]}},{"type":"Feature","properties":{"ZIP":"T2Z3R6"},"geometry":{"type":"Point","coordinates":[-113.996588,50.952801]}},{"type":"Feature","properties":{"ZIP":"T2Z4N5"},"geometry":{"type":"Point","coordinates":[-113.967593,50.9046995]}},{"type":"Feature","properties":{"ZIP":"T2Z0S7"},"geometry":{"type":"Point","coordinates":[-113.95631,50.921453]}},{"type":"Feature","properties":{"ZIP":"T2Z3Y9"},"geometry":{"type":"Point","coordinates":[-113.9690205,50.920916000000005]}},{"type":"Feature","properties":{"ZIP":"T2Z4W3"},"geometry":{"type":"Point","coordinates":[-113.951911,50.920125]}},{"type":"Feature","properties":{"ZIP":"T2Z1R2"},"geometry":{"type":"Point","coordinates":[-113.977784,50.905304]}},{"type":"Feature","properties":{"ZIP":"T2Z2E7"},"geometry":{"type":"Point","coordinates":[-113.9940695,50.9440735]}},{"type":"Feature","properties":{"ZIP":"T2Z4G5"},"geometry":{"type":"Point","coordinates":[-113.9501715,50.918402]}},{"type":"Feature","properties":{"ZIP":"T2Z0R5"},"geometry":{"type":"Point","coordinates":[-113.929329,50.920683499999996]}},{"type":"Feature","properties":{"ZIP":"T2Z1M8"},"geometry":{"type":"Point","coordinates":[-113.9823665,50.904164]}},{"type":"Feature","properties":{"ZIP":"T2Z2R3"},"geometry":{"type":"Point","coordinates":[-113.9992325,50.9065515]}},{"type":"Feature","properties":{"ZIP":"T2Z3L6"},"geometry":{"type":"Point","coordinates":[-113.96328449999999,50.918694]}},{"type":"Feature","properties":{"ZIP":"T2Z3R8"},"geometry":{"type":"Point","coordinates":[-113.9841365,50.926437500000006]}},{"type":"Feature","properties":{"ZIP":"T2Z4B9"},"geometry":{"type":"Point","coordinates":[-113.9680575,50.908444]}},{"type":"Feature","properties":{"ZIP":"T2Z1T8"},"geometry":{"type":"Point","coordinates":[-113.9879225,50.904323]}},{"type":"Feature","properties":{"ZIP":"T2Z3Z1"},"geometry":{"type":"Point","coordinates":[-113.968114,50.9243675]}},{"type":"Feature","properties":{"ZIP":"T2Z0E1"},"geometry":{"type":"Point","coordinates":[-113.94575599999999,50.921443499999995]}},{"type":"Feature","properties":{"ZIP":"T2Z1L7"},"geometry":{"type":"Point","coordinates":[-113.9816665,50.909901000000005]}},{"type":"Feature","properties":{"ZIP":"T2Z2Z5"},"geometry":{"type":"Point","coordinates":[-113.996674,50.902497]}},{"type":"Feature","properties":{"ZIP":"T2Z4X7"},"geometry":{"type":"Point","coordinates":[-113.9321465,50.9134685]}},{"type":"Feature","properties":{"ZIP":"T2Z0L6"},"geometry":{"type":"Point","coordinates":[-113.927009,50.921147000000005]}},{"type":"Feature","properties":{"ZIP":"T2Z0R6"},"geometry":{"type":"Point","coordinates":[-113.931184,50.9176035]}},{"type":"Feature","properties":{"ZIP":"T2Z1G1"},"geometry":{"type":"Point","coordinates":[-113.93464599999999,50.91796050000001]}},{"type":"Feature","properties":{"ZIP":"T2Z1X5"},"geometry":{"type":"Point","coordinates":[-113.9873785,50.9016015]}},{"type":"Feature","properties":{"ZIP":"T2Z2H1"},"geometry":{"type":"Point","coordinates":[-113.99128999999999,50.943532000000005]}},{"type":"Feature","properties":{"ZIP":"T2Z2R4"},"geometry":{"type":"Point","coordinates":[-113.998733,50.905446]}},{"type":"Feature","properties":{"ZIP":"T2Z3A7"},"geometry":{"type":"Point","coordinates":[-113.9782905,50.9377355]}},{"type":"Feature","properties":{"ZIP":"T2Z3L7"},"geometry":{"type":"Point","coordinates":[-113.96561249999999,50.921589499999996]}},{"type":"Feature","properties":{"ZIP":"T2Z2X8"},"geometry":{"type":"Point","coordinates":[-113.9682675,50.914238499999996]}},{"type":"Feature","properties":{"ZIP":"T2Z3T7"},"geometry":{"type":"Point","coordinates":[-113.96102049999999,50.91591]}},{"type":"Feature","properties":{"ZIP":"T2Z3Z2"},"geometry":{"type":"Point","coordinates":[-113.968728,50.922111]}},{"type":"Feature","properties":{"ZIP":"T2Z4W5"},"geometry":{"type":"Point","coordinates":[-113.952933,50.921431]}},{"type":"Feature","properties":{"ZIP":"T2Z0P5"},"geometry":{"type":"Point","coordinates":[-113.929566,50.9168265]}},{"type":"Feature","properties":{"ZIP":"T2Z1L8"},"geometry":{"type":"Point","coordinates":[-113.998747,50.9445145]}},{"type":"Feature","properties":{"ZIP":"T2Z1R4"},"geometry":{"type":"Point","coordinates":[-113.9786345,50.9056395]}},{"type":"Feature","properties":{"ZIP":"T2Z1W2"},"geometry":{"type":"Point","coordinates":[-113.988459,50.902539]}},{"type":"Feature","properties":{"ZIP":"T2Z3W6"},"geometry":{"type":"Point","coordinates":[-113.966657,50.921274]}},{"type":"Feature","properties":{"ZIP":"T2Z0G6"},"geometry":{"type":"Point","coordinates":[-113.9291175,50.914606000000006]}},{"type":"Feature","properties":{"ZIP":"T2Z0L7"},"geometry":{"type":"Point","coordinates":[-113.92609150000001,50.920421]}},{"type":"Feature","properties":{"ZIP":"T2Z0X4"},"geometry":{"type":"Point","coordinates":[-113.94819100000001,50.923891]}},{"type":"Feature","properties":{"ZIP":"T2Z1N1"},"geometry":{"type":"Point","coordinates":[-113.980013,50.904414]}},{"type":"Feature","properties":{"ZIP":"T2Z1S7"},"geometry":{"type":"Point","coordinates":[-113.984081,50.907601]}},{"type":"Feature","properties":{"ZIP":"T2Z4J4"},"geometry":{"type":"Point","coordinates":[-113.9540135,50.9168685]}},{"type":"Feature","properties":{"ZIP":"T2Z3Z3"},"geometry":{"type":"Point","coordinates":[-114.007149,50.9537385]}},{"type":"Feature","properties":{"ZIP":"T2Z4W6"},"geometry":{"type":"Point","coordinates":[-113.95406399999999,50.924024]}},{"type":"Feature","properties":{"ZIP":"T2Z0K4"},"geometry":{"type":"Point","coordinates":[-113.9507785,50.922926000000004]}},{"type":"Feature","properties":{"ZIP":"T2Z0W2"},"geometry":{"type":"Point","coordinates":[-113.937197,50.917777]}},{"type":"Feature","properties":{"ZIP":"T2Z2A3"},"geometry":{"type":"Point","coordinates":[-113.988478,50.94221]}},{"type":"Feature","properties":{"ZIP":"T2Z2G1"},"geometry":{"type":"Point","coordinates":[-113.991418,50.9116825]}},{"type":"Feature","properties":{"ZIP":"T2Z2K6"},"geometry":{"type":"Point","coordinates":[-113.993735,50.943597499999996]}},{"type":"Feature","properties":{"ZIP":"T2Z3W7"},"geometry":{"type":"Point","coordinates":[-113.96540999999999,50.923473]}},{"type":"Feature","properties":{"ZIP":"T2Z2R6"},"geometry":{"type":"Point","coordinates":[-114.092731,50.962847499999995]}},{"type":"Feature","properties":{"ZIP":"T2Z3L9"},"geometry":{"type":"Point","coordinates":[-113.96561600000001,50.922585]}},{"type":"Feature","properties":{"ZIP":"T2Z3Y2"},"geometry":{"type":"Point","coordinates":[-113.9669825,50.923888500000004]}},{"type":"Feature","properties":{"ZIP":"T2Z4C3"},"geometry":{"type":"Point","coordinates":[-113.9420715,50.911338]}},{"type":"Feature","properties":{"ZIP":"T2Z1K8"},"geometry":{"type":"Point","coordinates":[-113.9917935,50.9446195]}},{"type":"Feature","properties":{"ZIP":"T2Z0W3"},"geometry":{"type":"Point","coordinates":[-113.936789,50.917307]}},{"type":"Feature","properties":{"ZIP":"T2Z1B5"},"geometry":{"type":"Point","coordinates":[-113.953274,50.908307]}},{"type":"Feature","properties":{"ZIP":"T2Z1M1"},"geometry":{"type":"Point","coordinates":[-113.99365449999999,50.9444805]}},{"type":"Feature","properties":{"ZIP":"T2Z0A4"},"geometry":{"type":"Point","coordinates":[-113.9425605,50.9174735]}},{"type":"Feature","properties":{"ZIP":"T2Z2B8"},"geometry":{"type":"Point","coordinates":[-113.98846599999999,50.911559]}},{"type":"Feature","properties":{"ZIP":"T2Z3B1"},"geometry":{"type":"Point","coordinates":[-113.990917,50.943174]}},{"type":"Feature","properties":{"ZIP":"T2Z3M1"},"geometry":{"type":"Point","coordinates":[-113.96834150000001,50.920757]}},{"type":"Feature","properties":{"ZIP":"T2Z3Y3"},"geometry":{"type":"Point","coordinates":[-113.965919,50.924101]}},{"type":"Feature","properties":{"ZIP":"T2Z4C4"},"geometry":{"type":"Point","coordinates":[-113.9479345,50.9115945]}},{"type":"Feature","properties":{"ZIP":"T2Z4P4"},"geometry":{"type":"Point","coordinates":[-113.962018,50.9230735]}},{"type":"Feature","properties":{"ZIP":"T2Z4V4"},"geometry":{"type":"Point","coordinates":[-113.936881,50.913782499999996]}},{"type":"Feature","properties":{"ZIP":"T2Z4Z5"},"geometry":{"type":"Point","coordinates":[-113.9641865,50.909044]}},{"type":"Feature","properties":{"ZIP":"T2Z1V3"},"geometry":{"type":"Point","coordinates":[-113.987178,50.904103]}},{"type":"Feature","properties":{"ZIP":"T2Z3C3"},"geometry":{"type":"Point","coordinates":[-113.978823,50.934188]}},{"type":"Feature","properties":{"ZIP":"T2Z3Z5"},"geometry":{"type":"Point","coordinates":[-113.9638395,50.925377999999995]}},{"type":"Feature","properties":{"ZIP":"T2Z0W4"},"geometry":{"type":"Point","coordinates":[-113.9266805,50.9236155]}},{"type":"Feature","properties":{"ZIP":"T2Z2V3"},"geometry":{"type":"Point","coordinates":[-113.979074,50.925449]}},{"type":"Feature","properties":{"ZIP":"T2Z3E6"},"geometry":{"type":"Point","coordinates":[-113.974077,50.9121715]}},{"type":"Feature","properties":{"ZIP":"T2Z4B2"},"geometry":{"type":"Point","coordinates":[-113.94998000000001,50.922602]}},{"type":"Feature","properties":{"ZIP":"T2Z4M9"},"geometry":{"type":"Point","coordinates":[-113.967314,50.9070445]}},{"type":"Feature","properties":{"ZIP":"T2Z4S9"},"geometry":{"type":"Point","coordinates":[-113.945398,50.910522]}},{"type":"Feature","properties":{"ZIP":"T2Z0G9"},"geometry":{"type":"Point","coordinates":[-113.950858,50.923705]}},{"type":"Feature","properties":{"ZIP":"T2Z1T1"},"geometry":{"type":"Point","coordinates":[-113.983659,50.903771]}},{"type":"Feature","properties":{"ZIP":"T2Z1X9"},"geometry":{"type":"Point","coordinates":[-113.98719750000001,50.901167]}},{"type":"Feature","properties":{"ZIP":"T2Z2B9"},"geometry":{"type":"Point","coordinates":[-113.9894205,50.9103055]}},{"type":"Feature","properties":{"ZIP":"T2Z2W8"},"geometry":{"type":"Point","coordinates":[-113.968062,50.9146795]}},{"type":"Feature","properties":{"ZIP":"T2Z3H2"},"geometry":{"type":"Point","coordinates":[-113.97912149999999,50.9288555]}},{"type":"Feature","properties":{"ZIP":"T2Z4C5"},"geometry":{"type":"Point","coordinates":[-113.9455875,50.9111925]}},{"type":"Feature","properties":{"ZIP":"T2Z4J9"},"geometry":{"type":"Point","coordinates":[-113.967348,50.9064875]}},{"type":"Feature","properties":{"ZIP":"T2Z0C3"},"geometry":{"type":"Point","coordinates":[-113.959937,50.9144315]}},{"type":"Feature","properties":{"ZIP":"T2Z0J4"},"geometry":{"type":"Point","coordinates":[-113.928798,50.915679]}},{"type":"Feature","properties":{"ZIP":"T2Z0N7"},"geometry":{"type":"Point","coordinates":[-113.9610025,50.9110105]}},{"type":"Feature","properties":{"ZIP":"T2Z3A1"},"geometry":{"type":"Point","coordinates":[-113.989948,50.941424]}},{"type":"Feature","properties":{"ZIP":"T2Z3R2"},"geometry":{"type":"Point","coordinates":[-113.9952295,50.899724]}},{"type":"Feature","properties":{"ZIP":"T2Z0M3"},"geometry":{"type":"Point","coordinates":[-113.954047,50.908596]}},{"type":"Feature","properties":{"ZIP":"T2Z2M2"},"geometry":{"type":"Point","coordinates":[-113.979305,50.9402195]}},{"type":"Feature","properties":{"ZIP":"T2Z2W9"},"geometry":{"type":"Point","coordinates":[-113.96947800000001,50.913819000000004]}},{"type":"Feature","properties":{"ZIP":"T2Z3Y5"},"geometry":{"type":"Point","coordinates":[-114.0085755,50.953045]}},{"type":"Feature","properties":{"ZIP":"T2Z4Z7"},"geometry":{"type":"Point","coordinates":[-113.967011,50.906082999999995]}},{"type":"Feature","properties":{"ZIP":"T2Z1P7"},"geometry":{"type":"Point","coordinates":[-113.980647,50.9047765]}},{"type":"Feature","properties":{"ZIP":"T2Z2J8"},"geometry":{"type":"Point","coordinates":[-113.9787705,50.9180915]}},{"type":"Feature","properties":{"ZIP":"T2Z3X3"},"geometry":{"type":"Point","coordinates":[-113.9668365,50.9254245]}},{"type":"Feature","properties":{"ZIP":"T2Z3Y6"},"geometry":{"type":"Point","coordinates":[-113.9643675,50.911688]}},{"type":"Feature","properties":{"ZIP":"T2Z4V9"},"geometry":{"type":"Point","coordinates":[-113.96661900000001,50.9033745]}},{"type":"Feature","properties":{"ZIP":"T2Z1A4"},"geometry":{"type":"Point","coordinates":[-113.946687,50.924666]}},{"type":"Feature","properties":{"ZIP":"T2Z1P8"},"geometry":{"type":"Point","coordinates":[-113.977766,50.905671]}},{"type":"Feature","properties":{"ZIP":"T2Z1Z5"},"geometry":{"type":"Point","coordinates":[-113.9907145,50.943346500000004]}},{"type":"Feature","properties":{"ZIP":"T2Z2J9"},"geometry":{"type":"Point","coordinates":[-113.9952995,50.9090655]}},{"type":"Feature","properties":{"ZIP":"T2Z2Y7"},"geometry":{"type":"Point","coordinates":[-113.97133099999999,50.9135175]}},{"type":"Feature","properties":{"ZIP":"T2Z1S1"},"geometry":{"type":"Point","coordinates":[-113.99084500000001,50.912279999999996]}},{"type":"Feature","properties":{"ZIP":"T2Z1W9"},"geometry":{"type":"Point","coordinates":[-113.991404,50.900323]}},{"type":"Feature","properties":{"ZIP":"T2Z2G6"},"geometry":{"type":"Point","coordinates":[-113.992953,50.9432915]}},{"type":"Feature","properties":{"ZIP":"T2Z2V7"},"geometry":{"type":"Point","coordinates":[-114.00783000000001,50.9529585]}},{"type":"Feature","properties":{"ZIP":"T2Z3R4"},"geometry":{"type":"Point","coordinates":[-113.966813,50.914844]}},{"type":"Feature","properties":{"ZIP":"T2Z1T4"},"geometry":{"type":"Point","coordinates":[-113.983795,50.908654999999996]}},{"type":"Feature","properties":{"ZIP":"T2Z3M7"},"geometry":{"type":"Point","coordinates":[-114.012056,50.956077]}},{"type":"Feature","properties":{"ZIP":"T2Z3S7"},"geometry":{"type":"Point","coordinates":[-113.9616295,50.917195]}},{"type":"Feature","properties":{"ZIP":"T2Z1L4"},"geometry":{"type":"Point","coordinates":[-113.99803399999999,50.944233499999996]}},{"type":"Feature","properties":{"ZIP":"T2Z2E5"},"geometry":{"type":"Point","coordinates":[-113.99273099999999,50.9441425]}},{"type":"Feature","properties":{"ZIP":"T2Z3J8"},"geometry":{"type":"Point","coordinates":[-113.9843205,50.9268835]}},{"type":"Feature","properties":{"ZIP":"T2Z3V8"},"geometry":{"type":"Point","coordinates":[-113.9702785,50.937827999999996]}},{"type":"Feature","properties":{"ZIP":"T2Z3Z9"},"geometry":{"type":"Point","coordinates":[-113.972927,50.947345999999996]}},{"type":"Feature","properties":{"ZIP":"T2Z0W8"},"geometry":{"type":"Point","coordinates":[-113.929608,50.922915]}},{"type":"Feature","properties":{"ZIP":"T2Z1E7"},"geometry":{"type":"Point","coordinates":[-113.943973,50.923954499999994]}},{"type":"Feature","properties":{"ZIP":"T2Z3A4"},"geometry":{"type":"Point","coordinates":[-114.012872,50.9533285]}},{"type":"Feature","properties":{"ZIP":"T2Z4N4"},"geometry":{"type":"Point","coordinates":[-113.9649665,50.905375]}},{"type":"Feature","properties":{"ZIP":"T2Z0H6"},"geometry":{"type":"Point","coordinates":[-113.9656945,50.9072605]}},{"type":"Feature","properties":{"ZIP":"T2Z0M6"},"geometry":{"type":"Point","coordinates":[-113.955456,50.9091835]}},{"type":"Feature","properties":{"ZIP":"T2Z2S3"},"geometry":{"type":"Point","coordinates":[-113.97923399999999,50.922573]}},{"type":"Feature","properties":{"ZIP":"T2Z3H6"},"geometry":{"type":"Point","coordinates":[-113.979018,50.935747500000005]}},{"type":"Feature","properties":{"ZIP":"T2Z3T2"},"geometry":{"type":"Point","coordinates":[-114.00441599999999,50.9522415]}},{"type":"Feature","properties":{"ZIP":"T2Z3Y8"},"geometry":{"type":"Point","coordinates":[-113.96761000000001,50.9062925]}},{"type":"Feature","properties":{"ZIP":"T2Z4P9"},"geometry":{"type":"Point","coordinates":[-113.9610935,50.9084955]}},{"type":"Feature","properties":{"ZIP":"T2Z0J8"},"geometry":{"type":"Point","coordinates":[-113.9460045,50.921081]}},{"type":"Feature","properties":{"ZIP":"T2Z1A7"},"geometry":{"type":"Point","coordinates":[-113.9547375,50.912271000000004]}},{"type":"Feature","properties":{"ZIP":"T2Z2Z2"},"geometry":{"type":"Point","coordinates":[-113.966533,50.914327]}},{"type":"Feature","properties":{"ZIP":"T2Z0R4"},"geometry":{"type":"Point","coordinates":[-113.925242,50.9215145]}},{"type":"Feature","properties":{"ZIP":"T2Z1E8"},"geometry":{"type":"Point","coordinates":[-113.94193100000001,50.9253735]}},{"type":"Feature","properties":{"ZIP":"T2Z1S3"},"geometry":{"type":"Point","coordinates":[-113.98195,50.9065025]}},{"type":"Feature","properties":{"ZIP":"T2Z3X6"},"geometry":{"type":"Point","coordinates":[-113.9682235,50.922421]}},{"type":"Feature","properties":{"ZIP":"T2Z1K2"},"geometry":{"type":"Point","coordinates":[-113.9940265,50.944128]}},{"type":"Feature","properties":{"ZIP":"T2Z4K7"},"geometry":{"type":"Point","coordinates":[-113.9666445,50.9207765]}},{"type":"Feature","properties":{"ZIP":"T2Z3K1"},"geometry":{"type":"Point","coordinates":[-114.0022765,50.9507395]}},{"type":"Feature","properties":{"ZIP":"T2Z3W2"},"geometry":{"type":"Point","coordinates":[-113.96681799999999,50.922512]}},{"type":"Feature","properties":{"ZIP":"T2Z4M1"},"geometry":{"type":"Point","coordinates":[-113.94202150000001,50.912788]}},{"type":"Feature","properties":{"ZIP":"T2Z0G4"},"geometry":{"type":"Point","coordinates":[-113.96102450000001,50.932657500000005]}},{"type":"Feature","properties":{"ZIP":"T2Z1S5"},"geometry":{"type":"Point","coordinates":[-113.9825175,50.9055295]}},{"type":"Feature","properties":{"ZIP":"T2Z2B4"},"geometry":{"type":"Point","coordinates":[-113.998771,50.939502000000005]}},{"type":"Feature","properties":{"ZIP":"T2Z3A6"},"geometry":{"type":"Point","coordinates":[-114.0129545,50.953638]}},{"type":"Feature","properties":{"ZIP":"T2Z4Y8"},"geometry":{"type":"Point","coordinates":[-113.96773099999999,50.926019]}},{"type":"Feature","properties":{"ZIP":"T2Z0S8"},"geometry":{"type":"Point","coordinates":[-113.9600605,50.9166855]}},{"type":"Feature","properties":{"ZIP":"T2Z1P1"},"geometry":{"type":"Point","coordinates":[-113.989931,50.912876499999996]}},{"type":"Feature","properties":{"ZIP":"T2Z1Y6"},"geometry":{"type":"Point","coordinates":[-113.987866,50.9005715]}},{"type":"Feature","properties":{"ZIP":"T2Z2S5"},"geometry":{"type":"Point","coordinates":[-113.978267,50.9225045]}},{"type":"Feature","properties":{"ZIP":"T2Z2X7"},"geometry":{"type":"Point","coordinates":[-113.9708285,50.914011]}},{"type":"Feature","properties":{"ZIP":"T2Z3B8"},"geometry":{"type":"Point","coordinates":[-113.97866350000001,50.926221]}},{"type":"Feature","properties":{"ZIP":"T2Z4E3"},"geometry":{"type":"Point","coordinates":[-113.9685915,50.920756]}},{"type":"Feature","properties":{"ZIP":"T2Z2E8"},"geometry":{"type":"Point","coordinates":[-113.9930675,50.9433625]}},{"type":"Feature","properties":{"ZIP":"T2Z4A6"},"geometry":{"type":"Point","coordinates":[-113.962844,50.922196]}},{"type":"Feature","properties":{"ZIP":"T2Z0B8"},"geometry":{"type":"Point","coordinates":[-113.96144749999999,50.9069785]}},{"type":"Feature","properties":{"ZIP":"T2Z0N3"},"geometry":{"type":"Point","coordinates":[-113.960591,50.931226499999994]}},{"type":"Feature","properties":{"ZIP":"T2Z2M9"},"geometry":{"type":"Point","coordinates":[-114.00903650000001,50.954085]}},{"type":"Feature","properties":{"ZIP":"T2Z3J1"},"geometry":{"type":"Point","coordinates":[-113.981552,50.939739]}},{"type":"Feature","properties":{"ZIP":"T2Z1B3"},"geometry":{"type":"Point","coordinates":[-113.9343175,50.9171345]}},{"type":"Feature","properties":{"ZIP":"T2Z4A7"},"geometry":{"type":"Point","coordinates":[-113.9698105,50.9056365]}},{"type":"Feature","properties":{"ZIP":"T2Z0R7"},"geometry":{"type":"Point","coordinates":[-113.926144,50.9143325]}},{"type":"Feature","properties":{"ZIP":"T2Z1X6"},"geometry":{"type":"Point","coordinates":[-113.9872595,50.9013125]}},{"type":"Feature","properties":{"ZIP":"T2Z3Y1"},"geometry":{"type":"Point","coordinates":[-113.96372,50.9217425]}},{"type":"Feature","properties":{"ZIP":"T2Z0B9"},"geometry":{"type":"Point","coordinates":[-113.9325565,50.9140635]}},{"type":"Feature","properties":{"ZIP":"T2Z2Y2"},"geometry":{"type":"Point","coordinates":[-113.967502,50.9146575]}},{"type":"Feature","properties":{"ZIP":"T2Z4R5"},"geometry":{"type":"Point","coordinates":[-113.94241450000001,50.911920499999994]}},{"type":"Feature","properties":{"ZIP":"T2Z1L9"},"geometry":{"type":"Point","coordinates":[-113.999334,50.944376500000004]}},{"type":"Feature","properties":{"ZIP":"T2Z1R5"},"geometry":{"type":"Point","coordinates":[-113.979817,50.904050999999995]}},{"type":"Feature","properties":{"ZIP":"T2Z1W3"},"geometry":{"type":"Point","coordinates":[-113.98858200000001,50.9022115]}},{"type":"Feature","properties":{"ZIP":"T2Z2V1"},"geometry":{"type":"Point","coordinates":[-113.98075850000001,50.924536]}},{"type":"Feature","properties":{"ZIP":"T2Z4S7"},"geometry":{"type":"Point","coordinates":[-113.9670355,50.921807]}},{"type":"Feature","properties":{"ZIP":"T2Z0G7"},"geometry":{"type":"Point","coordinates":[-113.929665,50.915994]}},{"type":"Feature","properties":{"ZIP":"T2Z0R8"},"geometry":{"type":"Point","coordinates":[-113.92599949999999,50.915475]}},{"type":"Feature","properties":{"ZIP":"T2Z1G5"},"geometry":{"type":"Point","coordinates":[-113.929444,50.9230965]}},{"type":"Feature","properties":{"ZIP":"T2Z1N2"},"geometry":{"type":"Point","coordinates":[-113.97930450000001,50.903811000000005]}},{"type":"Feature","properties":{"ZIP":"T2Z4V2"},"geometry":{"type":"Point","coordinates":[-113.9434675,50.9139115]}},{"type":"Feature","properties":{"ZIP":"T2Z0Z5"},"geometry":{"type":"Point","coordinates":[-113.9267515,50.925082]}},{"type":"Feature","properties":{"ZIP":"T2Z1V2"},"geometry":{"type":"Point","coordinates":[-113.987634,50.903881999999996]}},{"type":"Feature","properties":{"ZIP":"T2Z3C2"},"geometry":{"type":"Point","coordinates":[-113.978887,50.9370395]}},{"type":"Feature","properties":{"ZIP":"T2Z3V2"},"geometry":{"type":"Point","coordinates":[-113.963027,50.9185995]}},{"type":"Feature","properties":{"ZIP":"T2Z0P7"},"geometry":{"type":"Point","coordinates":[-113.943415,50.916441500000005]}},{"type":"Feature","properties":{"ZIP":"T2Z2V2"},"geometry":{"type":"Point","coordinates":[-113.9798345,50.926162500000004]}},{"type":"Feature","properties":{"ZIP":"T2Z3E4"},"geometry":{"type":"Point","coordinates":[-113.9694435,50.9131115]}},{"type":"Feature","properties":{"ZIP":"T2Z0R9"},"geometry":{"type":"Point","coordinates":[-113.9527325,50.9088445]}},{"type":"Feature","properties":{"ZIP":"T2Z0X7"},"geometry":{"type":"Point","coordinates":[-113.942298,50.9224155]}},{"type":"Feature","properties":{"ZIP":"T2Z0C2"},"geometry":{"type":"Point","coordinates":[-113.977167,50.932002999999995]}},{"type":"Feature","properties":{"ZIP":"T2Z0J3"},"geometry":{"type":"Point","coordinates":[-113.928433,50.9153965]}},{"type":"Feature","properties":{"ZIP":"T2Z0Z6"},"geometry":{"type":"Point","coordinates":[-113.928703,50.923877000000005]}},{"type":"Feature","properties":{"ZIP":"T2Z1K9"},"geometry":{"type":"Point","coordinates":[-114.0002195,50.9460615]}},{"type":"Feature","properties":{"ZIP":"T2Z1P5"},"geometry":{"type":"Point","coordinates":[-113.97975199999999,50.905544500000005]}},{"type":"Feature","properties":{"ZIP":"T2Z2Y4"},"geometry":{"type":"Point","coordinates":[-113.968676,50.9131535]}},{"type":"Feature","properties":{"ZIP":"T2Z4R7"},"geometry":{"type":"Point","coordinates":[-113.940555,50.912623499999995]}},{"type":"Feature","properties":{"ZIP":"T2Z0K8"},"geometry":{"type":"Point","coordinates":[-113.93055899999999,50.9147455]}},{"type":"Feature","properties":{"ZIP":"T2Z1G8"},"geometry":{"type":"Point","coordinates":[-113.94703999999999,50.925120500000006]}},{"type":"Feature","properties":{"ZIP":"T2Z1N4"},"geometry":{"type":"Point","coordinates":[-113.989832,50.9045335]}},{"type":"Feature","properties":{"ZIP":"T2Z2R8"},"geometry":{"type":"Point","coordinates":[-113.985969,50.9203285]}},{"type":"Feature","properties":{"ZIP":"T2Z3Y4"},"geometry":{"type":"Point","coordinates":[-114.00401,50.9525495]}},{"type":"Feature","properties":{"ZIP":"T2Z0T5"},"geometry":{"type":"Point","coordinates":[-113.9502785,50.920655]}},{"type":"Feature","properties":{"ZIP":"T2Z2E2"},"geometry":{"type":"Point","coordinates":[-113.98819499999999,50.909572499999996]}},{"type":"Feature","properties":{"ZIP":"T2Z0K9"},"geometry":{"type":"Point","coordinates":[-113.92967250000001,50.9144705]}},{"type":"Feature","properties":{"ZIP":"T2Z2A7"},"geometry":{"type":"Point","coordinates":[-113.991163,50.9428355]}},{"type":"Feature","properties":{"ZIP":"T2Z3X2"},"geometry":{"type":"Point","coordinates":[-113.9887905,50.949617]}},{"type":"Feature","properties":{"ZIP":"T2Z4T3"},"geometry":{"type":"Point","coordinates":[-113.94215,50.911711499999996]}},{"type":"Feature","properties":{"ZIP":"T2Z1T2"},"geometry":{"type":"Point","coordinates":[-113.984656,50.902972500000004]}},{"type":"Feature","properties":{"ZIP":"T2Z4V8"},"geometry":{"type":"Point","coordinates":[-113.964136,50.9040895]}},{"type":"Feature","properties":{"ZIP":"T2Z0J5"},"geometry":{"type":"Point","coordinates":[-113.92510949999999,50.9180315]}},{"type":"Feature","properties":{"ZIP":"T2Z2N6"},"geometry":{"type":"Point","coordinates":[-113.98901000000001,50.908803500000005]}},{"type":"Feature","properties":{"ZIP":"T2Z2T2"},"geometry":{"type":"Point","coordinates":[-113.979308,50.9364355]}},{"type":"Feature","properties":{"ZIP":"T2Z4R9"},"geometry":{"type":"Point","coordinates":[-113.94244549999999,50.911615]}},{"type":"Feature","properties":{"ZIP":"T2Z4H6"},"geometry":{"type":"Point","coordinates":[-113.964447,50.9231215]}},{"type":"Feature","properties":{"ZIP":"T2Z4N2"},"geometry":{"type":"Point","coordinates":[-113.96959100000001,50.905941999999996]}},{"type":"Feature","properties":{"ZIP":"T2Z1J3"},"geometry":{"type":"Point","coordinates":[-113.9314935,50.920726]}},{"type":"Feature","properties":{"ZIP":"T2Z0N9"},"geometry":{"type":"Point","coordinates":[-113.9464395,50.9233715]}},{"type":"Feature","properties":{"ZIP":"T2Z0V5"},"geometry":{"type":"Point","coordinates":[-113.9522675,50.925807000000006]}},{"type":"Feature","properties":{"ZIP":"T2Z1V6"},"geometry":{"type":"Point","coordinates":[-113.97124249999999,50.9140255]}},{"type":"Feature","properties":{"ZIP":"T2Z2T3"},"geometry":{"type":"Point","coordinates":[-113.978395,50.9354565]}},{"type":"Feature","properties":{"ZIP":"T2Z4G1"},"geometry":{"type":"Point","coordinates":[-113.960158,50.9155005]}},{"type":"Feature","properties":{"ZIP":"T2Z1M5"},"geometry":{"type":"Point","coordinates":[-113.983475,50.903324]}},{"type":"Feature","properties":{"ZIP":"T2Z3G1"},"geometry":{"type":"Point","coordinates":[-114.0126295,50.955322499999994]}},{"type":"Feature","properties":{"ZIP":"T2Z0B2"},"geometry":{"type":"Point","coordinates":[-113.96222399999999,50.9338975]}},{"type":"Feature","properties":{"ZIP":"T2Z1J7"},"geometry":{"type":"Point","coordinates":[-113.9243645,50.921411]}},{"type":"Feature","properties":{"ZIP":"T2Z1Y3"},"geometry":{"type":"Point","coordinates":[-113.98886999999999,50.901343499999996]}},{"type":"Feature","properties":{"ZIP":"T2Z2X3"},"geometry":{"type":"Point","coordinates":[-113.970579,50.916002]}},{"type":"Feature","properties":{"ZIP":"T2Z4C8"},"geometry":{"type":"Point","coordinates":[-113.94250500000001,50.912324]}},{"type":"Feature","properties":{"ZIP":"T2Z0P1"},"geometry":{"type":"Point","coordinates":[-113.9305025,50.915056500000006]}},{"type":"Feature","properties":{"ZIP":"T2Z2Y8"},"geometry":{"type":"Point","coordinates":[-113.97052099999999,50.9132525]}},{"type":"Feature","properties":{"ZIP":"T2Z4G2"},"geometry":{"type":"Point","coordinates":[-113.960802,50.9152815]}},{"type":"Feature","properties":{"ZIP":"T2Z4S2"},"geometry":{"type":"Point","coordinates":[-113.9336375,50.9152505]}},{"type":"Feature","properties":{"ZIP":"T2Z2V8"},"geometry":{"type":"Point","coordinates":[-114.013542,50.954139]}},{"type":"Feature","properties":{"ZIP":"T2Z0B5"},"geometry":{"type":"Point","coordinates":[-113.9508205,50.9237065]}},{"type":"Feature","properties":{"ZIP":"T2Z1N8"},"geometry":{"type":"Point","coordinates":[-113.97867500000001,50.9060255]}},{"type":"Feature","properties":{"ZIP":"T2Z4K5"},"geometry":{"type":"Point","coordinates":[-113.9686625,50.9058415]}},{"type":"Feature","properties":{"ZIP":"T2Z2E6"},"geometry":{"type":"Point","coordinates":[-113.99369150000001,50.944539500000005]}},{"type":"Feature","properties":{"ZIP":"T2Z4A2"},"geometry":{"type":"Point","coordinates":[-113.9708915,50.94613]}},{"type":"Feature","properties":{"ZIP":"T2Z2W1"},"geometry":{"type":"Point","coordinates":[-114.011182,50.953340999999995]}},{"type":"Feature","properties":{"ZIP":"T2Z3A5"},"geometry":{"type":"Point","coordinates":[-114.0119595,50.953520999999995]}},{"type":"Feature","properties":{"ZIP":"T2Z3G4"},"geometry":{"type":"Point","coordinates":[-114.01282599999999,50.9526645]}},{"type":"Feature","properties":{"ZIP":"T2Z4J1"},"geometry":{"type":"Point","coordinates":[-113.982737,50.933412000000004]}},{"type":"Feature","properties":{"ZIP":"T2Z2S4"},"geometry":{"type":"Point","coordinates":[-113.9784775,50.9228155]}},{"type":"Feature","properties":{"ZIP":"T2Z3T3"},"geometry":{"type":"Point","coordinates":[-114.009237,50.9544935]}},{"type":"Feature","properties":{"ZIP":"T2Z1B1"},"geometry":{"type":"Point","coordinates":[-113.93537,50.918319]}},{"type":"Feature","properties":{"ZIP":"T2Z3C9"},"geometry":{"type":"Point","coordinates":[-113.9706185,50.9138945]}},{"type":"Feature","properties":{"ZIP":"T2Z4A4"},"geometry":{"type":"Point","coordinates":[-113.9727805,50.945038499999995]}},{"type":"Feature","properties":{"ZIP":"T2Z0L5"},"geometry":{"type":"Point","coordinates":[-113.9296305,50.9170075]}},{"type":"Feature","properties":{"ZIP":"T2Z2W3"},"geometry":{"type":"Point","coordinates":[-114.0102195,50.9562745]}},{"type":"Feature","properties":{"ZIP":"T2Z4J2"},"geometry":{"type":"Point","coordinates":[-113.974479,50.939779]}},{"type":"Feature","properties":{"ZIP":"T2Z0N2"},"geometry":{"type":"Point","coordinates":[-113.96195900000001,50.9158345]}},{"type":"Feature","properties":{"ZIP":"T2Z0K1"},"geometry":{"type":"Point","coordinates":[-113.952899,50.924169000000006]}},{"type":"Feature","properties":{"ZIP":"T2Z0P4"},"geometry":{"type":"Point","coordinates":[-113.9305635,50.9144375]}},{"type":"Feature","properties":{"ZIP":"T2Z0V9"},"geometry":{"type":"Point","coordinates":[-113.939833,50.9201925]}},{"type":"Feature","properties":{"ZIP":"T2Z4S5"},"geometry":{"type":"Point","coordinates":[-113.966594,50.9246745]}},{"type":"Feature","properties":{"ZIP":"T2Z1S6"},"geometry":{"type":"Point","coordinates":[-113.9811735,50.906223999999995]}},{"type":"Feature","properties":{"ZIP":"T2Z2W4"},"geometry":{"type":"Point","coordinates":[-114.008431,50.9562605]}},{"type":"Feature","properties":{"ZIP":"T2Z4Y9"},"geometry":{"type":"Point","coordinates":[-114.0006665,50.955988500000004]}},{"type":"Feature","properties":{"ZIP":"T2Z0T1"},"geometry":{"type":"Point","coordinates":[-113.9390895,50.918748]}},{"type":"Feature","properties":{"ZIP":"T2Z1P2"},"geometry":{"type":"Point","coordinates":[-113.977882,50.904951499999996]}},{"type":"Feature","properties":{"ZIP":"T2Z1Y7"},"geometry":{"type":"Point","coordinates":[-113.984699,50.9012075]}},{"type":"Feature","properties":{"ZIP":"T2Z4K9"},"geometry":{"type":"Point","coordinates":[-113.96641199999999,50.922954000000004]}},{"type":"Feature","properties":{"ZIP":"T2Z0W1"},"geometry":{"type":"Point","coordinates":[-113.93715499999999,50.9179025]}},{"type":"Feature","properties":{"ZIP":"T2Z1G4"},"geometry":{"type":"Point","coordinates":[-113.9336705,50.920255499999996]}},{"type":"Feature","properties":{"ZIP":"T2Z2W5"},"geometry":{"type":"Point","coordinates":[-114.01221100000001,50.9532005]}},{"type":"Feature","properties":{"ZIP":"T2Z0J1"},"geometry":{"type":"Point","coordinates":[-113.934053,50.912642500000004]}},{"type":"Feature","properties":{"ZIP":"T2Z0N4"},"geometry":{"type":"Point","coordinates":[-113.996996,50.949399]}},{"type":"Feature","properties":{"ZIP":"T2Z1V1"},"geometry":{"type":"Point","coordinates":[-113.9863765,50.903839500000004]}},{"type":"Feature","properties":{"ZIP":"T2Z3J2"},"geometry":{"type":"Point","coordinates":[-113.984128,50.920711499999996]}},{"type":"Feature","properties":{"ZIP":"T2Z4L1"},"geometry":{"type":"Point","coordinates":[-113.9671305,50.9233385]}},{"type":"Feature","properties":{"ZIP":"T2Z2L8"},"geometry":{"type":"Point","coordinates":[-113.977934,50.9206315]}},{"type":"Feature","properties":{"ZIP":"T2Z0C1"},"geometry":{"type":"Point","coordinates":[-113.938615,50.9123885]}},{"type":"Feature","properties":{"ZIP":"T2Z0N5"},"geometry":{"type":"Point","coordinates":[-113.962069,50.921586]}},{"type":"Feature","properties":{"ZIP":"T2Z2Y3"},"geometry":{"type":"Point","coordinates":[-113.971215,50.912771500000005]}},{"type":"Feature","properties":{"ZIP":"T2Z3P9"},"geometry":{"type":"Point","coordinates":[-114.01747549999999,50.953651]}},{"type":"Feature","properties":{"ZIP":"T2Z3W8"},"geometry":{"type":"Point","coordinates":[-113.966905,50.921893499999996]}},{"type":"Feature","properties":{"ZIP":"T2Z4Y1"},"geometry":{"type":"Point","coordinates":[-113.98374100000001,50.925165]}},{"type":"Feature","properties":{"ZIP":"T2Z1G6"},"geometry":{"type":"Point","coordinates":[-113.9255805,50.9222855]}},{"type":"Feature","properties":{"ZIP":"T2Z1X8"},"geometry":{"type":"Point","coordinates":[-113.98889700000001,50.9009715]}},{"type":"Feature","properties":{"ZIP":"T2Z1Z1"},"geometry":{"type":"Point","coordinates":[-113.98634000000001,50.902259]}},{"type":"Feature","properties":{"ZIP":"T2Z3J4"},"geometry":{"type":"Point","coordinates":[-113.985619,50.9157925]}},{"type":"Feature","properties":{"ZIP":"T2Z3V3"},"geometry":{"type":"Point","coordinates":[-113.9666025,50.9187525]}},{"type":"Feature","properties":{"ZIP":"T2Z4E7"},"geometry":{"type":"Point","coordinates":[-113.9656105,50.932738]}},{"type":"Feature","properties":{"ZIP":"T2Z1B6"},"geometry":{"type":"Point","coordinates":[-113.9554855,50.9208905]}},{"type":"Feature","properties":{"ZIP":"T2Z1R7"},"geometry":{"type":"Point","coordinates":[-113.9804785,50.9052395]}},{"type":"Feature","properties":{"ZIP":"T2Z1W5"},"geometry":{"type":"Point","coordinates":[-113.9876715,50.90128]}},{"type":"Feature","properties":{"ZIP":"T2Z2A6"},"geometry":{"type":"Point","coordinates":[-113.994155,50.944035]}},{"type":"Feature","properties":{"ZIP":"T2Z3R1"},"geometry":{"type":"Point","coordinates":[-114.018002,50.954431]}},{"type":"Feature","properties":{"ZIP":"T2Z4Y2"},"geometry":{"type":"Point","coordinates":[-113.948906,50.914095]}},{"type":"Feature","properties":{"ZIP":"T2Z4Z6"},"geometry":{"type":"Point","coordinates":[-113.966271,50.907253499999996]}},{"type":"Feature","properties":{"ZIP":"T2Z0Z8"},"geometry":{"type":"Point","coordinates":[-113.940184,50.9230375]}},{"type":"Feature","properties":{"ZIP":"T2Z2Y5"},"geometry":{"type":"Point","coordinates":[-113.9710035,50.913810999999995]}},{"type":"Feature","properties":{"ZIP":"T2Z3Z6"},"geometry":{"type":"Point","coordinates":[-113.966447,50.9233365]}},{"type":"Feature","properties":{"ZIP":"T2Z0W5"},"geometry":{"type":"Point","coordinates":[-113.92532349999999,50.9223725]}},{"type":"Feature","properties":{"ZIP":"T2Z4H3"},"geometry":{"type":"Point","coordinates":[-113.9710935,50.9417435]}},{"type":"Feature","properties":{"ZIP":"T2Z4N1"},"geometry":{"type":"Point","coordinates":[-113.96190849999999,50.915236500000006]}},{"type":"Feature","properties":{"ZIP":"T2Z0X9"},"geometry":{"type":"Point","coordinates":[-113.9385625,50.919217]}},{"type":"Feature","properties":{"ZIP":"T2Z1N5"},"geometry":{"type":"Point","coordinates":[-113.9817695,50.9041815]}},{"type":"Feature","properties":{"ZIP":"T2Z3H3"},"geometry":{"type":"Point","coordinates":[-113.9793875,50.9296]}},{"type":"Feature","properties":{"ZIP":"T2Z3S5"},"geometry":{"type":"Point","coordinates":[-113.96666350000001,50.922779500000004]}},{"type":"Feature","properties":{"ZIP":"T2Z1V5"},"geometry":{"type":"Point","coordinates":[-113.9888395,50.905463499999996]}},{"type":"Feature","properties":{"ZIP":"T2Z2E3"},"geometry":{"type":"Point","coordinates":[-113.98785799999999,50.909368]}},{"type":"Feature","properties":{"ZIP":"T2Z0A8"},"geometry":{"type":"Point","coordinates":[-113.952812,50.9152735]}},{"type":"Feature","properties":{"ZIP":"T2Z4H9"},"geometry":{"type":"Point","coordinates":[-113.96592000000001,50.9243965]}},{"type":"Feature","properties":{"ZIP":"T2Z1K1"},"geometry":{"type":"Point","coordinates":[-113.92711449999999,50.921927]}},{"type":"Feature","properties":{"ZIP":"T2Z0P2"},"geometry":{"type":"Point","coordinates":[-113.92564250000001,50.918154]}},{"type":"Feature","properties":{"ZIP":"T2Z1R1"},"geometry":{"type":"Point","coordinates":[-113.979677,50.9080525]}},{"type":"Feature","properties":{"ZIP":"T2Z0G3"},"geometry":{"type":"Point","coordinates":[-113.96294850000001,50.9067765]}},{"type":"Feature","properties":{"ZIP":"T2Z0X1"},"geometry":{"type":"Point","coordinates":[-113.9320675,50.9227095]}},{"type":"Feature","properties":{"ZIP":"T2Z0Y9"},"geometry":{"type":"Point","coordinates":[-113.932761,50.9196115]}},{"type":"Feature","properties":{"ZIP":"T2Z0Z2"},"geometry":{"type":"Point","coordinates":[-113.96727,50.9103225]}},{"type":"Feature","properties":{"ZIP":"T2Z3T5"},"geometry":{"type":"Point","coordinates":[-114.008918,50.9543185]}},{"type":"Feature","properties":{"ZIP":"T2Z1B2"},"geometry":{"type":"Point","coordinates":[-113.94641949999999,50.921150999999995]}},{"type":"Feature","properties":{"ZIP":"T2Z3W4"},"geometry":{"type":"Point","coordinates":[-113.98565500000001,50.949498500000004]}},{"type":"Feature","properties":{"ZIP":"T2Z0A1"},"geometry":{"type":"Point","coordinates":[-113.96961,50.935408499999994]}},{"type":"Feature","properties":{"ZIP":"T2Z0Z3"},"geometry":{"type":"Point","coordinates":[-113.9259605,50.9216405]}},{"type":"Feature","properties":{"ZIP":"T2Z0A2"},"geometry":{"type":"Point","coordinates":[-113.9519535,50.9154935]}},{"type":"Feature","properties":{"ZIP":"T2Z2R5"},"geometry":{"type":"Point","coordinates":[-113.9856375,50.91788]}},{"type":"Feature","properties":{"ZIP":"T2Z3J3"},"geometry":{"type":"Point","coordinates":[-114.00357650000001,50.950288]}},{"type":"Feature","properties":{"ZIP":"T2Z0K6"},"geometry":{"type":"Point","coordinates":[-113.9884015,50.949405]}},{"type":"Feature","properties":{"ZIP":"T2Z4M8"},"geometry":{"type":"Point","coordinates":[-113.975746,51.0379085]}},{"type":"Feature","properties":{"ZIP":"T2Z4S8"},"geometry":{"type":"Point","coordinates":[-113.9970195,50.956069]}},{"type":"Feature","properties":{"ZIP":"T2Z0M2"},"geometry":{"type":"Point","coordinates":[-113.95604,50.911496]}},{"type":"Feature","properties":{"ZIP":"T2Z3S4"},"geometry":{"type":"Point","coordinates":[-113.9682435,50.923345]}},{"type":"Feature","properties":{"ZIP":"T2Z0Z9"},"geometry":{"type":"Point","coordinates":[-113.9431865,50.923812999999996]}},{"type":"Feature","properties":{"ZIP":"T2Z2E4"},"geometry":{"type":"Point","coordinates":[-113.9918745,50.94734699999999]}},{"type":"Feature","properties":{"ZIP":"T2Z3G3"},"geometry":{"type":"Point","coordinates":[-114.012112,50.952667500000004]}},{"type":"Feature","properties":{"ZIP":"T2Z4C9"},"geometry":{"type":"Point","coordinates":[-114.11798049999999,50.956334999999996]}},{"type":"Feature","properties":{"ZIP":"T2Z0M9"},"geometry":{"type":"Point","coordinates":[-113.9617975,50.918765]}},{"type":"Feature","properties":{"ZIP":"T2Z0X6"},"geometry":{"type":"Point","coordinates":[-113.9453145,50.9240915]}},{"type":"Feature","properties":{"ZIP":"T2Z3V4"},"geometry":{"type":"Point","coordinates":[-113.9668425,50.921673]}},{"type":"Feature","properties":{"ZIP":"T2Z4L4"},"geometry":{"type":"Point","coordinates":[-113.938639,50.910261500000004]}},{"type":"Feature","properties":{"ZIP":"T2Z1C8"},"geometry":{"type":"Point","coordinates":[-113.958673,50.9119285]}},{"type":"Feature","properties":{"ZIP":"T2Z1H9"},"geometry":{"type":"Point","coordinates":[-113.92717250000001,50.9229755]}}]}