{"type":"FeatureCollection","features":[{"type":"Feature","properties":{"ZIP":"T5B4E7","VERTICES":12},"geometry":{"type":"Point","coordinates":[-113.503435,53.546203500000004]}},{"type":"Feature","properties":{"ZIP":"T5B1H1","VERTICES":12},"geometry":{"type":"Point","coordinates":[-113.47832,53.5335525]}},{"type":"Feature","properties":{"ZIP":"T5B3W5","VERTICES":12},"geometry":{"type":"Point","coordinates":[-113.509003,53.5510825]}},{"type":"Feature","properties":{"ZIP":"T5B2Y1","VERTICES":12},"geometry":{"type":"Point","coordinates":[-113.49661800000001,53.541588000000004]}},{"type":"Feature","properties":{"ZIP":"T5B4C2","VERTICES":11},"geometry":{"type":"Point","coordinates":[-113.4811695,53.57572]}},{"type":"Feature","properties":{"ZIP":"T5B4C4","VERTICES":11},"geometry":{"type":"Point","coordinates":[-113.481243,53.5775185]}},{"type":"Feature","properties":{"ZIP":"T5B3P5","VERTICES":11},"geometry":{"type":"Point","coordinates":[-113.4766575,53.561910499999996]}},{"type":"Feature","properties":{"ZIP":"T5B3S9","VERTICES":11},"geometry":{"type":"Point","coordinates":[-113.476196,53.5790725]}},{"type":"Feature","properties":{"ZIP":"T5B0H6","VERTICES":11},"geometry":{"type":"Point","coordinates":[-113.4625675,53.5607825]}},{"type":"Feature","properties":{"ZIP":"T5B1H5","VERTICES":11},"geometry":{"type":"Point","coordinates":[-113.481206,53.5348885]}},{"type":"Feature","properties":{"ZIP":"T5B3Z3","VERTICES":11},"geometry":{"type":"Point","coordinates":[-113.53274049999999,53.524663]}},{"type":"Feature","properties":{"ZIP":"T5B3N8","VERTICES":10},"geometry":{"type":"Point","coordinates":[-113.474415,53.5775045]}},{"type":"Feature","properties":{"ZIP":"T5B3N9","VERTICES":10},"geometry":{"type":"Point","coordinates":[-113.474415,53.5775045]}},{"type":"Feature","properties":{"ZIP":"T5B1H3","VERTICES":10},"geometry":{"type":"Point","coordinates":[-113.480028,53.5342615]}},{"type":"Feature","properties":{"ZIP":"T5B4A2","VERTICES":10},"geometry":{"type":"Point","coordinates":[-113.4809865,53.562259499999996]}},{"type":"Feature","properties":{"ZIP":"T5B3M1","VERTICES":10},"geometry":{"type":"Point","coordinates":[-113.4748,53.565034]}},{"type":"Feature","properties":{"ZIP":"T5B2G6","VERTICES":10},"geometry":{"type":"Point","coordinates":[-113.45953349999999,53.574365]}},{"type":"Feature","properties":{"ZIP":"T5B3M2","VERTICES":10},"geometry":{"type":"Point","coordinates":[-113.4748,53.565034]}},{"type":"Feature","properties":{"ZIP":"T5B3P8","VERTICES":10},"geometry":{"type":"Point","coordinates":[-113.476676,53.563511000000005]}},{"type":"Feature","properties":{"ZIP":"T5B3S1","VERTICES":10},"geometry":{"type":"Point","coordinates":[-113.47618800000001,53.572751499999995]}},{"type":"Feature","properties":{"ZIP":"T5B1K7","VERTICES":10},"geometry":{"type":"Point","coordinates":[-113.518005,53.503862]}},{"type":"Feature","properties":{"ZIP":"T5B3M5","VERTICES":10},"geometry":{"type":"Point","coordinates":[-113.4748155,53.568107499999996]}},{"type":"Feature","properties":{"ZIP":"T5B1R3","VERTICES":10},"geometry":{"type":"Point","coordinates":[-113.44258450000001,53.562073999999996]}},{"type":"Feature","properties":{"ZIP":"T5B1G2","VERTICES":9},"geometry":{"type":"Point","coordinates":[-113.481205,53.5815755]}},{"type":"Feature","properties":{"ZIP":"T5B3K2","VERTICES":9},"geometry":{"type":"Point","coordinates":[-113.531744,53.5206575]}},{"type":"Feature","properties":{"ZIP":"T5B3S4","VERTICES":9},"geometry":{"type":"Point","coordinates":[-113.47618800000001,53.5743325]}},{"type":"Feature","properties":{"ZIP":"T5B3X3","VERTICES":9},"geometry":{"type":"Point","coordinates":[-113.5197335,53.5256325]}},{"type":"Feature","properties":{"ZIP":"T5B1S6","VERTICES":9},"geometry":{"type":"Point","coordinates":[-113.447634,53.574275]}},{"type":"Feature","properties":{"ZIP":"T5B2Z8","VERTICES":9},"geometry":{"type":"Point","coordinates":[-113.504457,53.547597499999995]}},{"type":"Feature","properties":{"ZIP":"T5B2H3","VERTICES":9},"geometry":{"type":"Point","coordinates":[-113.46000599999999,53.579060999999996]}},{"type":"Feature","properties":{"ZIP":"T5B3S5","VERTICES":9},"geometry":{"type":"Point","coordinates":[-113.4761995,53.5759195]}},{"type":"Feature","properties":{"ZIP":"T5B4B1","VERTICES":9},"geometry":{"type":"Point","coordinates":[-113.48119700000001,53.5681205]}},{"type":"Feature","properties":{"ZIP":"T5B1S7","VERTICES":9},"geometry":{"type":"Point","coordinates":[-113.447634,53.5742755]}},{"type":"Feature","properties":{"ZIP":"T5B4C3","VERTICES":9},"geometry":{"type":"Point","coordinates":[-113.48124250000001,53.5774615]}},{"type":"Feature","properties":{"ZIP":"T5B1V1","VERTICES":9},"geometry":{"type":"Point","coordinates":[-113.5321615,53.5062885]}},{"type":"Feature","properties":{"ZIP":"T5B3R4","VERTICES":9},"geometry":{"type":"Point","coordinates":[-113.4767185,53.568117]}},{"type":"Feature","properties":{"ZIP":"T5B1R6","VERTICES":9},"geometry":{"type":"Point","coordinates":[-113.4440745,53.5642435]}},{"type":"Feature","properties":{"ZIP":"T5B3X5","VERTICES":9},"geometry":{"type":"Point","coordinates":[-113.499979,53.544450499999996]}},{"type":"Feature","properties":{"ZIP":"T5B3T8","VERTICES":9},"geometry":{"type":"Point","coordinates":[-113.502664,53.5490285]}},{"type":"Feature","properties":{"ZIP":"T5B3Y8","VERTICES":9},"geometry":{"type":"Point","coordinates":[-113.5304485,53.525033]}},{"type":"Feature","properties":{"ZIP":"T5B1N9","VERTICES":9},"geometry":{"type":"Point","coordinates":[-113.444557,53.567415499999996]}},{"type":"Feature","properties":{"ZIP":"T5B2P3","VERTICES":9},"geometry":{"type":"Point","coordinates":[-113.502921,53.5472185]}},{"type":"Feature","properties":{"ZIP":"T5B0H4","VERTICES":9},"geometry":{"type":"Point","coordinates":[-113.45815250000001,53.561256]}},{"type":"Feature","properties":{"ZIP":"T5B2L3","VERTICES":9},"geometry":{"type":"Point","coordinates":[-113.4618175,53.5743455]}},{"type":"Feature","properties":{"ZIP":"T5B3P4","VERTICES":9},"geometry":{"type":"Point","coordinates":[-113.4744,53.580278]}},{"type":"Feature","properties":{"ZIP":"T5B2G4","VERTICES":9},"geometry":{"type":"Point","coordinates":[-113.45953750000001,53.5727745]}},{"type":"Feature","properties":{"ZIP":"T5B3A2","VERTICES":9},"geometry":{"type":"Point","coordinates":[-113.504965,53.5482885]}},{"type":"Feature","properties":{"ZIP":"T5B1R8","VERTICES":9},"geometry":{"type":"Point","coordinates":[-113.4450135,53.565625999999995]}},{"type":"Feature","properties":{"ZIP":"T5B1H4","VERTICES":9},"geometry":{"type":"Point","coordinates":[-113.479771,53.5341945]}},{"type":"Feature","properties":{"ZIP":"T5B2L4","VERTICES":9},"geometry":{"type":"Point","coordinates":[-113.4618175,53.5743455]}},{"type":"Feature","properties":{"ZIP":"T5B2G5","VERTICES":9},"geometry":{"type":"Point","coordinates":[-113.45953750000001,53.572803]}},{"type":"Feature","properties":{"ZIP":"T5B3Z2","VERTICES":9},"geometry":{"type":"Point","coordinates":[-113.5319465,53.524949]}},{"type":"Feature","properties":{"ZIP":"T5B0A4","VERTICES":9},"geometry":{"type":"Point","coordinates":[-113.51502199999999,53.51205]}},{"type":"Feature","properties":{"ZIP":"T5B3A4","VERTICES":9},"geometry":{"type":"Point","coordinates":[-113.505472,53.5489645]}},{"type":"Feature","properties":{"ZIP":"T5B3G9","VERTICES":9},"geometry":{"type":"Point","coordinates":[-113.5040665,53.549291]}},{"type":"Feature","properties":{"ZIP":"T5B3J6","VERTICES":9},"geometry":{"type":"Point","coordinates":[-113.5274735,53.521152]}},{"type":"Feature","properties":{"ZIP":"T5B2S8","VERTICES":9},"geometry":{"type":"Point","coordinates":[-113.46550300000001,53.574374500000005]}},{"type":"Feature","properties":{"ZIP":"T5B4A5","VERTICES":9},"geometry":{"type":"Point","coordinates":[-113.48118500000001,53.565056]}},{"type":"Feature","properties":{"ZIP":"T5B3T2","VERTICES":9},"geometry":{"type":"Point","coordinates":[-113.4762085,53.5803335]}},{"type":"Feature","properties":{"ZIP":"T5B4B7","VERTICES":9},"geometry":{"type":"Point","coordinates":[-113.4811795,53.572759500000004]}},{"type":"Feature","properties":{"ZIP":"T5B1W3","VERTICES":9},"geometry":{"type":"Point","coordinates":[-113.489703,53.538765]}},{"type":"Feature","properties":{"ZIP":"T5B2V8","VERTICES":9},"geometry":{"type":"Point","coordinates":[-113.5272295,53.5177515]}},{"type":"Feature","properties":{"ZIP":"T5B2J6","VERTICES":9},"geometry":{"type":"Point","coordinates":[-113.49923899999999,53.543562]}},{"type":"Feature","properties":{"ZIP":"T5B3J8","VERTICES":9},"geometry":{"type":"Point","coordinates":[-113.52886849999999,53.520990499999996]}},{"type":"Feature","properties":{"ZIP":"T5B2L8","VERTICES":9},"geometry":{"type":"Point","coordinates":[-113.461814,53.577526000000006]}},{"type":"Feature","properties":{"ZIP":"T5B2T1","VERTICES":9},"geometry":{"type":"Point","coordinates":[-113.46551149999999,53.5754745]}},{"type":"Feature","properties":{"ZIP":"T5B3L2","VERTICES":9},"geometry":{"type":"Point","coordinates":[-113.53751,53.519989499999994]}},{"type":"Feature","properties":{"ZIP":"T5B4A7","VERTICES":9},"geometry":{"type":"Point","coordinates":[-113.4811925,53.566646000000006]}},{"type":"Feature","properties":{"ZIP":"T5B1S4","VERTICES":9},"geometry":{"type":"Point","coordinates":[-113.44763900000001,53.572761]}},{"type":"Feature","properties":{"ZIP":"T5B3N7","VERTICES":9},"geometry":{"type":"Point","coordinates":[-113.474422,53.575927500000006]}},{"type":"Feature","properties":{"ZIP":"T5B2L9","VERTICES":9},"geometry":{"type":"Point","coordinates":[-113.461814,53.5790765]}},{"type":"Feature","properties":{"ZIP":"T5B3R1","VERTICES":9},"geometry":{"type":"Point","coordinates":[-113.476699,53.565048]}},{"type":"Feature","properties":{"ZIP":"T5B2N8","VERTICES":9},"geometry":{"type":"Point","coordinates":[-113.5012475,53.544988000000004]}},{"type":"Feature","properties":{"ZIP":"T5B3M6","VERTICES":9},"geometry":{"type":"Point","coordinates":[-113.4748155,53.568107499999996]}},{"type":"Feature","properties":{"ZIP":"T5B1M2","VERTICES":8},"geometry":{"type":"Point","coordinates":[-113.531344,53.503715]}},{"type":"Feature","properties":{"ZIP":"T5B1S5","VERTICES":8},"geometry":{"type":"Point","coordinates":[-113.44763900000001,53.572761]}},{"type":"Feature","properties":{"ZIP":"T5B2K7","VERTICES":8},"geometry":{"type":"Point","coordinates":[-113.4625495,53.569506000000004]}},{"type":"Feature","properties":{"ZIP":"T5B3Y4","VERTICES":8},"geometry":{"type":"Point","coordinates":[-113.503545,53.547734]}},{"type":"Feature","properties":{"ZIP":"T5B2M1","VERTICES":8},"geometry":{"type":"Point","coordinates":[-113.461814,53.5790765]}},{"type":"Feature","properties":{"ZIP":"T5B3Z7","VERTICES":8},"geometry":{"type":"Point","coordinates":[-113.50783,53.552111499999995]}},{"type":"Feature","properties":{"ZIP":"T5B1K9","VERTICES":8},"geometry":{"type":"Point","coordinates":[-113.51951,53.5038455]}},{"type":"Feature","properties":{"ZIP":"T5B1R4","VERTICES":8},"geometry":{"type":"Point","coordinates":[-113.442544,53.5620165]}},{"type":"Feature","properties":{"ZIP":"T5B2H2","VERTICES":8},"geometry":{"type":"Point","coordinates":[-113.46000599999999,53.579066]}},{"type":"Feature","properties":{"ZIP":"T5B3M7","VERTICES":8},"geometry":{"type":"Point","coordinates":[-113.4748155,53.569631]}},{"type":"Feature","properties":{"ZIP":"T5B4A9","VERTICES":8},"geometry":{"type":"Point","coordinates":[-113.48114849999999,53.5681095]}},{"type":"Feature","properties":{"ZIP":"T5B2K9","VERTICES":8},"geometry":{"type":"Point","coordinates":[-113.462546,53.571182]}},{"type":"Feature","properties":{"ZIP":"T5B3T6","VERTICES":8},"geometry":{"type":"Point","coordinates":[-113.50129050000001,53.5444855]}},{"type":"Feature","properties":{"ZIP":"T5B1N7","VERTICES":8},"geometry":{"type":"Point","coordinates":[-113.4435765,53.565974999999995]}},{"type":"Feature","properties":{"ZIP":"T5B1T9","VERTICES":8},"geometry":{"type":"Point","coordinates":[-113.53224900000001,53.5062895]}},{"type":"Feature","properties":{"ZIP":"T5B3G4","VERTICES":8},"geometry":{"type":"Point","coordinates":[-113.533647,53.521555500000005]}},{"type":"Feature","properties":{"ZIP":"T5B1R5","VERTICES":8},"geometry":{"type":"Point","coordinates":[-113.4440745,53.564244]}},{"type":"Feature","properties":{"ZIP":"T5B0G6","VERTICES":8},"geometry":{"type":"Point","coordinates":[-113.49839850000001,53.541866999999996]}},{"type":"Feature","properties":{"ZIP":"T5B1M4","VERTICES":8},"geometry":{"type":"Point","coordinates":[-113.533018,53.503696500000004]}},{"type":"Feature","properties":{"ZIP":"T5B2S1","VERTICES":8},"geometry":{"type":"Point","coordinates":[-113.46553449999999,53.5679145]}},{"type":"Feature","properties":{"ZIP":"T5B3K4","VERTICES":8},"geometry":{"type":"Point","coordinates":[-113.5331965,53.5204895]}},{"type":"Feature","properties":{"ZIP":"T5B3P1","VERTICES":8},"geometry":{"type":"Point","coordinates":[-113.474426,53.5790605]}},{"type":"Feature","properties":{"ZIP":"T5B2M3","VERTICES":8},"geometry":{"type":"Point","coordinates":[-113.4618295,53.5806265]}},{"type":"Feature","properties":{"ZIP":"T5B2Z9","VERTICES":8},"geometry":{"type":"Point","coordinates":[-113.504448,53.5475925]}},{"type":"Feature","properties":{"ZIP":"T5B3G5","VERTICES":8},"geometry":{"type":"Point","coordinates":[-113.5023845,53.548080999999996]}},{"type":"Feature","properties":{"ZIP":"T5B0B7","VERTICES":8},"geometry":{"type":"Point","coordinates":[-113.51675499999999,53.5116115]}},{"type":"Feature","properties":{"ZIP":"T5B2H4","VERTICES":8},"geometry":{"type":"Point","coordinates":[-113.460029,53.5806145]}},{"type":"Feature","properties":{"ZIP":"T5B2P2","VERTICES":8},"geometry":{"type":"Point","coordinates":[-113.502356,53.5464415]}},{"type":"Feature","properties":{"ZIP":"T5B3S6","VERTICES":8},"geometry":{"type":"Point","coordinates":[-113.4761995,53.5759195]}},{"type":"Feature","properties":{"ZIP":"T5B3E1","VERTICES":8},"geometry":{"type":"Point","coordinates":[-113.5228585,53.520568]}},{"type":"Feature","properties":{"ZIP":"T5B1V5","VERTICES":8},"geometry":{"type":"Point","coordinates":[-113.485225,53.536197]}},{"type":"Feature","properties":{"ZIP":"T5B2T7","VERTICES":8},"geometry":{"type":"Point","coordinates":[-113.465514,53.580622500000004]}},{"type":"Feature","properties":{"ZIP":"T5B3R5","VERTICES":8},"geometry":{"type":"Point","coordinates":[-113.4767185,53.5681165]}},{"type":"Feature","properties":{"ZIP":"T5B1L3","VERTICES":8},"geometry":{"type":"Point","coordinates":[-113.52377100000001,53.5038825]}},{"type":"Feature","properties":{"ZIP":"T5B1R7","VERTICES":8},"geometry":{"type":"Point","coordinates":[-113.4450135,53.565625999999995]}},{"type":"Feature","properties":{"ZIP":"T5B3J3","VERTICES":8},"geometry":{"type":"Point","coordinates":[-113.524598,53.521485]}},{"type":"Feature","properties":{"ZIP":"T5B3E2","VERTICES":8},"geometry":{"type":"Point","coordinates":[-113.524862,53.520365]}},{"type":"Feature","properties":{"ZIP":"T5B3K6","VERTICES":8},"geometry":{"type":"Point","coordinates":[-113.53373500000001,53.520158499999994]}},{"type":"Feature","properties":{"ZIP":"T5B1P2","VERTICES":8},"geometry":{"type":"Point","coordinates":[-113.445468,53.568875000000006]}},{"type":"Feature","properties":{"ZIP":"T5B3R6","VERTICES":8},"geometry":{"type":"Point","coordinates":[-113.4767305,53.569627499999996]}},{"type":"Feature","properties":{"ZIP":"T5B3J4","VERTICES":8},"geometry":{"type":"Point","coordinates":[-113.524722,53.521159999999995]}},{"type":"Feature","properties":{"ZIP":"T5B3S8","VERTICES":8},"geometry":{"type":"Point","coordinates":[-113.47626199999999,53.577451499999995]}},{"type":"Feature","properties":{"ZIP":"T5B4B4","VERTICES":8},"geometry":{"type":"Point","coordinates":[-113.48123050000001,53.5713365]}},{"type":"Feature","properties":{"ZIP":"T5B3Z1","VERTICES":8},"geometry":{"type":"Point","coordinates":[-113.505352,53.5498405]}},{"type":"Feature","properties":{"ZIP":"T5B1L5","VERTICES":8},"geometry":{"type":"Point","coordinates":[-113.5229415,53.5038075]}},{"type":"Feature","properties":{"ZIP":"T5B3N3","VERTICES":8},"geometry":{"type":"Point","coordinates":[-113.474417,53.573133999999996]}},{"type":"Feature","properties":{"ZIP":"T5B4B5","VERTICES":8},"geometry":{"type":"Point","coordinates":[-113.481232,53.5711685]}},{"type":"Feature","properties":{"ZIP":"T5B1T3","VERTICES":8},"geometry":{"type":"Point","coordinates":[-113.5221325,53.506544500000004]}},{"type":"Feature","properties":{"ZIP":"T5B3E4","VERTICES":8},"geometry":{"type":"Point","coordinates":[-113.52599699999999,53.520286999999996]}},{"type":"Feature","properties":{"ZIP":"T5B4C7","VERTICES":8},"geometry":{"type":"Point","coordinates":[-113.481254,53.580245500000004]}},{"type":"Feature","properties":{"ZIP":"T5B1S1","VERTICES":8},"geometry":{"type":"Point","coordinates":[-113.448002,53.570163]}},{"type":"Feature","properties":{"ZIP":"T5B3X9","VERTICES":8},"geometry":{"type":"Point","coordinates":[-113.52389199999999,53.525249]}},{"type":"Feature","properties":{"ZIP":"T5B4B6","VERTICES":8},"geometry":{"type":"Point","coordinates":[-113.481243,53.57276]}},{"type":"Feature","properties":{"ZIP":"T5B1T4","VERTICES":8},"geometry":{"type":"Point","coordinates":[-113.523905,53.506502499999996]}},{"type":"Feature","properties":{"ZIP":"T5B3P7","VERTICES":8},"geometry":{"type":"Point","coordinates":[-113.476676,53.563511000000005]}},{"type":"Feature","properties":{"ZIP":"T5B4C8","VERTICES":8},"geometry":{"type":"Point","coordinates":[-113.481254,53.580245500000004]}},{"type":"Feature","properties":{"ZIP":"T5B2P7","VERTICES":8},"geometry":{"type":"Point","coordinates":[-113.50399949999999,53.548684]}},{"type":"Feature","properties":{"ZIP":"T5B1N3","VERTICES":8},"geometry":{"type":"Point","coordinates":[-113.4414745,53.562888]}},{"type":"Feature","properties":{"ZIP":"T5B2L7","VERTICES":8},"geometry":{"type":"Point","coordinates":[-113.461814,53.577526000000006]}},{"type":"Feature","properties":{"ZIP":"T5B1P7","VERTICES":8},"geometry":{"type":"Point","coordinates":[-113.446083,53.5727635]}},{"type":"Feature","properties":{"ZIP":"T5B2G8","VERTICES":8},"geometry":{"type":"Point","coordinates":[-113.459953,53.5760435]}},{"type":"Feature","properties":{"ZIP":"T5B3A9","VERTICES":8},"geometry":{"type":"Point","coordinates":[-113.52097549999999,53.520032]}},{"type":"Feature","properties":{"ZIP":"T5B3H2","VERTICES":8},"geometry":{"type":"Point","coordinates":[-113.5047155,53.549932]}},{"type":"Feature","properties":{"ZIP":"T5B4A6","VERTICES":8},"geometry":{"type":"Point","coordinates":[-113.48118500000001,53.5650555]}},{"type":"Feature","properties":{"ZIP":"T5B0E4","VERTICES":8},"geometry":{"type":"Point","coordinates":[-113.4547495,53.5618855]}},{"type":"Feature","properties":{"ZIP":"T5B1L9","VERTICES":8},"geometry":{"type":"Point","coordinates":[-113.5297215,53.503733]}},{"type":"Feature","properties":{"ZIP":"T5B1H8","VERTICES":8},"geometry":{"type":"Point","coordinates":[-113.4829215,53.5356175]}},{"type":"Feature","properties":{"ZIP":"T5B1W4","VERTICES":8},"geometry":{"type":"Point","coordinates":[-113.491073,53.5395805]}},{"type":"Feature","properties":{"ZIP":"T5B3B1","VERTICES":8},"geometry":{"type":"Point","coordinates":[-113.521777,53.5200105]}},{"type":"Feature","properties":{"ZIP":"T5B1M1","VERTICES":8},"geometry":{"type":"Point","coordinates":[-113.5321375,53.5037915]}},{"type":"Feature","properties":{"ZIP":"T5B3K1","VERTICES":8},"geometry":{"type":"Point","coordinates":[-113.530378,53.5208155]}},{"type":"Feature","properties":{"ZIP":"T5B3Y3","VERTICES":8},"geometry":{"type":"Point","coordinates":[-113.5258475,53.5252905]}},{"type":"Feature","properties":{"ZIP":"T5B4B9","VERTICES":8},"geometry":{"type":"Point","coordinates":[-113.4812505,53.574182]}},{"type":"Feature","properties":{"ZIP":"T5B1N5","VERTICES":8},"geometry":{"type":"Point","coordinates":[-113.442633,53.5645875]}},{"type":"Feature","properties":{"ZIP":"T5B2T2","VERTICES":8},"geometry":{"type":"Point","coordinates":[-113.465514,53.577513999999994]}},{"type":"Feature","properties":{"ZIP":"T5B3G2","VERTICES":8},"geometry":{"type":"Point","coordinates":[-113.5305585,53.519879]}},{"type":"Feature","properties":{"ZIP":"T5B3S3","VERTICES":8},"geometry":{"type":"Point","coordinates":[-113.47618800000001,53.574332]}},{"type":"Feature","properties":{"ZIP":"T5B2Y3","VERTICES":7},"geometry":{"type":"Point","coordinates":[-113.46880300000001,53.565039999999996]}},{"type":"Feature","properties":{"ZIP":"T5B3C7","VERTICES":7},"geometry":{"type":"Point","coordinates":[-113.5203365,53.520765999999995]}},{"type":"Feature","properties":{"ZIP":"T5B2T3","VERTICES":7},"geometry":{"type":"Point","coordinates":[-113.465514,53.577514]}},{"type":"Feature","properties":{"ZIP":"T5B2Z7","VERTICES":7},"geometry":{"type":"Point","coordinates":[-113.50391400000001,53.546902]}},{"type":"Feature","properties":{"ZIP":"T5B3L4","VERTICES":7},"geometry":{"type":"Point","coordinates":[-113.50588450000001,53.550228000000004]}},{"type":"Feature","properties":{"ZIP":"T5B3B3","VERTICES":7},"geometry":{"type":"Point","coordinates":[-113.5239415,53.519969]}},{"type":"Feature","properties":{"ZIP":"T5B0G1","VERTICES":7},"geometry":{"type":"Point","coordinates":[-113.46571349999999,53.5612105]}},{"type":"Feature","properties":{"ZIP":"T5B1G3","VERTICES":7},"geometry":{"type":"Point","coordinates":[-113.46193550000001,53.582234]}},{"type":"Feature","properties":{"ZIP":"T5B1M3","VERTICES":7},"geometry":{"type":"Point","coordinates":[-113.53358349999999,53.5037755]}},{"type":"Feature","properties":{"ZIP":"T5B2B2","VERTICES":7},"geometry":{"type":"Point","coordinates":[-113.45160000000001,53.560069]}},{"type":"Feature","properties":{"ZIP":"T5B2Y4","VERTICES":7},"geometry":{"type":"Point","coordinates":[-113.49782400000001,53.542317]}},{"type":"Feature","properties":{"ZIP":"T5B3C8","VERTICES":7},"geometry":{"type":"Point","coordinates":[-113.52181949999999,53.5206345]}},{"type":"Feature","properties":{"ZIP":"T5B2M2","VERTICES":7},"geometry":{"type":"Point","coordinates":[-113.4618295,53.5806265]}},{"type":"Feature","properties":{"ZIP":"T5B2T4","VERTICES":7},"geometry":{"type":"Point","coordinates":[-113.465514,53.579068500000005]}},{"type":"Feature","properties":{"ZIP":"T5B3X4","VERTICES":7},"geometry":{"type":"Point","coordinates":[-113.5184945,53.525318999999996]}},{"type":"Feature","properties":{"ZIP":"T5B2L1","VERTICES":7},"geometry":{"type":"Point","coordinates":[-113.462546,53.5712235]}},{"type":"Feature","properties":{"ZIP":"T5B3C9","VERTICES":7},"geometry":{"type":"Point","coordinates":[-113.5232575,53.520506499999996]}},{"type":"Feature","properties":{"ZIP":"T5B3Y6","VERTICES":7},"geometry":{"type":"Point","coordinates":[-113.5278865,53.524887]}},{"type":"Feature","properties":{"ZIP":"T5B1N8","VERTICES":7},"geometry":{"type":"Point","coordinates":[-113.443494,53.56585200000001]}},{"type":"Feature","properties":{"ZIP":"T5B3L7","VERTICES":7},"geometry":{"type":"Point","coordinates":[-113.474791,53.562388999999996]}},{"type":"Feature","properties":{"ZIP":"T5B1J5","VERTICES":7},"geometry":{"type":"Point","coordinates":[-113.53335949999999,53.5018455]}},{"type":"Feature","properties":{"ZIP":"T5B3W2","VERTICES":7},"geometry":{"type":"Point","coordinates":[-113.507735,53.5495315]}},{"type":"Feature","properties":{"ZIP":"T5B4A1","VERTICES":7},"geometry":{"type":"Point","coordinates":[-113.4803575,53.562079499999996]}},{"type":"Feature","properties":{"ZIP":"T5B2H5","VERTICES":7},"geometry":{"type":"Point","coordinates":[-113.4600295,53.5806915]}},{"type":"Feature","properties":{"ZIP":"T5B2W8","VERTICES":7},"geometry":{"type":"Point","coordinates":[-113.50121150000001,53.546919]}},{"type":"Feature","properties":{"ZIP":"T5B3B6","VERTICES":7},"geometry":{"type":"Point","coordinates":[-113.49951250000001,53.543163]}},{"type":"Feature","properties":{"ZIP":"T5B2Y7","VERTICES":7},"geometry":{"type":"Point","coordinates":[-113.49989550000001,53.543412000000004]}},{"type":"Feature","properties":{"ZIP":"T5B3Y9","VERTICES":7},"geometry":{"type":"Point","coordinates":[-113.52946750000001,53.5248135]}},{"type":"Feature","properties":{"ZIP":"T5B0A2","VERTICES":7},"geometry":{"type":"Point","coordinates":[-113.5150175,53.511614]}},{"type":"Feature","properties":{"ZIP":"T5B3G7","VERTICES":7},"geometry":{"type":"Point","coordinates":[-113.5354565,53.5194255]}},{"type":"Feature","properties":{"ZIP":"T5B3W3","VERTICES":7},"geometry":{"type":"Point","coordinates":[-113.47798850000001,53.5759095]}},{"type":"Feature","properties":{"ZIP":"T5B2P4","VERTICES":7},"geometry":{"type":"Point","coordinates":[-113.5029255,53.547146999999995]}},{"type":"Feature","properties":{"ZIP":"T5B3B7","VERTICES":7},"geometry":{"type":"Point","coordinates":[-113.499241,53.543110999999996]}},{"type":"Feature","properties":{"ZIP":"T5B3X7","VERTICES":7},"geometry":{"type":"Point","coordinates":[-113.5215145,53.52518]}},{"type":"Feature","properties":{"ZIP":"T5B0H5","VERTICES":7},"geometry":{"type":"Point","coordinates":[-113.460275,53.560880499999996]}},{"type":"Feature","properties":{"ZIP":"T5B1T2","VERTICES":7},"geometry":{"type":"Point","coordinates":[-113.522293,53.5065435]}},{"type":"Feature","properties":{"ZIP":"T5B3K7","VERTICES":7},"geometry":{"type":"Point","coordinates":[-113.5346345,53.520323000000005]}},{"type":"Feature","properties":{"ZIP":"T5B3V1","VERTICES":7},"geometry":{"type":"Point","coordinates":[-113.50408200000001,53.54602]}},{"type":"Feature","properties":{"ZIP":"T5B1V8","VERTICES":7},"geometry":{"type":"Point","coordinates":[-113.4865795,53.536859]}},{"type":"Feature","properties":{"ZIP":"T5B2N2","VERTICES":7},"geometry":{"type":"Point","coordinates":[-113.464039,53.5681115]}},{"type":"Feature","properties":{"ZIP":"T5B3G8","VERTICES":7},"geometry":{"type":"Point","coordinates":[-113.53519650000001,53.519464]}},{"type":"Feature","properties":{"ZIP":"T5B4H1","VERTICES":7},"geometry":{"type":"Point","coordinates":[-113.4604755,53.5743755]}},{"type":"Feature","properties":{"ZIP":"T5B1R9","VERTICES":7},"geometry":{"type":"Point","coordinates":[-113.44604799999999,53.5672705]}},{"type":"Feature","properties":{"ZIP":"T5B2P5","VERTICES":7},"geometry":{"type":"Point","coordinates":[-113.463669,53.579062]}},{"type":"Feature","properties":{"ZIP":"T5B3J5","VERTICES":7},"geometry":{"type":"Point","coordinates":[-113.5259925,53.521324]}},{"type":"Feature","properties":{"ZIP":"T5B3X8","VERTICES":7},"geometry":{"type":"Point","coordinates":[-113.5227295,53.525465]}},{"type":"Feature","properties":{"ZIP":"T5B3P6","VERTICES":7},"geometry":{"type":"Point","coordinates":[-113.4766575,53.56191]}},{"type":"Feature","properties":{"ZIP":"T5B3V2","VERTICES":7},"geometry":{"type":"Point","coordinates":[-113.5052035,53.546735]}},{"type":"Feature","properties":{"ZIP":"T5B2N4","VERTICES":7},"geometry":{"type":"Point","coordinates":[-113.500182,53.542970999999994]}},{"type":"Feature","properties":{"ZIP":"T5B2V6","VERTICES":7},"geometry":{"type":"Point","coordinates":[-113.5257795,53.517835000000005]}},{"type":"Feature","properties":{"ZIP":"T5B4H2","VERTICES":7},"geometry":{"type":"Point","coordinates":[-113.4586395,53.5769225]}},{"type":"Feature","properties":{"ZIP":"T5B2X2","VERTICES":7},"geometry":{"type":"Point","coordinates":[-113.537566,53.5171565]}},{"type":"Feature","properties":{"ZIP":"T5B3C1","VERTICES":7},"geometry":{"type":"Point","coordinates":[-113.5006825,53.543963000000005]}},{"type":"Feature","properties":{"ZIP":"T5B3N4","VERTICES":7},"geometry":{"type":"Point","coordinates":[-113.474426,53.574338]}},{"type":"Feature","properties":{"ZIP":"T5B3T1","VERTICES":7},"geometry":{"type":"Point","coordinates":[-113.476208,53.5803095]}},{"type":"Feature","properties":{"ZIP":"T5B1W2","VERTICES":7},"geometry":{"type":"Point","coordinates":[-113.45124000000001,53.57011]}},{"type":"Feature","properties":{"ZIP":"T5B3H1","VERTICES":7},"geometry":{"type":"Point","coordinates":[-113.53662,53.519337]}},{"type":"Feature","properties":{"ZIP":"T5B0E2","VERTICES":7},"geometry":{"type":"Point","coordinates":[-113.45214250000001,53.5627365]}},{"type":"Feature","properties":{"ZIP":"T5B2J5","VERTICES":7},"geometry":{"type":"Point","coordinates":[-113.50014300000001,53.5434585]}},{"type":"Feature","properties":{"ZIP":"T5B2X4","VERTICES":7},"geometry":{"type":"Point","coordinates":[-113.53895700000001,53.5170765]}},{"type":"Feature","properties":{"ZIP":"T5B3C2","VERTICES":7},"geometry":{"type":"Point","coordinates":[-113.5335975,53.5199675]}},{"type":"Feature","properties":{"ZIP":"T5B3N5","VERTICES":7},"geometry":{"type":"Point","coordinates":[-113.47442649999999,53.5744615]}},{"type":"Feature","properties":{"ZIP":"T5B3V5","VERTICES":7},"geometry":{"type":"Point","coordinates":[-113.4782285,53.569640500000006]}},{"type":"Feature","properties":{"ZIP":"T5B3Z4","VERTICES":7},"geometry":{"type":"Point","coordinates":[-113.50738849999999,53.5514735]}},{"type":"Feature","properties":{"ZIP":"T5B3W8","VERTICES":7},"geometry":{"type":"Point","coordinates":[-113.509645,53.551773499999996]}},{"type":"Feature","properties":{"ZIP":"T5B3N6","VERTICES":7},"geometry":{"type":"Point","coordinates":[-113.474422,53.575927500000006]}},{"type":"Feature","properties":{"ZIP":"T5B3Y2","VERTICES":7},"geometry":{"type":"Point","coordinates":[-113.5249675,53.525163500000005]}},{"type":"Feature","properties":{"ZIP":"T5B4B8","VERTICES":7},"geometry":{"type":"Point","coordinates":[-113.48124949999999,53.5742385]}},{"type":"Feature","properties":{"ZIP":"T5B1N4","VERTICES":7},"geometry":{"type":"Point","coordinates":[-113.441475,53.562888]}},{"type":"Feature","properties":{"ZIP":"T5B1T6","VERTICES":7},"geometry":{"type":"Point","coordinates":[-113.5270305,53.506419]}},{"type":"Feature","properties":{"ZIP":"T5B2C8","VERTICES":7},"geometry":{"type":"Point","coordinates":[-113.539466,53.512217500000006]}},{"type":"Feature","properties":{"ZIP":"T5B3P9","VERTICES":7},"geometry":{"type":"Point","coordinates":[-113.476631,53.565045]}},{"type":"Feature","properties":{"ZIP":"T5B3Z5","VERTICES":7},"geometry":{"type":"Point","coordinates":[-113.53419550000001,53.524596]}},{"type":"Feature","properties":{"ZIP":"T5B1P8","VERTICES":7},"geometry":{"type":"Point","coordinates":[-113.44603649999999,53.5727605]}},{"type":"Feature","properties":{"ZIP":"T5B2N7","VERTICES":7},"geometry":{"type":"Point","coordinates":[-113.501193,53.544985]}},{"type":"Feature","properties":{"ZIP":"T5B3H7","VERTICES":7},"geometry":{"type":"Point","coordinates":[-113.520343,53.521647]}},{"type":"Feature","properties":{"ZIP":"T5B3W9","VERTICES":7},"geometry":{"type":"Point","coordinates":[-113.5109285,53.552369]}},{"type":"Feature","properties":{"ZIP":"T5B0E5","VERTICES":7},"geometry":{"type":"Point","coordinates":[-113.456289,53.5621625]}},{"type":"Feature","properties":{"ZIP":"T5B2R6","VERTICES":7},"geometry":{"type":"Point","coordinates":[-113.46548200000001,53.5646605]}},{"type":"Feature","properties":{"ZIP":"T5B3L3","VERTICES":7},"geometry":{"type":"Point","coordinates":[-113.5054655,53.550118499999996]}},{"type":"Feature","properties":{"ZIP":"T5B3Z6","VERTICES":7},"geometry":{"type":"Point","coordinates":[-113.536471,53.524696]}},{"type":"Feature","properties":{"ZIP":"T5B3B2","VERTICES":7},"geometry":{"type":"Point","coordinates":[-113.5233365,53.5200175]}},{"type":"Feature","properties":{"ZIP":"T5B4A8","VERTICES":7},"geometry":{"type":"Point","coordinates":[-113.48118550000001,53.5658595]}},{"type":"Feature","properties":{"ZIP":"T5B3T5","VERTICES":6},"geometry":{"type":"Point","coordinates":[-113.501184,53.5444855]}},{"type":"Feature","properties":{"ZIP":"T5B0R6","VERTICES":6},"geometry":{"type":"Point","coordinates":[-113.46280949999999,53.5704655]}},{"type":"Feature","properties":{"ZIP":"T5B1N6","VERTICES":6},"geometry":{"type":"Point","coordinates":[-113.4424315,53.5644455]}},{"type":"Feature","properties":{"ZIP":"T5B2E4","VERTICES":6},"geometry":{"type":"Point","coordinates":[-113.543421,53.512192999999996]}},{"type":"Feature","properties":{"ZIP":"T5B3G3","VERTICES":6},"geometry":{"type":"Point","coordinates":[-113.5324295,53.519694]}},{"type":"Feature","properties":{"ZIP":"T5B4E6","VERTICES":6},"geometry":{"type":"Point","coordinates":[-113.44847150000001,53.5581485]}},{"type":"Feature","properties":{"ZIP":"T5B0B1","VERTICES":6},"geometry":{"type":"Point","coordinates":[-113.441498,53.561702499999996]}},{"type":"Feature","properties":{"ZIP":"T5B2N9","VERTICES":6},"geometry":{"type":"Point","coordinates":[-113.501736,53.545340499999995]}},{"type":"Feature","properties":{"ZIP":"T5B3H9","VERTICES":6},"geometry":{"type":"Point","coordinates":[-113.497675,53.5428015]}},{"type":"Feature","properties":{"ZIP":"T5B3K3","VERTICES":6},"geometry":{"type":"Point","coordinates":[-113.5017905,53.5469165]}},{"type":"Feature","properties":{"ZIP":"T5B3Y5","VERTICES":6},"geometry":{"type":"Point","coordinates":[-113.5261945,53.524964499999996]}},{"type":"Feature","properties":{"ZIP":"T5B1J3","VERTICES":6},"geometry":{"type":"Point","coordinates":[-113.4430385,53.571152999999995]}},{"type":"Feature","properties":{"ZIP":"T5B3L6","VERTICES":6},"geometry":{"type":"Point","coordinates":[-113.4747915,53.562448]}},{"type":"Feature","properties":{"ZIP":"T5B3Z8","VERTICES":6},"geometry":{"type":"Point","coordinates":[-113.5372625,53.5244555]}},{"type":"Feature","properties":{"ZIP":"T5B0B6","VERTICES":6},"geometry":{"type":"Point","coordinates":[-113.51660000000001,53.509728]}},{"type":"Feature","properties":{"ZIP":"T5B3B4","VERTICES":6},"geometry":{"type":"Point","coordinates":[-113.52589449999999,53.520002]}},{"type":"Feature","properties":{"ZIP":"T5B3J1","VERTICES":6},"geometry":{"type":"Point","coordinates":[-113.52317450000001,53.52165]}},{"type":"Feature","properties":{"ZIP":"T5B3M8","VERTICES":6},"geometry":{"type":"Point","coordinates":[-113.4748155,53.569631]}},{"type":"Feature","properties":{"ZIP":"T5B3T7","VERTICES":6},"geometry":{"type":"Point","coordinates":[-113.47818699999999,53.565055]}},{"type":"Feature","properties":{"ZIP":"T5B2E7","VERTICES":6},"geometry":{"type":"Point","coordinates":[-113.501635,53.546713999999994]}},{"type":"Feature","properties":{"ZIP":"T5B2T5","VERTICES":6},"geometry":{"type":"Point","coordinates":[-113.46551550000001,53.579182]}},{"type":"Feature","properties":{"ZIP":"T5B3W1","VERTICES":6},"geometry":{"type":"Point","coordinates":[-113.47798850000001,53.574334500000006]}},{"type":"Feature","properties":{"ZIP":"T5B1L2","VERTICES":6},"geometry":{"type":"Point","coordinates":[-113.52118300000001,53.503827]}},{"type":"Feature","properties":{"ZIP":"T5B3B5","VERTICES":6},"geometry":{"type":"Point","coordinates":[-113.526286,53.5199245]}},{"type":"Feature","properties":{"ZIP":"T5B4B2","VERTICES":6},"geometry":{"type":"Point","coordinates":[-113.4812205,53.5694735]}},{"type":"Feature","properties":{"ZIP":"T5B4P6","VERTICES":6},"geometry":{"type":"Point","coordinates":[-113.4647825,53.568882]}},{"type":"Feature","properties":{"ZIP":"T5B1H2","VERTICES":6},"geometry":{"type":"Point","coordinates":[-113.44052500000001,53.563570999999996]}},{"type":"Feature","properties":{"ZIP":"T5B2B9","VERTICES":6},"geometry":{"type":"Point","coordinates":[-113.49953500000001,53.5453635]}},{"type":"Feature","properties":{"ZIP":"T5B2L2","VERTICES":6},"geometry":{"type":"Point","coordinates":[-113.461817,53.573325]}},{"type":"Feature","properties":{"ZIP":"T5B3K5","VERTICES":6},"geometry":{"type":"Point","coordinates":[-113.5025565,53.547197999999995]}},{"type":"Feature","properties":{"ZIP":"T5B3P3","VERTICES":6},"geometry":{"type":"Point","coordinates":[-113.47439299999999,53.5803665]}},{"type":"Feature","properties":{"ZIP":"T5B3A1","VERTICES":6},"geometry":{"type":"Point","coordinates":[-113.540697,53.518433]}},{"type":"Feature","properties":{"ZIP":"T5B3G6","VERTICES":6},"geometry":{"type":"Point","coordinates":[-113.533958,53.519558]}},{"type":"Feature","properties":{"ZIP":"T5B0B8","VERTICES":6},"geometry":{"type":"Point","coordinates":[-113.484527,53.53629]}},{"type":"Feature","properties":{"ZIP":"T5B3X6","VERTICES":6},"geometry":{"type":"Point","coordinates":[-113.5005625,53.5446585]}},{"type":"Feature","properties":{"ZIP":"T5B4B3","VERTICES":6},"geometry":{"type":"Point","coordinates":[-113.481224,53.569627499999996]}},{"type":"Feature","properties":{"ZIP":"T5B1V7","VERTICES":6},"geometry":{"type":"Point","coordinates":[-113.448586,53.5660605]}},{"type":"Feature","properties":{"ZIP":"T5B2M5","VERTICES":6},"geometry":{"type":"Point","coordinates":[-113.46179599999999,53.581728999999996]}},{"type":"Feature","properties":{"ZIP":"T5B2V4","VERTICES":6},"geometry":{"type":"Point","coordinates":[-113.524345,53.517917]}},{"type":"Feature","properties":{"ZIP":"T5B3L9","VERTICES":6},"geometry":{"type":"Point","coordinates":[-113.4757335,53.5635045]}},{"type":"Feature","properties":{"ZIP":"T5B4G7","VERTICES":6},"geometry":{"type":"Point","coordinates":[-113.46234,53.5727095]}},{"type":"Feature","properties":{"ZIP":"T5B1L4","VERTICES":6},"geometry":{"type":"Point","coordinates":[-113.525398,53.503865]}},{"type":"Feature","properties":{"ZIP":"T5B3N2","VERTICES":6},"geometry":{"type":"Point","coordinates":[-113.4744145,53.572652000000005]}},{"type":"Feature","properties":{"ZIP":"T5B0A3","VERTICES":6},"geometry":{"type":"Point","coordinates":[-113.5150145,53.511652]}},{"type":"Feature","properties":{"ZIP":"T5B2V5","VERTICES":6},"geometry":{"type":"Point","coordinates":[-113.52470149999999,53.517798]}},{"type":"Feature","properties":{"ZIP":"T5B3R7","VERTICES":6},"geometry":{"type":"Point","coordinates":[-113.4767225,53.569559999999996]}},{"type":"Feature","properties":{"ZIP":"T5B3B9","VERTICES":6},"geometry":{"type":"Point","coordinates":[-113.530789,53.519973]}},{"type":"Feature","properties":{"ZIP":"T5B4V2","VERTICES":6},"geometry":{"type":"Point","coordinates":[-113.4689465,53.5627535]}},{"type":"Feature","properties":{"ZIP":"T5B2C5","VERTICES":6},"geometry":{"type":"Point","coordinates":[-113.45271450000001,53.564977999999996]}},{"type":"Feature","properties":{"ZIP":"T5B3K8","VERTICES":6},"geometry":{"type":"Point","coordinates":[-113.53528,53.519987]}},{"type":"Feature","properties":{"ZIP":"T5B1J8","VERTICES":6},"geometry":{"type":"Point","coordinates":[-113.4429705,53.575637]}},{"type":"Feature","properties":{"ZIP":"T5B3W6","VERTICES":6},"geometry":{"type":"Point","coordinates":[-113.47797800000001,53.5774955]}},{"type":"Feature","properties":{"ZIP":"T5B2J4","VERTICES":6},"geometry":{"type":"Point","coordinates":[-113.46099699999999,53.571603499999995]}},{"type":"Feature","properties":{"ZIP":"T5B1H6","VERTICES":6},"geometry":{"type":"Point","coordinates":[-113.4407495,53.5666545]}},{"type":"Feature","properties":{"ZIP":"T5B3K9","VERTICES":6},"geometry":{"type":"Point","coordinates":[-113.536101,53.520152499999995]}},{"type":"Feature","properties":{"ZIP":"T5B0T5","VERTICES":6},"geometry":{"type":"Point","coordinates":[-113.47839350000001,53.570335]}},{"type":"Feature","properties":{"ZIP":"T5B2V7","VERTICES":6},"geometry":{"type":"Point","coordinates":[-113.526183,53.517717000000005]}},{"type":"Feature","properties":{"ZIP":"T5B3A5","VERTICES":6},"geometry":{"type":"Point","coordinates":[-113.469043,53.5805485]}},{"type":"Feature","properties":{"ZIP":"T5B3W7","VERTICES":6},"geometry":{"type":"Point","coordinates":[-113.477981,53.579060999999996]}},{"type":"Feature","properties":{"ZIP":"T5B1L7","VERTICES":6},"geometry":{"type":"Point","coordinates":[-113.527091,53.503847]}},{"type":"Feature","properties":{"ZIP":"T5B3Y1","VERTICES":6},"geometry":{"type":"Point","coordinates":[-113.50151299999999,53.546164]}},{"type":"Feature","properties":{"ZIP":"T5B1H7","VERTICES":6},"geometry":{"type":"Point","coordinates":[-113.4417305,53.56809]}},{"type":"Feature","properties":{"ZIP":"T5B2C7","VERTICES":6},"geometry":{"type":"Point","coordinates":[-113.53814299999999,53.5122255]}},{"type":"Feature","properties":{"ZIP":"T5B2S9","VERTICES":6},"geometry":{"type":"Point","coordinates":[-113.4655095,53.575134500000004]}},{"type":"Feature","properties":{"ZIP":"T5B3L1","VERTICES":6},"geometry":{"type":"Point","coordinates":[-113.53698750000001,53.519894]}},{"type":"Feature","properties":{"ZIP":"T5B4C9","VERTICES":6},"geometry":{"type":"Point","coordinates":[-113.439151,53.5614845]}},{"type":"Feature","properties":{"ZIP":"T5B1K5","VERTICES":6},"geometry":{"type":"Point","coordinates":[-113.4421615,53.580348]}},{"type":"Feature","properties":{"ZIP":"T5B3C3","VERTICES":6},"geometry":{"type":"Point","coordinates":[-113.53297599999999,53.519927499999994]}},{"type":"Feature","properties":{"ZIP":"T5B0R4","VERTICES":6},"geometry":{"type":"Point","coordinates":[-113.46190999999999,53.570454999999995]}},{"type":"Feature","properties":{"ZIP":"T5B2Z5","VERTICES":6},"geometry":{"type":"Point","coordinates":[-113.50348,53.5461245]}},{"type":"Feature","properties":{"ZIP":"T5B4E1","VERTICES":6},"geometry":{"type":"Point","coordinates":[-113.440566,53.5610715]}},{"type":"Feature","properties":{"ZIP":"T5B0A8","VERTICES":6},"geometry":{"type":"Point","coordinates":[-113.4781,53.5335415]}},{"type":"Feature","properties":{"ZIP":"T5B2G9","VERTICES":6},"geometry":{"type":"Point","coordinates":[-113.459983,53.5775215]}},{"type":"Feature","properties":{"ZIP":"T5B3S2","VERTICES":6},"geometry":{"type":"Point","coordinates":[-113.47618650000001,53.572927500000006]}},{"type":"Feature","properties":{"ZIP":"T5B1T7","VERTICES":6},"geometry":{"type":"Point","coordinates":[-113.5305865,53.5063315]}},{"type":"Feature","properties":{"ZIP":"T5B2E3","VERTICES":6},"geometry":{"type":"Point","coordinates":[-113.5436255,53.512221999999994]}},{"type":"Feature","properties":{"ZIP":"T5B2Z6","VERTICES":6},"geometry":{"type":"Point","coordinates":[-113.4690925,53.574312]}},{"type":"Feature","properties":{"ZIP":"T5B4E5","VERTICES":6},"geometry":{"type":"Point","coordinates":[-113.4474,53.558482]}},{"type":"Feature","properties":{"ZIP":"T5B1W5","VERTICES":6},"geometry":{"type":"Point","coordinates":[-113.4941935,53.538984]}},{"type":"Feature","properties":{"ZIP":"T5B2H1","VERTICES":6},"geometry":{"type":"Point","coordinates":[-113.4599805,53.577232]}},{"type":"Feature","properties":{"ZIP":"T5B3H8","VERTICES":6},"geometry":{"type":"Point","coordinates":[-113.52186549999999,53.521801499999995]}},{"type":"Feature","properties":{"ZIP":"T5B3X1","VERTICES":6},"geometry":{"type":"Point","coordinates":[-113.5102385,53.5520505]}},{"type":"Feature","properties":{"ZIP":"T5B0E7","VERTICES":5},"geometry":{"type":"Point","coordinates":[-113.4631465,53.5612455]}},{"type":"Feature","properties":{"ZIP":"T5B2B1","VERTICES":5},"geometry":{"type":"Point","coordinates":[-113.450681,53.559077]}},{"type":"Feature","properties":{"ZIP":"T5B2R8","VERTICES":5},"geometry":{"type":"Point","coordinates":[-113.46551,53.5659795]}},{"type":"Feature","properties":{"ZIP":"T5B4W6","VERTICES":5},"geometry":{"type":"Point","coordinates":[-113.533815,53.529630499999996]}},{"type":"Feature","properties":{"ZIP":"T5B1J1","VERTICES":5},"geometry":{"type":"Point","coordinates":[-113.4426065,53.5695335]}},{"type":"Feature","properties":{"ZIP":"T5B1T8","VERTICES":5},"geometry":{"type":"Point","coordinates":[-113.4900595,53.539084]}},{"type":"Feature","properties":{"ZIP":"T5B1W6","VERTICES":5},"geometry":{"type":"Point","coordinates":[-113.450591,53.572762499999996]}},{"type":"Feature","properties":{"ZIP":"T5B2W4","VERTICES":5},"geometry":{"type":"Point","coordinates":[-113.5318475,53.5174095]}},{"type":"Feature","properties":{"ZIP":"T5B4L5","VERTICES":5},"geometry":{"type":"Point","coordinates":[-113.4664145,53.576728]}},{"type":"Feature","properties":{"ZIP":"T5B0X9","VERTICES":5},"geometry":{"type":"Point","coordinates":[-113.53638649999999,53.5187715]}},{"type":"Feature","properties":{"ZIP":"T5B1L1","VERTICES":5},"geometry":{"type":"Point","coordinates":[-113.52199350000001,53.503898500000005]}},{"type":"Feature","properties":{"ZIP":"T5B2P1","VERTICES":5},"geometry":{"type":"Point","coordinates":[-113.46365399999999,53.5751325]}},{"type":"Feature","properties":{"ZIP":"T5B2W6","VERTICES":5},"geometry":{"type":"Point","coordinates":[-113.53299799999999,53.517419000000004]}},{"type":"Feature","properties":{"ZIP":"T5B4N3","VERTICES":5},"geometry":{"type":"Point","coordinates":[-113.46274149999999,53.5751255]}},{"type":"Feature","properties":{"ZIP":"T5B2B6","VERTICES":5},"geometry":{"type":"Point","coordinates":[-113.4560975,53.573752999999996]}},{"type":"Feature","properties":{"ZIP":"T5B0S1","VERTICES":5},"geometry":{"type":"Point","coordinates":[-113.46538799999999,53.570423000000005]}},{"type":"Feature","properties":{"ZIP":"T5B1J4","VERTICES":5},"geometry":{"type":"Point","coordinates":[-113.533872,53.502001]}},{"type":"Feature","properties":{"ZIP":"T5B4G1","VERTICES":5},"geometry":{"type":"Point","coordinates":[-113.47104350000001,53.566554]}},{"type":"Feature","properties":{"ZIP":"T5B0Z9","VERTICES":5},"geometry":{"type":"Point","coordinates":[-113.4609095,53.5768005]}},{"type":"Feature","properties":{"ZIP":"T5B2W7","VERTICES":5},"geometry":{"type":"Point","coordinates":[-113.534579,53.517328500000005]}},{"type":"Feature","properties":{"ZIP":"T5B3J2","VERTICES":5},"geometry":{"type":"Point","coordinates":[-113.522983,53.521353000000005]}},{"type":"Feature","properties":{"ZIP":"T5B3M9","VERTICES":5},"geometry":{"type":"Point","coordinates":[-113.47447600000001,53.5712475]}},{"type":"Feature","properties":{"ZIP":"T5B0G8","VERTICES":5},"geometry":{"type":"Point","coordinates":[-113.4773935,53.5610825]}},{"type":"Feature","properties":{"ZIP":"T5B1M5","VERTICES":5},"geometry":{"type":"Point","coordinates":[-113.535293,53.503757]}},{"type":"Feature","properties":{"ZIP":"T5B1S9","VERTICES":5},"geometry":{"type":"Point","coordinates":[-113.5208795,53.5065795]}},{"type":"Feature","properties":{"ZIP":"T5B0S3","VERTICES":5},"geometry":{"type":"Point","coordinates":[-113.4683715,53.570385]}},{"type":"Feature","properties":{"ZIP":"T5B2M4","VERTICES":5},"geometry":{"type":"Point","coordinates":[-113.461799,53.5817095]}},{"type":"Feature","properties":{"ZIP":"T5B4G4","VERTICES":5},"geometry":{"type":"Point","coordinates":[-113.4693175,53.567876]}},{"type":"Feature","properties":{"ZIP":"T5B1A2","VERTICES":5},"geometry":{"type":"Point","coordinates":[-113.4628115,53.5767805]}},{"type":"Feature","properties":{"ZIP":"T5B1Y5","VERTICES":5},"geometry":{"type":"Point","coordinates":[-113.4521045,53.5816665]}},{"type":"Feature","properties":{"ZIP":"T5B3N1","VERTICES":5},"geometry":{"type":"Point","coordinates":[-113.47284350000001,53.572044500000004]}},{"type":"Feature","properties":{"ZIP":"T5B3S7","VERTICES":5},"geometry":{"type":"Point","coordinates":[-113.4762135,53.5777035]}},{"type":"Feature","properties":{"ZIP":"T5B4T5","VERTICES":5},"geometry":{"type":"Point","coordinates":[-113.4664065,53.573550499999996]}},{"type":"Feature","properties":{"ZIP":"T5B1T1","VERTICES":5},"geometry":{"type":"Point","coordinates":[-113.52058349999999,53.5065835]}},{"type":"Feature","properties":{"ZIP":"T5B2C1","VERTICES":5},"geometry":{"type":"Point","coordinates":[-113.45693750000001,53.5791955]}},{"type":"Feature","properties":{"ZIP":"T5B0S7","VERTICES":5},"geometry":{"type":"Point","coordinates":[-113.4724145,53.570334]}},{"type":"Feature","properties":{"ZIP":"T5B1A3","VERTICES":5},"geometry":{"type":"Point","coordinates":[-113.4645965,53.5767285]}},{"type":"Feature","properties":{"ZIP":"T5B2H6","VERTICES":5},"geometry":{"type":"Point","coordinates":[-113.4600035,53.581673]}},{"type":"Feature","properties":{"ZIP":"T5B2W9","VERTICES":5},"geometry":{"type":"Point","coordinates":[-113.4672995,53.577514]}},{"type":"Feature","properties":{"ZIP":"T5B2C2","VERTICES":5},"geometry":{"type":"Point","coordinates":[-113.456916,53.580612]}},{"type":"Feature","properties":{"ZIP":"T5B3E3","VERTICES":5},"geometry":{"type":"Point","coordinates":[-113.524619,53.5204105]}},{"type":"Feature","properties":{"ZIP":"T5B1P3","VERTICES":5},"geometry":{"type":"Point","coordinates":[-113.4470965,53.570043]}},{"type":"Feature","properties":{"ZIP":"T5B3A3","VERTICES":5},"geometry":{"type":"Point","coordinates":[-113.541672,53.518248]}},{"type":"Feature","properties":{"ZIP":"T5B1A7","VERTICES":5},"geometry":{"type":"Point","coordinates":[-113.47353,53.576723]}},{"type":"Feature","properties":{"ZIP":"T5B2H7","VERTICES":5},"geometry":{"type":"Point","coordinates":[-113.460004,53.5816665]}},{"type":"Feature","properties":{"ZIP":"T5B2Z2","VERTICES":5},"geometry":{"type":"Point","coordinates":[-113.50196249999999,53.54459249999999]}},{"type":"Feature","properties":{"ZIP":"T5B0T2","VERTICES":5},"geometry":{"type":"Point","coordinates":[-113.4750995,53.570336499999996]}},{"type":"Feature","properties":{"ZIP":"T5B1V9","VERTICES":5},"geometry":{"type":"Point","coordinates":[-113.44979000000001,53.567841]}},{"type":"Feature","properties":{"ZIP":"T5B3R8","VERTICES":5},"geometry":{"type":"Point","coordinates":[-113.4761945,53.571262000000004]}},{"type":"Feature","properties":{"ZIP":"T5B0C3","VERTICES":5},"geometry":{"type":"Point","coordinates":[-113.4812555,53.5607925]}},{"type":"Feature","properties":{"ZIP":"T5B1A8","VERTICES":5},"geometry":{"type":"Point","coordinates":[-113.4753075,53.576719499999996]}},{"type":"Feature","properties":{"ZIP":"T5B1L6","VERTICES":5},"geometry":{"type":"Point","coordinates":[-113.444157,53.5694275]}},{"type":"Feature","properties":{"ZIP":"T5B1N2","VERTICES":5},"geometry":{"type":"Point","coordinates":[-113.4443845,53.5801165]}},{"type":"Feature","properties":{"ZIP":"T5B2Z3","VERTICES":5},"geometry":{"type":"Point","coordinates":[-113.469087,53.5713865]}},{"type":"Feature","properties":{"ZIP":"T5B3E6","VERTICES":5},"geometry":{"type":"Point","coordinates":[-113.527405,53.520161]}},{"type":"Feature","properties":{"ZIP":"T5B0A5","VERTICES":5},"geometry":{"type":"Point","coordinates":[-113.4775305,53.533204999999995]}},{"type":"Feature","properties":{"ZIP":"T5B1K4","VERTICES":5},"geometry":{"type":"Point","coordinates":[-113.544195,53.501726500000004]}},{"type":"Feature","properties":{"ZIP":"T5B2G7","VERTICES":5},"geometry":{"type":"Point","coordinates":[-113.4595395,53.573736]}},{"type":"Feature","properties":{"ZIP":"T5B2N5","VERTICES":5},"geometry":{"type":"Point","coordinates":[-113.536187,53.516752]}},{"type":"Feature","properties":{"ZIP":"T5B4H3","VERTICES":5},"geometry":{"type":"Point","coordinates":[-113.458338,53.5773815]}},{"type":"Feature","properties":{"ZIP":"T5B1A9","VERTICES":5},"geometry":{"type":"Point","coordinates":[-113.480349,53.576682000000005]}},{"type":"Feature","properties":{"ZIP":"T5B3J7","VERTICES":5},"geometry":{"type":"Point","coordinates":[-113.527722,53.520827]}},{"type":"Feature","properties":{"ZIP":"T5B0P1","VERTICES":5},"geometry":{"type":"Point","coordinates":[-113.4438375,53.570217]}},{"type":"Feature","properties":{"ZIP":"T5B1T5","VERTICES":5},"geometry":{"type":"Point","coordinates":[-113.527196,53.506418499999995]}},{"type":"Feature","properties":{"ZIP":"T5B2Z4","VERTICES":5},"geometry":{"type":"Point","coordinates":[-113.469085,53.571169499999996]}},{"type":"Feature","properties":{"ZIP":"T5B3E7","VERTICES":5},"geometry":{"type":"Point","coordinates":[-113.52772250000001,53.520111]}},{"type":"Feature","properties":{"ZIP":"T5B0A6","VERTICES":5},"geometry":{"type":"Point","coordinates":[-113.516697,53.503373499999995]}},{"type":"Feature","properties":{"ZIP":"T5B4J4","VERTICES":5},"geometry":{"type":"Point","coordinates":[-113.4526615,53.578177999999994]}},{"type":"Feature","properties":{"ZIP":"T5B2A2","VERTICES":5},"geometry":{"type":"Point","coordinates":[-113.4818835,53.5356685]}},{"type":"Feature","properties":{"ZIP":"T5B3T3","VERTICES":5},"geometry":{"type":"Point","coordinates":[-113.4999705,53.543707]}},{"type":"Feature","properties":{"ZIP":"T5B3G1","VERTICES":5},"geometry":{"type":"Point","coordinates":[-113.531037,53.5198175]}},{"type":"Feature","properties":{"ZIP":"T5B3V6","VERTICES":5},"geometry":{"type":"Point","coordinates":[-113.477966,53.570997000000006]}},{"type":"Feature","properties":{"ZIP":"T5B0V1","VERTICES":5},"geometry":{"type":"Point","coordinates":[-113.4819635,53.570468]}},{"type":"Feature","properties":{"ZIP":"T5B2W2","VERTICES":5},"geometry":{"type":"Point","coordinates":[-113.5302455,53.517578]}},{"type":"Feature","properties":{"ZIP":"T5B4K1","VERTICES":5},"geometry":{"type":"Point","coordinates":[-113.461713,53.582348499999995]}},{"type":"Feature","properties":{"ZIP":"T5B1G1","VERTICES":5},"geometry":{"type":"Point","coordinates":[-113.47968900000001,53.581958]}},{"type":"Feature","properties":{"ZIP":"T5B2J7","VERTICES":5},"geometry":{"type":"Point","coordinates":[-113.4625235,53.5603645]}},{"type":"Feature","properties":{"ZIP":"T5B3V7","VERTICES":5},"geometry":{"type":"Point","coordinates":[-113.477969,53.571172000000004]}},{"type":"Feature","properties":{"ZIP":"T5B0A9","VERTICES":5},"geometry":{"type":"Point","coordinates":[-113.5166215,53.504863]}},{"type":"Feature","properties":{"ZIP":"T5B4C1","VERTICES":4},"geometry":{"type":"Point","coordinates":[-113.481239,53.5757095]}},{"type":"Feature","properties":{"ZIP":"T5B3R2","VERTICES":4},"geometry":{"type":"Point","coordinates":[-113.476714,53.5666155]}},{"type":"Feature","properties":{"ZIP":"T5B2R9","VERTICES":4},"geometry":{"type":"Point","coordinates":[-113.465538,53.5665815]}},{"type":"Feature","properties":{"ZIP":"T5B4X4","VERTICES":4},"geometry":{"type":"Point","coordinates":[-113.45505349999999,53.569117]}},{"type":"Feature","properties":{"ZIP":"T5B0R8","VERTICES":4},"geometry":{"type":"Point","coordinates":[-113.4647855,53.570465]}},{"type":"Feature","properties":{"ZIP":"T5B2E6","VERTICES":4},"geometry":{"type":"Point","coordinates":[-113.54489699999999,53.512212500000004]}},{"type":"Feature","properties":{"ZIP":"T5B3R3","VERTICES":4},"geometry":{"type":"Point","coordinates":[-113.476714,53.566578]}},{"type":"Feature","properties":{"ZIP":"T5B3Z9","VERTICES":4},"geometry":{"type":"Point","coordinates":[-113.5384735,53.5245845]}},{"type":"Feature","properties":{"ZIP":"T5B1Y4","VERTICES":4},"geometry":{"type":"Point","coordinates":[-113.452157,53.572088]}},{"type":"Feature","properties":{"ZIP":"T5B2S3","VERTICES":4},"geometry":{"type":"Point","coordinates":[-113.46553,53.5695915]}},{"type":"Feature","properties":{"ZIP":"T5B2G3","VERTICES":4},"geometry":{"type":"Point","coordinates":[-113.459456,53.5714485]}},{"type":"Feature","properties":{"ZIP":"T5B3L8","VERTICES":4},"geometry":{"type":"Point","coordinates":[-113.474793,53.563505]}},{"type":"Feature","properties":{"ZIP":"T5B2S4","VERTICES":4},"geometry":{"type":"Point","coordinates":[-113.46553,53.5692605]}},{"type":"Feature","properties":{"ZIP":"T5B3T9","VERTICES":4},"geometry":{"type":"Point","coordinates":[-113.5293875,53.5248045]}},{"type":"Feature","properties":{"ZIP":"T5B4C5","VERTICES":4},"geometry":{"type":"Point","coordinates":[-113.481246,53.579072499999995]}},{"type":"Feature","properties":{"ZIP":"T5B1Y6","VERTICES":4},"geometry":{"type":"Point","coordinates":[-113.452102,53.582212]}},{"type":"Feature","properties":{"ZIP":"T5B2S6","VERTICES":4},"geometry":{"type":"Point","coordinates":[-113.465499,53.572719]}},{"type":"Feature","properties":{"ZIP":"T5B2Z1","VERTICES":4},"geometry":{"type":"Point","coordinates":[-113.4687675,53.5696305]}},{"type":"Feature","properties":{"ZIP":"T5B4C6","VERTICES":4},"geometry":{"type":"Point","coordinates":[-113.481246,53.579004499999996]}},{"type":"Feature","properties":{"ZIP":"T5B0S8","VERTICES":4},"geometry":{"type":"Point","coordinates":[-113.473529,53.570334]}},{"type":"Feature","properties":{"ZIP":"T5B4A3","VERTICES":4},"geometry":{"type":"Point","coordinates":[-113.481169,53.563609]}},{"type":"Feature","properties":{"ZIP":"T5B1Y7","VERTICES":4},"geometry":{"type":"Point","coordinates":[-113.44731150000001,53.559425000000005]}},{"type":"Feature","properties":{"ZIP":"T5B2X1","VERTICES":4},"geometry":{"type":"Point","coordinates":[-113.4673,53.577514]}},{"type":"Feature","properties":{"ZIP":"T5B1N1","VERTICES":4},"geometry":{"type":"Point","coordinates":[-113.4444495,53.579163]}},{"type":"Feature","properties":{"ZIP":"T5B2L5","VERTICES":4},"geometry":{"type":"Point","coordinates":[-113.461821,53.575939000000005]}},{"type":"Feature","properties":{"ZIP":"T5B2S7","VERTICES":4},"geometry":{"type":"Point","coordinates":[-113.465499,53.572754]}},{"type":"Feature","properties":{"ZIP":"T5B1P5","VERTICES":4},"geometry":{"type":"Point","coordinates":[-113.44609,53.571202]}},{"type":"Feature","properties":{"ZIP":"T5B4A4","VERTICES":4},"geometry":{"type":"Point","coordinates":[-113.481169,53.563522]}},{"type":"Feature","properties":{"ZIP":"T5B1Z9","VERTICES":4},"geometry":{"type":"Point","coordinates":[-113.512043,53.5103675]}},{"type":"Feature","properties":{"ZIP":"T5B2P6","VERTICES":4},"geometry":{"type":"Point","coordinates":[-113.54316549999999,53.5161885]}},{"type":"Feature","properties":{"ZIP":"T5B0J4","VERTICES":4},"geometry":{"type":"Point","coordinates":[-113.47578899999999,53.562734500000005]}},{"type":"Feature","properties":{"ZIP":"T5B2C6","VERTICES":4},"geometry":{"type":"Point","coordinates":[-113.5158285,53.5122535]}},{"type":"Feature","properties":{"ZIP":"T5B2L6","VERTICES":4},"geometry":{"type":"Point","coordinates":[-113.461821,53.5759385]}},{"type":"Feature","properties":{"ZIP":"T5B1P6","VERTICES":4},"geometry":{"type":"Point","coordinates":[-113.44609,53.5711725]}},{"type":"Feature","properties":{"ZIP":"T5B3M3","VERTICES":4},"geometry":{"type":"Point","coordinates":[-113.474807,53.566568000000004]}},{"type":"Feature","properties":{"ZIP":"T5B3R9","VERTICES":4},"geometry":{"type":"Point","coordinates":[-113.476195,53.5713755]}},{"type":"Feature","properties":{"ZIP":"T5B1S2","VERTICES":4},"geometry":{"type":"Point","coordinates":[-113.447647,53.571174]}},{"type":"Feature","properties":{"ZIP":"T5B2A1","VERTICES":4},"geometry":{"type":"Point","coordinates":[-113.51203000000001,53.5103675]}},{"type":"Feature","properties":{"ZIP":"T5B0T9","VERTICES":4},"geometry":{"type":"Point","coordinates":[-113.48148499999999,53.5703045]}},{"type":"Feature","properties":{"ZIP":"T5B2N6","VERTICES":4},"geometry":{"type":"Point","coordinates":[-113.537466,53.516650999999996]}},{"type":"Feature","properties":{"ZIP":"T5B3M4","VERTICES":4},"geometry":{"type":"Point","coordinates":[-113.474807,53.566568000000004]}},{"type":"Feature","properties":{"ZIP":"T5B1C9","VERTICES":4},"geometry":{"type":"Point","coordinates":[-113.4592355,53.5813835]}},{"type":"Feature","properties":{"ZIP":"T5B1S3","VERTICES":4},"geometry":{"type":"Point","coordinates":[-113.447647,53.571174]}},{"type":"Feature","properties":{"ZIP":"T5B2P8","VERTICES":4},"geometry":{"type":"Point","coordinates":[-113.463653,53.580615]}},{"type":"Feature","properties":{"ZIP":"T5B2X5","VERTICES":4},"geometry":{"type":"Point","coordinates":[-113.539095,53.5170155]}},{"type":"Feature","properties":{"ZIP":"T5B2A9","VERTICES":4},"geometry":{"type":"Point","coordinates":[-113.451068,53.559493]}},{"type":"Feature","properties":{"ZIP":"T5B3C6","VERTICES":4},"geometry":{"type":"Point","coordinates":[-113.5200425,53.52082]}},{"type":"Feature","properties":{"ZIP":"T5B1H9","VERTICES":4},"geometry":{"type":"Point","coordinates":[-113.52601,53.502474500000005]}},{"type":"Feature","properties":{"ZIP":"T5B4X5","VERTICES":3},"geometry":{"type":"Point","coordinates":[-113.45967300000001,53.565505]}},{"type":"Feature","properties":{"ZIP":"T5B1M6","VERTICES":3},"geometry":{"type":"Point","coordinates":[-113.4445305,53.575911500000004]}},{"type":"Feature","properties":{"ZIP":"T5B3T4","VERTICES":3},"geometry":{"type":"Point","coordinates":[-113.5214655,53.5247945]}},{"type":"Feature","properties":{"ZIP":"T5B0W3","VERTICES":3},"geometry":{"type":"Point","coordinates":[-113.533565,53.520855499999996]}},{"type":"Feature","properties":{"ZIP":"T5B2W3","VERTICES":3},"geometry":{"type":"Point","coordinates":[-113.467315,53.57275]}}]}