{"type":"FeatureCollection","features":[{"type":"Feature","properties":{"ZIP":"T5G1N9"},"geometry":{"type":"Point","coordinates":[-113.4886745,53.561886]}},{"type":"Feature","properties":{"ZIP":"T5G1T6"},"geometry":{"type":"Point","coordinates":[-113.504973,53.549814]}},{"type":"Feature","properties":{"ZIP":"T5G1A1"},"geometry":{"type":"Point","coordinates":[-113.482707,53.568115]}},{"type":"Feature","properties":{"ZIP":"T5G1C6"},"geometry":{"type":"Point","coordinates":[-113.506157,53.547951]}},{"type":"Feature","properties":{"ZIP":"T5G1R6"},"geometry":{"type":"Point","coordinates":[-113.4888945,53.574232]}},{"type":"Feature","properties":{"ZIP":"T5G1Y8"},"geometry":{"type":"Point","coordinates":[-113.490393,53.5742795]}},{"type":"Feature","properties":{"ZIP":"T5G0Z3"},"geometry":{"type":"Point","coordinates":[-113.4826885,53.563508999999996]}},{"type":"Feature","properties":{"ZIP":"T5G0H6"},"geometry":{"type":"Point","coordinates":[-113.51648449999999,53.562536]}},{"type":"Feature","properties":{"ZIP":"T5G2G6"},"geometry":{"type":"Point","coordinates":[-113.4955475,53.574328]}},{"type":"Feature","properties":{"ZIP":"T5G1M7"},"geometry":{"type":"Point","coordinates":[-113.4873305,53.574222500000005]}},{"type":"Feature","properties":{"ZIP":"T5G1R2"},"geometry":{"type":"Point","coordinates":[-113.48888199999999,53.571108499999994]}},{"type":"Feature","properties":{"ZIP":"T5G0J3"},"geometry":{"type":"Point","coordinates":[-113.5162495,53.561721500000004]}},{"type":"Feature","properties":{"ZIP":"T5G1S7"},"geometry":{"type":"Point","coordinates":[-113.5016765,53.546806000000004]}},{"type":"Feature","properties":{"ZIP":"T5G1C7"},"geometry":{"type":"Point","coordinates":[-113.50009800000001,53.5477595]}},{"type":"Feature","properties":{"ZIP":"T5G2C1"},"geometry":{"type":"Point","coordinates":[-113.494705,53.5682665]}},{"type":"Feature","properties":{"ZIP":"T5G1K9"},"geometry":{"type":"Point","coordinates":[-113.4871565,53.561907000000005]}},{"type":"Feature","properties":{"ZIP":"T5G3J2"},"geometry":{"type":"Point","coordinates":[-113.526005,53.565146]}},{"type":"Feature","properties":{"ZIP":"T5G0Z2"},"geometry":{"type":"Point","coordinates":[-113.4826695,53.5618935]}},{"type":"Feature","properties":{"ZIP":"T5G1S9"},"geometry":{"type":"Point","coordinates":[-113.5024815,53.5475775]}},{"type":"Feature","properties":{"ZIP":"T5G1P6"},"geometry":{"type":"Point","coordinates":[-113.4886435,53.566554499999995]}},{"type":"Feature","properties":{"ZIP":"T5G1G3"},"geometry":{"type":"Point","coordinates":[-113.513904,53.5542255]}},{"type":"Feature","properties":{"ZIP":"T5G1W6"},"geometry":{"type":"Point","coordinates":[-113.5123,53.556588500000004]}},{"type":"Feature","properties":{"ZIP":"T5G2B3"},"geometry":{"type":"Point","coordinates":[-113.494047,53.565107]}},{"type":"Feature","properties":{"ZIP":"T5G2C5"},"geometry":{"type":"Point","coordinates":[-113.49482850000001,53.5711355]}},{"type":"Feature","properties":{"ZIP":"T5G1K2"},"geometry":{"type":"Point","coordinates":[-113.5265095,53.530383]}},{"type":"Feature","properties":{"ZIP":"T5G1N8"},"geometry":{"type":"Point","coordinates":[-113.4886745,53.561886]}},{"type":"Feature","properties":{"ZIP":"T5G2C6"},"geometry":{"type":"Point","coordinates":[-113.49488099999999,53.572362]}},{"type":"Feature","properties":{"ZIP":"T5G2K2"},"geometry":{"type":"Point","coordinates":[-113.51459349999999,53.561269]}},{"type":"Feature","properties":{"ZIP":"T5G0Z7"},"geometry":{"type":"Point","coordinates":[-113.482707,53.56657]}},{"type":"Feature","properties":{"ZIP":"T5G2A4"},"geometry":{"type":"Point","coordinates":[-113.493977,53.5597875]}},{"type":"Feature","properties":{"ZIP":"T5G2S1"},"geometry":{"type":"Point","coordinates":[-113.53343749999999,53.549439500000005]}},{"type":"Feature","properties":{"ZIP":"T5G1C3"},"geometry":{"type":"Point","coordinates":[-113.5035195,53.546413]}},{"type":"Feature","properties":{"ZIP":"T5G0Z8"},"geometry":{"type":"Point","coordinates":[-113.482707,53.56657]}},{"type":"Feature","properties":{"ZIP":"T5G2E2"},"geometry":{"type":"Point","coordinates":[-113.4955635,53.5618595]}},{"type":"Feature","properties":{"ZIP":"T5G1C4"},"geometry":{"type":"Point","coordinates":[-113.4991835,53.546989499999995]}},{"type":"Feature","properties":{"ZIP":"T5G1S5"},"geometry":{"type":"Point","coordinates":[-113.488887,53.580222500000005]}},{"type":"Feature","properties":{"ZIP":"T5G0Z9"},"geometry":{"type":"Point","coordinates":[-113.4827065,53.5681715]}},{"type":"Feature","properties":{"ZIP":"T5G1Y3"},"geometry":{"type":"Point","coordinates":[-113.49089000000001,53.569025999999994]}},{"type":"Feature","properties":{"ZIP":"T5G0G2"},"geometry":{"type":"Point","coordinates":[-113.5231285,53.559914]}},{"type":"Feature","properties":{"ZIP":"T5G1L8"},"geometry":{"type":"Point","coordinates":[-113.487198,53.567972999999995]}},{"type":"Feature","properties":{"ZIP":"T5G0C8"},"geometry":{"type":"Point","coordinates":[-113.514636,53.560851]}},{"type":"Feature","properties":{"ZIP":"T5G1W1"},"geometry":{"type":"Point","coordinates":[-113.510423,53.5546885]}},{"type":"Feature","properties":{"ZIP":"T5G2H1"},"geometry":{"type":"Point","coordinates":[-113.4955475,53.577518]}},{"type":"Feature","properties":{"ZIP":"T5G1K8"},"geometry":{"type":"Point","coordinates":[-113.487095,53.561867]}},{"type":"Feature","properties":{"ZIP":"T5G1W2"},"geometry":{"type":"Point","coordinates":[-113.5106595,53.555412000000004]}},{"type":"Feature","properties":{"ZIP":"T5G2A8"},"geometry":{"type":"Point","coordinates":[-113.494344,53.55988]}},{"type":"Feature","properties":{"ZIP":"T5G1N3"},"geometry":{"type":"Point","coordinates":[-113.4873305,53.5790775]}},{"type":"Feature","properties":{"ZIP":"T5G1P5"},"geometry":{"type":"Point","coordinates":[-113.488715,53.566545000000005]}},{"type":"Feature","properties":{"ZIP":"T5G1M2"},"geometry":{"type":"Point","coordinates":[-113.48729399999999,53.571104000000005]}},{"type":"Feature","properties":{"ZIP":"T5G1N4"},"geometry":{"type":"Point","coordinates":[-113.48733,53.579018500000004]}},{"type":"Feature","properties":{"ZIP":"T5G1T1"},"geometry":{"type":"Point","coordinates":[-113.501907,53.547413500000005]}},{"type":"Feature","properties":{"ZIP":"T5G1P7"},"geometry":{"type":"Point","coordinates":[-113.4886465,53.568096]}},{"type":"Feature","properties":{"ZIP":"T5G1V3"},"geometry":{"type":"Point","coordinates":[-113.50777099999999,53.552386]}},{"type":"Feature","properties":{"ZIP":"T5G0Z4"},"geometry":{"type":"Point","coordinates":[-113.4826895,53.563602]}},{"type":"Feature","properties":{"ZIP":"T5G1J9"},"geometry":{"type":"Point","coordinates":[-113.5261055,53.5303805]}},{"type":"Feature","properties":{"ZIP":"T5G1T2"},"geometry":{"type":"Point","coordinates":[-113.5026775,53.548265]}},{"type":"Feature","properties":{"ZIP":"T5G1X7"},"geometry":{"type":"Point","coordinates":[-113.48929899999999,53.565926000000005]}},{"type":"Feature","properties":{"ZIP":"T5G1S1"},"geometry":{"type":"Point","coordinates":[-113.48889550000001,53.577462]}},{"type":"Feature","properties":{"ZIP":"T5G0Z5"},"geometry":{"type":"Point","coordinates":[-113.4826995,53.565036500000005]}},{"type":"Feature","properties":{"ZIP":"T5G2K1"},"geometry":{"type":"Point","coordinates":[-113.4974055,53.577511]}},{"type":"Feature","properties":{"ZIP":"T5G1L4"},"geometry":{"type":"Point","coordinates":[-113.4871785,53.565028999999996]}},{"type":"Feature","properties":{"ZIP":"T5G2H7"},"geometry":{"type":"Point","coordinates":[-113.497391,53.563463]}},{"type":"Feature","properties":{"ZIP":"T5G1E3"},"geometry":{"type":"Point","coordinates":[-113.50287499999999,53.550013500000006]}},{"type":"Feature","properties":{"ZIP":"T5G1L5"},"geometry":{"type":"Point","coordinates":[-113.4871895,53.5665545]}},{"type":"Feature","properties":{"ZIP":"T5G1R1"},"geometry":{"type":"Point","coordinates":[-113.4887665,53.569257]}},{"type":"Feature","properties":{"ZIP":"T5G2R9"},"geometry":{"type":"Point","coordinates":[-113.53271849999999,53.54954]}},{"type":"Feature","properties":{"ZIP":"T5G2H8"},"geometry":{"type":"Point","coordinates":[-113.506837,53.554219]}},{"type":"Feature","properties":{"ZIP":"T5G1E5"},"geometry":{"type":"Point","coordinates":[-113.503693,53.550674]}},{"type":"Feature","properties":{"ZIP":"T5G1Y1"},"geometry":{"type":"Point","coordinates":[-113.490516,53.5675185]}},{"type":"Feature","properties":{"ZIP":"T5G0Y1"},"geometry":{"type":"Point","coordinates":[-113.497838,53.5684965]}},{"type":"Feature","properties":{"ZIP":"T5G1W9"},"geometry":{"type":"Point","coordinates":[-113.48847549999999,53.559636499999996]}},{"type":"Feature","properties":{"ZIP":"T5G2V3"},"geometry":{"type":"Point","coordinates":[-113.515038,53.559531500000006]}},{"type":"Feature","properties":{"ZIP":"T5G0M3"},"geometry":{"type":"Point","coordinates":[-113.5015845,53.567099999999996]}},{"type":"Feature","properties":{"ZIP":"T5G1H1"},"geometry":{"type":"Point","coordinates":[-113.4965885,53.546330499999996]}},{"type":"Feature","properties":{"ZIP":"T5G1L7"},"geometry":{"type":"Point","coordinates":[-113.4871385,53.56796]}},{"type":"Feature","properties":{"ZIP":"T5G1R3"},"geometry":{"type":"Point","coordinates":[-113.4888835,53.571166500000004]}},{"type":"Feature","properties":{"ZIP":"T5G1V8"},"geometry":{"type":"Point","coordinates":[-113.5096825,53.553698999999995]}},{"type":"Feature","properties":{"ZIP":"T5G1T7"},"geometry":{"type":"Point","coordinates":[-113.505075,53.5500145]}},{"type":"Feature","properties":{"ZIP":"T5G1B3"},"geometry":{"type":"Point","coordinates":[-113.482703,53.577459000000005]}},{"type":"Feature","properties":{"ZIP":"T5G1H2"},"geometry":{"type":"Point","coordinates":[-113.5090755,53.530521]}},{"type":"Feature","properties":{"ZIP":"T5G1R4"},"geometry":{"type":"Point","coordinates":[-113.48889600000001,53.572487499999994]}},{"type":"Feature","properties":{"ZIP":"T5G2A6"},"geometry":{"type":"Point","coordinates":[-113.4939875,53.561883]}},{"type":"Feature","properties":{"ZIP":"T5G3E8"},"geometry":{"type":"Point","coordinates":[-113.519638,53.565385500000005]}},{"type":"Feature","properties":{"ZIP":"T5G1C5"},"geometry":{"type":"Point","coordinates":[-113.50487100000001,53.547222500000004]}},{"type":"Feature","properties":{"ZIP":"T5G1B4"},"geometry":{"type":"Point","coordinates":[-113.482703,53.577459000000005]}},{"type":"Feature","properties":{"ZIP":"T5G2S8"},"geometry":{"type":"Point","coordinates":[-113.53048799999999,53.5511255]}},{"type":"Feature","properties":{"ZIP":"T5G0Y8"},"geometry":{"type":"Point","coordinates":[-113.519193,53.563608]}},{"type":"Feature","properties":{"ZIP":"T5G1X3"},"geometry":{"type":"Point","coordinates":[-113.490305,53.562872999999996]}},{"type":"Feature","properties":{"ZIP":"T5G0N6"},"geometry":{"type":"Point","coordinates":[-113.48660050000001,53.5704575]}},{"type":"Feature","properties":{"ZIP":"T5G1A2"},"geometry":{"type":"Point","coordinates":[-113.482695,53.569675000000004]}},{"type":"Feature","properties":{"ZIP":"T5G2H2"},"geometry":{"type":"Point","coordinates":[-113.4955475,53.577518]}},{"type":"Feature","properties":{"ZIP":"T5G0Z1"},"geometry":{"type":"Point","coordinates":[-113.4826695,53.5618935]}},{"type":"Feature","properties":{"ZIP":"T5G2N6"},"geometry":{"type":"Point","coordinates":[-113.529656,53.548026500000006]}},{"type":"Feature","properties":{"ZIP":"T5G1B6"},"geometry":{"type":"Point","coordinates":[-113.4827225,53.5790765]}},{"type":"Feature","properties":{"ZIP":"T5G1R7"},"geometry":{"type":"Point","coordinates":[-113.488894,53.574231499999996]}},{"type":"Feature","properties":{"ZIP":"T5G1W3"},"geometry":{"type":"Point","coordinates":[-113.511291,53.555632]}},{"type":"Feature","properties":{"ZIP":"T5G1V2"},"geometry":{"type":"Point","coordinates":[-113.5067635,53.5512215]}},{"type":"Feature","properties":{"ZIP":"T5G2E8"},"geometry":{"type":"Point","coordinates":[-113.4954945,53.566539500000005]}},{"type":"Feature","properties":{"ZIP":"T5G1J8"},"geometry":{"type":"Point","coordinates":[-113.5236165,53.5304055]}},{"type":"Feature","properties":{"ZIP":"T5G1X6"},"geometry":{"type":"Point","coordinates":[-113.490418,53.564452]}},{"type":"Feature","properties":{"ZIP":"T5G1A6"},"geometry":{"type":"Point","coordinates":[-113.482699,53.572551]}},{"type":"Feature","properties":{"ZIP":"T5G1L2"},"geometry":{"type":"Point","coordinates":[-113.4858,53.562832]}},{"type":"Feature","properties":{"ZIP":"T5G2R5"},"geometry":{"type":"Point","coordinates":[-113.5290935,53.5495125]}},{"type":"Feature","properties":{"ZIP":"T5G1G4"},"geometry":{"type":"Point","coordinates":[-113.50753900000001,53.553954000000004]}},{"type":"Feature","properties":{"ZIP":"T5G1L3"},"geometry":{"type":"Point","coordinates":[-113.4871785,53.564921]}},{"type":"Feature","properties":{"ZIP":"T5G2R7"},"geometry":{"type":"Point","coordinates":[-113.5309805,53.549526]}},{"type":"Feature","properties":{"ZIP":"T5G1H8"},"geometry":{"type":"Point","coordinates":[-113.5014275,53.5495945]}},{"type":"Feature","properties":{"ZIP":"T5G2H6"},"geometry":{"type":"Point","coordinates":[-113.5059795,53.553456499999996]}},{"type":"Feature","properties":{"ZIP":"T5G0L5"},"geometry":{"type":"Point","coordinates":[-113.521211,53.563523]}},{"type":"Feature","properties":{"ZIP":"T5G1E2"},"geometry":{"type":"Point","coordinates":[-113.5084275,53.549563]}},{"type":"Feature","properties":{"ZIP":"T5G1N7"},"geometry":{"type":"Point","coordinates":[-113.488654,53.5602475]}},{"type":"Feature","properties":{"ZIP":"T5G1T3"},"geometry":{"type":"Point","coordinates":[-113.503304,53.5483565]}},{"type":"Feature","properties":{"ZIP":"T5G1A8"},"geometry":{"type":"Point","coordinates":[-113.4826845,53.574184]}},{"type":"Feature","properties":{"ZIP":"T5G1P9"},"geometry":{"type":"Point","coordinates":[-113.4887625,53.569216499999996]}},{"type":"Feature","properties":{"ZIP":"T5G1V5"},"geometry":{"type":"Point","coordinates":[-113.508504,53.552999]}},{"type":"Feature","properties":{"ZIP":"T5G1M6"},"geometry":{"type":"Point","coordinates":[-113.48604850000001,53.572706499999995]}},{"type":"Feature","properties":{"ZIP":"T5G1S2"},"geometry":{"type":"Point","coordinates":[-113.48889550000001,53.5774625]}},{"type":"Feature","properties":{"ZIP":"T5G1W7"},"geometry":{"type":"Point","coordinates":[-113.512898,53.556829]}},{"type":"Feature","properties":{"ZIP":"T5G2B4"},"geometry":{"type":"Point","coordinates":[-113.494463,53.562638]}},{"type":"Feature","properties":{"ZIP":"T5G0Z6"},"geometry":{"type":"Point","coordinates":[-113.48415449999999,53.567856500000005]}},{"type":"Feature","properties":{"ZIP":"T5G1T4"},"geometry":{"type":"Point","coordinates":[-113.50414,53.5492235]}},{"type":"Feature","properties":{"ZIP":"T5G1V6"},"geometry":{"type":"Point","coordinates":[-113.507979,53.552812]}},{"type":"Feature","properties":{"ZIP":"T5G2A3"},"geometry":{"type":"Point","coordinates":[-113.494168,53.5557845]}},{"type":"Feature","properties":{"ZIP":"T5G2L5"},"geometry":{"type":"Point","coordinates":[-113.52874650000001,53.546189999999996]}},{"type":"Feature","properties":{"ZIP":"T5G1C2"},"geometry":{"type":"Point","coordinates":[-113.4982105,53.5461705]}},{"type":"Feature","properties":{"ZIP":"T5G1S3"},"geometry":{"type":"Point","coordinates":[-113.488899,53.57906]}},{"type":"Feature","properties":{"ZIP":"T5G2B5"},"geometry":{"type":"Point","coordinates":[-113.494133,53.566633]}},{"type":"Feature","properties":{"ZIP":"T5G2C7"},"geometry":{"type":"Point","coordinates":[-113.4943035,53.575779999999995]}},{"type":"Feature","properties":{"ZIP":"T5G2P3"},"geometry":{"type":"Point","coordinates":[-113.5086325,53.5552855]}},{"type":"Feature","properties":{"ZIP":"T5G1G9"},"geometry":{"type":"Point","coordinates":[-113.509423,53.5304995]}},{"type":"Feature","properties":{"ZIP":"T5G1L6"},"geometry":{"type":"Point","coordinates":[-113.4886885,53.56661750000001]}},{"type":"Feature","properties":{"ZIP":"T5G2G7"},"geometry":{"type":"Point","coordinates":[-113.4955475,53.574291]}},{"type":"Feature","properties":{"ZIP":"T5G2J1"},"geometry":{"type":"Point","coordinates":[-113.5100315,53.556051]}},{"type":"Feature","properties":{"ZIP":"T5G1E6"},"geometry":{"type":"Point","coordinates":[-113.5112475,53.5509385]}},{"type":"Feature","properties":{"ZIP":"T5G1K4"},"geometry":{"type":"Point","coordinates":[-113.52981750000001,53.530356]}},{"type":"Feature","properties":{"ZIP":"T5G2A5"},"geometry":{"type":"Point","coordinates":[-113.493972,53.559385]}},{"type":"Feature","properties":{"ZIP":"T5G1J3"},"geometry":{"type":"Point","coordinates":[-113.51881449999999,53.530443500000004]}},{"type":"Feature","properties":{"ZIP":"T5G0C6"},"geometry":{"type":"Point","coordinates":[-113.51260400000001,53.559035]}},{"type":"Feature","properties":{"ZIP":"T5G1E7"},"geometry":{"type":"Point","coordinates":[-113.539534,53.528937]}},{"type":"Feature","properties":{"ZIP":"T5G1K5"},"geometry":{"type":"Point","coordinates":[-113.5080655,53.5553515]}},{"type":"Feature","properties":{"ZIP":"T5G2E3"},"geometry":{"type":"Point","coordinates":[-113.4955625,53.5620305]}},{"type":"Feature","properties":{"ZIP":"T5G1V9"},"geometry":{"type":"Point","coordinates":[-113.509845,53.554477500000004]}},{"type":"Feature","properties":{"ZIP":"T5G2S3"},"geometry":{"type":"Point","coordinates":[-113.5343925,53.5495545]}},{"type":"Feature","properties":{"ZIP":"T5G1X2"},"geometry":{"type":"Point","coordinates":[-113.490197,53.561049999999994]}},{"type":"Feature","properties":{"ZIP":"T5G2B8"},"geometry":{"type":"Point","coordinates":[-113.494185,53.5700315]}},{"type":"Feature","properties":{"ZIP":"T5G1P3"},"geometry":{"type":"Point","coordinates":[-113.4886865,53.5650495]}},{"type":"Feature","properties":{"ZIP":"T5G1T8"},"geometry":{"type":"Point","coordinates":[-113.50533300000001,53.5506375]}},{"type":"Feature","properties":{"ZIP":"T5G2X9"},"geometry":{"type":"Point","coordinates":[-113.529222,53.5612435]}},{"type":"Feature","properties":{"ZIP":"T5G1H3"},"geometry":{"type":"Point","coordinates":[-113.5111195,53.5304875]}},{"type":"Feature","properties":{"ZIP":"T5G2A7"},"geometry":{"type":"Point","coordinates":[-113.4940115,53.5608015]}},{"type":"Feature","properties":{"ZIP":"T5G1J5"},"geometry":{"type":"Point","coordinates":[-113.522247,53.530408]}},{"type":"Feature","properties":{"ZIP":"T5G1E9"},"geometry":{"type":"Point","coordinates":[-113.5408405,53.5289155]}},{"type":"Feature","properties":{"ZIP":"T5G1B5"},"geometry":{"type":"Point","coordinates":[-113.4827225,53.5790765]}},{"type":"Feature","properties":{"ZIP":"T5G1H4"},"geometry":{"type":"Point","coordinates":[-113.4994995,53.5480675]}},{"type":"Feature","properties":{"ZIP":"T5G0K1"},"geometry":{"type":"Point","coordinates":[-113.517225,53.5649035]}},{"type":"Feature","properties":{"ZIP":"T5G1J6"},"geometry":{"type":"Point","coordinates":[-113.52055050000001,53.530429999999996]}},{"type":"Feature","properties":{"ZIP":"T5G1S8"},"geometry":{"type":"Point","coordinates":[-113.5011055,53.546698]}},{"type":"Feature","properties":{"ZIP":"T5G1G1"},"geometry":{"type":"Point","coordinates":[-113.4842405,53.5773965]}},{"type":"Feature","properties":{"ZIP":"T5G1H5"},"geometry":{"type":"Point","coordinates":[-113.510966,53.530506]}},{"type":"Feature","properties":{"ZIP":"T5G2A9"},"geometry":{"type":"Point","coordinates":[-113.4940455,53.5621185]}},{"type":"Feature","properties":{"ZIP":"T5G0A2"},"geometry":{"type":"Point","coordinates":[-113.49871949999999,53.5448175]}},{"type":"Feature","properties":{"ZIP":"T5G1J7"},"geometry":{"type":"Point","coordinates":[-113.52440899999999,53.530392500000005]}},{"type":"Feature","properties":{"ZIP":"T5G2C2"},"geometry":{"type":"Point","coordinates":[-113.494249,53.572446]}},{"type":"Feature","properties":{"ZIP":"T5G2W2"},"geometry":{"type":"Point","coordinates":[-113.5837585,53.5677315]}},{"type":"Feature","properties":{"ZIP":"T5G1G2"},"geometry":{"type":"Point","coordinates":[-113.4842405,53.577459]}},{"type":"Feature","properties":{"ZIP":"T5G2B1"},"geometry":{"type":"Point","coordinates":[-113.494403,53.561245]}},{"type":"Feature","properties":{"ZIP":"T5G3J3"},"geometry":{"type":"Point","coordinates":[-113.52167399999999,53.5673405]}},{"type":"Feature","properties":{"ZIP":"T5G0A7"},"geometry":{"type":"Point","coordinates":[-113.50095400000001,53.545937499999994]}},{"type":"Feature","properties":{"ZIP":"T5G2C3"},"geometry":{"type":"Point","coordinates":[-113.4942495,53.572607]}},{"type":"Feature","properties":{"ZIP":"T5G0E3"},"geometry":{"type":"Point","coordinates":[-113.51802950000001,53.5637185]}},{"type":"Feature","properties":{"ZIP":"T5G1Z2"},"geometry":{"type":"Point","coordinates":[-113.49135100000001,53.577491]}},{"type":"Feature","properties":{"ZIP":"T5G2E9"},"geometry":{"type":"Point","coordinates":[-113.4956145,53.5680825]}},{"type":"Feature","properties":{"ZIP":"T5G1B8"},"geometry":{"type":"Point","coordinates":[-113.48272449999999,53.580589]}},{"type":"Feature","properties":{"ZIP":"T5G1M4"},"geometry":{"type":"Point","coordinates":[-113.48733949999999,53.572610999999995]}},{"type":"Feature","properties":{"ZIP":"T5G2B2"},"geometry":{"type":"Point","coordinates":[-113.49405250000001,53.5646155]}},{"type":"Feature","properties":{"ZIP":"T5G2H5"},"geometry":{"type":"Point","coordinates":[-113.4973865,53.5619285]}},{"type":"Feature","properties":{"ZIP":"T5G2C4"},"geometry":{"type":"Point","coordinates":[-113.494277,53.574408]}},{"type":"Feature","properties":{"ZIP":"T5G1M5"},"geometry":{"type":"Point","coordinates":[-113.48733899999999,53.5726625]}},{"type":"Feature","properties":{"ZIP":"T5G1K1"},"geometry":{"type":"Point","coordinates":[-113.527969,53.530367]}},{"type":"Feature","properties":{"ZIP":"T5G2W8"},"geometry":{"type":"Point","coordinates":[-113.51924700000001,53.5651905]}},{"type":"Feature","properties":{"ZIP":"T5G1H9"},"geometry":{"type":"Point","coordinates":[-113.5148805,53.530475]}},{"type":"Feature","properties":{"ZIP":"T5G2P2"},"geometry":{"type":"Point","coordinates":[-113.5180585,53.563539500000005]}},{"type":"Feature","properties":{"ZIP":"T5G0P7"},"geometry":{"type":"Point","coordinates":[-113.50009399999999,53.5703405]}},{"type":"Feature","properties":{"ZIP":"T5G1A9"},"geometry":{"type":"Point","coordinates":[-113.4826865,53.5746445]}},{"type":"Feature","properties":{"ZIP":"T5G0X9"},"geometry":{"type":"Point","coordinates":[-113.494888,53.5695765]}},{"type":"Feature","properties":{"ZIP":"T5G1J1"},"geometry":{"type":"Point","coordinates":[-113.5166735,53.530460500000004]}},{"type":"Feature","properties":{"ZIP":"T5G0M2"},"geometry":{"type":"Point","coordinates":[-113.50006400000001,53.566356999999996]}},{"type":"Feature","properties":{"ZIP":"T5G1K3"},"geometry":{"type":"Point","coordinates":[-113.5298145,53.530354]}},{"type":"Feature","properties":{"ZIP":"T5G1T5"},"geometry":{"type":"Point","coordinates":[-113.5036185,53.548984000000004]}},{"type":"Feature","properties":{"ZIP":"T5G2K3"},"geometry":{"type":"Point","coordinates":[-113.49740249999999,53.578956500000004]}},{"type":"Feature","properties":{"ZIP":"T5G1V7"},"geometry":{"type":"Point","coordinates":[-113.50867450000001,53.553714]}},{"type":"Feature","properties":{"ZIP":"T5G2L6"},"geometry":{"type":"Point","coordinates":[-113.533006,53.546198000000004]}},{"type":"Feature","properties":{"ZIP":"T5G1S4"},"geometry":{"type":"Point","coordinates":[-113.488901,53.57925899999999]}},{"type":"Feature","properties":{"ZIP":"T5G2B6"},"geometry":{"type":"Point","coordinates":[-113.49415450000001,53.567899]}},{"type":"Feature","properties":{"ZIP":"T5G2N1"},"geometry":{"type":"Point","coordinates":[-113.52587249999999,53.5481595]}},{"type":"Feature","properties":{"ZIP":"T5G0C5"},"geometry":{"type":"Point","coordinates":[-113.51126049999999,53.557941]}},{"type":"Feature","properties":{"ZIP":"T5G2X7"},"geometry":{"type":"Point","coordinates":[-113.52470199999999,53.5692825]}},{"type":"Feature","properties":{"ZIP":"T5G0R6"},"geometry":{"type":"Point","coordinates":[-113.5333325,53.5306375]}},{"type":"Feature","properties":{"ZIP":"T5G2J2"},"geometry":{"type":"Point","coordinates":[-113.49745949999999,53.571287]}},{"type":"Feature","properties":{"ZIP":"T5G2V4"},"geometry":{"type":"Point","coordinates":[-113.5186985,53.562644500000005]}},{"type":"Feature","properties":{"ZIP":"T5G0N3"},"geometry":{"type":"Point","coordinates":[-113.4840835,53.570336499999996]}},{"type":"Feature","properties":{"ZIP":"T5G2K5"},"geometry":{"type":"Point","coordinates":[-113.5143805,53.54632]}},{"type":"Feature","properties":{"ZIP":"T5G1J4"},"geometry":{"type":"Point","coordinates":[-113.520644,53.530419499999994]}},{"type":"Feature","properties":{"ZIP":"T5G1S6"},"geometry":{"type":"Point","coordinates":[-113.4888865,53.5802225]}},{"type":"Feature","properties":{"ZIP":"T5G2V5"},"geometry":{"type":"Point","coordinates":[-113.5186525,53.562586499999995]}},{"type":"Feature","properties":{"ZIP":"T5G1E8"},"geometry":{"type":"Point","coordinates":[-113.5261745,53.528321500000004]}},{"type":"Feature","properties":{"ZIP":"T5G1K6"},"geometry":{"type":"Point","coordinates":[-113.508694,53.5553785]}},{"type":"Feature","properties":{"ZIP":"T5G1Y4"},"geometry":{"type":"Point","coordinates":[-113.490913,53.571124499999996]}},{"type":"Feature","properties":{"ZIP":"T5G2K6"},"geometry":{"type":"Point","coordinates":[-113.514451,53.5460515]}},{"type":"Feature","properties":{"ZIP":"T5G0G3"},"geometry":{"type":"Point","coordinates":[-113.52284,53.559912499999996]}},{"type":"Feature","properties":{"ZIP":"T5G0V9"},"geometry":{"type":"Point","coordinates":[-113.491165,53.57945]}},{"type":"Feature","properties":{"ZIP":"T5G1R5"},"geometry":{"type":"Point","coordinates":[-113.48889500000001,53.572636]}},{"type":"Feature","properties":{"ZIP":"T5G0J8"},"geometry":{"type":"Point","coordinates":[-113.5242865,53.563255999999996]}},{"type":"Feature","properties":{"ZIP":"T5G2N5"},"geometry":{"type":"Point","coordinates":[-113.52999399999999,53.547878]}},{"type":"Feature","properties":{"ZIP":"T5G2V8"},"geometry":{"type":"Point","coordinates":[-113.51706300000001,53.5639725]}},{"type":"Feature","properties":{"ZIP":"T5G1P4"},"geometry":{"type":"Point","coordinates":[-113.488687,53.5650775]}},{"type":"Feature","properties":{"ZIP":"T5G1T9"},"geometry":{"type":"Point","coordinates":[-113.5059255,53.5507935]}},{"type":"Feature","properties":{"ZIP":"T5G1Y7"},"geometry":{"type":"Point","coordinates":[-113.49013350000001,53.572297]}},{"type":"Feature","properties":{"ZIP":"T5G2S9"},"geometry":{"type":"Point","coordinates":[-113.53262000000001,53.551103499999996]}},{"type":"Feature","properties":{"ZIP":"T5G2W1"},"geometry":{"type":"Point","coordinates":[-113.51801950000001,53.5646495]}},{"type":"Feature","properties":{"ZIP":"T5G0E1"},"geometry":{"type":"Point","coordinates":[-113.5188,53.5632375]}},{"type":"Feature","properties":{"ZIP":"T5G1V1"},"geometry":{"type":"Point","coordinates":[-113.5060685,53.550945999999996]}},{"type":"Feature","properties":{"ZIP":"T5G2K8"},"geometry":{"type":"Point","coordinates":[-113.51582400000001,53.546291]}},{"type":"Feature","properties":{"ZIP":"T5G2T1"},"geometry":{"type":"Point","coordinates":[-113.5337845,53.5510315]}},{"type":"Feature","properties":{"ZIP":"T5G0K2"},"geometry":{"type":"Point","coordinates":[-113.51833450000001,53.5668265]}},{"type":"Feature","properties":{"ZIP":"T5G1C8"},"geometry":{"type":"Point","coordinates":[-113.5073955,53.5487375]}},{"type":"Feature","properties":{"ZIP":"T5G1L1"},"geometry":{"type":"Point","coordinates":[-113.487213,53.5630845]}},{"type":"Feature","properties":{"ZIP":"T5G2K9"},"geometry":{"type":"Point","coordinates":[-113.51474350000001,53.5462165]}},{"type":"Feature","properties":{"ZIP":"T5G0W4"},"geometry":{"type":"Point","coordinates":[-113.48744149999999,53.581634]}},{"type":"Feature","properties":{"ZIP":"T5G1H6"},"geometry":{"type":"Point","coordinates":[-113.51382749999999,53.530476]}},{"type":"Feature","properties":{"ZIP":"T5G1M3"},"geometry":{"type":"Point","coordinates":[-113.487296,53.571146999999996]}},{"type":"Feature","properties":{"ZIP":"T5G1W4"},"geometry":{"type":"Point","coordinates":[-113.511402,53.555998]}},{"type":"Feature","properties":{"ZIP":"T5G1C9"},"geometry":{"type":"Point","coordinates":[-113.501034,53.5485325]}},{"type":"Feature","properties":{"ZIP":"T5G2J7"},"geometry":{"type":"Point","coordinates":[-113.5129125,53.559781]}},{"type":"Feature","properties":{"ZIP":"T5G2W3"},"geometry":{"type":"Point","coordinates":[-113.52041750000001,53.564801]}},{"type":"Feature","properties":{"ZIP":"T5G0W6"},"geometry":{"type":"Point","coordinates":[-113.5228795,53.568223]}},{"type":"Feature","properties":{"ZIP":"T5G1H7"},"geometry":{"type":"Point","coordinates":[-113.5148845,53.530460500000004]}},{"type":"Feature","properties":{"ZIP":"T5G2T8"},"geometry":{"type":"Point","coordinates":[-113.5075815,53.570298]}},{"type":"Feature","properties":{"ZIP":"T5G0A9"},"geometry":{"type":"Point","coordinates":[-113.49470199999999,53.554069999999996]}},{"type":"Feature","properties":{"ZIP":"T5G2J8"},"geometry":{"type":"Point","coordinates":[-113.513721,53.560512]}},{"type":"Feature","properties":{"ZIP":"T5G2W7"},"geometry":{"type":"Point","coordinates":[-113.514106,53.570328]}},{"type":"Feature","properties":{"ZIP":"T5G1A7"},"geometry":{"type":"Point","coordinates":[-113.48268949999999,53.572766]}},{"type":"Feature","properties":{"ZIP":"T5G2G1"},"geometry":{"type":"Point","coordinates":[-113.49576049999999,53.56880099999999]}},{"type":"Feature","properties":{"ZIP":"T5G0W7"},"geometry":{"type":"Point","coordinates":[-113.51960600000001,53.567619]}},{"type":"Feature","properties":{"ZIP":"T5G1B9"},"geometry":{"type":"Point","coordinates":[-113.52013500000001,53.528710000000004]}},{"type":"Feature","properties":{"ZIP":"T5G2T9"},"geometry":{"type":"Point","coordinates":[-113.514216,53.5613415]}},{"type":"Feature","properties":{"ZIP":"T5G4J2"},"geometry":{"type":"Point","coordinates":[-113.6150265,53.524249499999996]}},{"type":"Feature","properties":{"ZIP":"T5G1Z6"},"geometry":{"type":"Point","coordinates":[-113.4915605,53.58024]}},{"type":"Feature","properties":{"ZIP":"T5G2G5"},"geometry":{"type":"Point","coordinates":[-113.49555000000001,53.572894000000005]}},{"type":"Feature","properties":{"ZIP":"T5G2R8"},"geometry":{"type":"Point","coordinates":[-113.5173815,53.562735]}},{"type":"Feature","properties":{"ZIP":"T5G0H7"},"geometry":{"type":"Point","coordinates":[-113.518595,53.56389]}},{"type":"Feature","properties":{"ZIP":"T5G1C1"},"geometry":{"type":"Point","coordinates":[-113.48415800000001,53.561944499999996]}},{"type":"Feature","properties":{"ZIP":"T5G0C3"},"geometry":{"type":"Point","coordinates":[-113.5094315,53.556552499999995]}},{"type":"Feature","properties":{"ZIP":"T5G0M1"},"geometry":{"type":"Point","coordinates":[-113.4986,53.567604]}},{"type":"Feature","properties":{"ZIP":"T5G1G6"},"geometry":{"type":"Point","coordinates":[-113.5143555,53.554722999999996]}},{"type":"Feature","properties":{"ZIP":"T5G2V2"},"geometry":{"type":"Point","coordinates":[-113.5159185,53.562734000000006]}},{"type":"Feature","properties":{"ZIP":"T5G0C4"},"geometry":{"type":"Point","coordinates":[-113.5104905,53.557221]}},{"type":"Feature","properties":{"ZIP":"T5G0P8"},"geometry":{"type":"Point","coordinates":[-113.5021995,53.5703415]}},{"type":"Feature","properties":{"ZIP":"T5G3E5"},"geometry":{"type":"Point","coordinates":[-113.4906625,53.5822235]}},{"type":"Feature","properties":{"ZIP":"T5G1J2"},"geometry":{"type":"Point","coordinates":[-113.51859400000001,53.530434]}},{"type":"Feature","properties":{"ZIP":"T5G1Y2"},"geometry":{"type":"Point","coordinates":[-113.506448,53.551823999999996]}},{"type":"Feature","properties":{"ZIP":"T5G2K4"},"geometry":{"type":"Point","coordinates":[-113.497402,53.5788655]}},{"type":"Feature","properties":{"ZIP":"T5G2S2"},"geometry":{"type":"Point","coordinates":[-113.534965,53.549433]}},{"type":"Feature","properties":{"ZIP":"T5G0J6"},"geometry":{"type":"Point","coordinates":[-113.52259000000001,53.563287]}},{"type":"Feature","properties":{"ZIP":"T5G2B7"},"geometry":{"type":"Point","coordinates":[-113.49459200000001,53.565633000000005]}},{"type":"Feature","properties":{"ZIP":"T5G2P6"},"geometry":{"type":"Point","coordinates":[-113.516695,53.549741499999996]}},{"type":"Feature","properties":{"ZIP":"T5G2X8"},"geometry":{"type":"Point","coordinates":[-113.5291605,53.5588605]}},{"type":"Feature","properties":{"ZIP":"T5G0T6"},"geometry":{"type":"Point","coordinates":[-113.488113,53.576617999999996]}},{"type":"Feature","properties":{"ZIP":"T5G2L8"},"geometry":{"type":"Point","coordinates":[-113.517405,53.56276]}},{"type":"Feature","properties":{"ZIP":"T5G0J7"},"geometry":{"type":"Point","coordinates":[-113.51951,53.565023999999994]}},{"type":"Feature","properties":{"ZIP":"T5G0Y7"},"geometry":{"type":"Point","coordinates":[-113.51883699999999,53.563742500000004]}},{"type":"Feature","properties":{"ZIP":"T5G2J3"},"geometry":{"type":"Point","coordinates":[-113.4974125,53.5705195]}},{"type":"Feature","properties":{"ZIP":"T5G2N3"},"geometry":{"type":"Point","coordinates":[-113.528154,53.547973999999996]}},{"type":"Feature","properties":{"ZIP":"T5G0N4"},"geometry":{"type":"Point","coordinates":[-113.4844325,53.5704585]}},{"type":"Feature","properties":{"ZIP":"T5G2P8"},"geometry":{"type":"Point","coordinates":[-113.5182605,53.549741]}},{"type":"Feature","properties":{"ZIP":"T5G1L9"},"geometry":{"type":"Point","coordinates":[-113.487342,53.5694125]}},{"type":"Feature","properties":{"ZIP":"T5G3G4"},"geometry":{"type":"Point","coordinates":[-113.5014855,53.558835]}},{"type":"Feature","properties":{"ZIP":"T5G2B9"},"geometry":{"type":"Point","coordinates":[-113.494641,53.5667895]}},{"type":"Feature","properties":{"ZIP":"T5G2J4"},"geometry":{"type":"Point","coordinates":[-113.50102899999999,53.569486999999995]}},{"type":"Feature","properties":{"ZIP":"T5G0C9"},"geometry":{"type":"Point","coordinates":[-113.5147,53.5610905]}},{"type":"Feature","properties":{"ZIP":"T5G2K7"},"geometry":{"type":"Point","coordinates":[-113.5161405,53.546094999999994]}},{"type":"Feature","properties":{"ZIP":"T5G2R1"},"geometry":{"type":"Point","coordinates":[-113.50027549999999,53.568917]}},{"type":"Feature","properties":{"ZIP":"T5G0G4"},"geometry":{"type":"Point","coordinates":[-113.484127,53.561026]}},{"type":"Feature","properties":{"ZIP":"T5G1M1"},"geometry":{"type":"Point","coordinates":[-113.487155,53.569544]}},{"type":"Feature","properties":{"ZIP":"T5G0N7"},"geometry":{"type":"Point","coordinates":[-113.487854,53.570327500000005]}},{"type":"Feature","properties":{"ZIP":"T5G1A3"},"geometry":{"type":"Point","coordinates":[-113.4826955,53.569638499999996]}},{"type":"Feature","properties":{"ZIP":"T5G2R2"},"geometry":{"type":"Point","coordinates":[-113.5029475,53.5707045]}},{"type":"Feature","properties":{"ZIP":"T5G0G5"},"geometry":{"type":"Point","coordinates":[-113.4850405,53.5610225]}},{"type":"Feature","properties":{"ZIP":"T5G2M4"},"geometry":{"type":"Point","coordinates":[-113.51473999999999,53.548255499999996]}},{"type":"Feature","properties":{"ZIP":"T5G0E2"},"geometry":{"type":"Point","coordinates":[-113.5169985,53.562804]}},{"type":"Feature","properties":{"ZIP":"T5G1Z1"},"geometry":{"type":"Point","coordinates":[-113.49057149999999,53.575644]}},{"type":"Feature","properties":{"ZIP":"T5G2R4"},"geometry":{"type":"Point","coordinates":[-113.527278,53.549499499999996]}},{"type":"Feature","properties":{"ZIP":"T5G2T4"},"geometry":{"type":"Point","coordinates":[-113.5109465,53.557533]}},{"type":"Feature","properties":{"ZIP":"T5G0K7"},"geometry":{"type":"Point","coordinates":[-113.4887675,53.564895500000006]}},{"type":"Feature","properties":{"ZIP":"T5G0P2"},"geometry":{"type":"Point","coordinates":[-113.4909495,53.570447]}},{"type":"Feature","properties":{"ZIP":"T5G2L2"},"geometry":{"type":"Point","coordinates":[-113.5277815,53.546255]}},{"type":"Feature","properties":{"ZIP":"T5G0H5"},"geometry":{"type":"Point","coordinates":[-113.519315,53.5608685]}},{"type":"Feature","properties":{"ZIP":"T5G1W5"},"geometry":{"type":"Point","coordinates":[-113.533255,53.5331125]}},{"type":"Feature","properties":{"ZIP":"T5G1E1"},"geometry":{"type":"Point","coordinates":[-113.5017975,53.5490875]}},{"type":"Feature","properties":{"ZIP":"T5G2N9"},"geometry":{"type":"Point","coordinates":[-113.53382049999999,53.547808]}},{"type":"Feature","properties":{"ZIP":"T5G0P4"},"geometry":{"type":"Point","coordinates":[-113.49259599999999,53.570265]}},{"type":"Feature","properties":{"ZIP":"T5G1Z5"},"geometry":{"type":"Point","coordinates":[-113.4914495,53.5786545]}},{"type":"Feature","properties":{"ZIP":"T5G3B7"},"geometry":{"type":"Point","coordinates":[-113.489346,53.5688555]}},{"type":"Feature","properties":{"ZIP":"T5G0B3"},"geometry":{"type":"Point","coordinates":[-113.49470249999999,53.5589775]}},{"type":"Feature","properties":{"ZIP":"T5G2P1"},"geometry":{"type":"Point","coordinates":[-113.53501800000001,53.54779]}},{"type":"Feature","properties":{"ZIP":"T5G0E6"},"geometry":{"type":"Point","coordinates":[-113.5302945,53.5591765]}},{"type":"Feature","properties":{"ZIP":"T5G0P5"},"geometry":{"type":"Point","coordinates":[-113.496017,53.570519000000004]}},{"type":"Feature","properties":{"ZIP":"T5G3E1"},"geometry":{"type":"Point","coordinates":[-113.5077445,53.5737565]}},{"type":"Feature","properties":{"ZIP":"T5G0X5"},"geometry":{"type":"Point","coordinates":[-113.52369250000001,53.567432999999994]}},{"type":"Feature","properties":{"ZIP":"T5G1X9"},"geometry":{"type":"Point","coordinates":[-113.5188265,53.5343335]}},{"type":"Feature","properties":{"ZIP":"T5G0E8"},"geometry":{"type":"Point","coordinates":[-113.516578,53.5599045]}},{"type":"Feature","properties":{"ZIP":"T5G3E3"},"geometry":{"type":"Point","coordinates":[-113.503527,53.5647635]}},{"type":"Feature","properties":{"ZIP":"T5G2X6"},"geometry":{"type":"Point","coordinates":[-113.526992,53.5653225]}},{"type":"Feature","properties":{"ZIP":"T5G1B1"},"geometry":{"type":"Point","coordinates":[-113.482688,53.57571]}},{"type":"Feature","properties":{"ZIP":"T5G1M8"},"geometry":{"type":"Point","coordinates":[-113.487327,53.5759635]}},{"type":"Feature","properties":{"ZIP":"T5G1P1"},"geometry":{"type":"Point","coordinates":[-113.48867,53.56382]}},{"type":"Feature","properties":{"ZIP":"T5G2P5"},"geometry":{"type":"Point","coordinates":[-113.51501049999999,53.549741]}},{"type":"Feature","properties":{"ZIP":"T5G1B2"},"geometry":{"type":"Point","coordinates":[-113.482688,53.57571]}},{"type":"Feature","properties":{"ZIP":"T5G2G8"},"geometry":{"type":"Point","coordinates":[-113.495551,53.5758555]}},{"type":"Feature","properties":{"ZIP":"T5G2L7"},"geometry":{"type":"Point","coordinates":[-113.533331,53.5461965]}},{"type":"Feature","properties":{"ZIP":"T5G1M9"},"geometry":{"type":"Point","coordinates":[-113.487327,53.5762685]}},{"type":"Feature","properties":{"ZIP":"T5G2N2"},"geometry":{"type":"Point","coordinates":[-113.526457,53.5480625]}},{"type":"Feature","properties":{"ZIP":"T5G1P2"},"geometry":{"type":"Point","coordinates":[-113.48867,53.563571499999995]}},{"type":"Feature","properties":{"ZIP":"T5G2G9"},"geometry":{"type":"Point","coordinates":[-113.495551,53.5760065]}},{"type":"Feature","properties":{"ZIP":"T5G1N1"},"geometry":{"type":"Point","coordinates":[-113.487327,53.577464000000006]}},{"type":"Feature","properties":{"ZIP":"T5G2E4"},"geometry":{"type":"Point","coordinates":[-113.49556,53.563468]}},{"type":"Feature","properties":{"ZIP":"T5G2L9"},"geometry":{"type":"Point","coordinates":[-113.534903,53.5462005]}},{"type":"Feature","properties":{"ZIP":"T5G1N2"},"geometry":{"type":"Point","coordinates":[-113.487327,53.577464500000005]}},{"type":"Feature","properties":{"ZIP":"T5G2E5"},"geometry":{"type":"Point","coordinates":[-113.49556,53.563468]}},{"type":"Feature","properties":{"ZIP":"T5G2Y2"},"geometry":{"type":"Point","coordinates":[-113.5255715,53.5683205]}},{"type":"Feature","properties":{"ZIP":"T5G2M2"},"geometry":{"type":"Point","coordinates":[-113.5129045,53.548255499999996]}},{"type":"Feature","properties":{"ZIP":"T5G2J5"},"geometry":{"type":"Point","coordinates":[-113.497406,53.5731095]}},{"type":"Feature","properties":{"ZIP":"T5G2E6"},"geometry":{"type":"Point","coordinates":[-113.49556,53.5650015]}},{"type":"Feature","properties":{"ZIP":"T5G2Y3"},"geometry":{"type":"Point","coordinates":[-113.529392,53.564377]}},{"type":"Feature","properties":{"ZIP":"T5G2H3"},"geometry":{"type":"Point","coordinates":[-113.495543,53.578720000000004]}},{"type":"Feature","properties":{"ZIP":"T5G2J6"},"geometry":{"type":"Point","coordinates":[-113.497406,53.573834000000005]}},{"type":"Feature","properties":{"ZIP":"T5G2N7"},"geometry":{"type":"Point","coordinates":[-113.531798,53.547795]}},{"type":"Feature","properties":{"ZIP":"T5G0P1"},"geometry":{"type":"Point","coordinates":[-113.48921,53.570463000000004]}},{"type":"Feature","properties":{"ZIP":"T5G1A4"},"geometry":{"type":"Point","coordinates":[-113.482688,53.5713285]}},{"type":"Feature","properties":{"ZIP":"T5G3A1"},"geometry":{"type":"Point","coordinates":[-113.521439,53.566167500000006]}},{"type":"Feature","properties":{"ZIP":"T5G0G7"},"geometry":{"type":"Point","coordinates":[-113.48751050000001,53.5609845]}},{"type":"Feature","properties":{"ZIP":"T5G1B7"},"geometry":{"type":"Point","coordinates":[-113.48288199999999,53.584672]}},{"type":"Feature","properties":{"ZIP":"T5G1R8"},"geometry":{"type":"Point","coordinates":[-113.4889,53.575968]}},{"type":"Feature","properties":{"ZIP":"T5G2H4"},"geometry":{"type":"Point","coordinates":[-113.495543,53.579040000000006]}},{"type":"Feature","properties":{"ZIP":"T5G1N5"},"geometry":{"type":"Point","coordinates":[-113.487335,53.5802015]}},{"type":"Feature","properties":{"ZIP":"T5G2N8"},"geometry":{"type":"Point","coordinates":[-113.533186,53.5477945]}},{"type":"Feature","properties":{"ZIP":"T5G3A6"},"geometry":{"type":"Point","coordinates":[-113.42885749999999,53.443783499999995]}},{"type":"Feature","properties":{"ZIP":"T5G1R9"},"geometry":{"type":"Point","coordinates":[-113.4889,53.575909499999995]}},{"type":"Feature","properties":{"ZIP":"T5G3K5"},"geometry":{"type":"Point","coordinates":[-113.5195765,53.564423]}},{"type":"Feature","properties":{"ZIP":"T5G0L2"},"geometry":{"type":"Point","coordinates":[-113.52050700000001,53.562222500000004]}},{"type":"Feature","properties":{"ZIP":"T5G1N6"},"geometry":{"type":"Point","coordinates":[-113.487335,53.580202]}},{"type":"Feature","properties":{"ZIP":"T5G0E4"},"geometry":{"type":"Point","coordinates":[-113.5271635,53.5587765]}},{"type":"Feature","properties":{"ZIP":"T5G1P8"},"geometry":{"type":"Point","coordinates":[-113.488731,53.56819]}},{"type":"Feature","properties":{"ZIP":"T5G1V4"},"geometry":{"type":"Point","coordinates":[-113.490421,53.571774500000004]}},{"type":"Feature","properties":{"ZIP":"T5G2L3"},"geometry":{"type":"Point","coordinates":[-113.527323,53.546175500000004]}},{"type":"Feature","properties":{"ZIP":"T5G2M7"},"geometry":{"type":"Point","coordinates":[-113.5171565,53.5482575]}},{"type":"Feature","properties":{"ZIP":"T5G2L4"},"geometry":{"type":"Point","coordinates":[-113.529916,53.5461895]}},{"type":"Feature","properties":{"ZIP":"T5G2V1"},"geometry":{"type":"Point","coordinates":[-113.5158055,53.5587865]}},{"type":"Feature","properties":{"ZIP":"T5G2X3"},"geometry":{"type":"Point","coordinates":[-113.52819550000001,53.562762]}}]}