{"type":"FeatureCollection","features":[{"type":"Feature","properties":{"ZIP":"T5H1Z3"},"geometry":{"type":"Point","coordinates":[-113.48748499999999,53.530656]}},{"type":"Feature","properties":{"ZIP":"T5H4K1"},"geometry":{"type":"Point","coordinates":[-113.501924,53.55787]}},{"type":"Feature","properties":{"ZIP":"T5H4B4"},"geometry":{"type":"Point","coordinates":[-113.4651795,53.543018000000004]}},{"type":"Feature","properties":{"ZIP":"T5H2V7"},"geometry":{"type":"Point","coordinates":[-113.50112899999999,53.5488345]}},{"type":"Feature","properties":{"ZIP":"T5H1S7"},"geometry":{"type":"Point","coordinates":[-113.471868,53.543161999999995]}},{"type":"Feature","properties":{"ZIP":"T5H3L4"},"geometry":{"type":"Point","coordinates":[-113.51946749999999,53.556134]}},{"type":"Feature","properties":{"ZIP":"T5H0W6"},"geometry":{"type":"Point","coordinates":[-113.5049925,53.5520805]}},{"type":"Feature","properties":{"ZIP":"T5H0T5"},"geometry":{"type":"Point","coordinates":[-113.4926735,53.5419095]}},{"type":"Feature","properties":{"ZIP":"T5H1R2"},"geometry":{"type":"Point","coordinates":[-113.483016,53.5356935]}},{"type":"Feature","properties":{"ZIP":"T5H0N4"},"geometry":{"type":"Point","coordinates":[-113.4875585,53.5514545]}},{"type":"Feature","properties":{"ZIP":"T5H1C3"},"geometry":{"type":"Point","coordinates":[-113.48895350000001,53.5549175]}},{"type":"Feature","properties":{"ZIP":"T5H0S9"},"geometry":{"type":"Point","coordinates":[-113.493851,53.544067999999996]}},{"type":"Feature","properties":{"ZIP":"T5H1G5"},"geometry":{"type":"Point","coordinates":[-113.4999675,53.5508915]}},{"type":"Feature","properties":{"ZIP":"T5H0T1"},"geometry":{"type":"Point","coordinates":[-113.495341,53.5445265]}},{"type":"Feature","properties":{"ZIP":"T5H1W6"},"geometry":{"type":"Point","coordinates":[-113.48214,53.536094000000006]}},{"type":"Feature","properties":{"ZIP":"T5H2K7"},"geometry":{"type":"Point","coordinates":[-113.499414,53.545459]}},{"type":"Feature","properties":{"ZIP":"T5H0L9"},"geometry":{"type":"Point","coordinates":[-113.523582,53.548195500000006]}},{"type":"Feature","properties":{"ZIP":"T5H1Z4"},"geometry":{"type":"Point","coordinates":[-113.484584,53.5307155]}},{"type":"Feature","properties":{"ZIP":"T5H2P6"},"geometry":{"type":"Point","coordinates":[-113.5004345,53.545791]}},{"type":"Feature","properties":{"ZIP":"T5H0G9"},"geometry":{"type":"Point","coordinates":[-113.488591,53.5399235]}},{"type":"Feature","properties":{"ZIP":"T5H1J5"},"geometry":{"type":"Point","coordinates":[-113.484443,53.5593585]}},{"type":"Feature","properties":{"ZIP":"T5H1P9"},"geometry":{"type":"Point","coordinates":[-113.4819765,53.535317]}},{"type":"Feature","properties":{"ZIP":"T5H1W7"},"geometry":{"type":"Point","coordinates":[-113.480891,53.536398500000004]}},{"type":"Feature","properties":{"ZIP":"T5H1H1"},"geometry":{"type":"Point","coordinates":[-113.5118305,53.5302005]}},{"type":"Feature","properties":{"ZIP":"T5H1V5"},"geometry":{"type":"Point","coordinates":[-113.479809,53.5555605]}},{"type":"Feature","properties":{"ZIP":"T5H3R8"},"geometry":{"type":"Point","coordinates":[-113.459245,53.55763399999999]}},{"type":"Feature","properties":{"ZIP":"T5H3M7"},"geometry":{"type":"Point","coordinates":[-113.5095005,53.566446]}},{"type":"Feature","properties":{"ZIP":"T5H1H2"},"geometry":{"type":"Point","coordinates":[-113.511437,53.5301295]}},{"type":"Feature","properties":{"ZIP":"T5H3R9"},"geometry":{"type":"Point","coordinates":[-113.4634115,53.557480999999996]}},{"type":"Feature","properties":{"ZIP":"T5H1J8"},"geometry":{"type":"Point","coordinates":[-113.49058149999999,53.558332]}},{"type":"Feature","properties":{"ZIP":"T5H0Z3"},"geometry":{"type":"Point","coordinates":[-113.4819675,53.554210499999996]}},{"type":"Feature","properties":{"ZIP":"T5H1P1"},"geometry":{"type":"Point","coordinates":[-113.480594,53.534510499999996]}},{"type":"Feature","properties":{"ZIP":"T5H0T6"},"geometry":{"type":"Point","coordinates":[-113.494372,53.542914999999994]}},{"type":"Feature","properties":{"ZIP":"T5H3N7"},"geometry":{"type":"Point","coordinates":[-113.51256000000001,53.5686355]}},{"type":"Feature","properties":{"ZIP":"T5H1V9"},"geometry":{"type":"Point","coordinates":[-113.48083199999999,53.5571595]}},{"type":"Feature","properties":{"ZIP":"T5H0C1"},"geometry":{"type":"Point","coordinates":[-113.4741475,53.544179]}},{"type":"Feature","properties":{"ZIP":"T5H1P4"},"geometry":{"type":"Point","coordinates":[-113.468909,53.547431]}},{"type":"Feature","properties":{"ZIP":"T5H1H9"},"geometry":{"type":"Point","coordinates":[-113.5107095,53.5588575]}},{"type":"Feature","properties":{"ZIP":"T5H3P7"},"geometry":{"type":"Point","coordinates":[-113.52985749999999,53.55454]}},{"type":"Feature","properties":{"ZIP":"T5H4L8"},"geometry":{"type":"Point","coordinates":[-113.496585,53.531067]}},{"type":"Feature","properties":{"ZIP":"T5H1G4"},"geometry":{"type":"Point","coordinates":[-113.489814,53.5565855]}},{"type":"Feature","properties":{"ZIP":"T5H4N5"},"geometry":{"type":"Point","coordinates":[-113.47579999999999,53.5322305]}},{"type":"Feature","properties":{"ZIP":"T5H2E6"},"geometry":{"type":"Point","coordinates":[-113.48575550000001,53.5577795]}},{"type":"Feature","properties":{"ZIP":"T5H1G8"},"geometry":{"type":"Point","coordinates":[-113.5148245,53.5617745]}},{"type":"Feature","properties":{"ZIP":"T5H1V4"},"geometry":{"type":"Point","coordinates":[-113.478988,53.5542825]}},{"type":"Feature","properties":{"ZIP":"T5H2L2"},"geometry":{"type":"Point","coordinates":[-113.495416,53.54208800000001]}},{"type":"Feature","properties":{"ZIP":"T5H2Y9"},"geometry":{"type":"Point","coordinates":[-113.505275,53.551914499999995]}},{"type":"Feature","properties":{"ZIP":"T5H0M4"},"geometry":{"type":"Point","coordinates":[-113.4870095,53.54952299999999]}},{"type":"Feature","properties":{"ZIP":"T5H1C8"},"geometry":{"type":"Point","coordinates":[-113.498896,53.544979999999995]}},{"type":"Feature","properties":{"ZIP":"T5H2E7"},"geometry":{"type":"Point","coordinates":[-113.4857555,53.5577795]}},{"type":"Feature","properties":{"ZIP":"T5H3A5"},"geometry":{"type":"Point","coordinates":[-113.5071235,53.5536095]}},{"type":"Feature","properties":{"ZIP":"T5H3M6"},"geometry":{"type":"Point","coordinates":[-113.511048,53.567130500000005]}},{"type":"Feature","properties":{"ZIP":"T5H4N7"},"geometry":{"type":"Point","coordinates":[-113.4709545,53.5429855]}},{"type":"Feature","properties":{"ZIP":"T5H1N6"},"geometry":{"type":"Point","coordinates":[-113.468513,53.5480955]}},{"type":"Feature","properties":{"ZIP":"T5H2P7"},"geometry":{"type":"Point","coordinates":[-113.5007475,53.546679999999995]}},{"type":"Feature","properties":{"ZIP":"T5H1J7"},"geometry":{"type":"Point","coordinates":[-113.487831,53.5587995]}},{"type":"Feature","properties":{"ZIP":"T5H2L4"},"geometry":{"type":"Point","coordinates":[-113.4879485,53.549893499999996]}},{"type":"Feature","properties":{"ZIP":"T5H0B1"},"geometry":{"type":"Point","coordinates":[-113.465844,53.5427805]}},{"type":"Feature","properties":{"ZIP":"T5H2E8"},"geometry":{"type":"Point","coordinates":[-113.48619450000001,53.5585935]}},{"type":"Feature","properties":{"ZIP":"T5H1V6"},"geometry":{"type":"Point","coordinates":[-113.4795175,53.5551195]}},{"type":"Feature","properties":{"ZIP":"T5H2Z2"},"geometry":{"type":"Point","coordinates":[-113.5065015,53.5524245]}},{"type":"Feature","properties":{"ZIP":"T5H1S9"},"geometry":{"type":"Point","coordinates":[-113.473236,53.545454]}},{"type":"Feature","properties":{"ZIP":"T5H1Y5"},"geometry":{"type":"Point","coordinates":[-113.48055249999999,53.554941]}},{"type":"Feature","properties":{"ZIP":"T5H0E6"},"geometry":{"type":"Point","coordinates":[-113.489513,53.5395135]}},{"type":"Feature","properties":{"ZIP":"T5H1H3"},"geometry":{"type":"Point","coordinates":[-113.499731,53.5449565]}},{"type":"Feature","properties":{"ZIP":"T5H1V7"},"geometry":{"type":"Point","coordinates":[-113.4800365,53.555936]}},{"type":"Feature","properties":{"ZIP":"T5H0N2"},"geometry":{"type":"Point","coordinates":[-113.48497,53.5518325]}},{"type":"Feature","properties":{"ZIP":"T5H1T1"},"geometry":{"type":"Point","coordinates":[-113.4729475,53.5449615]}},{"type":"Feature","properties":{"ZIP":"T5H3A8"},"geometry":{"type":"Point","coordinates":[-113.5090985,53.555837]}},{"type":"Feature","properties":{"ZIP":"T5H4P1"},"geometry":{"type":"Point","coordinates":[-113.47225750000001,53.542961000000005]}},{"type":"Feature","properties":{"ZIP":"T5H1R4"},"geometry":{"type":"Point","coordinates":[-113.484066,53.5364495]}},{"type":"Feature","properties":{"ZIP":"T5H4M9"},"geometry":{"type":"Point","coordinates":[-113.477832,53.533122]}},{"type":"Feature","properties":{"ZIP":"T5H0Z5"},"geometry":{"type":"Point","coordinates":[-113.48442700000001,53.553751500000004]}},{"type":"Feature","properties":{"ZIP":"T5H0J6"},"geometry":{"type":"Point","coordinates":[-113.47882000000001,53.550056]}},{"type":"Feature","properties":{"ZIP":"T5H3L8"},"geometry":{"type":"Point","coordinates":[-113.5212785,53.549051000000006]}},{"type":"Feature","properties":{"ZIP":"T5H4P3"},"geometry":{"type":"Point","coordinates":[-113.47945150000001,53.534358999999995]}},{"type":"Feature","properties":{"ZIP":"T5H0S6"},"geometry":{"type":"Point","coordinates":[-113.49234949999999,53.5428325]}},{"type":"Feature","properties":{"ZIP":"T5H1W1"},"geometry":{"type":"Point","coordinates":[-113.48116200000001,53.557672499999995]}},{"type":"Feature","properties":{"ZIP":"T5H2K3"},"geometry":{"type":"Point","coordinates":[-113.4986135,53.5446715]}},{"type":"Feature","properties":{"ZIP":"T5H1K3"},"geometry":{"type":"Point","coordinates":[-113.5186235,53.55775]}},{"type":"Feature","properties":{"ZIP":"T5H1G2"},"geometry":{"type":"Point","coordinates":[-113.48693750000001,53.557075499999996]}},{"type":"Feature","properties":{"ZIP":"T5H3B2"},"geometry":{"type":"Point","coordinates":[-113.508547,53.549186]}},{"type":"Feature","properties":{"ZIP":"T5H0S7"},"geometry":{"type":"Point","coordinates":[-113.49544900000001,53.54466]}},{"type":"Feature","properties":{"ZIP":"T5H1W2"},"geometry":{"type":"Point","coordinates":[-113.481736,53.558693500000004]}},{"type":"Feature","properties":{"ZIP":"T5H2K4"},"geometry":{"type":"Point","coordinates":[-113.49807849999999,53.5445135]}},{"type":"Feature","properties":{"ZIP":"T5H1K4"},"geometry":{"type":"Point","coordinates":[-113.5175815,53.557722999999996]}},{"type":"Feature","properties":{"ZIP":"T5H1R8"},"geometry":{"type":"Point","coordinates":[-113.51479549999999,53.525768]}},{"type":"Feature","properties":{"ZIP":"T5H4N3"},"geometry":{"type":"Point","coordinates":[-113.477503,53.533004500000004]}},{"type":"Feature","properties":{"ZIP":"T5H0C3"},"geometry":{"type":"Point","coordinates":[-113.476967,53.54448]}},{"type":"Feature","properties":{"ZIP":"T5H0C4"},"geometry":{"type":"Point","coordinates":[-113.47605949999999,53.544556]}},{"type":"Feature","properties":{"ZIP":"T5H1C6"},"geometry":{"type":"Point","coordinates":[-113.509116,53.5328695]}},{"type":"Feature","properties":{"ZIP":"T5H1K8"},"geometry":{"type":"Point","coordinates":[-113.524045,53.557675]}},{"type":"Feature","properties":{"ZIP":"T5H0N8"},"geometry":{"type":"Point","coordinates":[-113.4927555,53.5498105]}},{"type":"Feature","properties":{"ZIP":"T5H1N4"},"geometry":{"type":"Point","coordinates":[-113.464881,53.5447895]}},{"type":"Feature","properties":{"ZIP":"T5H2J3"},"geometry":{"type":"Point","coordinates":[-113.495316,53.542353]}},{"type":"Feature","properties":{"ZIP":"T5H0G8"},"geometry":{"type":"Point","coordinates":[-113.49697549999999,53.533229000000006]}},{"type":"Feature","properties":{"ZIP":"T5H1J4"},"geometry":{"type":"Point","coordinates":[-113.4846505,53.559323]}},{"type":"Feature","properties":{"ZIP":"T5H1S6"},"geometry":{"type":"Point","coordinates":[-113.4747165,53.5502075]}},{"type":"Feature","properties":{"ZIP":"T5H2M7"},"geometry":{"type":"Point","coordinates":[-113.489607,53.555899999999994]}},{"type":"Feature","properties":{"ZIP":"T5H4N6"},"geometry":{"type":"Point","coordinates":[-113.470939,53.5429885]}},{"type":"Feature","properties":{"ZIP":"T5H1N5"},"geometry":{"type":"Point","coordinates":[-113.4670285,53.5467535]}},{"type":"Feature","properties":{"ZIP":"T5H2C5"},"geometry":{"type":"Point","coordinates":[-113.4828205,53.552488499999995]}},{"type":"Feature","properties":{"ZIP":"T5H1Y3"},"geometry":{"type":"Point","coordinates":[-113.490382,53.541354]}},{"type":"Feature","properties":{"ZIP":"T5H2M8"},"geometry":{"type":"Point","coordinates":[-113.48979,53.556682]}},{"type":"Feature","properties":{"ZIP":"T5H2J5"},"geometry":{"type":"Point","coordinates":[-113.49552800000001,53.5428065]}},{"type":"Feature","properties":{"ZIP":"T5H2X7"},"geometry":{"type":"Point","coordinates":[-113.503958,53.5504785]}},{"type":"Feature","properties":{"ZIP":"T5H0H3"},"geometry":{"type":"Point","coordinates":[-113.478139,53.5483125]}},{"type":"Feature","properties":{"ZIP":"T5H0T4"},"geometry":{"type":"Point","coordinates":[-113.49274399999999,53.542055500000004]}},{"type":"Feature","properties":{"ZIP":"T5H1R1"},"geometry":{"type":"Point","coordinates":[-113.482813,53.5361665]}},{"type":"Feature","properties":{"ZIP":"T5H1Y4"},"geometry":{"type":"Point","coordinates":[-113.494423,53.541904]}},{"type":"Feature","properties":{"ZIP":"T5H2W2"},"geometry":{"type":"Point","coordinates":[-113.501503,53.5487785]}},{"type":"Feature","properties":{"ZIP":"T5H4N8"},"geometry":{"type":"Point","coordinates":[-113.470538,53.543113]}},{"type":"Feature","properties":{"ZIP":"T5H1N9"},"geometry":{"type":"Point","coordinates":[-113.467073,53.5445605]}},{"type":"Feature","properties":{"ZIP":"T5H0H4"},"geometry":{"type":"Point","coordinates":[-113.48088849999999,53.547827]}},{"type":"Feature","properties":{"ZIP":"T5H2S9"},"geometry":{"type":"Point","coordinates":[-113.4938965,53.555377500000006]}},{"type":"Feature","properties":{"ZIP":"T5H1L6"},"geometry":{"type":"Point","coordinates":[-113.465315,53.557910500000006]}},{"type":"Feature","properties":{"ZIP":"T5H2E9"},"geometry":{"type":"Point","coordinates":[-113.486245,53.5586825]}},{"type":"Feature","properties":{"ZIP":"T5H3H3"},"geometry":{"type":"Point","coordinates":[-113.5107845,53.557049]}},{"type":"Feature","properties":{"ZIP":"T5H4N9"},"geometry":{"type":"Point","coordinates":[-113.470538,53.543113]}},{"type":"Feature","properties":{"ZIP":"T5H2X9"},"geometry":{"type":"Point","coordinates":[-113.5060125,53.549983499999996]}},{"type":"Feature","properties":{"ZIP":"T5H1J9"},"geometry":{"type":"Point","coordinates":[-113.4905815,53.558332]}},{"type":"Feature","properties":{"ZIP":"T5H1R3"},"geometry":{"type":"Point","coordinates":[-113.4841105,53.5365935]}},{"type":"Feature","properties":{"ZIP":"T5H1X2"},"geometry":{"type":"Point","coordinates":[-113.487764,53.538835000000006]}},{"type":"Feature","properties":{"ZIP":"T5H2L6"},"geometry":{"type":"Point","coordinates":[-113.4961585,53.542902999999995]}},{"type":"Feature","properties":{"ZIP":"T5H2Z3"},"geometry":{"type":"Point","coordinates":[-113.50623250000001,53.552922499999994]}},{"type":"Feature","properties":{"ZIP":"T5H4M8"},"geometry":{"type":"Point","coordinates":[-113.50404549999999,53.5512155]}},{"type":"Feature","properties":{"ZIP":"T5H1L7"},"geometry":{"type":"Point","coordinates":[-113.513897,53.518101]}},{"type":"Feature","properties":{"ZIP":"T5H1Y6"},"geometry":{"type":"Point","coordinates":[-113.4917955,53.542122500000005]}},{"type":"Feature","properties":{"ZIP":"T5H3N6"},"geometry":{"type":"Point","coordinates":[-113.566558,53.567942]}},{"type":"Feature","properties":{"ZIP":"T5H0S2"},"geometry":{"type":"Point","coordinates":[-113.523322,53.549550499999995]}},{"type":"Feature","properties":{"ZIP":"T5H0Z4"},"geometry":{"type":"Point","coordinates":[-113.4815545,53.553698]}},{"type":"Feature","properties":{"ZIP":"T5H1H4"},"geometry":{"type":"Point","coordinates":[-113.511007,53.5323355]}},{"type":"Feature","properties":{"ZIP":"T5H1P2"},"geometry":{"type":"Point","coordinates":[-113.46788950000001,53.545824499999995]}},{"type":"Feature","properties":{"ZIP":"T5H2K1"},"geometry":{"type":"Point","coordinates":[-113.49785349999999,53.5442285]}},{"type":"Feature","properties":{"ZIP":"T5H2Y1"},"geometry":{"type":"Point","coordinates":[-113.5048615,53.551271]}},{"type":"Feature","properties":{"ZIP":"T5H3C5"},"geometry":{"type":"Point","coordinates":[-113.510217,53.548807999999994]}},{"type":"Feature","properties":{"ZIP":"T5H0T8"},"geometry":{"type":"Point","coordinates":[-113.4957795,53.543216]}},{"type":"Feature","properties":{"ZIP":"T5H2Z6"},"geometry":{"type":"Point","coordinates":[-113.5083975,53.5544675]}},{"type":"Feature","properties":{"ZIP":"T5H0X5"},"geometry":{"type":"Point","coordinates":[-113.509465,53.551428]}},{"type":"Feature","properties":{"ZIP":"T5H1H5"},"geometry":{"type":"Point","coordinates":[-113.5106355,53.533299]}},{"type":"Feature","properties":{"ZIP":"T5H1P3"},"geometry":{"type":"Point","coordinates":[-113.468032,53.546049]}},{"type":"Feature","properties":{"ZIP":"T5H3K6"},"geometry":{"type":"Point","coordinates":[-113.51948200000001,53.5487595]}},{"type":"Feature","properties":{"ZIP":"T5H3S3"},"geometry":{"type":"Point","coordinates":[-113.4685705,53.5563045]}},{"type":"Feature","properties":{"ZIP":"T5H1K2"},"geometry":{"type":"Point","coordinates":[-113.514054,53.5577505]}},{"type":"Feature","properties":{"ZIP":"T5H3W6"},"geometry":{"type":"Point","coordinates":[-113.47779299999999,53.5444105]}},{"type":"Feature","properties":{"ZIP":"T5H3N9"},"geometry":{"type":"Point","coordinates":[-113.5173245,53.5625985]}},{"type":"Feature","properties":{"ZIP":"T5H0G3"},"geometry":{"type":"Point","coordinates":[-113.484787,53.545232999999996]}},{"type":"Feature","properties":{"ZIP":"T5H1C1"},"geometry":{"type":"Point","coordinates":[-113.48617250000001,53.555330999999995]}},{"type":"Feature","properties":{"ZIP":"T5H1R7"},"geometry":{"type":"Point","coordinates":[-113.51479499999999,53.525768]}},{"type":"Feature","properties":{"ZIP":"T5H0X7"},"geometry":{"type":"Point","coordinates":[-113.50766949999999,53.551657500000005]}},{"type":"Feature","properties":{"ZIP":"T5H2H8"},"geometry":{"type":"Point","coordinates":[-113.494247,53.5415675]}},{"type":"Feature","properties":{"ZIP":"T5H0G5"},"geometry":{"type":"Point","coordinates":[-113.4846395,53.545345]}},{"type":"Feature","properties":{"ZIP":"T5H4L7"},"geometry":{"type":"Point","coordinates":[-113.479037,53.5462275]}},{"type":"Feature","properties":{"ZIP":"T5H2T8"},"geometry":{"type":"Point","coordinates":[-113.49556749999999,53.552204]}},{"type":"Feature","properties":{"ZIP":"T5H1Z1"},"geometry":{"type":"Point","coordinates":[-113.497201,53.543231000000006]}},{"type":"Feature","properties":{"ZIP":"T5H0S8"},"geometry":{"type":"Point","coordinates":[-113.49701099999999,53.545966]}},{"type":"Feature","properties":{"ZIP":"T5H1J2"},"geometry":{"type":"Point","coordinates":[-113.51314149999999,53.5599845]}},{"type":"Feature","properties":{"ZIP":"T5H1P6"},"geometry":{"type":"Point","coordinates":[-113.48076950000001,53.5346435]}},{"type":"Feature","properties":{"ZIP":"T5H2K5"},"geometry":{"type":"Point","coordinates":[-113.498293,53.544742]}},{"type":"Feature","properties":{"ZIP":"T5H1R9"},"geometry":{"type":"Point","coordinates":[-113.5147375,53.525757]}},{"type":"Feature","properties":{"ZIP":"T5H2V5"},"geometry":{"type":"Point","coordinates":[-113.497407,53.5504615]}},{"type":"Feature","properties":{"ZIP":"T5H1J3"},"geometry":{"type":"Point","coordinates":[-113.510272,53.5636545]}},{"type":"Feature","properties":{"ZIP":"T5H1P7"},"geometry":{"type":"Point","coordinates":[-113.4810755,53.5346125]}},{"type":"Feature","properties":{"ZIP":"T5H2K6"},"geometry":{"type":"Point","coordinates":[-113.498591,53.5446975]}},{"type":"Feature","properties":{"ZIP":"T5H2S3"},"geometry":{"type":"Point","coordinates":[-113.49385000000001,53.551479]}},{"type":"Feature","properties":{"ZIP":"T5H3E1"},"geometry":{"type":"Point","coordinates":[-113.5102795,53.552207]}},{"type":"Feature","properties":{"ZIP":"T5H3T3"},"geometry":{"type":"Point","coordinates":[-113.47601,53.547853]}},{"type":"Feature","properties":{"ZIP":"T5H1S1"},"geometry":{"type":"Point","coordinates":[-113.514747,53.5257575]}},{"type":"Feature","properties":{"ZIP":"T5H2V6"},"geometry":{"type":"Point","coordinates":[-113.50042400000001,53.5480225]}},{"type":"Feature","properties":{"ZIP":"T5H3A3"},"geometry":{"type":"Point","coordinates":[-113.505985,53.5525175]}},{"type":"Feature","properties":{"ZIP":"T5H0Y1"},"geometry":{"type":"Point","coordinates":[-113.514869,53.551474999999996]}},{"type":"Feature","properties":{"ZIP":"T5H1T9"},"geometry":{"type":"Point","coordinates":[-113.4773275,53.551807]}},{"type":"Feature","properties":{"ZIP":"T5H2P5"},"geometry":{"type":"Point","coordinates":[-113.5005345,53.5458775]}},{"type":"Feature","properties":{"ZIP":"T5H2X5"},"geometry":{"type":"Point","coordinates":[-113.50324549999999,53.551722]}},{"type":"Feature","properties":{"ZIP":"T5H1A2"},"geometry":{"type":"Point","coordinates":[-113.4852695,53.554553999999996]}},{"type":"Feature","properties":{"ZIP":"T5H1P8"},"geometry":{"type":"Point","coordinates":[-113.4697025,53.545752]}},{"type":"Feature","properties":{"ZIP":"T5H2C4"},"geometry":{"type":"Point","coordinates":[-113.4825085,53.551938]}},{"type":"Feature","properties":{"ZIP":"T5H3E2"},"geometry":{"type":"Point","coordinates":[-113.509584,53.553728]}},{"type":"Feature","properties":{"ZIP":"T5H3L2"},"geometry":{"type":"Point","coordinates":[-113.51855,53.552405]}},{"type":"Feature","properties":{"ZIP":"T5H0W3"},"geometry":{"type":"Point","coordinates":[-113.5021855,53.5491215]}},{"type":"Feature","properties":{"ZIP":"T5H1C7"},"geometry":{"type":"Point","coordinates":[-113.50973400000001,53.532852500000004]}},{"type":"Feature","properties":{"ZIP":"T5H1K9"},"geometry":{"type":"Point","coordinates":[-113.4602585,53.558485000000005]}},{"type":"Feature","properties":{"ZIP":"T5H1Y2"},"geometry":{"type":"Point","coordinates":[-113.48003299999999,53.554024999999996]}},{"type":"Feature","properties":{"ZIP":"T5H2X6"},"geometry":{"type":"Point","coordinates":[-113.5022465,53.549453]}},{"type":"Feature","properties":{"ZIP":"T5H3J7"},"geometry":{"type":"Point","coordinates":[-113.5176855,53.54932]}},{"type":"Feature","properties":{"ZIP":"T5H3R6"},"geometry":{"type":"Point","coordinates":[-113.47565549999999,53.541978]}},{"type":"Feature","properties":{"ZIP":"T5H0T2"},"geometry":{"type":"Point","coordinates":[-113.488745,53.553235]}},{"type":"Feature","properties":{"ZIP":"T5H3E4"},"geometry":{"type":"Point","coordinates":[-113.5102655,53.555387499999995]}},{"type":"Feature","properties":{"ZIP":"T5H3L3"},"geometry":{"type":"Point","coordinates":[-113.5194695,53.5551085]}},{"type":"Feature","properties":{"ZIP":"T5H3V2"},"geometry":{"type":"Point","coordinates":[-113.4803955,53.544376]}},{"type":"Feature","properties":{"ZIP":"T5H0A9"},"geometry":{"type":"Point","coordinates":[-113.46555699999999,53.5439235]}},{"type":"Feature","properties":{"ZIP":"T5H3C2"},"geometry":{"type":"Point","coordinates":[-113.508274,53.5550985]}},{"type":"Feature","properties":{"ZIP":"T5H3J8"},"geometry":{"type":"Point","coordinates":[-113.5161145,53.5508815]}},{"type":"Feature","properties":{"ZIP":"T5H2C6"},"geometry":{"type":"Point","coordinates":[-113.482934,53.5526865]}},{"type":"Feature","properties":{"ZIP":"T5H2Z1"},"geometry":{"type":"Point","coordinates":[-113.505611,53.552046000000004]}},{"type":"Feature","properties":{"ZIP":"T5H3V5"},"geometry":{"type":"Point","coordinates":[-113.48425499999999,53.5428425]}},{"type":"Feature","properties":{"ZIP":"T5H0M7"},"geometry":{"type":"Point","coordinates":[-113.473742,53.5547075]}},{"type":"Feature","properties":{"ZIP":"T5H1C9"},"geometry":{"type":"Point","coordinates":[-113.508794,53.5340295]}},{"type":"Feature","properties":{"ZIP":"T5H1S8"},"geometry":{"type":"Point","coordinates":[-113.4723735,53.5440235]}},{"type":"Feature","properties":{"ZIP":"T5H3A6"},"geometry":{"type":"Point","coordinates":[-113.5067825,53.553726499999996]}},{"type":"Feature","properties":{"ZIP":"T5H3H2"},"geometry":{"type":"Point","coordinates":[-113.5100545,53.556256000000005]}},{"type":"Feature","properties":{"ZIP":"T5H0E5"},"geometry":{"type":"Point","coordinates":[-113.47962749999999,53.544926000000004]}},{"type":"Feature","properties":{"ZIP":"T5H2J6"},"geometry":{"type":"Point","coordinates":[-113.49607900000001,53.542898]}},{"type":"Feature","properties":{"ZIP":"T5H3C3"},"geometry":{"type":"Point","coordinates":[-113.5083555,53.5571705]}},{"type":"Feature","properties":{"ZIP":"T5H2L5"},"geometry":{"type":"Point","coordinates":[-113.48812749999999,53.5507155]}},{"type":"Feature","properties":{"ZIP":"T5H0W8"},"geometry":{"type":"Point","coordinates":[-113.50512699999999,53.5514835]}},{"type":"Feature","properties":{"ZIP":"T5H2W3"},"geometry":{"type":"Point","coordinates":[-113.5014065,53.548668000000006]}},{"type":"Feature","properties":{"ZIP":"T5H3A7"},"geometry":{"type":"Point","coordinates":[-113.508116,53.5548005]}},{"type":"Feature","properties":{"ZIP":"T5H2J7"},"geometry":{"type":"Point","coordinates":[-113.486729,53.553492500000004]}},{"type":"Feature","properties":{"ZIP":"T5H3C4"},"geometry":{"type":"Point","coordinates":[-113.5086235,53.557494000000005]}},{"type":"Feature","properties":{"ZIP":"T5H3S1"},"geometry":{"type":"Point","coordinates":[-113.4660585,53.556977]}},{"type":"Feature","properties":{"ZIP":"T5H2G1"},"geometry":{"type":"Point","coordinates":[-113.486493,53.559287]}},{"type":"Feature","properties":{"ZIP":"T5H2W4"},"geometry":{"type":"Point","coordinates":[-113.505239,53.546071]}},{"type":"Feature","properties":{"ZIP":"T5H4B3"},"geometry":{"type":"Point","coordinates":[-113.466674,53.54553]}},{"type":"Feature","properties":{"ZIP":"T5H4L1"},"geometry":{"type":"Point","coordinates":[-113.4872815,53.5588955]}},{"type":"Feature","properties":{"ZIP":"T5H0H9"},"geometry":{"type":"Point","coordinates":[-113.479619,53.548950000000005]}},{"type":"Feature","properties":{"ZIP":"T5H1K1"},"geometry":{"type":"Point","coordinates":[-113.514054,53.5577505]}},{"type":"Feature","properties":{"ZIP":"T5H3W4"},"geometry":{"type":"Point","coordinates":[-113.4693295,53.548111000000006]}},{"type":"Feature","properties":{"ZIP":"T5H0N3"},"geometry":{"type":"Point","coordinates":[-113.4843245,53.5505165]}},{"type":"Feature","properties":{"ZIP":"T5H1E8"},"geometry":{"type":"Point","coordinates":[-113.5115705,53.540915]}},{"type":"Feature","properties":{"ZIP":"T5H2N8"},"geometry":{"type":"Point","coordinates":[-113.4978055,53.543904]}},{"type":"Feature","properties":{"ZIP":"T5H3A9"},"geometry":{"type":"Point","coordinates":[-113.508899,53.5558355]}},{"type":"Feature","properties":{"ZIP":"T5H2B2"},"geometry":{"type":"Point","coordinates":[-113.4787515,53.5457375]}},{"type":"Feature","properties":{"ZIP":"T5H2K2"},"geometry":{"type":"Point","coordinates":[-113.4973795,53.544124]}},{"type":"Feature","properties":{"ZIP":"T5H2R8"},"geometry":{"type":"Point","coordinates":[-113.49380049999999,53.5484035]}},{"type":"Feature","properties":{"ZIP":"T5H1B9"},"geometry":{"type":"Point","coordinates":[-113.4829515,53.5559095]}},{"type":"Feature","properties":{"ZIP":"T5H2W9"},"geometry":{"type":"Point","coordinates":[-113.5030455,53.5495285]}},{"type":"Feature","properties":{"ZIP":"T5H3B1"},"geometry":{"type":"Point","coordinates":[-113.508314,53.5490005]}},{"type":"Feature","properties":{"ZIP":"T5H3H6"},"geometry":{"type":"Point","coordinates":[-113.50982250000001,53.5563115]}},{"type":"Feature","properties":{"ZIP":"T5H0Z6"},"geometry":{"type":"Point","coordinates":[-113.488816,53.552591500000005]}},{"type":"Feature","properties":{"ZIP":"T5H1H6"},"geometry":{"type":"Point","coordinates":[-113.510513,53.5333665]}},{"type":"Feature","properties":{"ZIP":"T5H2B3"},"geometry":{"type":"Point","coordinates":[-113.47954200000001,53.546536]}},{"type":"Feature","properties":{"ZIP":"T5H2Y3"},"geometry":{"type":"Point","coordinates":[-113.506542,53.553071]}},{"type":"Feature","properties":{"ZIP":"T5H3C7"},"geometry":{"type":"Point","coordinates":[-113.5102825,53.5506995]}},{"type":"Feature","properties":{"ZIP":"T5H0V4"},"geometry":{"type":"Point","coordinates":[-113.494432,53.5514355]}},{"type":"Feature","properties":{"ZIP":"T5H2E2"},"geometry":{"type":"Point","coordinates":[-113.48418050000001,53.555118]}},{"type":"Feature","properties":{"ZIP":"T5H2M2"},"geometry":{"type":"Point","coordinates":[-113.4887965,53.553229]}},{"type":"Feature","properties":{"ZIP":"T5H3G3"},"geometry":{"type":"Point","coordinates":[-113.50846949999999,53.5551705]}},{"type":"Feature","properties":{"ZIP":"T5H4N2"},"geometry":{"type":"Point","coordinates":[-113.4781665,53.5330575]}},{"type":"Feature","properties":{"ZIP":"T5H0N5"},"geometry":{"type":"Point","coordinates":[-113.486987,53.550303]}},{"type":"Feature","properties":{"ZIP":"T5H1Y9"},"geometry":{"type":"Point","coordinates":[-113.49239850000001,53.5426845]}},{"type":"Feature","properties":{"ZIP":"T5H1P5"},"geometry":{"type":"Point","coordinates":[-113.4826265,53.535877]}},{"type":"Feature","properties":{"ZIP":"T5H2B5"},"geometry":{"type":"Point","coordinates":[-113.4800945,53.5474135]}},{"type":"Feature","properties":{"ZIP":"T5H2S1"},"geometry":{"type":"Point","coordinates":[-113.493027,53.5500745]}},{"type":"Feature","properties":{"ZIP":"T5H2Y4"},"geometry":{"type":"Point","coordinates":[-113.5028605,53.557501]}},{"type":"Feature","properties":{"ZIP":"T5H3S8"},"geometry":{"type":"Point","coordinates":[-113.47446450000001,53.550866]}},{"type":"Feature","properties":{"ZIP":"T5H2E3"},"geometry":{"type":"Point","coordinates":[-113.484399,53.5553055]}},{"type":"Feature","properties":{"ZIP":"T5H0X8"},"geometry":{"type":"Point","coordinates":[-113.512457,53.551403]}},{"type":"Feature","properties":{"ZIP":"T5H1G3"},"geometry":{"type":"Point","coordinates":[-113.4985775,53.550464000000005]}},{"type":"Feature","properties":{"ZIP":"T5H2P3"},"geometry":{"type":"Point","coordinates":[-113.5075545,53.5356045]}},{"type":"Feature","properties":{"ZIP":"T5H2X2"},"geometry":{"type":"Point","coordinates":[-113.50376,53.55039]}},{"type":"Feature","properties":{"ZIP":"T5H3H9"},"geometry":{"type":"Point","coordinates":[-113.5036005,53.5625495]}},{"type":"Feature","properties":{"ZIP":"T5H0Z9"},"geometry":{"type":"Point","coordinates":[-113.50749049999999,53.530718]}},{"type":"Feature","properties":{"ZIP":"T5H3C9"},"geometry":{"type":"Point","coordinates":[-113.51028,53.552332500000006]}},{"type":"Feature","properties":{"ZIP":"T5H3S9"},"geometry":{"type":"Point","coordinates":[-113.47550749999999,53.54938]}},{"type":"Feature","properties":{"ZIP":"T5H1K6"},"geometry":{"type":"Point","coordinates":[-113.52237249999999,53.5576825]}},{"type":"Feature","properties":{"ZIP":"T5H1X9"},"geometry":{"type":"Point","coordinates":[-113.4895325,53.5409135]}},{"type":"Feature","properties":{"ZIP":"T5H3G5"},"geometry":{"type":"Point","coordinates":[-113.50962,53.5564585]}},{"type":"Feature","properties":{"ZIP":"T5H1N2"},"geometry":{"type":"Point","coordinates":[-113.46521899999999,53.541783499999994]}},{"type":"Feature","properties":{"ZIP":"T5H2J2"},"geometry":{"type":"Point","coordinates":[-113.4857315,53.551377]}},{"type":"Feature","properties":{"ZIP":"T5H2P4"},"geometry":{"type":"Point","coordinates":[-113.49987949999999,53.545128000000005]}},{"type":"Feature","properties":{"ZIP":"T5H2X3"},"geometry":{"type":"Point","coordinates":[-113.500583,53.5503585]}},{"type":"Feature","properties":{"ZIP":"T5H3B6"},"geometry":{"type":"Point","coordinates":[-113.508657,53.551854]}},{"type":"Feature","properties":{"ZIP":"T5H3P9"},"geometry":{"type":"Point","coordinates":[-113.528873,53.554347]}},{"type":"Feature","properties":{"ZIP":"T5H1W4"},"geometry":{"type":"Point","coordinates":[-113.4822275,53.559334]}},{"type":"Feature","properties":{"ZIP":"T5H2Y7"},"geometry":{"type":"Point","coordinates":[-113.5042575,53.5508315]}},{"type":"Feature","properties":{"ZIP":"T5H3L1"},"geometry":{"type":"Point","coordinates":[-113.519469,53.5537905]}},{"type":"Feature","properties":{"ZIP":"T5H0L2"},"geometry":{"type":"Point","coordinates":[-113.503652,53.551136]}},{"type":"Feature","properties":{"ZIP":"T5H3G8"},"geometry":{"type":"Point","coordinates":[-113.513954,53.5505435]}},{"type":"Feature","properties":{"ZIP":"T5H3B7"},"geometry":{"type":"Point","coordinates":[-113.5069255,53.553152999999995]}},{"type":"Feature","properties":{"ZIP":"T5H3R5"},"geometry":{"type":"Point","coordinates":[-113.4770585,53.542649499999996]}},{"type":"Feature","properties":{"ZIP":"T5H4R1"},"geometry":{"type":"Point","coordinates":[-113.4788505,53.543659500000004]}},{"type":"Feature","properties":{"ZIP":"T5H2S4"},"geometry":{"type":"Point","coordinates":[-113.493638,53.5519605]}},{"type":"Feature","properties":{"ZIP":"T5H2Y8"},"geometry":{"type":"Point","coordinates":[-113.5044015,53.5507015]}},{"type":"Feature","properties":{"ZIP":"T5H3T5"},"geometry":{"type":"Point","coordinates":[-113.4767815,53.5470775]}},{"type":"Feature","properties":{"ZIP":"T5H0A8"},"geometry":{"type":"Point","coordinates":[-113.5204265,53.551869499999995]}},{"type":"Feature","properties":{"ZIP":"T5H3A4"},"geometry":{"type":"Point","coordinates":[-113.506255,53.5522785]}},{"type":"Feature","properties":{"ZIP":"T5H3G9"},"geometry":{"type":"Point","coordinates":[-113.5106945,53.5554245]}},{"type":"Feature","properties":{"ZIP":"T5H3M5"},"geometry":{"type":"Point","coordinates":[-113.51431550000001,53.558199]}},{"type":"Feature","properties":{"ZIP":"T5H0Y3"},"geometry":{"type":"Point","coordinates":[-113.516301,53.551508999999996]}},{"type":"Feature","properties":{"ZIP":"T5H2J4"},"geometry":{"type":"Point","coordinates":[-113.48614649999999,53.5522265]}},{"type":"Feature","properties":{"ZIP":"T5H3B9"},"geometry":{"type":"Point","coordinates":[-113.508237,53.5534335]}},{"type":"Feature","properties":{"ZIP":"T5H1A3"},"geometry":{"type":"Point","coordinates":[-113.49016449999999,53.551614]}},{"type":"Feature","properties":{"ZIP":"T5H2S6"},"geometry":{"type":"Point","coordinates":[-113.493661,53.5540255]}},{"type":"Feature","properties":{"ZIP":"T5H1L1"},"geometry":{"type":"Point","coordinates":[-113.46355600000001,53.5584585]}},{"type":"Feature","properties":{"ZIP":"T5H2V8"},"geometry":{"type":"Point","coordinates":[-113.4974015,53.5520765]}},{"type":"Feature","properties":{"ZIP":"T5H3H1"},"geometry":{"type":"Point","coordinates":[-113.51395199999999,53.5524555]}},{"type":"Feature","properties":{"ZIP":"T5H0C8"},"geometry":{"type":"Point","coordinates":[-113.483094,53.5435655]}},{"type":"Feature","properties":{"ZIP":"T5H4G7"},"geometry":{"type":"Point","coordinates":[-113.477499,53.5489995]}},{"type":"Feature","properties":{"ZIP":"T5H1B1"},"geometry":{"type":"Point","coordinates":[-113.502423,53.5496165]}},{"type":"Feature","properties":{"ZIP":"T5H1W8"},"geometry":{"type":"Point","coordinates":[-113.49344049999999,53.5283675]}},{"type":"Feature","properties":{"ZIP":"T5H2S7"},"geometry":{"type":"Point","coordinates":[-113.4938175,53.5542325]}},{"type":"Feature","properties":{"ZIP":"T5H3E6"},"geometry":{"type":"Point","coordinates":[-113.51153500000001,53.557771]}},{"type":"Feature","properties":{"ZIP":"T5H0R3"},"geometry":{"type":"Point","coordinates":[-113.51056600000001,53.5498535]}},{"type":"Feature","properties":{"ZIP":"T5H2P8"},"geometry":{"type":"Point","coordinates":[-113.509603,53.535801]}},{"type":"Feature","properties":{"ZIP":"T5H2X8"},"geometry":{"type":"Point","coordinates":[-113.5034545,53.550109000000006]}},{"type":"Feature","properties":{"ZIP":"T5H3J9"},"geometry":{"type":"Point","coordinates":[-113.512599,53.5574965]}},{"type":"Feature","properties":{"ZIP":"T5H2C7"},"geometry":{"type":"Point","coordinates":[-113.48335499999999,53.553427]}},{"type":"Feature","properties":{"ZIP":"T5H3E8"},"geometry":{"type":"Point","coordinates":[-113.5120525,53.5490355]}},{"type":"Feature","properties":{"ZIP":"T5H3V9"},"geometry":{"type":"Point","coordinates":[-113.495604,53.5553795]}},{"type":"Feature","properties":{"ZIP":"T5H4M7"},"geometry":{"type":"Point","coordinates":[-113.50588,53.551416]}},{"type":"Feature","properties":{"ZIP":"T5H0B4"},"geometry":{"type":"Point","coordinates":[-113.4794665,53.5431035]}},{"type":"Feature","properties":{"ZIP":"T5H2N6"},"geometry":{"type":"Point","coordinates":[-113.5037155,53.535538]}},{"type":"Feature","properties":{"ZIP":"T5H3N4"},"geometry":{"type":"Point","coordinates":[-113.5167435,53.5609355]}},{"type":"Feature","properties":{"ZIP":"T5H4B1"},"geometry":{"type":"Point","coordinates":[-113.514877,53.554590000000005]}},{"type":"Feature","properties":{"ZIP":"T5H0R5"},"geometry":{"type":"Point","coordinates":[-113.5142965,53.549819]}},{"type":"Feature","properties":{"ZIP":"T5H2A6"},"geometry":{"type":"Point","coordinates":[-113.478302,53.5443175]}},{"type":"Feature","properties":{"ZIP":"T5H3K2"},"geometry":{"type":"Point","coordinates":[-113.5110185,53.5649855]}},{"type":"Feature","properties":{"ZIP":"T5H0H5"},"geometry":{"type":"Point","coordinates":[-113.482726,53.5473525]}},{"type":"Feature","properties":{"ZIP":"T5H2C8"},"geometry":{"type":"Point","coordinates":[-113.4835445,53.553762500000005]}},{"type":"Feature","properties":{"ZIP":"T5H2T1"},"geometry":{"type":"Point","coordinates":[-113.49390199999999,53.5565025]}},{"type":"Feature","properties":{"ZIP":"T5H3L6"},"geometry":{"type":"Point","coordinates":[-113.5194735,53.557165999999995]}},{"type":"Feature","properties":{"ZIP":"T5H0B8"},"geometry":{"type":"Point","coordinates":[-113.495307,53.5506805]}},{"type":"Feature","properties":{"ZIP":"T5H0X3"},"geometry":{"type":"Point","coordinates":[-113.507687,53.551465]}},{"type":"Feature","properties":{"ZIP":"T5H1E2"},"geometry":{"type":"Point","coordinates":[-113.513891,53.558734]}},{"type":"Feature","properties":{"ZIP":"T5H2N7"},"geometry":{"type":"Point","coordinates":[-113.491997,53.5486735]}},{"type":"Feature","properties":{"ZIP":"T5H3H4"},"geometry":{"type":"Point","coordinates":[-113.51234199999999,53.557013]}},{"type":"Feature","properties":{"ZIP":"T5H1V8"},"geometry":{"type":"Point","coordinates":[-113.480784,53.557075499999996]}},{"type":"Feature","properties":{"ZIP":"T5H2A8"},"geometry":{"type":"Point","coordinates":[-113.47856200000001,53.544774000000004]}},{"type":"Feature","properties":{"ZIP":"T5H2R6"},"geometry":{"type":"Point","coordinates":[-113.491809,53.549032499999996]}},{"type":"Feature","properties":{"ZIP":"T5H3K3"},"geometry":{"type":"Point","coordinates":[-113.51769350000001,53.55211]}},{"type":"Feature","properties":{"ZIP":"T5H3S2"},"geometry":{"type":"Point","coordinates":[-113.467308,53.556773500000006]}},{"type":"Feature","properties":{"ZIP":"T5H1B8"},"geometry":{"type":"Point","coordinates":[-113.521937,53.553498]}},{"type":"Feature","properties":{"ZIP":"T5H2C9"},"geometry":{"type":"Point","coordinates":[-113.483935,53.554458]}},{"type":"Feature","properties":{"ZIP":"T5H2L7"},"geometry":{"type":"Point","coordinates":[-113.48843600000001,53.551519]}},{"type":"Feature","properties":{"ZIP":"T5H3G1"},"geometry":{"type":"Point","coordinates":[-113.512111,53.550658999999996]}},{"type":"Feature","properties":{"ZIP":"T5H3L7"},"geometry":{"type":"Point","coordinates":[-113.522256,53.549019]}},{"type":"Feature","properties":{"ZIP":"T5H0B9"},"geometry":{"type":"Point","coordinates":[-113.4727985,53.544304499999996]}},{"type":"Feature","properties":{"ZIP":"T5H1T2"},"geometry":{"type":"Point","coordinates":[-113.47363200000001,53.5461405]}},{"type":"Feature","properties":{"ZIP":"T5H1Y7"},"geometry":{"type":"Point","coordinates":[-113.4810035,53.555857]}},{"type":"Feature","properties":{"ZIP":"T5H2G7"},"geometry":{"type":"Point","coordinates":[-113.483655,53.544653]}},{"type":"Feature","properties":{"ZIP":"T5H2W8"},"geometry":{"type":"Point","coordinates":[-113.49942899999999,53.54818950000001]}},{"type":"Feature","properties":{"ZIP":"T5H4P2"},"geometry":{"type":"Point","coordinates":[-113.470073,53.54343]}},{"type":"Feature","properties":{"ZIP":"T5H0G1"},"geometry":{"type":"Point","coordinates":[-113.4808955,53.54597]}},{"type":"Feature","properties":{"ZIP":"T5H0S3"},"geometry":{"type":"Point","coordinates":[-113.4745255,53.5534635]}},{"type":"Feature","properties":{"ZIP":"T5H2Y2"},"geometry":{"type":"Point","coordinates":[-113.5074695,53.549873500000004]}},{"type":"Feature","properties":{"ZIP":"T5H3C6"},"geometry":{"type":"Point","coordinates":[-113.5102845,53.549167999999995]}},{"type":"Feature","properties":{"ZIP":"T5H4L3"},"geometry":{"type":"Point","coordinates":[-113.49201149999999,53.550488]}},{"type":"Feature","properties":{"ZIP":"T5H0T9"},"geometry":{"type":"Point","coordinates":[-113.4958865,53.5429655]}},{"type":"Feature","properties":{"ZIP":"T5H2E1"},"geometry":{"type":"Point","coordinates":[-113.483813,53.55424]}},{"type":"Feature","properties":{"ZIP":"T5H2L8"},"geometry":{"type":"Point","coordinates":[-113.49195599999999,53.549107500000005]}},{"type":"Feature","properties":{"ZIP":"T5H2T5"},"geometry":{"type":"Point","coordinates":[-113.49557150000001,53.550615]}},{"type":"Feature","properties":{"ZIP":"T5H2Z8"},"geometry":{"type":"Point","coordinates":[-113.5045125,53.550678000000005]}},{"type":"Feature","properties":{"ZIP":"T5H3G2"},"geometry":{"type":"Point","coordinates":[-113.50859249999999,53.555185]}},{"type":"Feature","properties":{"ZIP":"T5H0X6"},"geometry":{"type":"Point","coordinates":[-113.510582,53.551272999999995]}},{"type":"Feature","properties":{"ZIP":"T5H1G1"},"geometry":{"type":"Point","coordinates":[-113.4835355,53.556591499999996]}},{"type":"Feature","properties":{"ZIP":"T5H1M1"},"geometry":{"type":"Point","coordinates":[-113.469101,53.5573135]}},{"type":"Feature","properties":{"ZIP":"T5H1T5"},"geometry":{"type":"Point","coordinates":[-113.475734,53.549274999999994]}},{"type":"Feature","properties":{"ZIP":"T5H1Y8"},"geometry":{"type":"Point","coordinates":[-113.5106845,53.528589]}},{"type":"Feature","properties":{"ZIP":"T5H2H6"},"geometry":{"type":"Point","coordinates":[-113.484594,53.549122999999994]}},{"type":"Feature","properties":{"ZIP":"T5H2N9"},"geometry":{"type":"Point","coordinates":[-113.4908005,53.551761]}},{"type":"Feature","properties":{"ZIP":"T5H2R9"},"geometry":{"type":"Point","coordinates":[-113.493753,53.549060499999996]}},{"type":"Feature","properties":{"ZIP":"T5H3S4"},"geometry":{"type":"Point","coordinates":[-113.47107299999999,53.55545]}},{"type":"Feature","properties":{"ZIP":"T5H4L5"},"geometry":{"type":"Point","coordinates":[-113.5245805,53.548117500000004]}},{"type":"Feature","properties":{"ZIP":"T5H0K2"},"geometry":{"type":"Point","coordinates":[-113.4953415,53.547857]}},{"type":"Feature","properties":{"ZIP":"T5H2T7"},"geometry":{"type":"Point","coordinates":[-113.4955665,53.5523465]}},{"type":"Feature","properties":{"ZIP":"T5H2Z9"},"geometry":{"type":"Point","coordinates":[-113.504513,53.5506815]}},{"type":"Feature","properties":{"ZIP":"T5H3M1"},"geometry":{"type":"Point","coordinates":[-113.5212425,53.550756]}},{"type":"Feature","properties":{"ZIP":"T5H3W7"},"geometry":{"type":"Point","coordinates":[-113.47589500000001,53.5571075]}},{"type":"Feature","properties":{"ZIP":"T5H0C2"},"geometry":{"type":"Point","coordinates":[-113.4734915,53.5442395]}},{"type":"Feature","properties":{"ZIP":"T5H1T6"},"geometry":{"type":"Point","coordinates":[-113.4765265,53.5505045]}},{"type":"Feature","properties":{"ZIP":"T5H2X1"},"geometry":{"type":"Point","coordinates":[-113.50009800000001,53.5496395]}},{"type":"Feature","properties":{"ZIP":"T5H3H8"},"geometry":{"type":"Point","coordinates":[-113.515784,53.552201499999995]}},{"type":"Feature","properties":{"ZIP":"T5H4P4"},"geometry":{"type":"Point","coordinates":[-113.469276,53.542212]}},{"type":"Feature","properties":{"ZIP":"T5H0Z7"},"geometry":{"type":"Point","coordinates":[-113.48818800000001,53.5531215]}},{"type":"Feature","properties":{"ZIP":"T5H3C8"},"geometry":{"type":"Point","coordinates":[-113.5102835,53.550605000000004]}},{"type":"Feature","properties":{"ZIP":"T5H0V5"},"geometry":{"type":"Point","coordinates":[-113.494072,53.551457]}},{"type":"Feature","properties":{"ZIP":"T5H1X7"},"geometry":{"type":"Point","coordinates":[-113.4781845,53.550658]}},{"type":"Feature","properties":{"ZIP":"T5H3A1"},"geometry":{"type":"Point","coordinates":[-113.50491199999999,53.5515525]}},{"type":"Feature","properties":{"ZIP":"T5H3G4"},"geometry":{"type":"Point","coordinates":[-113.5121115,53.5537945]}},{"type":"Feature","properties":{"ZIP":"T5H3M2"},"geometry":{"type":"Point","coordinates":[-113.5074625,53.5670985]}},{"type":"Feature","properties":{"ZIP":"T5H3X1"},"geometry":{"type":"Point","coordinates":[-113.475655,53.5582165]}},{"type":"Feature","properties":{"ZIP":"T5H0N6"},"geometry":{"type":"Point","coordinates":[-113.491023,53.551066500000005]}},{"type":"Feature","properties":{"ZIP":"T5H1T7"},"geometry":{"type":"Point","coordinates":[-113.47605899999999,53.5497595]}},{"type":"Feature","properties":{"ZIP":"T5H2J1"},"geometry":{"type":"Point","coordinates":[-113.485746,53.551407499999996]}},{"type":"Feature","properties":{"ZIP":"T5H3B5"},"geometry":{"type":"Point","coordinates":[-113.5062345,53.55236549999999]}},{"type":"Feature","properties":{"ZIP":"T5H1W3"},"geometry":{"type":"Point","coordinates":[-113.481629,53.5584165]}},{"type":"Feature","properties":{"ZIP":"T5H2B6"},"geometry":{"type":"Point","coordinates":[-113.479974,53.547338499999995]}},{"type":"Feature","properties":{"ZIP":"T5H2S2"},"geometry":{"type":"Point","coordinates":[-113.493656,53.54997]}},{"type":"Feature","properties":{"ZIP":"T5H0W1"},"geometry":{"type":"Point","coordinates":[-113.49952,53.551482]}},{"type":"Feature","properties":{"ZIP":"T5H1C5"},"geometry":{"type":"Point","coordinates":[-113.510414,53.5302485]}},{"type":"Feature","properties":{"ZIP":"T5H2E4"},"geometry":{"type":"Point","coordinates":[-113.4848625,53.556015]}},{"type":"Feature","properties":{"ZIP":"T5H2M5"},"geometry":{"type":"Point","coordinates":[-113.490962,53.5555295]}},{"type":"Feature","properties":{"ZIP":"T5H3A2"},"geometry":{"type":"Point","coordinates":[-113.505247,53.551494]}},{"type":"Feature","properties":{"ZIP":"T5H3M3"},"geometry":{"type":"Point","coordinates":[-113.5186855,53.554244]}},{"type":"Feature","properties":{"ZIP":"T5H3Y7"},"geometry":{"type":"Point","coordinates":[-113.479536,53.5547145]}},{"type":"Feature","properties":{"ZIP":"T5H4N4"},"geometry":{"type":"Point","coordinates":[-113.478104,53.5329945]}},{"type":"Feature","properties":{"ZIP":"T5H0N7"},"geometry":{"type":"Point","coordinates":[-113.49049249999999,53.548011]}},{"type":"Feature","properties":{"ZIP":"T5H1T8"},"geometry":{"type":"Point","coordinates":[-113.4767785,53.5507845]}},{"type":"Feature","properties":{"ZIP":"T5H1Z2"},"geometry":{"type":"Point","coordinates":[-113.481991,53.5575175]}},{"type":"Feature","properties":{"ZIP":"T5H4E5"},"geometry":{"type":"Point","coordinates":[-113.46962450000001,53.546506]}},{"type":"Feature","properties":{"ZIP":"T5H0G7"},"geometry":{"type":"Point","coordinates":[-113.4967585,53.5306655]}},{"type":"Feature","properties":{"ZIP":"T5H1A1"},"geometry":{"type":"Point","coordinates":[-113.482444,53.555053]}},{"type":"Feature","properties":{"ZIP":"T5H2B9"},"geometry":{"type":"Point","coordinates":[-113.4809505,53.549109]}},{"type":"Feature","properties":{"ZIP":"T5H0A6"},"geometry":{"type":"Point","coordinates":[-113.492385,53.530762]}},{"type":"Feature","properties":{"ZIP":"T5H2E5"},"geometry":{"type":"Point","coordinates":[-113.48533900000001,53.556976500000005]}},{"type":"Feature","properties":{"ZIP":"T5H2M6"},"geometry":{"type":"Point","coordinates":[-113.489296,53.5550085]}},{"type":"Feature","properties":{"ZIP":"T5H3M4"},"geometry":{"type":"Point","coordinates":[-113.510062,53.5639095]}},{"type":"Feature","properties":{"ZIP":"T5H3J6"},"geometry":{"type":"Point","coordinates":[-113.513112,53.548019]}},{"type":"Feature","properties":{"ZIP":"T5H4R5"},"geometry":{"type":"Point","coordinates":[-113.512609,53.558531]}},{"type":"Feature","properties":{"ZIP":"T5H4M5"},"geometry":{"type":"Point","coordinates":[-113.4891095,53.550295500000004]}},{"type":"Feature","properties":{"ZIP":"T5H0W5"},"geometry":{"type":"Point","coordinates":[-113.50392450000001,53.550671]}},{"type":"Feature","properties":{"ZIP":"T5H0R1"},"geometry":{"type":"Point","coordinates":[-113.5056795,53.5499975]}},{"type":"Feature","properties":{"ZIP":"T5H0Y5"},"geometry":{"type":"Point","coordinates":[-113.51819499999999,53.551505]}},{"type":"Feature","properties":{"ZIP":"T5H1Z8"},"geometry":{"type":"Point","coordinates":[-113.49999199999999,53.530592999999996]}},{"type":"Feature","properties":{"ZIP":"T5H1L5"},"geometry":{"type":"Point","coordinates":[-113.4652935,53.5577895]}},{"type":"Feature","properties":{"ZIP":"T5H0Y8"},"geometry":{"type":"Point","coordinates":[-113.519791,53.551338]}},{"type":"Feature","properties":{"ZIP":"T5H2A1"},"geometry":{"type":"Point","coordinates":[-113.4833515,53.557255999999995]}},{"type":"Feature","properties":{"ZIP":"T5H1W9"},"geometry":{"type":"Point","coordinates":[-113.47670149999999,53.548022]}},{"type":"Feature","properties":{"ZIP":"T5H3L5"},"geometry":{"type":"Point","coordinates":[-113.519477,53.5561395]}},{"type":"Feature","properties":{"ZIP":"T5H0M9"},"geometry":{"type":"Point","coordinates":[-113.48184950000001,53.551899]}},{"type":"Feature","properties":{"ZIP":"T5H1E1"},"geometry":{"type":"Point","coordinates":[-113.5109335,53.558939]}},{"type":"Feature","properties":{"ZIP":"T5H3E9"},"geometry":{"type":"Point","coordinates":[-113.5121125,53.550395]}},{"type":"Feature","properties":{"ZIP":"T5H1X4"},"geometry":{"type":"Point","coordinates":[-113.477706,53.549796]}},{"type":"Feature","properties":{"ZIP":"T5H2T3"},"geometry":{"type":"Point","coordinates":[-113.495562,53.5484515]}},{"type":"Feature","properties":{"ZIP":"T5H3H5"},"geometry":{"type":"Point","coordinates":[-113.5055035,53.559283]}},{"type":"Feature","properties":{"ZIP":"T5H1R5"},"geometry":{"type":"Point","coordinates":[-113.51484149999999,53.525776500000006]}},{"type":"Feature","properties":{"ZIP":"T5H3K7"},"geometry":{"type":"Point","coordinates":[-113.519477,53.5506125]}},{"type":"Feature","properties":{"ZIP":"T5H2P1"},"geometry":{"type":"Point","coordinates":[-113.50717850000001,53.535760999999994]}},{"type":"Feature","properties":{"ZIP":"T5H3K8"},"geometry":{"type":"Point","coordinates":[-113.519477,53.5506125]}},{"type":"Feature","properties":{"ZIP":"T5H2M3"},"geometry":{"type":"Point","coordinates":[-113.497423,53.5444705]}},{"type":"Feature","properties":{"ZIP":"T5H4C9"},"geometry":{"type":"Point","coordinates":[-113.471248,53.543724]}},{"type":"Feature","properties":{"ZIP":"T5H2Y6"},"geometry":{"type":"Point","coordinates":[-113.504756,53.54879]}},{"type":"Feature","properties":{"ZIP":"T5H3K9"},"geometry":{"type":"Point","coordinates":[-113.519477,53.551942499999996]}},{"type":"Feature","properties":{"ZIP":"T5H0K9"},"geometry":{"type":"Point","coordinates":[-113.5016245,53.5477975]}},{"type":"Feature","properties":{"ZIP":"T5H3J2"},"geometry":{"type":"Point","coordinates":[-113.5157885,53.553795]}},{"type":"Feature","properties":{"ZIP":"T5H4P8"},"geometry":{"type":"Point","coordinates":[-113.473617,53.552059]}},{"type":"Feature","properties":{"ZIP":"T5H1Y1"},"geometry":{"type":"Point","coordinates":[-113.479584,53.553231]}},{"type":"Feature","properties":{"ZIP":"T5H1M4"},"geometry":{"type":"Point","coordinates":[-113.4690645,53.558588]}},{"type":"Feature","properties":{"ZIP":"T5H0K3"},"geometry":{"type":"Point","coordinates":[-113.5015335,53.5503885]}}]}