{"type":"FeatureCollection","features":[{"type":"Feature","properties":{"ZIP":"T6B0P2"},"geometry":{"type":"Point","coordinates":[-113.428119,53.5246745]}},{"type":"Feature","properties":{"ZIP":"T6B0W1"},"geometry":{"type":"Point","coordinates":[-113.436268,53.528732500000004]}},{"type":"Feature","properties":{"ZIP":"T6B0P3"},"geometry":{"type":"Point","coordinates":[-113.43410399999999,53.5250665]}},{"type":"Feature","properties":{"ZIP":"T6B0Z6"},"geometry":{"type":"Point","coordinates":[-113.429681,53.5336525]}},{"type":"Feature","properties":{"ZIP":"T6B2L3"},"geometry":{"type":"Point","coordinates":[-113.420872,53.529873]}},{"type":"Feature","properties":{"ZIP":"T6B1J8"},"geometry":{"type":"Point","coordinates":[-113.4232215,53.535415]}},{"type":"Feature","properties":{"ZIP":"T6B0X9"},"geometry":{"type":"Point","coordinates":[-113.429484,53.531921]}},{"type":"Feature","properties":{"ZIP":"T6B0C7"},"geometry":{"type":"Point","coordinates":[-113.44380000000001,53.511972]}},{"type":"Feature","properties":{"ZIP":"T6B1W3"},"geometry":{"type":"Point","coordinates":[-113.4356625,53.5351665]}},{"type":"Feature","properties":{"ZIP":"T6B1G5"},"geometry":{"type":"Point","coordinates":[-113.419813,53.5323945]}},{"type":"Feature","properties":{"ZIP":"T6B0K6"},"geometry":{"type":"Point","coordinates":[-113.44007350000001,53.5211665]}},{"type":"Feature","properties":{"ZIP":"T6B0Z9"},"geometry":{"type":"Point","coordinates":[-113.4393725,53.532474]}},{"type":"Feature","properties":{"ZIP":"T6B0G4"},"geometry":{"type":"Point","coordinates":[-113.44358650000001,53.511594]}},{"type":"Feature","properties":{"ZIP":"T6B0N9"},"geometry":{"type":"Point","coordinates":[-113.4213565,53.5227915]}},{"type":"Feature","properties":{"ZIP":"T6B0G7"},"geometry":{"type":"Point","coordinates":[-113.44605899999999,53.5134055]}},{"type":"Feature","properties":{"ZIP":"T6B1E8"},"geometry":{"type":"Point","coordinates":[-113.4198815,53.520145]}},{"type":"Feature","properties":{"ZIP":"T6B0M9"},"geometry":{"type":"Point","coordinates":[-113.42637149999999,53.523101]}},{"type":"Feature","properties":{"ZIP":"T6B2K7"},"geometry":{"type":"Point","coordinates":[-113.4224145,53.530484]}},{"type":"Feature","properties":{"ZIP":"T6B0H3"},"geometry":{"type":"Point","coordinates":[-113.425903,53.519311]}},{"type":"Feature","properties":{"ZIP":"T6B1G1"},"geometry":{"type":"Point","coordinates":[-113.419846,53.524536499999996]}},{"type":"Feature","properties":{"ZIP":"T6B1T3"},"geometry":{"type":"Point","coordinates":[-113.43222,53.520208]}},{"type":"Feature","properties":{"ZIP":"T6B2C7"},"geometry":{"type":"Point","coordinates":[-113.43273500000001,53.526854]}},{"type":"Feature","properties":{"ZIP":"T6B0Z5"},"geometry":{"type":"Point","coordinates":[-113.429037,53.533486499999995]}},{"type":"Feature","properties":{"ZIP":"T6B1G2"},"geometry":{"type":"Point","coordinates":[-113.41984149999999,53.524534]}},{"type":"Feature","properties":{"ZIP":"T6B2C8"},"geometry":{"type":"Point","coordinates":[-113.4336485,53.528667999999996]}},{"type":"Feature","properties":{"ZIP":"T6B0W6"},"geometry":{"type":"Point","coordinates":[-113.453037,53.517871]}},{"type":"Feature","properties":{"ZIP":"T6B1E2"},"geometry":{"type":"Point","coordinates":[-113.425785,53.537251499999996]}},{"type":"Feature","properties":{"ZIP":"T6B1G8"},"geometry":{"type":"Point","coordinates":[-113.420176,53.535688]}},{"type":"Feature","properties":{"ZIP":"T6B1V2"},"geometry":{"type":"Point","coordinates":[-113.4344845,53.535689500000004]}},{"type":"Feature","properties":{"ZIP":"T6B0G6"},"geometry":{"type":"Point","coordinates":[-113.44615999999999,53.5140155]}},{"type":"Feature","properties":{"ZIP":"T6B1H1"},"geometry":{"type":"Point","coordinates":[-113.42135250000001,53.5203835]}},{"type":"Feature","properties":{"ZIP":"T6B0J5"},"geometry":{"type":"Point","coordinates":[-113.42738299999999,53.520224999999996]}},{"type":"Feature","properties":{"ZIP":"T6B2K5"},"geometry":{"type":"Point","coordinates":[-113.4228385,53.530469]}},{"type":"Feature","properties":{"ZIP":"T6B2M2"},"geometry":{"type":"Point","coordinates":[-113.40940900000001,53.5163635]}},{"type":"Feature","properties":{"ZIP":"T6B1S2"},"geometry":{"type":"Point","coordinates":[-113.4330255,53.536041999999995]}},{"type":"Feature","properties":{"ZIP":"T6B0R7"},"geometry":{"type":"Point","coordinates":[-113.46666400000001,53.50838]}},{"type":"Feature","properties":{"ZIP":"T6B1C5"},"geometry":{"type":"Point","coordinates":[-113.4303615,53.536148]}},{"type":"Feature","properties":{"ZIP":"T6B1K1"},"geometry":{"type":"Point","coordinates":[-113.42322300000001,53.5358255]}},{"type":"Feature","properties":{"ZIP":"T6B1E9"},"geometry":{"type":"Point","coordinates":[-113.4198815,53.520140999999995]}},{"type":"Feature","properties":{"ZIP":"T6B2A8"},"geometry":{"type":"Point","coordinates":[-113.473458,53.5094935]}},{"type":"Feature","properties":{"ZIP":"T6B0N1"},"geometry":{"type":"Point","coordinates":[-113.447777,53.513152500000004]}},{"type":"Feature","properties":{"ZIP":"T6B0P5"},"geometry":{"type":"Point","coordinates":[-113.43780050000001,53.524969999999996]}},{"type":"Feature","properties":{"ZIP":"T6B1C9"},"geometry":{"type":"Point","coordinates":[-113.42200650000001,53.5374745]}},{"type":"Feature","properties":{"ZIP":"T6B0T8"},"geometry":{"type":"Point","coordinates":[-113.435667,53.528048]}},{"type":"Feature","properties":{"ZIP":"T6B0P7"},"geometry":{"type":"Point","coordinates":[-113.421749,53.5238765]}},{"type":"Feature","properties":{"ZIP":"T6B3P9"},"geometry":{"type":"Point","coordinates":[-113.43344,53.494418]}},{"type":"Feature","properties":{"ZIP":"T6B0Y3"},"geometry":{"type":"Point","coordinates":[-113.4364675,53.530603]}},{"type":"Feature","properties":{"ZIP":"T6B1E1"},"geometry":{"type":"Point","coordinates":[-113.4821965,53.492694]}},{"type":"Feature","properties":{"ZIP":"T6B2K9"},"geometry":{"type":"Point","coordinates":[-113.4219695,53.5293215]}},{"type":"Feature","properties":{"ZIP":"T6B2G5"},"geometry":{"type":"Point","coordinates":[-113.4469125,53.5112665]}},{"type":"Feature","properties":{"ZIP":"T6B0C8"},"geometry":{"type":"Point","coordinates":[-113.443716,53.5130895]}},{"type":"Feature","properties":{"ZIP":"T6B0K5"},"geometry":{"type":"Point","coordinates":[-113.43890200000001,53.521165499999995]}},{"type":"Feature","properties":{"ZIP":"T6B1H8"},"geometry":{"type":"Point","coordinates":[-113.422872,53.520604500000005]}},{"type":"Feature","properties":{"ZIP":"T6B0R1"},"geometry":{"type":"Point","coordinates":[-113.42460750000001,53.524756]}},{"type":"Feature","properties":{"ZIP":"T6B1B6"},"geometry":{"type":"Point","coordinates":[-113.44015099999999,53.535153]}},{"type":"Feature","properties":{"ZIP":"T6B1H9"},"geometry":{"type":"Point","coordinates":[-113.4228745,53.521071500000005]}},{"type":"Feature","properties":{"ZIP":"T6B0H8"},"geometry":{"type":"Point","coordinates":[-113.4405635,53.5200795]}},{"type":"Feature","properties":{"ZIP":"T6B1G6"},"geometry":{"type":"Point","coordinates":[-113.41981150000001,53.5323335]}},{"type":"Feature","properties":{"ZIP":"T6B0R2"},"geometry":{"type":"Point","coordinates":[-113.4678155,53.4915505]}},{"type":"Feature","properties":{"ZIP":"T6B1L7"},"geometry":{"type":"Point","coordinates":[-113.4701105,53.493938]}},{"type":"Feature","properties":{"ZIP":"T6B0H9"},"geometry":{"type":"Point","coordinates":[-113.44021000000001,53.520056]}},{"type":"Feature","properties":{"ZIP":"T6B0N8"},"geometry":{"type":"Point","coordinates":[-113.4216635,53.5226425]}},{"type":"Feature","properties":{"ZIP":"T6B0S9"},"geometry":{"type":"Point","coordinates":[-113.4218675,53.527656]}},{"type":"Feature","properties":{"ZIP":"T6B0Y8"},"geometry":{"type":"Point","coordinates":[-113.472802,53.501128]}},{"type":"Feature","properties":{"ZIP":"T6B0P1"},"geometry":{"type":"Point","coordinates":[-113.42701199999999,53.524009500000005]}},{"type":"Feature","properties":{"ZIP":"T6B1A6"},"geometry":{"type":"Point","coordinates":[-113.4738775,53.501314]}},{"type":"Feature","properties":{"ZIP":"T6B0R5"},"geometry":{"type":"Point","coordinates":[-113.4667715,53.505393]}},{"type":"Feature","properties":{"ZIP":"T6B0M5"},"geometry":{"type":"Point","coordinates":[-113.4217635,53.5215975]}},{"type":"Feature","properties":{"ZIP":"T6B0C3"},"geometry":{"type":"Point","coordinates":[-113.4484445,53.508523999999994]}},{"type":"Feature","properties":{"ZIP":"T6B1A7"},"geometry":{"type":"Point","coordinates":[-113.473765,53.5016665]}},{"type":"Feature","properties":{"ZIP":"T6B1H2"},"geometry":{"type":"Point","coordinates":[-113.42135250000001,53.520384]}},{"type":"Feature","properties":{"ZIP":"T6B1C4"},"geometry":{"type":"Point","coordinates":[-113.431108,53.536292]}},{"type":"Feature","properties":{"ZIP":"T6B1V6"},"geometry":{"type":"Point","coordinates":[-113.433734,53.520599000000004]}},{"type":"Feature","properties":{"ZIP":"T6B3E3"},"geometry":{"type":"Point","coordinates":[-113.4439785,53.5042205]}},{"type":"Feature","properties":{"ZIP":"T6B0Z1"},"geometry":{"type":"Point","coordinates":[-113.421157,53.5339135]}},{"type":"Feature","properties":{"ZIP":"T6B0W2"},"geometry":{"type":"Point","coordinates":[-113.4374885,53.528745]}},{"type":"Feature","properties":{"ZIP":"T6B1V8"},"geometry":{"type":"Point","coordinates":[-113.43418,53.5271785]}},{"type":"Feature","properties":{"ZIP":"T6B2S1"},"geometry":{"type":"Point","coordinates":[-113.4133785,53.5023045]}},{"type":"Feature","properties":{"ZIP":"T6B0C5"},"geometry":{"type":"Point","coordinates":[-113.448875,53.5095735]}},{"type":"Feature","properties":{"ZIP":"T6B0J7"},"geometry":{"type":"Point","coordinates":[-113.42709049999999,53.520889]}},{"type":"Feature","properties":{"ZIP":"T6B0P4"},"geometry":{"type":"Point","coordinates":[-113.433183,53.5254175]}},{"type":"Feature","properties":{"ZIP":"T6B1S6"},"geometry":{"type":"Point","coordinates":[-113.431815,53.528937]}},{"type":"Feature","properties":{"ZIP":"T6B1V9"},"geometry":{"type":"Point","coordinates":[-113.43418,53.5271785]}},{"type":"Feature","properties":{"ZIP":"T6B2C6"},"geometry":{"type":"Point","coordinates":[-113.4328285,53.526327]}},{"type":"Feature","properties":{"ZIP":"T6B0T6"},"geometry":{"type":"Point","coordinates":[-113.4291415,53.527692]}},{"type":"Feature","properties":{"ZIP":"T6B1Y5"},"geometry":{"type":"Point","coordinates":[-113.4500335,53.515584]}},{"type":"Feature","properties":{"ZIP":"T6B0S2"},"geometry":{"type":"Point","coordinates":[-113.468826,53.489807]}},{"type":"Feature","properties":{"ZIP":"T6B0H4"},"geometry":{"type":"Point","coordinates":[-113.424362,53.519273999999996]}},{"type":"Feature","properties":{"ZIP":"T6B2M8"},"geometry":{"type":"Point","coordinates":[-113.4117925,53.5165025]}},{"type":"Feature","properties":{"ZIP":"T6B0W5"},"geometry":{"type":"Point","coordinates":[-113.4703945,53.501808499999996]}},{"type":"Feature","properties":{"ZIP":"T6B1B2"},"geometry":{"type":"Point","coordinates":[-113.47351699999999,53.5089345]}},{"type":"Feature","properties":{"ZIP":"T6B0P8"},"geometry":{"type":"Point","coordinates":[-113.4214445,53.52378]}},{"type":"Feature","properties":{"ZIP":"T6B0S4"},"geometry":{"type":"Point","coordinates":[-113.4690335,53.495729]}},{"type":"Feature","properties":{"ZIP":"T6B0Y4"},"geometry":{"type":"Point","coordinates":[-113.4390945,53.530485999999996]}},{"type":"Feature","properties":{"ZIP":"T6B1W4"},"geometry":{"type":"Point","coordinates":[-113.4356625,53.535166000000004]}},{"type":"Feature","properties":{"ZIP":"T6B2C9"},"geometry":{"type":"Point","coordinates":[-113.433763,53.52956399999999]}},{"type":"Feature","properties":{"ZIP":"T6B0Z7"},"geometry":{"type":"Point","coordinates":[-113.4344665,53.533032500000004]}},{"type":"Feature","properties":{"ZIP":"T6B1T8"},"geometry":{"type":"Point","coordinates":[-113.4327365,53.532003]}},{"type":"Feature","properties":{"ZIP":"T6B0Y5"},"geometry":{"type":"Point","coordinates":[-113.421859,53.5329775]}},{"type":"Feature","properties":{"ZIP":"T6B2L4"},"geometry":{"type":"Point","coordinates":[-113.42086499999999,53.529824500000004]}},{"type":"Feature","properties":{"ZIP":"T6B3M9"},"geometry":{"type":"Point","coordinates":[-113.4183855,53.503843]}},{"type":"Feature","properties":{"ZIP":"T6B0E1"},"geometry":{"type":"Point","coordinates":[-113.4449085,53.512266]}},{"type":"Feature","properties":{"ZIP":"T6B0K7"},"geometry":{"type":"Point","coordinates":[-113.440766,53.521172]}},{"type":"Feature","properties":{"ZIP":"T6B0M2"},"geometry":{"type":"Point","coordinates":[-113.462434,53.503265999999996]}},{"type":"Feature","properties":{"ZIP":"T6B0Y6"},"geometry":{"type":"Point","coordinates":[-113.4218725,53.532978]}},{"type":"Feature","properties":{"ZIP":"T6B2E3"},"geometry":{"type":"Point","coordinates":[-113.436815,53.534553]}},{"type":"Feature","properties":{"ZIP":"T6B2A1"},"geometry":{"type":"Point","coordinates":[-113.4622295,53.509378]}},{"type":"Feature","properties":{"ZIP":"T6B2G9"},"geometry":{"type":"Point","coordinates":[-113.46871300000001,53.495312999999996]}},{"type":"Feature","properties":{"ZIP":"T6B1C1"},"geometry":{"type":"Point","coordinates":[-113.43986699999999,53.5362035]}},{"type":"Feature","properties":{"ZIP":"T6B1X3"},"geometry":{"type":"Point","coordinates":[-113.447136,53.513907]}},{"type":"Feature","properties":{"ZIP":"T6B1G9"},"geometry":{"type":"Point","coordinates":[-113.4203945,53.5369335]}},{"type":"Feature","properties":{"ZIP":"T6B0E3"},"geometry":{"type":"Point","coordinates":[-113.4520545,53.5101395]}},{"type":"Feature","properties":{"ZIP":"T6B0X3"},"geometry":{"type":"Point","coordinates":[-113.432479,53.5301275]}},{"type":"Feature","properties":{"ZIP":"T6B1M7"},"geometry":{"type":"Point","coordinates":[-113.4664395,53.4958525]}},{"type":"Feature","properties":{"ZIP":"T6B0C2"},"geometry":{"type":"Point","coordinates":[-113.448868,53.508523999999994]}},{"type":"Feature","properties":{"ZIP":"T6B0J4"},"geometry":{"type":"Point","coordinates":[-113.427402,53.520225499999995]}},{"type":"Feature","properties":{"ZIP":"T6B1C3"},"geometry":{"type":"Point","coordinates":[-113.423198,53.536857]}},{"type":"Feature","properties":{"ZIP":"T6B1V5"},"geometry":{"type":"Point","coordinates":[-113.433734,53.520581500000006]}},{"type":"Feature","properties":{"ZIP":"T6B1Y2"},"geometry":{"type":"Point","coordinates":[-113.4368355,53.526965000000004]}},{"type":"Feature","properties":{"ZIP":"T6B0L3"},"geometry":{"type":"Point","coordinates":[-113.4622035,53.5027925]}},{"type":"Feature","properties":{"ZIP":"T6B0R6"},"geometry":{"type":"Point","coordinates":[-113.4675275,53.506574]}},{"type":"Feature","properties":{"ZIP":"T6B0X6"},"geometry":{"type":"Point","coordinates":[-113.422481,53.532126500000004]}},{"type":"Feature","properties":{"ZIP":"T6B0A7"},"geometry":{"type":"Point","coordinates":[-113.4246435,53.5105075]}},{"type":"Feature","properties":{"ZIP":"T6B0G8"},"geometry":{"type":"Point","coordinates":[-113.4475325,53.5140315]}},{"type":"Feature","properties":{"ZIP":"T6B1A8"},"geometry":{"type":"Point","coordinates":[-113.47359900000001,53.504243]}},{"type":"Feature","properties":{"ZIP":"T6B1H3"},"geometry":{"type":"Point","coordinates":[-113.420957,53.531227]}},{"type":"Feature","properties":{"ZIP":"T6B2H8"},"geometry":{"type":"Point","coordinates":[-113.4120655,53.512445]}},{"type":"Feature","properties":{"ZIP":"T6B0E7"},"geometry":{"type":"Point","coordinates":[-113.42931300000001,53.5181025]}},{"type":"Feature","properties":{"ZIP":"T6B2K6"},"geometry":{"type":"Point","coordinates":[-113.4223805,53.529491]}},{"type":"Feature","properties":{"ZIP":"T6B0G9"},"geometry":{"type":"Point","coordinates":[-113.4213705,53.519255]}},{"type":"Feature","properties":{"ZIP":"T6B0T5"},"geometry":{"type":"Point","coordinates":[-113.4291415,53.527692]}},{"type":"Feature","properties":{"ZIP":"T6B0Z3"},"geometry":{"type":"Point","coordinates":[-113.42128,53.533913999999996]}},{"type":"Feature","properties":{"ZIP":"T6B1H4"},"geometry":{"type":"Point","coordinates":[-113.422947,53.5396035]}},{"type":"Feature","properties":{"ZIP":"T6B2P1"},"geometry":{"type":"Point","coordinates":[-113.40393,53.5123315]}},{"type":"Feature","properties":{"ZIP":"T6B0B2"},"geometry":{"type":"Point","coordinates":[-113.438254,53.512311]}},{"type":"Feature","properties":{"ZIP":"T6B0C6"},"geometry":{"type":"Point","coordinates":[-113.4437705,53.5119075]}},{"type":"Feature","properties":{"ZIP":"T6B0W4"},"geometry":{"type":"Point","coordinates":[-113.4296265,53.529438999999996]}},{"type":"Feature","properties":{"ZIP":"T6B1H5"},"geometry":{"type":"Point","coordinates":[-113.4213595,53.535529499999996]}},{"type":"Feature","properties":{"ZIP":"T6B3P8"},"geometry":{"type":"Point","coordinates":[-113.434456,53.500683]}},{"type":"Feature","properties":{"ZIP":"T6B0B4"},"geometry":{"type":"Point","coordinates":[-113.428153,53.492269]}},{"type":"Feature","properties":{"ZIP":"T6B0N2"},"geometry":{"type":"Point","coordinates":[-113.43417,53.524268]}},{"type":"Feature","properties":{"ZIP":"T6B2X2"},"geometry":{"type":"Point","coordinates":[-113.3938265,53.5018565]}},{"type":"Feature","properties":{"ZIP":"T6B0K2"},"geometry":{"type":"Point","coordinates":[-113.4345395,53.5211695]}},{"type":"Feature","properties":{"ZIP":"T6B0L7"},"geometry":{"type":"Point","coordinates":[-113.460422,53.510983499999995]}},{"type":"Feature","properties":{"ZIP":"T6B0S3"},"geometry":{"type":"Point","coordinates":[-113.46865650000001,53.501357999999996]}},{"type":"Feature","properties":{"ZIP":"T6B1K9"},"geometry":{"type":"Point","coordinates":[-113.4666925,53.493926]}},{"type":"Feature","properties":{"ZIP":"T6B0H5"},"geometry":{"type":"Point","coordinates":[-113.4288385,53.519386499999996]}},{"type":"Feature","properties":{"ZIP":"T6B1G3"},"geometry":{"type":"Point","coordinates":[-113.419874,53.5298665]}},{"type":"Feature","properties":{"ZIP":"T6B0G2"},"geometry":{"type":"Point","coordinates":[-113.44112849999999,53.518156000000005]}},{"type":"Feature","properties":{"ZIP":"T6B0N5"},"geometry":{"type":"Point","coordinates":[-113.45011,53.516007]}},{"type":"Feature","properties":{"ZIP":"T6B0V3"},"geometry":{"type":"Point","coordinates":[-113.4398535,53.5277605]}},{"type":"Feature","properties":{"ZIP":"T6B1Z3"},"geometry":{"type":"Point","coordinates":[-113.43996899999999,53.511573999999996]}},{"type":"Feature","properties":{"ZIP":"T6B2G6"},"geometry":{"type":"Point","coordinates":[-113.43091849999999,53.5211495]}},{"type":"Feature","properties":{"ZIP":"T6B0C9"},"geometry":{"type":"Point","coordinates":[-113.4459755,53.513349]}},{"type":"Feature","properties":{"ZIP":"T6B2B6"},"geometry":{"type":"Point","coordinates":[-113.47428500000001,53.510377500000004]}},{"type":"Feature","properties":{"ZIP":"T6B2R1"},"geometry":{"type":"Point","coordinates":[-113.423971,53.493057500000006]}},{"type":"Feature","properties":{"ZIP":"T6B0S5"},"geometry":{"type":"Point","coordinates":[-113.469503,53.501577]}},{"type":"Feature","properties":{"ZIP":"T6B1E3"},"geometry":{"type":"Point","coordinates":[-113.482844,53.4996185]}},{"type":"Feature","properties":{"ZIP":"T6B2E1"},"geometry":{"type":"Point","coordinates":[-113.43551099999999,53.532175]}},{"type":"Feature","properties":{"ZIP":"T6B2T1"},"geometry":{"type":"Point","coordinates":[-113.40581900000001,53.509986]}},{"type":"Feature","properties":{"ZIP":"T6B1Z9"},"geometry":{"type":"Point","coordinates":[-113.4622305,53.509378]}},{"type":"Feature","properties":{"ZIP":"T6B0W8"},"geometry":{"type":"Point","coordinates":[-113.4544845,53.519180000000006]}},{"type":"Feature","properties":{"ZIP":"T6B1W6"},"geometry":{"type":"Point","coordinates":[-113.45766900000001,53.505887]}},{"type":"Feature","properties":{"ZIP":"T6B0K8"},"geometry":{"type":"Point","coordinates":[-113.46259649999999,53.4957705]}},{"type":"Feature","properties":{"ZIP":"T6B0X1"},"geometry":{"type":"Point","coordinates":[-113.428167,53.530302]}},{"type":"Feature","properties":{"ZIP":"T6B1J2"},"geometry":{"type":"Point","coordinates":[-113.42192299999999,53.524958]}},{"type":"Feature","properties":{"ZIP":"T6B2J8"},"geometry":{"type":"Point","coordinates":[-113.4184405,53.5083385]}},{"type":"Feature","properties":{"ZIP":"T6B0Y7"},"geometry":{"type":"Point","coordinates":[-113.47237200000001,53.497080499999996]}},{"type":"Feature","properties":{"ZIP":"T6B2E5"},"geometry":{"type":"Point","coordinates":[-113.436954,53.534338000000005]}},{"type":"Feature","properties":{"ZIP":"T6B1A4"},"geometry":{"type":"Point","coordinates":[-113.474237,53.4958325]}},{"type":"Feature","properties":{"ZIP":"T6B2N6"},"geometry":{"type":"Point","coordinates":[-113.411205,53.520399]}},{"type":"Feature","properties":{"ZIP":"T6B2X8"},"geometry":{"type":"Point","coordinates":[-113.4165615,53.511612]}},{"type":"Feature","properties":{"ZIP":"T6B0K9"},"geometry":{"type":"Point","coordinates":[-113.4582965,53.495202]}},{"type":"Feature","properties":{"ZIP":"T6B0R4"},"geometry":{"type":"Point","coordinates":[-113.4678385,53.496357]}},{"type":"Feature","properties":{"ZIP":"T6B1V3"},"geometry":{"type":"Point","coordinates":[-113.4344865,53.535688]}},{"type":"Feature","properties":{"ZIP":"T6B1X4"},"geometry":{"type":"Point","coordinates":[-113.4461005,53.513870999999995]}},{"type":"Feature","properties":{"ZIP":"T6B2E7"},"geometry":{"type":"Point","coordinates":[-113.4378615,53.536567000000005]}},{"type":"Feature","properties":{"ZIP":"T6B2L8"},"geometry":{"type":"Point","coordinates":[-113.41494850000001,53.5344295]}},{"type":"Feature","properties":{"ZIP":"T6B2V2"},"geometry":{"type":"Point","coordinates":[-113.401142,53.505915]}},{"type":"Feature","properties":{"ZIP":"T6B3L2"},"geometry":{"type":"Point","coordinates":[-113.436403,53.4923615]}},{"type":"Feature","properties":{"ZIP":"T6B1R9"},"geometry":{"type":"Point","coordinates":[-113.43268850000001,53.535225999999994]}},{"type":"Feature","properties":{"ZIP":"T6B2N7"},"geometry":{"type":"Point","coordinates":[-113.4184165,53.501214000000004]}},{"type":"Feature","properties":{"ZIP":"T6B0E4"},"geometry":{"type":"Point","coordinates":[-113.414818,53.517893]}},{"type":"Feature","properties":{"ZIP":"T6B0L1"},"geometry":{"type":"Point","coordinates":[-113.445071,53.5104185]}},{"type":"Feature","properties":{"ZIP":"T6B0X5"},"geometry":{"type":"Point","coordinates":[-113.4217335,53.531295]}},{"type":"Feature","properties":{"ZIP":"T6B1J5"},"geometry":{"type":"Point","coordinates":[-113.446364,53.5106885]}},{"type":"Feature","properties":{"ZIP":"T6B2R8"},"geometry":{"type":"Point","coordinates":[-113.4192455,53.5025355]}},{"type":"Feature","properties":{"ZIP":"T6B3C6"},"geometry":{"type":"Point","coordinates":[-113.418385,53.491943500000005]}},{"type":"Feature","properties":{"ZIP":"T6B0A6"},"geometry":{"type":"Point","coordinates":[-113.420668,53.512445]}},{"type":"Feature","properties":{"ZIP":"T6B2L9"},"geometry":{"type":"Point","coordinates":[-113.4093045,53.517917]}},{"type":"Feature","properties":{"ZIP":"T6B2C4"},"geometry":{"type":"Point","coordinates":[-113.4360265,53.5108745]}},{"type":"Feature","properties":{"ZIP":"T6B0M8"},"geometry":{"type":"Point","coordinates":[-113.42502350000001,53.52266]}},{"type":"Feature","properties":{"ZIP":"T6B1Y3"},"geometry":{"type":"Point","coordinates":[-113.447669,53.514784]}},{"type":"Feature","properties":{"ZIP":"T6B3L7"},"geometry":{"type":"Point","coordinates":[-113.4268215,53.5080805]}},{"type":"Feature","properties":{"ZIP":"T6B0C4"},"geometry":{"type":"Point","coordinates":[-113.44563550000001,53.5120225]}},{"type":"Feature","properties":{"ZIP":"T6B3P5"},"geometry":{"type":"Point","coordinates":[-113.44681600000001,53.428998]}},{"type":"Feature","properties":{"ZIP":"T6B0L4"},"geometry":{"type":"Point","coordinates":[-113.462222,53.502798]}},{"type":"Feature","properties":{"ZIP":"T6B3G4"},"geometry":{"type":"Point","coordinates":[-113.399704,53.5057555]}},{"type":"Feature","properties":{"ZIP":"T6B2M3"},"geometry":{"type":"Point","coordinates":[-113.4077075,53.516982]}},{"type":"Feature","properties":{"ZIP":"T6B3M3"},"geometry":{"type":"Point","coordinates":[-113.42881399999999,53.507536]}},{"type":"Feature","properties":{"ZIP":"T6B0W3"},"geometry":{"type":"Point","coordinates":[-113.439172,53.52866]}},{"type":"Feature","properties":{"ZIP":"T6B0L5"},"geometry":{"type":"Point","coordinates":[-113.459743,53.5061775]}},{"type":"Feature","properties":{"ZIP":"T6B1C7"},"geometry":{"type":"Point","coordinates":[-113.434831,53.5364575]}},{"type":"Feature","properties":{"ZIP":"T6B1K6"},"geometry":{"type":"Point","coordinates":[-113.42439949999999,53.520879]}},{"type":"Feature","properties":{"ZIP":"T6B3G6"},"geometry":{"type":"Point","coordinates":[-113.431476,53.4947315]}},{"type":"Feature","properties":{"ZIP":"T6B1N5"},"geometry":{"type":"Point","coordinates":[-113.42720750000001,53.522697]}},{"type":"Feature","properties":{"ZIP":"T6B2G3"},"geometry":{"type":"Point","coordinates":[-113.420188,53.510498]}},{"type":"Feature","properties":{"ZIP":"T6B2W9"},"geometry":{"type":"Point","coordinates":[-113.4183435,53.5126355]}},{"type":"Feature","properties":{"ZIP":"T6B3M4"},"geometry":{"type":"Point","coordinates":[-113.4225145,53.5034155]}},{"type":"Feature","properties":{"ZIP":"T6B0J8"},"geometry":{"type":"Point","coordinates":[-113.428028,53.521213]}},{"type":"Feature","properties":{"ZIP":"T6B1B1"},"geometry":{"type":"Point","coordinates":[-113.4735125,53.5089825]}},{"type":"Feature","properties":{"ZIP":"T6B2J3"},"geometry":{"type":"Point","coordinates":[-113.430503,53.508463]}},{"type":"Feature","properties":{"ZIP":"T6B2Z7"},"geometry":{"type":"Point","coordinates":[-113.4033995,53.510253]}},{"type":"Feature","properties":{"ZIP":"T6B0L6"},"geometry":{"type":"Point","coordinates":[-113.4587755,53.507287500000004]}},{"type":"Feature","properties":{"ZIP":"T6B0Y1"},"geometry":{"type":"Point","coordinates":[-113.43246350000001,53.531101500000005]}},{"type":"Feature","properties":{"ZIP":"T6B1K7"},"geometry":{"type":"Point","coordinates":[-113.42439949999999,53.5208795]}},{"type":"Feature","properties":{"ZIP":"T6B1W1"},"geometry":{"type":"Point","coordinates":[-113.43513999999999,53.5293095]}},{"type":"Feature","properties":{"ZIP":"T6B2K8"},"geometry":{"type":"Point","coordinates":[-113.4210085,53.5284765]}},{"type":"Feature","properties":{"ZIP":"T6B1N6"},"geometry":{"type":"Point","coordinates":[-113.42720750000001,53.522696999999994]}},{"type":"Feature","properties":{"ZIP":"T6B2G4"},"geometry":{"type":"Point","coordinates":[-113.4340275,53.5300445]}},{"type":"Feature","properties":{"ZIP":"T6B1H7"},"geometry":{"type":"Point","coordinates":[-113.4228855,53.519708]}},{"type":"Feature","properties":{"ZIP":"T6B1T5"},"geometry":{"type":"Point","coordinates":[-113.4322435,53.5219065]}},{"type":"Feature","properties":{"ZIP":"T6B2P7"},"geometry":{"type":"Point","coordinates":[-113.39746249999999,53.5102435]}},{"type":"Feature","properties":{"ZIP":"T6B0G1"},"geometry":{"type":"Point","coordinates":[-113.43798899999999,53.5180735]}},{"type":"Feature","properties":{"ZIP":"T6B2S8"},"geometry":{"type":"Point","coordinates":[-113.39718149999999,53.512328]}},{"type":"Feature","properties":{"ZIP":"T6B3H9"},"geometry":{"type":"Point","coordinates":[-113.43722,53.493941]}},{"type":"Feature","properties":{"ZIP":"T6B0V2"},"geometry":{"type":"Point","coordinates":[-113.4377895,53.527364]}},{"type":"Feature","properties":{"ZIP":"T6B2N1"},"geometry":{"type":"Point","coordinates":[-113.412306,53.5022885]}},{"type":"Feature","properties":{"ZIP":"T6B3M7"},"geometry":{"type":"Point","coordinates":[-113.41416749999999,53.526720999999995]}},{"type":"Feature","properties":{"ZIP":"T6B1T6"},"geometry":{"type":"Point","coordinates":[-113.432252,53.5227855]}},{"type":"Feature","properties":{"ZIP":"T6B2B5"},"geometry":{"type":"Point","coordinates":[-113.471555,53.5103805]}},{"type":"Feature","properties":{"ZIP":"T6B0B6"},"geometry":{"type":"Point","coordinates":[-113.44153499999999,53.5107115]}},{"type":"Feature","properties":{"ZIP":"T6B0H6"},"geometry":{"type":"Point","coordinates":[-113.43449150000001,53.519876499999995]}},{"type":"Feature","properties":{"ZIP":"T6B3M8"},"geometry":{"type":"Point","coordinates":[-113.404507,53.514319]}},{"type":"Feature","properties":{"ZIP":"T6B0W7"},"geometry":{"type":"Point","coordinates":[-113.437423,53.5295045]}},{"type":"Feature","properties":{"ZIP":"T6B1L6"},"geometry":{"type":"Point","coordinates":[-113.46912850000001,53.493971]}},{"type":"Feature","properties":{"ZIP":"T6B1W5"},"geometry":{"type":"Point","coordinates":[-113.4577045,53.5058275]}},{"type":"Feature","properties":{"ZIP":"T6B2G7"},"geometry":{"type":"Point","coordinates":[-113.43057300000001,53.524235]}},{"type":"Feature","properties":{"ZIP":"T6B2N3"},"geometry":{"type":"Point","coordinates":[-113.4057695,53.514243500000006]}},{"type":"Feature","properties":{"ZIP":"T6B2X6"},"geometry":{"type":"Point","coordinates":[-113.3940155,53.531013]}},{"type":"Feature","properties":{"ZIP":"T6B1J1"},"geometry":{"type":"Point","coordinates":[-113.4221565,53.524822]}},{"type":"Feature","properties":{"ZIP":"T6B1T9"},"geometry":{"type":"Point","coordinates":[-113.4334335,53.531587]}},{"type":"Feature","properties":{"ZIP":"T6B2B7"},"geometry":{"type":"Point","coordinates":[-113.4748005,53.510379]}},{"type":"Feature","properties":{"ZIP":"T6B3R9"},"geometry":{"type":"Point","coordinates":[-113.4468795,53.429681]}},{"type":"Feature","properties":{"ZIP":"T6B0E2"},"geometry":{"type":"Point","coordinates":[-113.4450285,53.512869499999994]}},{"type":"Feature","properties":{"ZIP":"T6B0A3"},"geometry":{"type":"Point","coordinates":[-113.41078,53.512454500000004]}},{"type":"Feature","properties":{"ZIP":"T6B0G5"},"geometry":{"type":"Point","coordinates":[-113.443682,53.511803]}},{"type":"Feature","properties":{"ZIP":"T6B0M3"},"geometry":{"type":"Point","coordinates":[-113.462352,53.5082655]}},{"type":"Feature","properties":{"ZIP":"T6B1M5"},"geometry":{"type":"Point","coordinates":[-113.4258465,53.520573999999996]}},{"type":"Feature","properties":{"ZIP":"T6B2L7"},"geometry":{"type":"Point","coordinates":[-113.412963,53.53154]}},{"type":"Feature","properties":{"ZIP":"T6B0C1"},"geometry":{"type":"Point","coordinates":[-113.44393149999999,53.5129425]}},{"type":"Feature","properties":{"ZIP":"T6B0J1"},"geometry":{"type":"Point","coordinates":[-113.4243775,53.5201895]}},{"type":"Feature","properties":{"ZIP":"T6B2H5"},"geometry":{"type":"Point","coordinates":[-113.4149235,53.5100475]}},{"type":"Feature","properties":{"ZIP":"T6B1C2"},"geometry":{"type":"Point","coordinates":[-113.4232145,53.5368585]}},{"type":"Feature","properties":{"ZIP":"T6B1J4"},"geometry":{"type":"Point","coordinates":[-113.4458305,53.509821]}},{"type":"Feature","properties":{"ZIP":"T6B2C2"},"geometry":{"type":"Point","coordinates":[-113.4257585,53.536505]}},{"type":"Feature","properties":{"ZIP":"T6B2R7"},"geometry":{"type":"Point","coordinates":[-113.4079185,53.530981]}},{"type":"Feature","properties":{"ZIP":"T6B3t6"},"geometry":{"type":"Point","coordinates":[-113.44704949999999,53.5040985]}},{"type":"Feature","properties":{"ZIP":"T6B0A5"},"geometry":{"type":"Point","coordinates":[-113.412545,53.512496999999996]}},{"type":"Feature","properties":{"ZIP":"T6B0V9"},"geometry":{"type":"Point","coordinates":[-113.4293895,53.528608]}},{"type":"Feature","properties":{"ZIP":"T6B2X9"},"geometry":{"type":"Point","coordinates":[-113.39655099999999,53.5142385]}},{"type":"Feature","properties":{"ZIP":"T6B2C3"},"geometry":{"type":"Point","coordinates":[-113.42811599999999,53.53519]}},{"type":"Feature","properties":{"ZIP":"T6B2K2"},"geometry":{"type":"Point","coordinates":[-113.4178555,53.5081665]}},{"type":"Feature","properties":{"ZIP":"T6B0T3"},"geometry":{"type":"Point","coordinates":[-113.42573250000001,53.527699]}},{"type":"Feature","properties":{"ZIP":"T6B0Y9"},"geometry":{"type":"Point","coordinates":[-113.4730165,53.502945]}},{"type":"Feature","properties":{"ZIP":"T6B1E7"},"geometry":{"type":"Point","coordinates":[-113.418289,53.520339]}},{"type":"Feature","properties":{"ZIP":"T6B2E8"},"geometry":{"type":"Point","coordinates":[-113.43780799999999,53.5369525]}},{"type":"Feature","properties":{"ZIP":"T6B2V5"},"geometry":{"type":"Point","coordinates":[-113.39389,53.5120785]}},{"type":"Feature","properties":{"ZIP":"T6B3L4"},"geometry":{"type":"Point","coordinates":[-113.4245645,53.494589000000005]}},{"type":"Feature","properties":{"ZIP":"T6B1S1"},"geometry":{"type":"Point","coordinates":[-113.4325575,53.534977999999995]}},{"type":"Feature","properties":{"ZIP":"T6B2H7"},"geometry":{"type":"Point","coordinates":[-113.40401449999999,53.5123325]}},{"type":"Feature","properties":{"ZIP":"T6B2N8"},"geometry":{"type":"Point","coordinates":[-113.39504600000001,53.5123335]}},{"type":"Feature","properties":{"ZIP":"T6B2Y3"},"geometry":{"type":"Point","coordinates":[-113.4172425,53.5222215]}},{"type":"Feature","properties":{"ZIP":"T6B0E5"},"geometry":{"type":"Point","coordinates":[-113.415235,53.517895499999995]}},{"type":"Feature","properties":{"ZIP":"T6B2R9"},"geometry":{"type":"Point","coordinates":[-113.410995,53.529093]}},{"type":"Feature","properties":{"ZIP":"T6B0T4"},"geometry":{"type":"Point","coordinates":[-113.4263565,53.52769]}},{"type":"Feature","properties":{"ZIP":"T6B1M9"},"geometry":{"type":"Point","coordinates":[-113.446755,53.512191]}},{"type":"Feature","properties":{"ZIP":"T6B2E9"},"geometry":{"type":"Point","coordinates":[-113.4241045,53.536876]}},{"type":"Feature","properties":{"ZIP":"T6B2W2"},"geometry":{"type":"Point","coordinates":[-113.41497849999999,53.488215999999994]}},{"type":"Feature","properties":{"ZIP":"T6B0J6"},"geometry":{"type":"Point","coordinates":[-113.426042,53.5209115]}},{"type":"Feature","properties":{"ZIP":"T6B2Z1"},"geometry":{"type":"Point","coordinates":[-113.412398,53.4905185]}},{"type":"Feature","properties":{"ZIP":"T6B2C5"},"geometry":{"type":"Point","coordinates":[-113.4391325,53.508691999999996]}},{"type":"Feature","properties":{"ZIP":"T6B0A8"},"geometry":{"type":"Point","coordinates":[-113.43377000000001,53.5122715]}},{"type":"Feature","properties":{"ZIP":"T6B2G2"},"geometry":{"type":"Point","coordinates":[-113.419995,53.5122185]}},{"type":"Feature","properties":{"ZIP":"T6B2W4"},"geometry":{"type":"Point","coordinates":[-113.40069,53.514312000000004]}},{"type":"Feature","properties":{"ZIP":"T6B1A9"},"geometry":{"type":"Point","coordinates":[-113.473624,53.505171]}},{"type":"Feature","properties":{"ZIP":"T6B2Z3"},"geometry":{"type":"Point","coordinates":[-113.398138,53.519551]}},{"type":"Feature","properties":{"ZIP":"T6B3P6"},"geometry":{"type":"Point","coordinates":[-113.44327200000001,53.495315000000005]}},{"type":"Feature","properties":{"ZIP":"T6B0E8"},"geometry":{"type":"Point","coordinates":[-113.4246315,53.518046]}},{"type":"Feature","properties":{"ZIP":"T6B0S1"},"geometry":{"type":"Point","coordinates":[-113.468902,53.489464999999996]}},{"type":"Feature","properties":{"ZIP":"T6B2M7"},"geometry":{"type":"Point","coordinates":[-113.4135555,53.524657]}},{"type":"Feature","properties":{"ZIP":"T6B2P4"},"geometry":{"type":"Point","coordinates":[-113.43936249999999,53.4879985]}},{"type":"Feature","properties":{"ZIP":"T6B0E9"},"geometry":{"type":"Point","coordinates":[-113.43285900000001,53.5179685]}},{"type":"Feature","properties":{"ZIP":"T6B2B4"},"geometry":{"type":"Point","coordinates":[-113.4720465,53.5103795]}},{"type":"Feature","properties":{"ZIP":"T6B2J4"},"geometry":{"type":"Point","coordinates":[-113.415476,53.5268025]}},{"type":"Feature","properties":{"ZIP":"T6B1N9"},"geometry":{"type":"Point","coordinates":[-113.42712399999999,53.5285985]}},{"type":"Feature","properties":{"ZIP":"T6B1B4"},"geometry":{"type":"Point","coordinates":[-113.43341050000001,53.535205500000004]}},{"type":"Feature","properties":{"ZIP":"T6B2P9"},"geometry":{"type":"Point","coordinates":[-113.4153255,53.522913]}},{"type":"Feature","properties":{"ZIP":"T6B3A6"},"geometry":{"type":"Point","coordinates":[-113.432898,53.5084685]}},{"type":"Feature","properties":{"ZIP":"T6B2S9"},"geometry":{"type":"Point","coordinates":[-113.41675000000001,53.519693000000004]}},{"type":"Feature","properties":{"ZIP":"T6B3J4"},"geometry":{"type":"Point","coordinates":[-113.438608,53.493329]}},{"type":"Feature","properties":{"ZIP":"T6B1P9"},"geometry":{"type":"Point","coordinates":[-113.463667,53.5005315]}},{"type":"Feature","properties":{"ZIP":"T6B2N2"},"geometry":{"type":"Point","coordinates":[-113.4130885,53.5018905]}},{"type":"Feature","properties":{"ZIP":"T6B2X4"},"geometry":{"type":"Point","coordinates":[-113.412879,53.52672200000001]}},{"type":"Feature","properties":{"ZIP":"T6B2J6"},"geometry":{"type":"Point","coordinates":[-113.4196645,53.518062]}},{"type":"Feature","properties":{"ZIP":"T6B3B6"},"geometry":{"type":"Point","coordinates":[-113.4641805,53.4707425]}},{"type":"Feature","properties":{"ZIP":"T6B0G3"},"geometry":{"type":"Point","coordinates":[-113.4403395,53.517908000000006]}},{"type":"Feature","properties":{"ZIP":"T6B0M1"},"geometry":{"type":"Point","coordinates":[-113.46492,53.5026465]}},{"type":"Feature","properties":{"ZIP":"T6B3K1"},"geometry":{"type":"Point","coordinates":[-113.42189350000001,53.491095]}},{"type":"Feature","properties":{"ZIP":"T6B0B8"},"geometry":{"type":"Point","coordinates":[-113.4425575,53.510920999999996]}},{"type":"Feature","properties":{"ZIP":"T6B0N6"},"geometry":{"type":"Point","coordinates":[-113.440298,53.524247]}},{"type":"Feature","properties":{"ZIP":"T6B1R1"},"geometry":{"type":"Point","coordinates":[-113.4287135,53.522439000000006]}},{"type":"Feature","properties":{"ZIP":"T6B1B9"},"geometry":{"type":"Point","coordinates":[-113.4398085,53.5359395]}},{"type":"Feature","properties":{"ZIP":"T6B2J7"},"geometry":{"type":"Point","coordinates":[-113.43301600000001,53.5134185]}},{"type":"Feature","properties":{"ZIP":"T6B2R2"},"geometry":{"type":"Point","coordinates":[-113.435411,53.512344]}},{"type":"Feature","properties":{"ZIP":"T6B3C3"},"geometry":{"type":"Point","coordinates":[-113.4264115,53.494753]}},{"type":"Feature","properties":{"ZIP":"T6B0A1"},"geometry":{"type":"Point","coordinates":[-113.4405415,53.505033999999995]}},{"type":"Feature","properties":{"ZIP":"T6B0S7"},"geometry":{"type":"Point","coordinates":[-113.4690215,53.511052]}},{"type":"Feature","properties":{"ZIP":"T6B2L5"},"geometry":{"type":"Point","coordinates":[-113.447123,53.5097315]}},{"type":"Feature","properties":{"ZIP":"T6B3K3"},"geometry":{"type":"Point","coordinates":[-113.43755,53.493871999999996]}},{"type":"Feature","properties":{"ZIP":"T6B0V6"},"geometry":{"type":"Point","coordinates":[-113.4213305,53.5284755]}},{"type":"Feature","properties":{"ZIP":"T6B1A2"},"geometry":{"type":"Point","coordinates":[-113.47459,53.4904485]}},{"type":"Feature","properties":{"ZIP":"T6B2R3"},"geometry":{"type":"Point","coordinates":[-113.411044,53.531414]}},{"type":"Feature","properties":{"ZIP":"T6B3C4"},"geometry":{"type":"Point","coordinates":[-113.41832199999999,53.496596499999995]}},{"type":"Feature","properties":{"ZIP":"T6B1E5"},"geometry":{"type":"Point","coordinates":[-113.418301,53.514748999999995]}},{"type":"Feature","properties":{"ZIP":"T6B2T8"},"geometry":{"type":"Point","coordinates":[-113.39919950000001,53.5083655]}},{"type":"Feature","properties":{"ZIP":"T6B3K9"},"geometry":{"type":"Point","coordinates":[-113.44117800000001,53.4929075]}},{"type":"Feature","properties":{"ZIP":"T6B0V8"},"geometry":{"type":"Point","coordinates":[-113.4293895,53.528608]}},{"type":"Feature","properties":{"ZIP":"T6B2J9"},"geometry":{"type":"Point","coordinates":[-113.42666700000001,53.5118635]}},{"type":"Feature","properties":{"ZIP":"T6B0M4"},"geometry":{"type":"Point","coordinates":[-113.46381099999999,53.5104825]}},{"type":"Feature","properties":{"ZIP":"T6B0T1"},"geometry":{"type":"Point","coordinates":[-113.4207485,53.52764500000001]}},{"type":"Feature","properties":{"ZIP":"T6B2H6"},"geometry":{"type":"Point","coordinates":[-113.4143445,53.5101055]}},{"type":"Feature","properties":{"ZIP":"T6B3N7"},"geometry":{"type":"Point","coordinates":[-113.402774,53.490429]}},{"type":"Feature","properties":{"ZIP":"T6B1M8"},"geometry":{"type":"Point","coordinates":[-113.465999,53.4958765]}},{"type":"Feature","properties":{"ZIP":"T6B2A5"},"geometry":{"type":"Point","coordinates":[-113.4695075,53.509428]}},{"type":"Feature","properties":{"ZIP":"T6B3N9"},"geometry":{"type":"Point","coordinates":[-113.421538,53.501751]}},{"type":"Feature","properties":{"ZIP":"T6B1Y4"},"geometry":{"type":"Point","coordinates":[-113.438331,53.5205135]}},{"type":"Feature","properties":{"ZIP":"T6B2J1"},"geometry":{"type":"Point","coordinates":[-113.4215815,53.5084535]}},{"type":"Feature","properties":{"ZIP":"T6B2S4"},"geometry":{"type":"Point","coordinates":[-113.4097235,53.5179145]}},{"type":"Feature","properties":{"ZIP":"T6B2B1"},"geometry":{"type":"Point","coordinates":[-113.462941,53.5103935]}},{"type":"Feature","properties":{"ZIP":"T6B3H4"},"geometry":{"type":"Point","coordinates":[-113.4190445,53.508160000000004]}},{"type":"Feature","properties":{"ZIP":"T6B3M6"},"geometry":{"type":"Point","coordinates":[-113.418071,53.5034605]}},{"type":"Feature","properties":{"ZIP":"T6B2Z8"},"geometry":{"type":"Point","coordinates":[-113.418319,53.493806]}},{"type":"Feature","properties":{"ZIP":"T6B0B5"},"geometry":{"type":"Point","coordinates":[-113.4372205,53.5132675]}},{"type":"Feature","properties":{"ZIP":"T6B0N4"},"geometry":{"type":"Point","coordinates":[-113.4383615,53.5242635]}},{"type":"Feature","properties":{"ZIP":"T6B2J5"},"geometry":{"type":"Point","coordinates":[-113.432849,53.514207]}},{"type":"Feature","properties":{"ZIP":"T6B3R1"},"geometry":{"type":"Point","coordinates":[-113.4136915,53.492748]}},{"type":"Feature","properties":{"ZIP":"T6B1L2"},"geometry":{"type":"Point","coordinates":[-113.4664305,53.493949]}},{"type":"Feature","properties":{"ZIP":"T6B0V4"},"geometry":{"type":"Point","coordinates":[-113.4413175,53.527756499999995]}},{"type":"Feature","properties":{"ZIP":"T6B1E4"},"geometry":{"type":"Point","coordinates":[-113.437422,53.492178]}},{"type":"Feature","properties":{"ZIP":"T6B2T3"},"geometry":{"type":"Point","coordinates":[-113.40848600000001,53.5323505]}},{"type":"Feature","properties":{"ZIP":"T6B0B9"},"geometry":{"type":"Point","coordinates":[-113.44261900000001,53.5118885]}},{"type":"Feature","properties":{"ZIP":"T6B0R3"},"geometry":{"type":"Point","coordinates":[-113.467033,53.489630000000005]}},{"type":"Feature","properties":{"ZIP":"T6B1R6"},"geometry":{"type":"Point","coordinates":[-113.431404,53.530858]}},{"type":"Feature","properties":{"ZIP":"T6B2A2"},"geometry":{"type":"Point","coordinates":[-113.4645275,53.509401499999996]}},{"type":"Feature","properties":{"ZIP":"T6B3N6"},"geometry":{"type":"Point","coordinates":[-113.4223415,53.502649000000005]}},{"type":"Feature","properties":{"ZIP":"T6B1E6"},"geometry":{"type":"Point","coordinates":[-113.4185135,53.517108500000006]}},{"type":"Feature","properties":{"ZIP":"T6B3C5"},"geometry":{"type":"Point","coordinates":[-113.43826100000001,53.505342999999996]}}]}