{"type":"FeatureCollection","features":[{"type":"Feature","properties":{"ZIP":"H1L4L1"},"geometry":{"type":"Point","coordinates":[-73.5124305,45.60432]}},{"type":"Feature","properties":{"ZIP":"H1L4R9"},"geometry":{"type":"Point","coordinates":[-73.5196825,45.6038075]}},{"type":"Feature","properties":{"ZIP":"H1L5P7"},"geometry":{"type":"Point","coordinates":[-73.514761,45.5934675]}},{"type":"Feature","properties":{"ZIP":"H1L4T2"},"geometry":{"type":"Point","coordinates":[-73.520072,45.6031465]}},{"type":"Feature","properties":{"ZIP":"H1L4N5"},"geometry":{"type":"Point","coordinates":[-73.52179000000001,45.606027499999996]}},{"type":"Feature","properties":{"ZIP":"H1L4T5"},"geometry":{"type":"Point","coordinates":[-73.5221195,45.603794]}},{"type":"Feature","properties":{"ZIP":"H1L4S2"},"geometry":{"type":"Point","coordinates":[-73.5218145,45.604445]}},{"type":"Feature","properties":{"ZIP":"H1L5A5"},"geometry":{"type":"Point","coordinates":[-73.51905,45.5997185]}},{"type":"Feature","properties":{"ZIP":"H1L4M7"},"geometry":{"type":"Point","coordinates":[-73.5177985,45.604895]}},{"type":"Feature","properties":{"ZIP":"H1L5A6"},"geometry":{"type":"Point","coordinates":[-73.519574,45.599872500000004]}},{"type":"Feature","properties":{"ZIP":"H1L5P9"},"geometry":{"type":"Point","coordinates":[-73.51682199999999,45.594112499999994]}},{"type":"Feature","properties":{"ZIP":"H1L5V9"},"geometry":{"type":"Point","coordinates":[-73.51986500000001,45.59265]}},{"type":"Feature","properties":{"ZIP":"H1L3H1"},"geometry":{"type":"Point","coordinates":[-73.512998,45.5923]}},{"type":"Feature","properties":{"ZIP":"H1L5E1"},"geometry":{"type":"Point","coordinates":[-73.5172675,45.598293999999996]}},{"type":"Feature","properties":{"ZIP":"H1L4M8"},"geometry":{"type":"Point","coordinates":[-73.51818800000001,45.605001]}},{"type":"Feature","properties":{"ZIP":"H1L5A9"},"geometry":{"type":"Point","coordinates":[-73.518929,45.599678999999995]}},{"type":"Feature","properties":{"ZIP":"H1L1X2"},"geometry":{"type":"Point","coordinates":[-73.5263085,45.598803000000004]}},{"type":"Feature","properties":{"ZIP":"H1L4N2"},"geometry":{"type":"Point","coordinates":[-73.520447,45.605644999999996]}},{"type":"Feature","properties":{"ZIP":"H1L4R6"},"geometry":{"type":"Point","coordinates":[-73.52097,45.6049165]}},{"type":"Feature","properties":{"ZIP":"H1L3Z2"},"geometry":{"type":"Point","coordinates":[-73.51641599999999,45.610183]}},{"type":"Feature","properties":{"ZIP":"H1L4N4"},"geometry":{"type":"Point","coordinates":[-73.5217825,45.6060255]}},{"type":"Feature","properties":{"ZIP":"H1L5B3"},"geometry":{"type":"Point","coordinates":[-73.52370450000001,45.6011285]}},{"type":"Feature","properties":{"ZIP":"H1L4M2"},"geometry":{"type":"Point","coordinates":[-73.52351,45.6071845]}},{"type":"Feature","properties":{"ZIP":"H1L3M8"},"geometry":{"type":"Point","coordinates":[-73.511366,45.6038295]}},{"type":"Feature","properties":{"ZIP":"H1L4T3"},"geometry":{"type":"Point","coordinates":[-73.520072,45.6031465]}},{"type":"Feature","properties":{"ZIP":"H1L5H1"},"geometry":{"type":"Point","coordinates":[-73.5173045,45.597449]}},{"type":"Feature","properties":{"ZIP":"H1L6C2"},"geometry":{"type":"Point","coordinates":[-73.52100200000001,45.590768499999996]}},{"type":"Feature","properties":{"ZIP":"H1L4J9"},"geometry":{"type":"Point","coordinates":[-73.5203755,45.607248]}},{"type":"Feature","properties":{"ZIP":"H1L5H2"},"geometry":{"type":"Point","coordinates":[-73.5173045,45.597449]}},{"type":"Feature","properties":{"ZIP":"H1L3N1"},"geometry":{"type":"Point","coordinates":[-73.510118,45.604393]}},{"type":"Feature","properties":{"ZIP":"H1L6K3"},"geometry":{"type":"Point","coordinates":[-73.5210165,45.593436499999996]}},{"type":"Feature","properties":{"ZIP":"H1L3A6"},"geometry":{"type":"Point","coordinates":[-73.51583249999999,45.5983255]}},{"type":"Feature","properties":{"ZIP":"H1L4L4"},"geometry":{"type":"Point","coordinates":[-73.5214115,45.6066465]}},{"type":"Feature","properties":{"ZIP":"H1L4Z4"},"geometry":{"type":"Point","coordinates":[-73.521332,45.601239]}},{"type":"Feature","properties":{"ZIP":"H1L4J1"},"geometry":{"type":"Point","coordinates":[-73.5113765,45.604896499999995]}},{"type":"Feature","properties":{"ZIP":"H1L3X4"},"geometry":{"type":"Point","coordinates":[-73.521248,45.6116895]}},{"type":"Feature","properties":{"ZIP":"H1L6K5"},"geometry":{"type":"Point","coordinates":[-73.521359,45.592722]}},{"type":"Feature","properties":{"ZIP":"H1L4J2"},"geometry":{"type":"Point","coordinates":[-73.5113765,45.604896499999995]}},{"type":"Feature","properties":{"ZIP":"H1L5A7"},"geometry":{"type":"Point","coordinates":[-73.51683750000001,45.5990775]}},{"type":"Feature","properties":{"ZIP":"H1L5K9"},"geometry":{"type":"Point","coordinates":[-73.527125,45.5994485]}},{"type":"Feature","properties":{"ZIP":"H1L5B9"},"geometry":{"type":"Point","coordinates":[-73.5298145,45.602931]}},{"type":"Feature","properties":{"ZIP":"H1L5A8"},"geometry":{"type":"Point","coordinates":[-73.52138550000001,45.600389]}},{"type":"Feature","properties":{"ZIP":"H1L5C1"},"geometry":{"type":"Point","coordinates":[-73.5300515,45.60298]}},{"type":"Feature","properties":{"ZIP":"H1L4H2"},"geometry":{"type":"Point","coordinates":[-73.52578299999999,45.6100565]}},{"type":"Feature","properties":{"ZIP":"H1L5J9"},"geometry":{"type":"Point","coordinates":[-73.51772650000001,45.5966875]}},{"type":"Feature","properties":{"ZIP":"H1L5N6"},"geometry":{"type":"Point","coordinates":[-73.5279765,45.598028]}},{"type":"Feature","properties":{"ZIP":"H1L3M2"},"geometry":{"type":"Point","coordinates":[-73.51126199999999,45.5994715]}},{"type":"Feature","properties":{"ZIP":"H1L3W5"},"geometry":{"type":"Point","coordinates":[-73.52214799999999,45.612667]}},{"type":"Feature","properties":{"ZIP":"H1L4V1"},"geometry":{"type":"Point","coordinates":[-73.5135335,45.6004745]}},{"type":"Feature","properties":{"ZIP":"H1L4R5"},"geometry":{"type":"Point","coordinates":[-73.524095,45.6058895]}},{"type":"Feature","properties":{"ZIP":"H1L3G3"},"geometry":{"type":"Point","coordinates":[-73.5150135,45.593036]}},{"type":"Feature","properties":{"ZIP":"H1L4S9"},"geometry":{"type":"Point","coordinates":[-73.518138,45.6025705]}},{"type":"Feature","properties":{"ZIP":"H1L5B1"},"geometry":{"type":"Point","coordinates":[-73.52148199999999,45.6004375]}},{"type":"Feature","properties":{"ZIP":"H1L1L7"},"geometry":{"type":"Point","coordinates":[-73.5239175,45.611239]}},{"type":"Feature","properties":{"ZIP":"H1L4N3"},"geometry":{"type":"Point","coordinates":[-73.5203435,45.605614]}},{"type":"Feature","properties":{"ZIP":"H1L5B2"},"geometry":{"type":"Point","coordinates":[-73.523316,45.600988]}},{"type":"Feature","properties":{"ZIP":"H1L4P5"},"geometry":{"type":"Point","coordinates":[-73.514009,45.6030325]}},{"type":"Feature","properties":{"ZIP":"H1L4Y8"},"geometry":{"type":"Point","coordinates":[-73.5164355,45.5997825]}},{"type":"Feature","properties":{"ZIP":"H1L4M1"},"geometry":{"type":"Point","coordinates":[-73.52349749999999,45.607181499999996]}},{"type":"Feature","properties":{"ZIP":"H1L4W5"},"geometry":{"type":"Point","coordinates":[-73.52871300000001,45.604928]}},{"type":"Feature","properties":{"ZIP":"H1L5Z3"},"geometry":{"type":"Point","coordinates":[-73.5106965,45.588260500000004]}},{"type":"Feature","properties":{"ZIP":"H1L3G5"},"geometry":{"type":"Point","coordinates":[-73.515941,45.593016]}},{"type":"Feature","properties":{"ZIP":"H1L2Y7"},"geometry":{"type":"Point","coordinates":[-73.517803,45.5947535]}},{"type":"Feature","properties":{"ZIP":"H1L3Y1"},"geometry":{"type":"Point","coordinates":[-73.5229825,45.611993999999996]}},{"type":"Feature","properties":{"ZIP":"H1L4H6"},"geometry":{"type":"Point","coordinates":[-73.5240665,45.6092065]}},{"type":"Feature","properties":{"ZIP":"H1L5P2"},"geometry":{"type":"Point","coordinates":[-73.5126815,45.59284]}},{"type":"Feature","properties":{"ZIP":"H1L5B4"},"geometry":{"type":"Point","coordinates":[-73.5249905,45.6014835]}},{"type":"Feature","properties":{"ZIP":"H1L1X6"},"geometry":{"type":"Point","coordinates":[-73.52543,45.600281499999994]}},{"type":"Feature","properties":{"ZIP":"H1L2X4"},"geometry":{"type":"Point","coordinates":[-73.513384,45.608847]}},{"type":"Feature","properties":{"ZIP":"H1L6R9"},"geometry":{"type":"Point","coordinates":[-73.512202,45.594702]}},{"type":"Feature","properties":{"ZIP":"H1L5A3"},"geometry":{"type":"Point","coordinates":[-73.511014,45.597348]}},{"type":"Feature","properties":{"ZIP":"H1L5B5"},"geometry":{"type":"Point","coordinates":[-73.5264245,45.601912]}},{"type":"Feature","properties":{"ZIP":"H1L5L7"},"geometry":{"type":"Point","coordinates":[-73.5236725,45.597558]}},{"type":"Feature","properties":{"ZIP":"H1L5W9"},"geometry":{"type":"Point","coordinates":[-73.5152595,45.590447]}},{"type":"Feature","properties":{"ZIP":"H1L3B7"},"geometry":{"type":"Point","coordinates":[-73.51599949999999,45.596621999999996]}},{"type":"Feature","properties":{"ZIP":"H1L4P8"},"geometry":{"type":"Point","coordinates":[-73.515784,45.6035125]}},{"type":"Feature","properties":{"ZIP":"H1L3Y3"},"geometry":{"type":"Point","coordinates":[-73.52483000000001,45.6123415]}},{"type":"Feature","properties":{"ZIP":"H1L4S1"},"geometry":{"type":"Point","coordinates":[-73.5197495,45.603811]}},{"type":"Feature","properties":{"ZIP":"H1L5X1"},"geometry":{"type":"Point","coordinates":[-73.515197,45.590429]}},{"type":"Feature","properties":{"ZIP":"H1L1T8"},"geometry":{"type":"Point","coordinates":[-73.52180849999999,45.61097049999999]}},{"type":"Feature","properties":{"ZIP":"H1L5P8"},"geometry":{"type":"Point","coordinates":[-73.515544,45.5937265]}},{"type":"Feature","properties":{"ZIP":"H1L1R4"},"geometry":{"type":"Point","coordinates":[-73.5270855,45.6015175]}},{"type":"Feature","properties":{"ZIP":"H1L3X3"},"geometry":{"type":"Point","coordinates":[-73.5212885,45.6116965]}},{"type":"Feature","properties":{"ZIP":"H1L4S3"},"geometry":{"type":"Point","coordinates":[-73.5218895,45.604451]}},{"type":"Feature","properties":{"ZIP":"H1L6E8"},"geometry":{"type":"Point","coordinates":[-73.52130199999999,45.590295]}},{"type":"Feature","properties":{"ZIP":"H1L4N9"},"geometry":{"type":"Point","coordinates":[-73.5237965,45.6066495]}},{"type":"Feature","properties":{"ZIP":"H1L4T7"},"geometry":{"type":"Point","coordinates":[-73.5280505,45.605466]}},{"type":"Feature","properties":{"ZIP":"H1L2C8"},"geometry":{"type":"Point","coordinates":[-73.52504350000001,45.5976905]}},{"type":"Feature","properties":{"ZIP":"H1L1V1"},"geometry":{"type":"Point","coordinates":[-73.5215745,45.6114515]}},{"type":"Feature","properties":{"ZIP":"H1L2S7"},"geometry":{"type":"Point","coordinates":[-73.518989,45.598553]}},{"type":"Feature","properties":{"ZIP":"H1L3T9"},"geometry":{"type":"Point","coordinates":[-73.5122125,45.611775]}},{"type":"Feature","properties":{"ZIP":"H1L3N5"},"geometry":{"type":"Point","coordinates":[-73.510438,45.605788000000004]}},{"type":"Feature","properties":{"ZIP":"H1L1S8"},"geometry":{"type":"Point","coordinates":[-73.52404899999999,45.606793499999995]}},{"type":"Feature","properties":{"ZIP":"H1L3X5"},"geometry":{"type":"Point","coordinates":[-73.522214,45.6118565]}},{"type":"Feature","properties":{"ZIP":"H1L4G9"},"geometry":{"type":"Point","coordinates":[-73.5202755,45.608669500000005]}},{"type":"Feature","properties":{"ZIP":"H1L4R3"},"geometry":{"type":"Point","coordinates":[-73.5182215,45.604172500000004]}},{"type":"Feature","properties":{"ZIP":"H1L5E2"},"geometry":{"type":"Point","coordinates":[-73.5195995,45.598966000000004]}},{"type":"Feature","properties":{"ZIP":"H1L4C4"},"geometry":{"type":"Point","coordinates":[-73.5168415,45.609170500000005]}},{"type":"Feature","properties":{"ZIP":"H1L5G5"},"geometry":{"type":"Point","coordinates":[-73.5111435,45.5956275]}},{"type":"Feature","properties":{"ZIP":"H1L1B2"},"geometry":{"type":"Point","coordinates":[-73.531811,45.601446499999994]}},{"type":"Feature","properties":{"ZIP":"H1L2Y2"},"geometry":{"type":"Point","coordinates":[-73.518877,45.5957565]}},{"type":"Feature","properties":{"ZIP":"H1L3X6"},"geometry":{"type":"Point","coordinates":[-73.52221399999999,45.6118565]}},{"type":"Feature","properties":{"ZIP":"H1L3Y8"},"geometry":{"type":"Point","coordinates":[-73.5143655,45.609844]}},{"type":"Feature","properties":{"ZIP":"H1L4J4"},"geometry":{"type":"Point","coordinates":[-73.513443,45.605441]}},{"type":"Feature","properties":{"ZIP":"H1L4S6"},"geometry":{"type":"Point","coordinates":[-73.5279345,45.60625]}},{"type":"Feature","properties":{"ZIP":"H1L4X4"},"geometry":{"type":"Point","coordinates":[-73.521199,45.601912]}},{"type":"Feature","properties":{"ZIP":"H1L5G6"},"geometry":{"type":"Point","coordinates":[-73.512731,45.596081]}},{"type":"Feature","properties":{"ZIP":"H1L1L6"},"geometry":{"type":"Point","coordinates":[-73.52415500000001,45.610747]}},{"type":"Feature","properties":{"ZIP":"H1L5S7"},"geometry":{"type":"Point","coordinates":[-73.51624050000001,45.5931305]}},{"type":"Feature","properties":{"ZIP":"H1L6B7"},"geometry":{"type":"Point","coordinates":[-73.5152925,45.589004]}},{"type":"Feature","properties":{"ZIP":"H1L3K8"},"geometry":{"type":"Point","coordinates":[-73.5118195,45.589701000000005]}},{"type":"Feature","properties":{"ZIP":"H1L4H3"},"geometry":{"type":"Point","coordinates":[-73.519819,45.607878]}},{"type":"Feature","properties":{"ZIP":"H1L5E4"},"geometry":{"type":"Point","coordinates":[-73.5220985,45.5997275]}},{"type":"Feature","properties":{"ZIP":"H1L5K1"},"geometry":{"type":"Point","coordinates":[-73.518426,45.59689]}},{"type":"Feature","properties":{"ZIP":"H1L5G7"},"geometry":{"type":"Point","coordinates":[-73.512731,45.5961025]}},{"type":"Feature","properties":{"ZIP":"H1L1X3"},"geometry":{"type":"Point","coordinates":[-73.5263625,45.5987115]}},{"type":"Feature","properties":{"ZIP":"H1L5X7"},"geometry":{"type":"Point","coordinates":[-73.52028150000001,45.591997]}},{"type":"Feature","properties":{"ZIP":"H1L1T3"},"geometry":{"type":"Point","coordinates":[-73.5230895,45.6084855]}},{"type":"Feature","properties":{"ZIP":"H1L5V3"},"geometry":{"type":"Point","coordinates":[-73.5119235,45.5901865]}},{"type":"Feature","properties":{"ZIP":"H1L3Z1"},"geometry":{"type":"Point","coordinates":[-73.51641599999999,45.610183]}},{"type":"Feature","properties":{"ZIP":"H1L5G8"},"geometry":{"type":"Point","coordinates":[-73.5147855,45.59671]}},{"type":"Feature","properties":{"ZIP":"H1L1X4"},"geometry":{"type":"Point","coordinates":[-73.525879,45.599526499999996]}},{"type":"Feature","properties":{"ZIP":"H1L5C4"},"geometry":{"type":"Point","coordinates":[-73.512619,45.596929]}},{"type":"Feature","properties":{"ZIP":"H1L5T1"},"geometry":{"type":"Point","coordinates":[-73.519739,45.593410000000006]}},{"type":"Feature","properties":{"ZIP":"H1L1T4"},"geometry":{"type":"Point","coordinates":[-73.5222725,45.6100565]}},{"type":"Feature","properties":{"ZIP":"H1L3L2"},"geometry":{"type":"Point","coordinates":[-73.5116495,45.593604]}},{"type":"Feature","properties":{"ZIP":"H1L4H5"},"geometry":{"type":"Point","coordinates":[-73.5212885,45.6085675]}},{"type":"Feature","properties":{"ZIP":"H1L4R7"},"geometry":{"type":"Point","coordinates":[-73.51772700000001,45.6032155]}},{"type":"Feature","properties":{"ZIP":"H1L5G9"},"geometry":{"type":"Point","coordinates":[-73.514759,45.5967025]}},{"type":"Feature","properties":{"ZIP":"H1L1X5"},"geometry":{"type":"Point","coordinates":[-73.525879,45.599526499999996]}},{"type":"Feature","properties":{"ZIP":"H1L4K9"},"geometry":{"type":"Point","coordinates":[-73.5131845,45.6045345]}},{"type":"Feature","properties":{"ZIP":"H1L4V4"},"geometry":{"type":"Point","coordinates":[-73.518451,45.6018955]}},{"type":"Feature","properties":{"ZIP":"H1L5C5"},"geometry":{"type":"Point","coordinates":[-73.512583,45.596918]}},{"type":"Feature","properties":{"ZIP":"H1L5J2"},"geometry":{"type":"Point","coordinates":[-73.5287375,45.6008105]}},{"type":"Feature","properties":{"ZIP":"H1L1Y9"},"geometry":{"type":"Point","coordinates":[-73.5225595,45.605096]}},{"type":"Feature","properties":{"ZIP":"H1L4B7"},"geometry":{"type":"Point","coordinates":[-73.52520849999999,45.611183499999996]}},{"type":"Feature","properties":{"ZIP":"H1L4R8"},"geometry":{"type":"Point","coordinates":[-73.5173725,45.603112499999995]}},{"type":"Feature","properties":{"ZIP":"H1L5V5"},"geometry":{"type":"Point","coordinates":[-73.51428849999999,45.59092]}},{"type":"Feature","properties":{"ZIP":"H1L5Z4"},"geometry":{"type":"Point","coordinates":[-73.5106965,45.588261]}},{"type":"Feature","properties":{"ZIP":"H1L4V5"},"geometry":{"type":"Point","coordinates":[-73.51799600000001,45.6017475]}},{"type":"Feature","properties":{"ZIP":"H1L4B8"},"geometry":{"type":"Point","coordinates":[-73.52520849999999,45.611183499999996]}},{"type":"Feature","properties":{"ZIP":"H1L5E8"},"geometry":{"type":"Point","coordinates":[-73.526341,45.600947500000004]}},{"type":"Feature","properties":{"ZIP":"H1L5P6"},"geometry":{"type":"Point","coordinates":[-73.515969,45.59381]}},{"type":"Feature","properties":{"ZIP":"H1L1E7"},"geometry":{"type":"Point","coordinates":[-73.52631,45.611572]}},{"type":"Feature","properties":{"ZIP":"H1L3V8"},"geometry":{"type":"Point","coordinates":[-73.515739,45.611596500000005]}},{"type":"Feature","properties":{"ZIP":"H1L4E3"},"geometry":{"type":"Point","coordinates":[-73.525049,45.6106025]}},{"type":"Feature","properties":{"ZIP":"H1L4T4"},"geometry":{"type":"Point","coordinates":[-73.5221195,45.603794]}},{"type":"Feature","properties":{"ZIP":"H1L5C7"},"geometry":{"type":"Point","coordinates":[-73.514061,45.597336999999996]}},{"type":"Feature","properties":{"ZIP":"H1L1T7"},"geometry":{"type":"Point","coordinates":[-73.5218065,45.610974999999996]}},{"type":"Feature","properties":{"ZIP":"H1L4M4"},"geometry":{"type":"Point","coordinates":[-73.5242505,45.607375000000005]}},{"type":"Feature","properties":{"ZIP":"H1L5A4"},"geometry":{"type":"Point","coordinates":[-73.51728750000001,45.5991925]}},{"type":"Feature","properties":{"ZIP":"H1L6E6"},"geometry":{"type":"Point","coordinates":[-73.5186385,45.5894735]}},{"type":"Feature","properties":{"ZIP":"H1L3G8"},"geometry":{"type":"Point","coordinates":[-73.513511,45.594128999999995]}},{"type":"Feature","properties":{"ZIP":"H1L4N7"},"geometry":{"type":"Point","coordinates":[-73.522198,45.606259]}},{"type":"Feature","properties":{"ZIP":"H1L4V7"},"geometry":{"type":"Point","coordinates":[-73.520377,45.602451]}},{"type":"Feature","properties":{"ZIP":"H1L6S3"},"geometry":{"type":"Point","coordinates":[-73.51160300000001,45.602385]}},{"type":"Feature","properties":{"ZIP":"H1L3S4"},"geometry":{"type":"Point","coordinates":[-73.5105035,45.6021645]}},{"type":"Feature","properties":{"ZIP":"H1L3Y4"},"geometry":{"type":"Point","coordinates":[-73.510348,45.609114000000005]}},{"type":"Feature","properties":{"ZIP":"H1L4M5"},"geometry":{"type":"Point","coordinates":[-73.51139,45.6031045]}},{"type":"Feature","properties":{"ZIP":"H1L4W9"},"geometry":{"type":"Point","coordinates":[-73.5171,45.6008785]}},{"type":"Feature","properties":{"ZIP":"H1L4K2"},"geometry":{"type":"Point","coordinates":[-73.522809,45.607626]}},{"type":"Feature","properties":{"ZIP":"H1L1S6"},"geometry":{"type":"Point","coordinates":[-73.52435299999999,45.606258499999996]}},{"type":"Feature","properties":{"ZIP":"H1L5C9"},"geometry":{"type":"Point","coordinates":[-73.516892,45.5981855]}},{"type":"Feature","properties":{"ZIP":"H1L2G2"},"geometry":{"type":"Point","coordinates":[-73.52201500000001,45.602771000000004]}},{"type":"Feature","properties":{"ZIP":"H1L2S6"},"geometry":{"type":"Point","coordinates":[-73.519291,45.597945]}},{"type":"Feature","properties":{"ZIP":"H1L3L7"},"geometry":{"type":"Point","coordinates":[-73.511487,45.597241]}},{"type":"Feature","properties":{"ZIP":"H1L5Z8"},"geometry":{"type":"Point","coordinates":[-73.517435,45.590324499999994]}},{"type":"Feature","properties":{"ZIP":"H1L1G2"},"geometry":{"type":"Point","coordinates":[-73.53316000000001,45.5977125]}},{"type":"Feature","properties":{"ZIP":"H1L3W2"},"geometry":{"type":"Point","coordinates":[-73.517833,45.611956500000005]}},{"type":"Feature","properties":{"ZIP":"H1L4K3"},"geometry":{"type":"Point","coordinates":[-73.52431100000001,45.607963]}},{"type":"Feature","properties":{"ZIP":"H1L5H5"},"geometry":{"type":"Point","coordinates":[-73.5225465,45.598989]}},{"type":"Feature","properties":{"ZIP":"H1L6H2"},"geometry":{"type":"Point","coordinates":[-73.5129125,45.587036499999996]}},{"type":"Feature","properties":{"ZIP":"H1L4R2"},"geometry":{"type":"Point","coordinates":[-73.518249,45.60418]}},{"type":"Feature","properties":{"ZIP":"H1L6C7"},"geometry":{"type":"Point","coordinates":[-73.508173,45.586201]}},{"type":"Feature","properties":{"ZIP":"H1L3L8"},"geometry":{"type":"Point","coordinates":[-73.5114285,45.5980565]}},{"type":"Feature","properties":{"ZIP":"H1L5R2"},"geometry":{"type":"Point","coordinates":[-73.5186725,45.5946675]}},{"type":"Feature","properties":{"ZIP":"H1L5M3"},"geometry":{"type":"Point","coordinates":[-73.528317,45.59894]}},{"type":"Feature","properties":{"ZIP":"H1L4Z6"},"geometry":{"type":"Point","coordinates":[-73.52228450000001,45.6015335]}},{"type":"Feature","properties":{"ZIP":"H1L3M1"},"geometry":{"type":"Point","coordinates":[-73.5123565,45.599889000000005]}},{"type":"Feature","properties":{"ZIP":"H1L4S5"},"geometry":{"type":"Point","coordinates":[-73.5279345,45.60625]}},{"type":"Feature","properties":{"ZIP":"H1L5L1"},"geometry":{"type":"Point","coordinates":[-73.528782,45.599942]}},{"type":"Feature","properties":{"ZIP":"H1L1W9"},"geometry":{"type":"Point","coordinates":[-73.526731,45.598093]}},{"type":"Feature","properties":{"ZIP":"H1L4K5"},"geometry":{"type":"Point","coordinates":[-73.5254965,45.608243]}},{"type":"Feature","properties":{"ZIP":"H1L4P2"},"geometry":{"type":"Point","coordinates":[-73.52622500000001,45.607228]}},{"type":"Feature","properties":{"ZIP":"H1L5S6"},"geometry":{"type":"Point","coordinates":[-73.51548650000001,45.592931500000006]}},{"type":"Feature","properties":{"ZIP":"H1L6P9"},"geometry":{"type":"Point","coordinates":[-73.52144799999999,45.609488]}},{"type":"Feature","properties":{"ZIP":"H1L4L7"},"geometry":{"type":"Point","coordinates":[-73.522234,45.606857500000004]}},{"type":"Feature","properties":{"ZIP":"H1L4R4"},"geometry":{"type":"Point","coordinates":[-73.51965100000001,45.6045595]}},{"type":"Feature","properties":{"ZIP":"H1L4W2"},"geometry":{"type":"Point","coordinates":[-73.525092,45.6038235]}},{"type":"Feature","properties":{"ZIP":"H1L5E3"},"geometry":{"type":"Point","coordinates":[-73.519507,45.598946]}},{"type":"Feature","properties":{"ZIP":"H1L1K1"},"geometry":{"type":"Point","coordinates":[-73.527423,45.605042499999996]}},{"type":"Feature","properties":{"ZIP":"H1L1P6"},"geometry":{"type":"Point","coordinates":[-73.528959,45.598419]}},{"type":"Feature","properties":{"ZIP":"H1L1R8"},"geometry":{"type":"Point","coordinates":[-73.52657400000001,45.60238]}},{"type":"Feature","properties":{"ZIP":"H1L5M5"},"geometry":{"type":"Point","coordinates":[-73.5314465,45.5998715]}},{"type":"Feature","properties":{"ZIP":"H1L6R3"},"geometry":{"type":"Point","coordinates":[-73.522644,45.6093485]}},{"type":"Feature","properties":{"ZIP":"H1L2L1"},"geometry":{"type":"Point","coordinates":[-73.523217,45.595388]}},{"type":"Feature","properties":{"ZIP":"H1L4B3"},"geometry":{"type":"Point","coordinates":[-73.520892,45.610394]}},{"type":"Feature","properties":{"ZIP":"H1L1K2"},"geometry":{"type":"Point","coordinates":[-73.527096,45.605582]}},{"type":"Feature","properties":{"ZIP":"H1L1P7"},"geometry":{"type":"Point","coordinates":[-73.52846650000001,45.599231]}},{"type":"Feature","properties":{"ZIP":"H1L6A3"},"geometry":{"type":"Point","coordinates":[-73.5259155,45.592949000000004]}},{"type":"Feature","properties":{"ZIP":"H1L6G3"},"geometry":{"type":"Point","coordinates":[-73.530575,45.5931985]}},{"type":"Feature","properties":{"ZIP":"H1L3N8"},"geometry":{"type":"Point","coordinates":[-73.5088835,45.6074995]}},{"type":"Feature","properties":{"ZIP":"H1L4P4"},"geometry":{"type":"Point","coordinates":[-73.514794,45.6032655]}},{"type":"Feature","properties":{"ZIP":"H1L4Y7"},"geometry":{"type":"Point","coordinates":[-73.5164355,45.5997825]}},{"type":"Feature","properties":{"ZIP":"H1L3X8"},"geometry":{"type":"Point","coordinates":[-73.521804,45.611793]}},{"type":"Feature","properties":{"ZIP":"H1L4B4"},"geometry":{"type":"Point","coordinates":[-73.5208915,45.6103935]}},{"type":"Feature","properties":{"ZIP":"H1L4W4"},"geometry":{"type":"Point","coordinates":[-73.52871300000001,45.604928]}},{"type":"Feature","properties":{"ZIP":"H1L1K3"},"geometry":{"type":"Point","coordinates":[-73.526689,45.60622600000001]}},{"type":"Feature","properties":{"ZIP":"H1L4J6"},"geometry":{"type":"Point","coordinates":[-73.5164085,45.606233]}},{"type":"Feature","properties":{"ZIP":"H1L3B4"},"geometry":{"type":"Point","coordinates":[-73.51423199999999,45.6010335]}},{"type":"Feature","properties":{"ZIP":"H1L4V3"},"geometry":{"type":"Point","coordinates":[-73.5157205,45.6011235]}},{"type":"Feature","properties":{"ZIP":"H1L5J1"},"geometry":{"type":"Point","coordinates":[-73.526682,45.600207499999996]}},{"type":"Feature","properties":{"ZIP":"H1L6H8"},"geometry":{"type":"Point","coordinates":[-73.531115,45.592622]}},{"type":"Feature","properties":{"ZIP":"H1L2E5"},"geometry":{"type":"Point","coordinates":[-73.5236975,45.5999315]}},{"type":"Feature","properties":{"ZIP":"H1L3T3"},"geometry":{"type":"Point","coordinates":[-73.5108835,45.612344]}},{"type":"Feature","properties":{"ZIP":"H1L3X9"},"geometry":{"type":"Point","coordinates":[-73.522925,45.611984500000005]}},{"type":"Feature","properties":{"ZIP":"H1L4B6"},"geometry":{"type":"Point","coordinates":[-73.523038,45.6108135]}},{"type":"Feature","properties":{"ZIP":"H1L5V4"},"geometry":{"type":"Point","coordinates":[-73.514275,45.590916]}},{"type":"Feature","properties":{"ZIP":"H1L4J7"},"geometry":{"type":"Point","coordinates":[-73.51860500000001,45.606728000000004]}},{"type":"Feature","properties":{"ZIP":"H1L5W7"},"geometry":{"type":"Point","coordinates":[-73.53210050000001,45.5962725]}},{"type":"Feature","properties":{"ZIP":"H1L1B7"},"geometry":{"type":"Point","coordinates":[-73.530648,45.603402]}},{"type":"Feature","properties":{"ZIP":"H1L1T5"},"geometry":{"type":"Point","coordinates":[-73.522284,45.6100345]}},{"type":"Feature","properties":{"ZIP":"H1L2L6"},"geometry":{"type":"Point","coordinates":[-73.5225055,45.5972345]}},{"type":"Feature","properties":{"ZIP":"H1L4W6"},"geometry":{"type":"Point","coordinates":[-73.6650885,45.518284]}},{"type":"Feature","properties":{"ZIP":"H1L5A2"},"geometry":{"type":"Point","coordinates":[-73.5241895,45.6021225]}},{"type":"Feature","properties":{"ZIP":"H1L6E4"},"geometry":{"type":"Point","coordinates":[-73.515466,45.588502000000005]}},{"type":"Feature","properties":{"ZIP":"H1L3G6"},"geometry":{"type":"Point","coordinates":[-73.51672450000001,45.593014499999995]}},{"type":"Feature","properties":{"ZIP":"H1L4J8"},"geometry":{"type":"Point","coordinates":[-73.5203615,45.607248]}},{"type":"Feature","properties":{"ZIP":"H1L5L6"},"geometry":{"type":"Point","coordinates":[-73.52133599999999,45.596862]}},{"type":"Feature","properties":{"ZIP":"H1L5W8"},"geometry":{"type":"Point","coordinates":[-73.53210050000001,45.5962725]}},{"type":"Feature","properties":{"ZIP":"H1L6N9"},"geometry":{"type":"Point","coordinates":[-73.51922099999999,45.591297]}},{"type":"Feature","properties":{"ZIP":"H1L2C4"},"geometry":{"type":"Point","coordinates":[-73.52586600000001,45.596320000000006]}},{"type":"Feature","properties":{"ZIP":"H1L2J3"},"geometry":{"type":"Point","coordinates":[-73.51733300000001,45.6105655]}},{"type":"Feature","properties":{"ZIP":"H1L3B6"},"geometry":{"type":"Point","coordinates":[-73.51599949999999,45.596621999999996]}},{"type":"Feature","properties":{"ZIP":"H1L4A5"},"geometry":{"type":"Point","coordinates":[-73.51205949999999,45.60886]}},{"type":"Feature","properties":{"ZIP":"H1L4Z1"},"geometry":{"type":"Point","coordinates":[-73.5184365,45.600348]}},{"type":"Feature","properties":{"ZIP":"H1L5C6"},"geometry":{"type":"Point","coordinates":[-73.514715,45.597546]}},{"type":"Feature","properties":{"ZIP":"H1L6J4"},"geometry":{"type":"Point","coordinates":[-73.5259165,45.6107795]}},{"type":"Feature","properties":{"ZIP":"H1L1T6"},"geometry":{"type":"Point","coordinates":[-73.522052,45.6104895]}},{"type":"Feature","properties":{"ZIP":"H1L2L7"},"geometry":{"type":"Point","coordinates":[-73.521541,45.5983595]}},{"type":"Feature","properties":{"ZIP":"H1L4H7"},"geometry":{"type":"Point","coordinates":[-73.5241175,45.6089445]}},{"type":"Feature","properties":{"ZIP":"H1L5Z5"},"geometry":{"type":"Point","coordinates":[-73.515275,45.5896585]}},{"type":"Feature","properties":{"ZIP":"H1L1K6"},"geometry":{"type":"Point","coordinates":[-73.52597850000001,45.607485]}},{"type":"Feature","properties":{"ZIP":"H1L3A4"},"geometry":{"type":"Point","coordinates":[-73.5179275,45.593916500000006]}},{"type":"Feature","properties":{"ZIP":"H1L3Z4"},"geometry":{"type":"Point","coordinates":[-73.518537,45.6105345]}},{"type":"Feature","properties":{"ZIP":"H1L6A9"},"geometry":{"type":"Point","coordinates":[-73.508708,45.586982000000006]}},{"type":"Feature","properties":{"ZIP":"H1L2P5"},"geometry":{"type":"Point","coordinates":[-73.5163435,45.6078715]}},{"type":"Feature","properties":{"ZIP":"H1L3X1"},"geometry":{"type":"Point","coordinates":[-73.520119,45.611494]}},{"type":"Feature","properties":{"ZIP":"H1L4A6"},"geometry":{"type":"Point","coordinates":[-73.51636350000001,45.609597]}},{"type":"Feature","properties":{"ZIP":"H1L4L2"},"geometry":{"type":"Point","coordinates":[-73.52030450000001,45.606362000000004]}},{"type":"Feature","properties":{"ZIP":"H1L4V6"},"geometry":{"type":"Point","coordinates":[-73.520442,45.60247]}},{"type":"Feature","properties":{"ZIP":"H1L6J9"},"geometry":{"type":"Point","coordinates":[-73.52428,45.613053]}},{"type":"Feature","properties":{"ZIP":"H1L6S1"},"geometry":{"type":"Point","coordinates":[-73.5126065,45.593993499999996]}},{"type":"Feature","properties":{"ZIP":"H1L3S3"},"geometry":{"type":"Point","coordinates":[-73.5106955,45.599714]}},{"type":"Feature","properties":{"ZIP":"H1L4W8"},"geometry":{"type":"Point","coordinates":[-73.6485505,45.527575999999996]}},{"type":"Feature","properties":{"ZIP":"H1L5E9"},"geometry":{"type":"Point","coordinates":[-73.5264665,45.600985]}},{"type":"Feature","properties":{"ZIP":"H1L5Z6"},"geometry":{"type":"Point","coordinates":[-73.51497549999999,45.589567]}},{"type":"Feature","properties":{"ZIP":"H1L1M3"},"geometry":{"type":"Point","coordinates":[-73.5233365,45.612404999999995]}},{"type":"Feature","properties":{"ZIP":"H1L2J9"},"geometry":{"type":"Point","coordinates":[-73.524948,45.5948825]}},{"type":"Feature","properties":{"ZIP":"H1L3X2"},"geometry":{"type":"Point","coordinates":[-73.520128,45.611496]}},{"type":"Feature","properties":{"ZIP":"H1L4G6"},"geometry":{"type":"Point","coordinates":[-73.512907,45.6075445]}},{"type":"Feature","properties":{"ZIP":"H1L4Z3"},"geometry":{"type":"Point","coordinates":[-73.5200135,45.6008315]}},{"type":"Feature","properties":{"ZIP":"H1L5C8"},"geometry":{"type":"Point","coordinates":[-73.51568549999999,45.597828500000006]}},{"type":"Feature","properties":{"ZIP":"H1L3L6"},"geometry":{"type":"Point","coordinates":[-73.511884,45.597511]}},{"type":"Feature","properties":{"ZIP":"H1L4C1"},"geometry":{"type":"Point","coordinates":[-73.51251400000001,45.6084175]}},{"type":"Feature","properties":{"ZIP":"H1L4H9"},"geometry":{"type":"Point","coordinates":[-73.52534499999999,45.609234]}},{"type":"Feature","properties":{"ZIP":"H1L5G1"},"geometry":{"type":"Point","coordinates":[-73.52846450000001,45.6015965]}},{"type":"Feature","properties":{"ZIP":"H1L6M1"},"geometry":{"type":"Point","coordinates":[-73.52296849999999,45.61316]}},{"type":"Feature","properties":{"ZIP":"H1L2H3"},"geometry":{"type":"Point","coordinates":[-73.5200315,45.6060875]}},{"type":"Feature","properties":{"ZIP":"H1L2W2"},"geometry":{"type":"Point","coordinates":[-73.51827349999999,45.5990495]}},{"type":"Feature","properties":{"ZIP":"H1L3Z6"},"geometry":{"type":"Point","coordinates":[-73.52097950000001,45.610946]}},{"type":"Feature","properties":{"ZIP":"H1L4N8"},"geometry":{"type":"Point","coordinates":[-73.5237515,45.6066385]}},{"type":"Feature","properties":{"ZIP":"H1L4T6"},"geometry":{"type":"Point","coordinates":[-73.52821399999999,45.6055335]}},{"type":"Feature","properties":{"ZIP":"H1L5B7"},"geometry":{"type":"Point","coordinates":[-73.5280985,45.602403499999994]}},{"type":"Feature","properties":{"ZIP":"H1L5H4"},"geometry":{"type":"Point","coordinates":[-73.520365,45.598341]}},{"type":"Feature","properties":{"ZIP":"H1L5X2"},"geometry":{"type":"Point","coordinates":[-73.5146095,45.590249]}},{"type":"Feature","properties":{"ZIP":"H1L4A8"},"geometry":{"type":"Point","coordinates":[-73.517215,45.6097465]}},{"type":"Feature","properties":{"ZIP":"H1L4G7"},"geometry":{"type":"Point","coordinates":[-73.51288349999999,45.6075405]}},{"type":"Feature","properties":{"ZIP":"H1L4R1"},"geometry":{"type":"Point","coordinates":[-73.5171995,45.603896000000006]}},{"type":"Feature","properties":{"ZIP":"H1L4V8"},"geometry":{"type":"Point","coordinates":[-73.5234065,45.603324]}},{"type":"Feature","properties":{"ZIP":"H1L6C6"},"geometry":{"type":"Point","coordinates":[-73.5085025,45.586309]}},{"type":"Feature","properties":{"ZIP":"H1L4X1"},"geometry":{"type":"Point","coordinates":[-73.522937,45.5990605]}},{"type":"Feature","properties":{"ZIP":"H1L1R5"},"geometry":{"type":"Point","coordinates":[-73.535246,45.593881499999995]}},{"type":"Feature","properties":{"ZIP":"H1L2W3"},"geometry":{"type":"Point","coordinates":[-73.517911,45.5997455]}},{"type":"Feature","properties":{"ZIP":"H1L3A7"},"geometry":{"type":"Point","coordinates":[-73.51536999999999,45.599078]}},{"type":"Feature","properties":{"ZIP":"H1L3Z7"},"geometry":{"type":"Point","coordinates":[-73.522794,45.611301499999996]}},{"type":"Feature","properties":{"ZIP":"H1L4Y3"},"geometry":{"type":"Point","coordinates":[-73.528914,45.604193]}},{"type":"Feature","properties":{"ZIP":"H1L5B8"},"geometry":{"type":"Point","coordinates":[-73.527834,45.602346499999996]}},{"type":"Feature","properties":{"ZIP":"H1L6B4"},"geometry":{"type":"Point","coordinates":[-73.512291,45.588087]}},{"type":"Feature","properties":{"ZIP":"H1L6P7"},"geometry":{"type":"Point","coordinates":[-73.519217,45.609066999999996]}},{"type":"Feature","properties":{"ZIP":"H1L2K5"},"geometry":{"type":"Point","coordinates":[-73.525235,45.591935]}},{"type":"Feature","properties":{"ZIP":"H1L3P7"},"geometry":{"type":"Point","coordinates":[-73.50779299999999,45.610278]}},{"type":"Feature","properties":{"ZIP":"H1L4A9"},"geometry":{"type":"Point","coordinates":[-73.516944,45.609699]}},{"type":"Feature","properties":{"ZIP":"H1L4V9"},"geometry":{"type":"Point","coordinates":[-73.5232695,45.6032]}},{"type":"Feature","properties":{"ZIP":"H1L5J7"},"geometry":{"type":"Point","coordinates":[-73.51540700000001,45.596002999999996]}},{"type":"Feature","properties":{"ZIP":"H1L5T7"},"geometry":{"type":"Point","coordinates":[-73.5317555,45.5968395]}},{"type":"Feature","properties":{"ZIP":"H1L2G3"},"geometry":{"type":"Point","coordinates":[-73.522256,45.602332000000004]}},{"type":"Feature","properties":{"ZIP":"H1L3Y6"},"geometry":{"type":"Point","coordinates":[-73.51235249999999,45.609441000000004]}},{"type":"Feature","properties":{"ZIP":"H1L4C3"},"geometry":{"type":"Point","coordinates":[-73.51431149999999,45.608729]}},{"type":"Feature","properties":{"ZIP":"H1L4X2"},"geometry":{"type":"Point","coordinates":[-73.51786,45.6010695]}},{"type":"Feature","properties":{"ZIP":"H1L5Z9"},"geometry":{"type":"Point","coordinates":[-73.5206445,45.591342]}},{"type":"Feature","properties":{"ZIP":"H1L6E9"},"geometry":{"type":"Point","coordinates":[-73.5221705,45.590565]}},{"type":"Feature","properties":{"ZIP":"H1L1L4"},"geometry":{"type":"Point","coordinates":[-73.524571,45.6099635]}},{"type":"Feature","properties":{"ZIP":"H1L1R6"},"geometry":{"type":"Point","coordinates":[-73.52700999999999,45.601642999999996]}},{"type":"Feature","properties":{"ZIP":"H1L1W8"},"geometry":{"type":"Point","coordinates":[-73.5271535,45.597387499999996]}},{"type":"Feature","properties":{"ZIP":"H1L2B1"},"geometry":{"type":"Point","coordinates":[-73.5187645,45.612384500000005]}},{"type":"Feature","properties":{"ZIP":"H1L2N4"},"geometry":{"type":"Point","coordinates":[-73.51850999999999,45.603956999999994]}},{"type":"Feature","properties":{"ZIP":"H1L3W3"},"geometry":{"type":"Point","coordinates":[-73.51995249999999,45.6123215]}},{"type":"Feature","properties":{"ZIP":"H1L4P1"},"geometry":{"type":"Point","coordinates":[-73.525702,45.607114499999994]}},{"type":"Feature","properties":{"ZIP":"H1L4Y4"},"geometry":{"type":"Point","coordinates":[-73.525201,45.6030895]}},{"type":"Feature","properties":{"ZIP":"H1L5X4"},"geometry":{"type":"Point","coordinates":[-73.51778250000001,45.5912265]}},{"type":"Feature","properties":{"ZIP":"H1L6H4"},"geometry":{"type":"Point","coordinates":[-73.5189,45.5888995]}},{"type":"Feature","properties":{"ZIP":"H1L1H7"},"geometry":{"type":"Point","coordinates":[-73.5300565,45.600617]}},{"type":"Feature","properties":{"ZIP":"H1L2C9"},"geometry":{"type":"Point","coordinates":[-73.5243005,45.5989485]}},{"type":"Feature","properties":{"ZIP":"H1L2Y1"},"geometry":{"type":"Point","coordinates":[-73.5195075,45.595354]}},{"type":"Feature","properties":{"ZIP":"H1L4L6"},"geometry":{"type":"Point","coordinates":[-73.5221645,45.6068395]}},{"type":"Feature","properties":{"ZIP":"H1L5J8"},"geometry":{"type":"Point","coordinates":[-73.51672350000001,45.5963885]}},{"type":"Feature","properties":{"ZIP":"H1L5N5"},"geometry":{"type":"Point","coordinates":[-73.5279765,45.598028]}},{"type":"Feature","properties":{"ZIP":"H1L6C8"},"geometry":{"type":"Point","coordinates":[-73.51055249999999,45.5869685]}},{"type":"Feature","properties":{"ZIP":"H1L1Z9"},"geometry":{"type":"Point","coordinates":[-73.52012250000001,45.609502]}},{"type":"Feature","properties":{"ZIP":"H1L2G4"},"geometry":{"type":"Point","coordinates":[-73.521848,45.603012]}},{"type":"Feature","properties":{"ZIP":"H1L2Z5"},"geometry":{"type":"Point","coordinates":[-73.519837,45.5900185]}},{"type":"Feature","properties":{"ZIP":"H1L4J3"},"geometry":{"type":"Point","coordinates":[-73.51322300000001,45.605377000000004]}},{"type":"Feature","properties":{"ZIP":"H1L4M9"},"geometry":{"type":"Point","coordinates":[-73.51857749999999,45.6051115]}},{"type":"Feature","properties":{"ZIP":"H1L6A1"},"geometry":{"type":"Point","coordinates":[-73.5194665,45.5909685]}},{"type":"Feature","properties":{"ZIP":"H1L1L5"},"geometry":{"type":"Point","coordinates":[-73.5244635,45.6101515]}},{"type":"Feature","properties":{"ZIP":"H1L2H7"},"geometry":{"type":"Point","coordinates":[-73.518244,45.609013000000004]}},{"type":"Feature","properties":{"ZIP":"H1L3B1"},"geometry":{"type":"Point","coordinates":[-73.5149365,45.5997905]}},{"type":"Feature","properties":{"ZIP":"H1L5H7"},"geometry":{"type":"Point","coordinates":[-73.5246205,45.599600499999994]}},{"type":"Feature","properties":{"ZIP":"H1L5M4"},"geometry":{"type":"Point","coordinates":[-73.530095,45.5994695]}},{"type":"Feature","properties":{"ZIP":"H1L6H5"},"geometry":{"type":"Point","coordinates":[-73.521118,45.5895895]}},{"type":"Feature","properties":{"ZIP":"H1L3R3"},"geometry":{"type":"Point","coordinates":[-73.5069625,45.612001500000005]}},{"type":"Feature","properties":{"ZIP":"H1L3S8"},"geometry":{"type":"Point","coordinates":[-73.509823,45.607884999999996]}},{"type":"Feature","properties":{"ZIP":"H1L6C9"},"geometry":{"type":"Point","coordinates":[-73.510548,45.586967]}},{"type":"Feature","properties":{"ZIP":"H1L6L1"},"geometry":{"type":"Point","coordinates":[-73.515109,45.6053555]}},{"type":"Feature","properties":{"ZIP":"H1L2A1"},"geometry":{"type":"Point","coordinates":[-73.519891,45.6099825]}},{"type":"Feature","properties":{"ZIP":"H1L2G5"},"geometry":{"type":"Point","coordinates":[-73.5216035,45.6034585]}},{"type":"Feature","properties":{"ZIP":"H1L2S9"},"geometry":{"type":"Point","coordinates":[-73.5183315,45.599878000000004]}},{"type":"Feature","properties":{"ZIP":"H1L4C6"},"geometry":{"type":"Point","coordinates":[-73.51931300000001,45.609619]}},{"type":"Feature","properties":{"ZIP":"H1L4N1"},"geometry":{"type":"Point","coordinates":[-73.51849999999999,45.6050885]}},{"type":"Feature","properties":{"ZIP":"H1L5L2"},"geometry":{"type":"Point","coordinates":[-73.5291735,45.60006]}},{"type":"Feature","properties":{"ZIP":"H1L6G2"},"geometry":{"type":"Point","coordinates":[-73.528763,45.592638]}},{"type":"Feature","properties":{"ZIP":"H1L3B2"},"geometry":{"type":"Point","coordinates":[-73.514584,45.600378]}},{"type":"Feature","properties":{"ZIP":"H1L3N7"},"geometry":{"type":"Point","coordinates":[-73.50910049999999,45.6070565]}},{"type":"Feature","properties":{"ZIP":"H1L4P3"},"geometry":{"type":"Point","coordinates":[-73.5145915,45.603189]}},{"type":"Feature","properties":{"ZIP":"H1L5C2"},"geometry":{"type":"Point","coordinates":[-73.5103185,45.5962445]}},{"type":"Feature","properties":{"ZIP":"H1L1T2"},"geometry":{"type":"Point","coordinates":[-73.52319,45.60834]}},{"type":"Feature","properties":{"ZIP":"H1L1Y6"},"geometry":{"type":"Point","coordinates":[-73.5231985,45.604016]}},{"type":"Feature","properties":{"ZIP":"H1L2E3"},"geometry":{"type":"Point","coordinates":[-73.523708,45.599939500000005]}},{"type":"Feature","properties":{"ZIP":"H1L2Y3"},"geometry":{"type":"Point","coordinates":[-73.5188785,45.5958545]}},{"type":"Feature","properties":{"ZIP":"H1L4Z8"},"geometry":{"type":"Point","coordinates":[-73.52319299999999,45.601814000000005]}},{"type":"Feature","properties":{"ZIP":"H1L5V2"},"geometry":{"type":"Point","coordinates":[-73.5107235,45.589817499999995]}},{"type":"Feature","properties":{"ZIP":"H1L2G6"},"geometry":{"type":"Point","coordinates":[-73.521132,45.6042465]}},{"type":"Feature","properties":{"ZIP":"H1L3M3"},"geometry":{"type":"Point","coordinates":[-73.512153,45.6004615]}},{"type":"Feature","properties":{"ZIP":"H1L3Y9"},"geometry":{"type":"Point","coordinates":[-73.5151165,45.609939999999995]}},{"type":"Feature","properties":{"ZIP":"H1L5L3"},"geometry":{"type":"Point","coordinates":[-73.5312495,45.6006675]}},{"type":"Feature","properties":{"ZIP":"H1L5W5"},"geometry":{"type":"Point","coordinates":[-73.5293465,45.5954215]}},{"type":"Feature","properties":{"ZIP":"H1L6M7"},"geometry":{"type":"Point","coordinates":[-73.52377000000001,45.5919275]}},{"type":"Feature","properties":{"ZIP":"H1L1G6"},"geometry":{"type":"Point","coordinates":[-73.533713,45.595156]}},{"type":"Feature","properties":{"ZIP":"H1L3W6"},"geometry":{"type":"Point","coordinates":[-73.510224,45.609828]}},{"type":"Feature","properties":{"ZIP":"H1L5C3"},"geometry":{"type":"Point","coordinates":[-73.51112499999999,45.596481]}},{"type":"Feature","properties":{"ZIP":"H1L5H9"},"geometry":{"type":"Point","coordinates":[-73.526682,45.600207499999996]}},{"type":"Feature","properties":{"ZIP":"H1L5M6"},"geometry":{"type":"Point","coordinates":[-73.531331,45.599837]}},{"type":"Feature","properties":{"ZIP":"H1L1J1"},"geometry":{"type":"Point","coordinates":[-73.5295385,45.6014765]}},{"type":"Feature","properties":{"ZIP":"H1L2L3"},"geometry":{"type":"Point","coordinates":[-73.5225005,45.59676]}},{"type":"Feature","properties":{"ZIP":"H1L5E5"},"geometry":{"type":"Point","coordinates":[-73.52237600000001,45.599809]}},{"type":"Feature","properties":{"ZIP":"H1L2T2"},"geometry":{"type":"Point","coordinates":[-73.517695,45.60125]}},{"type":"Feature","properties":{"ZIP":"H1L4T1"},"geometry":{"type":"Point","coordinates":[-73.5185225,45.602675500000004]}},{"type":"Feature","properties":{"ZIP":"H1L5W6"},"geometry":{"type":"Point","coordinates":[-73.529266,45.595397]}},{"type":"Feature","properties":{"ZIP":"H1L6G4"},"geometry":{"type":"Point","coordinates":[-73.5326595,45.5938445]}},{"type":"Feature","properties":{"ZIP":"H1L6M8"},"geometry":{"type":"Point","coordinates":[-73.522959,45.613179]}},{"type":"Feature","properties":{"ZIP":"H1L1G7"},"geometry":{"type":"Point","coordinates":[-73.533713,45.595156]}},{"type":"Feature","properties":{"ZIP":"H1L1L8"},"geometry":{"type":"Point","coordinates":[-73.5239785,45.6110915]}},{"type":"Feature","properties":{"ZIP":"H1L1S1"},"geometry":{"type":"Point","coordinates":[-73.52540400000001,45.605787]}},{"type":"Feature","properties":{"ZIP":"H1L2W8"},"geometry":{"type":"Point","coordinates":[-73.515537,45.604498]}},{"type":"Feature","properties":{"ZIP":"H1L4G2"},"geometry":{"type":"Point","coordinates":[-73.5213675,45.609473]}},{"type":"Feature","properties":{"ZIP":"H1L4K8"},"geometry":{"type":"Point","coordinates":[-73.51095799999999,45.6039105]}},{"type":"Feature","properties":{"ZIP":"H1L3E1"},"geometry":{"type":"Point","coordinates":[-73.51675399999999,45.5912115]}},{"type":"Feature","properties":{"ZIP":"H1L5K3"},"geometry":{"type":"Point","coordinates":[-73.52080749999999,45.5975935]}},{"type":"Feature","properties":{"ZIP":"H1L1P9"},"geometry":{"type":"Point","coordinates":[-73.527939,45.6001185]}},{"type":"Feature","properties":{"ZIP":"H1L3A2"},"geometry":{"type":"Point","coordinates":[-73.51834600000001,45.5929725]}},{"type":"Feature","properties":{"ZIP":"H1L1L9"},"geometry":{"type":"Point","coordinates":[-73.5237315,45.61165200000001]}},{"type":"Feature","properties":{"ZIP":"H1L2P1"},"geometry":{"type":"Point","coordinates":[-73.51724899999999,45.606005499999995]}},{"type":"Feature","properties":{"ZIP":"H1L3B5"},"geometry":{"type":"Point","coordinates":[-73.514242,45.601051]}},{"type":"Feature","properties":{"ZIP":"H1L4G3"},"geometry":{"type":"Point","coordinates":[-73.523505,45.609874500000004]}},{"type":"Feature","properties":{"ZIP":"H1L4P6"},"geometry":{"type":"Point","coordinates":[-73.51397449999999,45.603023]}},{"type":"Feature","properties":{"ZIP":"H1L6R8"},"geometry":{"type":"Point","coordinates":[-73.5124305,45.595131]}},{"type":"Feature","properties":{"ZIP":"H1L2S2"},"geometry":{"type":"Point","coordinates":[-73.521995,45.5956835]}},{"type":"Feature","properties":{"ZIP":"H1L5E7"},"geometry":{"type":"Point","coordinates":[-73.5240905,45.600297]}},{"type":"Feature","properties":{"ZIP":"H1L5K4"},"geometry":{"type":"Point","coordinates":[-73.52299,45.5982335]}},{"type":"Feature","properties":{"ZIP":"H1L1E5"},"geometry":{"type":"Point","coordinates":[-73.52717100000001,45.6094735]}},{"type":"Feature","properties":{"ZIP":"H1L2G9"},"geometry":{"type":"Point","coordinates":[-73.5207575,45.604874]}},{"type":"Feature","properties":{"ZIP":"H1L3Z3"},"geometry":{"type":"Point","coordinates":[-73.51849849999999,45.610548]}},{"type":"Feature","properties":{"ZIP":"H1L4E1"},"geometry":{"type":"Point","coordinates":[-73.5232755,45.6103215]}},{"type":"Feature","properties":{"ZIP":"H1L6A6"},"geometry":{"type":"Point","coordinates":[-73.530452,45.594327500000006]}},{"type":"Feature","properties":{"ZIP":"H1L1M1"},"geometry":{"type":"Point","coordinates":[-73.52376799999999,45.611548]}},{"type":"Feature","properties":{"ZIP":"H1L2P2"},"geometry":{"type":"Point","coordinates":[-73.5172365,45.605966499999994]}},{"type":"Feature","properties":{"ZIP":"H1L3P2"},"geometry":{"type":"Point","coordinates":[-73.508385,45.6089]}},{"type":"Feature","properties":{"ZIP":"H1L3W9"},"geometry":{"type":"Point","coordinates":[-73.5122975,45.6101415]}},{"type":"Feature","properties":{"ZIP":"H1L4P7"},"geometry":{"type":"Point","coordinates":[-73.515777,45.603511]}},{"type":"Feature","properties":{"ZIP":"H1L1J4"},"geometry":{"type":"Point","coordinates":[-73.52857499999999,45.603111]}},{"type":"Feature","properties":{"ZIP":"H1L2S3"},"geometry":{"type":"Point","coordinates":[-73.523317,45.5943495]}},{"type":"Feature","properties":{"ZIP":"H1L3S2"},"geometry":{"type":"Point","coordinates":[-73.5106415,45.5990935]}},{"type":"Feature","properties":{"ZIP":"H1L4W7"},"geometry":{"type":"Point","coordinates":[-73.64870400000001,45.5274895]}},{"type":"Feature","properties":{"ZIP":"H1L5K5"},"geometry":{"type":"Point","coordinates":[-73.52299,45.5982335]}},{"type":"Feature","properties":{"ZIP":"H1L1R2"},"geometry":{"type":"Point","coordinates":[-73.527479,45.600879500000005]}},{"type":"Feature","properties":{"ZIP":"H1L1V8"},"geometry":{"type":"Point","coordinates":[-73.52920950000001,45.5933625]}},{"type":"Feature","properties":{"ZIP":"H1L2H1"},"geometry":{"type":"Point","coordinates":[-73.520376,45.605511]}},{"type":"Feature","properties":{"ZIP":"H1L3G7"},"geometry":{"type":"Point","coordinates":[-73.5134995,45.594194]}},{"type":"Feature","properties":{"ZIP":"H1L4N6"},"geometry":{"type":"Point","coordinates":[-73.52216150000001,45.60625]}},{"type":"Feature","properties":{"ZIP":"H1L4X9"},"geometry":{"type":"Point","coordinates":[-73.525175,45.6030855]}},{"type":"Feature","properties":{"ZIP":"H1L3P4"},"geometry":{"type":"Point","coordinates":[-73.50889699999999,45.610042]}},{"type":"Feature","properties":{"ZIP":"H1L4Z2"},"geometry":{"type":"Point","coordinates":[-73.5199695,45.6008175]}},{"type":"Feature","properties":{"ZIP":"H1L1Z3"},"geometry":{"type":"Point","coordinates":[-73.522129,45.60586]}},{"type":"Feature","properties":{"ZIP":"H1L2S4"},"geometry":{"type":"Point","coordinates":[-73.52015850000001,45.596197000000004]}},{"type":"Feature","properties":{"ZIP":"H1L4H8"},"geometry":{"type":"Point","coordinates":[-73.52555799999999,45.6092295]}},{"type":"Feature","properties":{"ZIP":"H1L5V7"},"geometry":{"type":"Point","coordinates":[-73.517402,45.591887]}},{"type":"Feature","properties":{"ZIP":"H1L1R3"},"geometry":{"type":"Point","coordinates":[-73.527549,45.6007685]}},{"type":"Feature","properties":{"ZIP":"H1L2W1"},"geometry":{"type":"Point","coordinates":[-73.518659,45.598276]}},{"type":"Feature","properties":{"ZIP":"H1L3A5"},"geometry":{"type":"Point","coordinates":[-73.51583249999999,45.5983255]}},{"type":"Feature","properties":{"ZIP":"H1L3Z5"},"geometry":{"type":"Point","coordinates":[-73.52086299999999,45.610926000000006]}},{"type":"Feature","properties":{"ZIP":"H1L4K1"},"geometry":{"type":"Point","coordinates":[-73.5230675,45.607682999999994]}},{"type":"Feature","properties":{"ZIP":"H1L4Y1"},"geometry":{"type":"Point","coordinates":[-73.52702500000001,45.6036335]}},{"type":"Feature","properties":{"ZIP":"H1L5L8"},"geometry":{"type":"Point","coordinates":[-73.5235705,45.5975275]}},{"type":"Feature","properties":{"ZIP":"H1L1A5"},"geometry":{"type":"Point","coordinates":[-73.53535450000001,45.595481500000005]}},{"type":"Feature","properties":{"ZIP":"H1L1S5"},"geometry":{"type":"Point","coordinates":[-73.52444600000001,45.606093]}},{"type":"Feature","properties":{"ZIP":"H1L1X9"},"geometry":{"type":"Point","coordinates":[-73.5249125,45.6011505]}},{"type":"Feature","properties":{"ZIP":"H1L2C6"},"geometry":{"type":"Point","coordinates":[-73.5251955,45.597452]}},{"type":"Feature","properties":{"ZIP":"H1L3B8"},"geometry":{"type":"Point","coordinates":[-73.5156025,45.597248500000006]}},{"type":"Feature","properties":{"ZIP":"H1L3P5"},"geometry":{"type":"Point","coordinates":[-73.5081525,45.609427]}},{"type":"Feature","properties":{"ZIP":"H1L4A7"},"geometry":{"type":"Point","coordinates":[-73.516359,45.6095965]}},{"type":"Feature","properties":{"ZIP":"H1L4P9"},"geometry":{"type":"Point","coordinates":[-73.5172685,45.6039145]}},{"type":"Feature","properties":{"ZIP":"H1L5Y5"},"geometry":{"type":"Point","coordinates":[-73.52966,45.594892]}},{"type":"Feature","properties":{"ZIP":"H1L1N6"},"geometry":{"type":"Point","coordinates":[-73.53160600000001,45.5940545]}},{"type":"Feature","properties":{"ZIP":"H1L5K7"},"geometry":{"type":"Point","coordinates":[-73.52463900000001,45.598716499999995]}},{"type":"Feature","properties":{"ZIP":"H1L1L1"},"geometry":{"type":"Point","coordinates":[-73.525354,45.608575]}},{"type":"Feature","properties":{"ZIP":"H1L3N2"},"geometry":{"type":"Point","coordinates":[-73.51113050000001,45.604417]}},{"type":"Feature","properties":{"ZIP":"H1L3W1"},"geometry":{"type":"Point","coordinates":[-73.517833,45.611956500000005]}},{"type":"Feature","properties":{"ZIP":"H1L4E5"},"geometry":{"type":"Point","coordinates":[-73.51075399999999,45.6078275]}},{"type":"Feature","properties":{"ZIP":"H1L5L9"},"geometry":{"type":"Point","coordinates":[-73.52625,45.598324500000004]}},{"type":"Feature","properties":{"ZIP":"H1L6B3"},"geometry":{"type":"Point","coordinates":[-73.51024899999999,45.5874565]}},{"type":"Feature","properties":{"ZIP":"H1L1A6"},"geometry":{"type":"Point","coordinates":[-73.5337595,45.598890499999996]}},{"type":"Feature","properties":{"ZIP":"H1L1M4"},"geometry":{"type":"Point","coordinates":[-73.53285149999999,45.5950135]}},{"type":"Feature","properties":{"ZIP":"H1L2C7"},"geometry":{"type":"Point","coordinates":[-73.52463900000001,45.598382]}},{"type":"Feature","properties":{"ZIP":"H1L2X7"},"geometry":{"type":"Point","coordinates":[-73.51251400000001,45.610623000000004]}},{"type":"Feature","properties":{"ZIP":"H1L3S5"},"geometry":{"type":"Point","coordinates":[-73.51048399999999,45.6032515]}},{"type":"Feature","properties":{"ZIP":"H1L5N3"},"geometry":{"type":"Point","coordinates":[-73.52586099999999,45.597375]}},{"type":"Feature","properties":{"ZIP":"H1L6K4"},"geometry":{"type":"Point","coordinates":[-73.5110875,45.6029155]}},{"type":"Feature","properties":{"ZIP":"H1L3Y5"},"geometry":{"type":"Point","coordinates":[-73.51045049999999,45.609132]}},{"type":"Feature","properties":{"ZIP":"H1L5G3"},"geometry":{"type":"Point","coordinates":[-73.5303475,45.602171]}},{"type":"Feature","properties":{"ZIP":"H1L1L2"},"geometry":{"type":"Point","coordinates":[-73.525354,45.608575]}},{"type":"Feature","properties":{"ZIP":"H1L1W7"},"geometry":{"type":"Point","coordinates":[-73.5271535,45.597387499999996]}},{"type":"Feature","properties":{"ZIP":"H1L1A8"},"geometry":{"type":"Point","coordinates":[-73.5340715,45.597644]}},{"type":"Feature","properties":{"ZIP":"H1L1H6"},"geometry":{"type":"Point","coordinates":[-73.5304185,45.600013000000004]}},{"type":"Feature","properties":{"ZIP":"H1L2P9"},"geometry":{"type":"Point","coordinates":[-73.515706,45.609226]}},{"type":"Feature","properties":{"ZIP":"H1L4L5"},"geometry":{"type":"Point","coordinates":[-73.521432,45.6066515]}},{"type":"Feature","properties":{"ZIP":"H1L4Z5"},"geometry":{"type":"Point","coordinates":[-73.5213885,45.601256500000005]}},{"type":"Feature","properties":{"ZIP":"H1L5N4"},"geometry":{"type":"Point","coordinates":[-73.525813,45.597387]}},{"type":"Feature","properties":{"ZIP":"H1L2M2"},"geometry":{"type":"Point","coordinates":[-73.5207045,45.6001945]}},{"type":"Feature","properties":{"ZIP":"H1L3E8"},"geometry":{"type":"Point","coordinates":[-73.5137135,45.5965525]}},{"type":"Feature","properties":{"ZIP":"H1L4S4"},"geometry":{"type":"Point","coordinates":[-73.523605,45.6049345]}},{"type":"Feature","properties":{"ZIP":"H1L5G4"},"geometry":{"type":"Point","coordinates":[-73.53036850000001,45.602177]}},{"type":"Feature","properties":{"ZIP":"H1L2H6"},"geometry":{"type":"Point","coordinates":[-73.51952,45.606888999999995]}},{"type":"Feature","properties":{"ZIP":"H1L2W4"},"geometry":{"type":"Point","coordinates":[-73.517514,45.600494]}},{"type":"Feature","properties":{"ZIP":"H1L3A9"},"geometry":{"type":"Point","coordinates":[-73.51497900000001,45.599774499999995]}},{"type":"Feature","properties":{"ZIP":"H1L3Z8"},"geometry":{"type":"Point","coordinates":[-73.522794,45.611305]}},{"type":"Feature","properties":{"ZIP":"H1L4E7"},"geometry":{"type":"Point","coordinates":[-73.512719,45.607952]}},{"type":"Feature","properties":{"ZIP":"H1L4K4"},"geometry":{"type":"Point","coordinates":[-73.524213,45.607938000000004]}},{"type":"Feature","properties":{"ZIP":"H1L4T8"},"geometry":{"type":"Point","coordinates":[-73.511583,45.5998895]}},{"type":"Feature","properties":{"ZIP":"H1L5H6"},"geometry":{"type":"Point","coordinates":[-73.5225465,45.598989]}},{"type":"Feature","properties":{"ZIP":"H1L6P8"},"geometry":{"type":"Point","coordinates":[-73.5216815,45.608958]}},{"type":"Feature","properties":{"ZIP":"H1L2R1"},"geometry":{"type":"Point","coordinates":[-73.515515,45.609641499999995]}},{"type":"Feature","properties":{"ZIP":"H1L3P9"},"geometry":{"type":"Point","coordinates":[-73.50755649999999,45.61089]}},{"type":"Feature","properties":{"ZIP":"H1L4B1"},"geometry":{"type":"Point","coordinates":[-73.519361,45.6101235]}},{"type":"Feature","properties":{"ZIP":"H1L6S9"},"geometry":{"type":"Point","coordinates":[-73.51024749999999,45.591575500000005]}},{"type":"Feature","properties":{"ZIP":"H1L3E9"},"geometry":{"type":"Point","coordinates":[-73.513684,45.5966045]}},{"type":"Feature","properties":{"ZIP":"H1L4X3"},"geometry":{"type":"Point","coordinates":[-73.5182125,45.600877499999996]}},{"type":"Feature","properties":{"ZIP":"H1L6G1"},"geometry":{"type":"Point","coordinates":[-73.526739,45.5920085]}},{"type":"Feature","properties":{"ZIP":"H1L3W4"},"geometry":{"type":"Point","coordinates":[-73.5199125,45.612314999999995]}},{"type":"Feature","properties":{"ZIP":"H1L3Z9"},"geometry":{"type":"Point","coordinates":[-73.52496199999999,45.611685]}},{"type":"Feature","properties":{"ZIP":"H1L4T9"},"geometry":{"type":"Point","coordinates":[-73.51155349999999,45.599880999999996]}},{"type":"Feature","properties":{"ZIP":"H1L4Y5"},"geometry":{"type":"Point","coordinates":[-73.513508,45.5989315]}},{"type":"Feature","properties":{"ZIP":"H1L5X5"},"geometry":{"type":"Point","coordinates":[-73.51778250000001,45.5912265]}},{"type":"Feature","properties":{"ZIP":"H1L6B6"},"geometry":{"type":"Point","coordinates":[-73.516821,45.589484]}},{"type":"Feature","properties":{"ZIP":"H1L1H8"},"geometry":{"type":"Point","coordinates":[-73.529983,45.600741]}},{"type":"Feature","properties":{"ZIP":"H1L2E1"},"geometry":{"type":"Point","coordinates":[-73.524565,45.598487000000006]}},{"type":"Feature","properties":{"ZIP":"H1L2K9"},"geometry":{"type":"Point","coordinates":[-73.5238495,45.5945375]}},{"type":"Feature","properties":{"ZIP":"H1L3K6"},"geometry":{"type":"Point","coordinates":[-73.512644,45.5879975]}},{"type":"Feature","properties":{"ZIP":"H1L1V3"},"geometry":{"type":"Point","coordinates":[-73.52119099999999,45.612162]}},{"type":"Feature","properties":{"ZIP":"H1L5W4"},"geometry":{"type":"Point","coordinates":[-73.5272825,45.5947655]}},{"type":"Feature","properties":{"ZIP":"H1L6A2"},"geometry":{"type":"Point","coordinates":[-73.52598950000001,45.592972]}},{"type":"Feature","properties":{"ZIP":"H1L6M6"},"geometry":{"type":"Point","coordinates":[-73.5237695,45.591927]}},{"type":"Feature","properties":{"ZIP":"H1L2B3"},"geometry":{"type":"Point","coordinates":[-73.5291125,45.5909135]}},{"type":"Feature","properties":{"ZIP":"H1L2N6"},"geometry":{"type":"Point","coordinates":[-73.51809850000001,45.6046165]}},{"type":"Feature","properties":{"ZIP":"H1L2W6"},"geometry":{"type":"Point","coordinates":[-73.516219,45.603129499999994]}},{"type":"Feature","properties":{"ZIP":"H1L4A1"},"geometry":{"type":"Point","coordinates":[-73.524958,45.6116845]}},{"type":"Feature","properties":{"ZIP":"H1L4E9"},"geometry":{"type":"Point","coordinates":[-73.514593,45.6081435]}},{"type":"Feature","properties":{"ZIP":"H1L4K6"},"geometry":{"type":"Point","coordinates":[-73.5254965,45.6082435]}},{"type":"Feature","properties":{"ZIP":"H1L4Y6"},"geometry":{"type":"Point","coordinates":[-73.51368049999999,45.598982]}},{"type":"Feature","properties":{"ZIP":"H1L5H8"},"geometry":{"type":"Point","coordinates":[-73.5246205,45.599600499999994]}},{"type":"Feature","properties":{"ZIP":"H1L6H6"},"geometry":{"type":"Point","coordinates":[-73.5269895,45.591333]}},{"type":"Feature","properties":{"ZIP":"H1L1H9"},"geometry":{"type":"Point","coordinates":[-73.52953400000001,45.601487]}},{"type":"Feature","properties":{"ZIP":"H1L4L8"},"geometry":{"type":"Point","coordinates":[-73.522753,45.606990499999995]}},{"type":"Feature","properties":{"ZIP":"H1L5N7"},"geometry":{"type":"Point","coordinates":[-73.530025,45.598639500000004]}},{"type":"Feature","properties":{"ZIP":"H1L1V4"},"geometry":{"type":"Point","coordinates":[-73.5307225,45.5938265]}},{"type":"Feature","properties":{"ZIP":"H1L2T1"},"geometry":{"type":"Point","coordinates":[-73.5180025,45.600545]}},{"type":"Feature","properties":{"ZIP":"H1L4X5"},"geometry":{"type":"Point","coordinates":[-73.5211095,45.601888]}},{"type":"Feature","properties":{"ZIP":"H1L3B3"},"geometry":{"type":"Point","coordinates":[-73.51463000000001,45.600364]}},{"type":"Feature","properties":{"ZIP":"H1L4G1"},"geometry":{"type":"Point","coordinates":[-73.5191355,45.609052]}},{"type":"Feature","properties":{"ZIP":"H1L4K7"},"geometry":{"type":"Point","coordinates":[-73.5108735,45.6038915]}},{"type":"Feature","properties":{"ZIP":"H1L6B8"},"geometry":{"type":"Point","coordinates":[-73.5190295,45.590129]}},{"type":"Feature","properties":{"ZIP":"H1L1M9"},"geometry":{"type":"Point","coordinates":[-73.5321215,45.594646999999995]}},{"type":"Feature","properties":{"ZIP":"H1L1Y7"},"geometry":{"type":"Point","coordinates":[-73.523237,45.603969000000006]}},{"type":"Feature","properties":{"ZIP":"H1L3C9"},"geometry":{"type":"Point","coordinates":[-73.51677799999999,45.59117]}},{"type":"Feature","properties":{"ZIP":"H1L4H4"},"geometry":{"type":"Point","coordinates":[-73.520397,45.608036999999996]}},{"type":"Feature","properties":{"ZIP":"H1L4L9"},"geometry":{"type":"Point","coordinates":[-73.52269100000001,45.606975000000006]}},{"type":"Feature","properties":{"ZIP":"H1L4Z9"},"geometry":{"type":"Point","coordinates":[-73.52499750000001,45.602327]}},{"type":"Feature","properties":{"ZIP":"H1L5K2"},"geometry":{"type":"Point","coordinates":[-73.52080749999999,45.5975935]}},{"type":"Feature","properties":{"ZIP":"H1L1P8"},"geometry":{"type":"Point","coordinates":[-73.528448,45.5992615]}},{"type":"Feature","properties":{"ZIP":"H1L3M6"},"geometry":{"type":"Point","coordinates":[-73.511335,45.602959999999996]}},{"type":"Feature","properties":{"ZIP":"H1L3V4"},"geometry":{"type":"Point","coordinates":[-73.5114625,45.6108475]}},{"type":"Feature","properties":{"ZIP":"H1L4C8"},"geometry":{"type":"Point","coordinates":[-73.52113700000001,45.609943]}},{"type":"Feature","properties":{"ZIP":"H1L4X6"},"geometry":{"type":"Point","coordinates":[-73.5231225,45.602479]}},{"type":"Feature","properties":{"ZIP":"H1L5R6"},"geometry":{"type":"Point","coordinates":[-73.5283725,45.597358]}},{"type":"Feature","properties":{"ZIP":"H1L3N9"},"geometry":{"type":"Point","coordinates":[-73.5093095,45.60914]}},{"type":"Feature","properties":{"ZIP":"H1L3W7"},"geometry":{"type":"Point","coordinates":[-73.51031,45.6098435]}},{"type":"Feature","properties":{"ZIP":"H1L4A3"},"geometry":{"type":"Point","coordinates":[-73.5110485,45.608699]}},{"type":"Feature","properties":{"ZIP":"H1L5M7"},"geometry":{"type":"Point","coordinates":[-73.5206325,45.595858]}},{"type":"Feature","properties":{"ZIP":"H1L5X9"},"geometry":{"type":"Point","coordinates":[-73.525553,45.593627]}},{"type":"Feature","properties":{"ZIP":"H1L6B9"},"geometry":{"type":"Point","coordinates":[-73.5184645,45.58999]}},{"type":"Feature","properties":{"ZIP":"H1L1Y8"},"geometry":{"type":"Point","coordinates":[-73.522949,45.60443050000001]}},{"type":"Feature","properties":{"ZIP":"H1L5A1"},"geometry":{"type":"Point","coordinates":[-73.52413899999999,45.602107000000004]}},{"type":"Feature","properties":{"ZIP":"H1L5E6"},"geometry":{"type":"Point","coordinates":[-73.5236235,45.6001575]}},{"type":"Feature","properties":{"ZIP":"H1L6E3"},"geometry":{"type":"Point","coordinates":[-73.51571200000001,45.588575]}},{"type":"Feature","properties":{"ZIP":"H1L1V6"},"geometry":{"type":"Point","coordinates":[-73.5299615,45.593593]}},{"type":"Feature","properties":{"ZIP":"H1L2G8"},"geometry":{"type":"Point","coordinates":[-73.520936,45.604530999999994]}},{"type":"Feature","properties":{"ZIP":"H1L5L5"},"geometry":{"type":"Point","coordinates":[-73.5210685,45.5967845]}},{"type":"Feature","properties":{"ZIP":"H1L2X3"},"geometry":{"type":"Point","coordinates":[-73.5136265,45.6083535]}},{"type":"Feature","properties":{"ZIP":"H1L4A4"},"geometry":{"type":"Point","coordinates":[-73.512271,45.6089245]}},{"type":"Feature","properties":{"ZIP":"H1L1J3"},"geometry":{"type":"Point","coordinates":[-73.529078,45.602255]}},{"type":"Feature","properties":{"ZIP":"H1L2E6"},"geometry":{"type":"Point","coordinates":[-73.5230005,45.6011225]}},{"type":"Feature","properties":{"ZIP":"H1L3L3"},"geometry":{"type":"Point","coordinates":[-73.511521,45.595622000000006]}},{"type":"Feature","properties":{"ZIP":"H1L3S1"},"geometry":{"type":"Point","coordinates":[-73.5102775,45.599273]}},{"type":"Feature","properties":{"ZIP":"H1L1R1"},"geometry":{"type":"Point","coordinates":[-73.5279595,45.600080500000004]}},{"type":"Feature","properties":{"ZIP":"H1L2M8"},"geometry":{"type":"Point","coordinates":[-73.5196365,45.602057]}},{"type":"Feature","properties":{"ZIP":"H1L4G4"},"geometry":{"type":"Point","coordinates":[-73.51092449999999,45.6071865]}},{"type":"Feature","properties":{"ZIP":"H1L5M9"},"geometry":{"type":"Point","coordinates":[-73.5222765,45.596334]}},{"type":"Feature","properties":{"ZIP":"H1L2Y8"},"geometry":{"type":"Point","coordinates":[-73.51703599999999,45.595295500000006]}},{"type":"Feature","properties":{"ZIP":"H1L3L4"},"geometry":{"type":"Point","coordinates":[-73.51198049999999,45.5967675]}},{"type":"Feature","properties":{"ZIP":"H1L3Y2"},"geometry":{"type":"Point","coordinates":[-73.52487450000001,45.6123785]}},{"type":"Feature","properties":{"ZIP":"H1L4M3"},"geometry":{"type":"Point","coordinates":[-73.52413,45.6073545]}},{"type":"Feature","properties":{"ZIP":"H1L5V6"},"geometry":{"type":"Point","coordinates":[-73.5174245,45.591894499999995]}},{"type":"Feature","properties":{"ZIP":"H1L6L8"},"geometry":{"type":"Point","coordinates":[-73.52207849999999,45.612682]}},{"type":"Feature","properties":{"ZIP":"H1L2M9"},"geometry":{"type":"Point","coordinates":[-73.5191355,45.602470999999994]}},{"type":"Feature","properties":{"ZIP":"H1L2V9"},"geometry":{"type":"Point","coordinates":[-73.51904300000001,45.597491]}},{"type":"Feature","properties":{"ZIP":"H1L3M9"},"geometry":{"type":"Point","coordinates":[-73.5103565,45.6035295]}},{"type":"Feature","properties":{"ZIP":"H1L1M2"},"geometry":{"type":"Point","coordinates":[-73.52346349999999,45.612172]}},{"type":"Feature","properties":{"ZIP":"H1L1S4"},"geometry":{"type":"Point","coordinates":[-73.5248545,45.6053735]}},{"type":"Feature","properties":{"ZIP":"H1L1X8"},"geometry":{"type":"Point","coordinates":[-73.5249895,45.60105]}},{"type":"Feature","properties":{"ZIP":"H1L2X5"},"geometry":{"type":"Point","coordinates":[-73.513181,45.609237500000006]}},{"type":"Feature","properties":{"ZIP":"H1L5J4"},"geometry":{"type":"Point","coordinates":[-73.530664,45.6013565]}},{"type":"Feature","properties":{"ZIP":"H1L5N1"},"geometry":{"type":"Point","coordinates":[-73.523841,45.5967995]}},{"type":"Feature","properties":{"ZIP":"H1L5T4"},"geometry":{"type":"Point","coordinates":[-73.52678850000001,45.595271]}},{"type":"Feature","properties":{"ZIP":"H1L1J5"},"geometry":{"type":"Point","coordinates":[-73.528761,45.6027965]}},{"type":"Feature","properties":{"ZIP":"H1L2E8"},"geometry":{"type":"Point","coordinates":[-73.52269849999999,45.601628]}},{"type":"Feature","properties":{"ZIP":"H1L2L8"},"geometry":{"type":"Point","coordinates":[-73.521496,45.598797]}},{"type":"Feature","properties":{"ZIP":"H1L3E5"},"geometry":{"type":"Point","coordinates":[-73.51461,45.5947515]}},{"type":"Feature","properties":{"ZIP":"H1L3T6"},"geometry":{"type":"Point","coordinates":[-73.510886,45.6114865]}},{"type":"Feature","properties":{"ZIP":"H1L5K6"},"geometry":{"type":"Point","coordinates":[-73.525149,45.598866]}},{"type":"Feature","properties":{"ZIP":"H1L1E8"},"geometry":{"type":"Point","coordinates":[-73.52602,45.612329]}},{"type":"Feature","properties":{"ZIP":"H1L2H2"},"geometry":{"type":"Point","coordinates":[-73.520617,45.605062000000004]}},{"type":"Feature","properties":{"ZIP":"H1L4E4"},"geometry":{"type":"Point","coordinates":[-73.51075399999999,45.607813]}},{"type":"Feature","properties":{"ZIP":"H1L5B6"},"geometry":{"type":"Point","coordinates":[-73.526183,45.601861]}},{"type":"Feature","properties":{"ZIP":"H1L6B1"},"geometry":{"type":"Point","coordinates":[-73.50855999999999,45.586935999999994]}},{"type":"Feature","properties":{"ZIP":"H1L1H3"},"geometry":{"type":"Point","coordinates":[-73.53083649999999,45.599305]}},{"type":"Feature","properties":{"ZIP":"H1L2P6"},"geometry":{"type":"Point","coordinates":[-73.515923,45.6087655]}},{"type":"Feature","properties":{"ZIP":"H1L4L3"},"geometry":{"type":"Point","coordinates":[-73.5202755,45.606355]}},{"type":"Feature","properties":{"ZIP":"H1L5J5"},"geometry":{"type":"Point","coordinates":[-73.5257765,45.6013955]}},{"type":"Feature","properties":{"ZIP":"H1L5T5"},"geometry":{"type":"Point","coordinates":[-73.528806,45.5959255]}},{"type":"Feature","properties":{"ZIP":"H1L1Z5"},"geometry":{"type":"Point","coordinates":[-73.5213755,45.607205]}},{"type":"Feature","properties":{"ZIP":"H1L2L9"},"geometry":{"type":"Point","coordinates":[-73.521192,45.5989435]}},{"type":"Feature","properties":{"ZIP":"H1L2Z1"},"geometry":{"type":"Point","coordinates":[-73.516659,45.5956855]}},{"type":"Feature","properties":{"ZIP":"H1L5V8"},"geometry":{"type":"Point","coordinates":[-73.519923,45.5926685]}},{"type":"Feature","properties":{"ZIP":"H1L5Z7"},"geometry":{"type":"Point","coordinates":[-73.51815350000001,45.5905405]}},{"type":"Feature","properties":{"ZIP":"H1L1E9"},"geometry":{"type":"Point","coordinates":[-73.534438,45.595506]}},{"type":"Feature","properties":{"ZIP":"H1L2A8"},"geometry":{"type":"Point","coordinates":[-73.51905,45.611765500000004]}},{"type":"Feature","properties":{"ZIP":"H1L4Y2"},"geometry":{"type":"Point","coordinates":[-73.524299,45.6028245]}},{"type":"Feature","properties":{"ZIP":"H1L6H1"},"geometry":{"type":"Point","coordinates":[-73.5106555,45.586338]}},{"type":"Feature","properties":{"ZIP":"H1L1Y2"},"geometry":{"type":"Point","coordinates":[-73.52418449999999,45.602306]}},{"type":"Feature","properties":{"ZIP":"H1L3B9"},"geometry":{"type":"Point","coordinates":[-73.515522,45.597378500000005]}},{"type":"Feature","properties":{"ZIP":"H1L5Y6"},"geometry":{"type":"Point","coordinates":[-73.53012100000001,45.595034]}},{"type":"Feature","properties":{"ZIP":"H1L1J7"},"geometry":{"type":"Point","coordinates":[-73.5283005,45.603617]}},{"type":"Feature","properties":{"ZIP":"H1L1T9"},"geometry":{"type":"Point","coordinates":[-73.5215595,45.611462]}},{"type":"Feature","properties":{"ZIP":"H1L1Z6"},"geometry":{"type":"Point","coordinates":[-73.5213755,45.607205]}},{"type":"Feature","properties":{"ZIP":"H1L3E7"},"geometry":{"type":"Point","coordinates":[-73.51402300000001,45.596028000000004]}},{"type":"Feature","properties":{"ZIP":"H1L4C2"},"geometry":{"type":"Point","coordinates":[-73.51492099999999,45.6088525]}},{"type":"Feature","properties":{"ZIP":"H1L5K8"},"geometry":{"type":"Point","coordinates":[-73.527125,45.5994485]}},{"type":"Feature","properties":{"ZIP":"H1L2A9"},"geometry":{"type":"Point","coordinates":[-73.518722,45.612474500000005]}},{"type":"Feature","properties":{"ZIP":"H1L2H5"},"geometry":{"type":"Point","coordinates":[-73.519756,45.606496]}},{"type":"Feature","properties":{"ZIP":"H1L3N3"},"geometry":{"type":"Point","coordinates":[-73.5099765,45.6049815]}},{"type":"Feature","properties":{"ZIP":"H1L4E6"},"geometry":{"type":"Point","coordinates":[-73.512719,45.607952]}},{"type":"Feature","properties":{"ZIP":"H1L5M2"},"geometry":{"type":"Point","coordinates":[-73.52777750000001,45.598805999999996]}},{"type":"Feature","properties":{"ZIP":"H1L5X3"},"geometry":{"type":"Point","coordinates":[-73.5146095,45.590249]}},{"type":"Feature","properties":{"ZIP":"H1L1M5"},"geometry":{"type":"Point","coordinates":[-73.532917,45.594908000000004]}},{"type":"Feature","properties":{"ZIP":"H1L1S7"},"geometry":{"type":"Point","coordinates":[-73.52408750000001,45.606725499999996]}},{"type":"Feature","properties":{"ZIP":"H1L2X8"},"geometry":{"type":"Point","coordinates":[-73.5122115,45.611233]}},{"type":"Feature","properties":{"ZIP":"H1L3J7"},"geometry":{"type":"Point","coordinates":[-73.509729,45.586552499999996]}},{"type":"Feature","properties":{"ZIP":"H1L4G8"},"geometry":{"type":"Point","coordinates":[-73.5159605,45.6078185]}},{"type":"Feature","properties":{"ZIP":"H1L1C5"},"geometry":{"type":"Point","coordinates":[-73.529564,45.6052665]}},{"type":"Feature","properties":{"ZIP":"H1L1Z8"},"geometry":{"type":"Point","coordinates":[-73.52012250000001,45.609502]}},{"type":"Feature","properties":{"ZIP":"H1L1G3"},"geometry":{"type":"Point","coordinates":[-73.5330155,45.597937]}},{"type":"Feature","properties":{"ZIP":"H1L5S5"},"geometry":{"type":"Point","coordinates":[-73.510801,45.5917485]}},{"type":"Feature","properties":{"ZIP":"H1L6B5"},"geometry":{"type":"Point","coordinates":[-73.5162055,45.5892935]}},{"type":"Feature","properties":{"ZIP":"H1L1M6"},"geometry":{"type":"Point","coordinates":[-73.531409,45.597511]}},{"type":"Feature","properties":{"ZIP":"H1L1Y4"},"geometry":{"type":"Point","coordinates":[-73.5237245,45.603027]}},{"type":"Feature","properties":{"ZIP":"H1L2K6"},"geometry":{"type":"Point","coordinates":[-73.52507349999999,45.592183500000004]}},{"type":"Feature","properties":{"ZIP":"H1L3J9"},"geometry":{"type":"Point","coordinates":[-73.50949800000001,45.586930499999994]}},{"type":"Feature","properties":{"ZIP":"H1L3S7"},"geometry":{"type":"Point","coordinates":[-73.509959,45.6073795]}},{"type":"Feature","properties":{"ZIP":"H1L1J9"},"geometry":{"type":"Point","coordinates":[-73.52909399999999,45.6042915]}},{"type":"Feature","properties":{"ZIP":"H1L1P5"},"geometry":{"type":"Point","coordinates":[-73.52914999999999,45.5981045]}},{"type":"Feature","properties":{"ZIP":"H1L1V2"},"geometry":{"type":"Point","coordinates":[-73.5212205,45.612131500000004]}},{"type":"Feature","properties":{"ZIP":"H1L2S8"},"geometry":{"type":"Point","coordinates":[-73.51852,45.599498]}},{"type":"Feature","properties":{"ZIP":"H1L3V1"},"geometry":{"type":"Point","coordinates":[-73.5148185,45.612218]}},{"type":"Feature","properties":{"ZIP":"H1L3Y7"},"geometry":{"type":"Point","coordinates":[-73.51044,45.6091075]}},{"type":"Feature","properties":{"ZIP":"H1L5R3"},"geometry":{"type":"Point","coordinates":[-73.524791,45.5962815]}},{"type":"Feature","properties":{"ZIP":"H1L5W3"},"geometry":{"type":"Point","coordinates":[-73.5272745,45.594777500000006]}},{"type":"Feature","properties":{"ZIP":"H1L1R7"},"geometry":{"type":"Point","coordinates":[-73.5264935,45.602517500000005]}},{"type":"Feature","properties":{"ZIP":"H1L2B2"},"geometry":{"type":"Point","coordinates":[-73.528527,45.5918805]}},{"type":"Feature","properties":{"ZIP":"H1L2N5"},"geometry":{"type":"Point","coordinates":[-73.51834500000001,45.6039515]}},{"type":"Feature","properties":{"ZIP":"H1L2W5"},"geometry":{"type":"Point","coordinates":[-73.5172095,45.601144500000004]}},{"type":"Feature","properties":{"ZIP":"H1L3N6"},"geometry":{"type":"Point","coordinates":[-73.50989,45.6072105]}},{"type":"Feature","properties":{"ZIP":"H1L4E8"},"geometry":{"type":"Point","coordinates":[-73.515191,45.6082995]}},{"type":"Feature","properties":{"ZIP":"H1L1M7"},"geometry":{"type":"Point","coordinates":[-73.531409,45.597511]}},{"type":"Feature","properties":{"ZIP":"H1L1S9"},"geometry":{"type":"Point","coordinates":[-73.523762,45.607299499999996]}},{"type":"Feature","properties":{"ZIP":"H1L2R4"},"geometry":{"type":"Point","coordinates":[-73.515026,45.610568]}},{"type":"Feature","properties":{"ZIP":"H1L4B2"},"geometry":{"type":"Point","coordinates":[-73.5192715,45.6101455]}},{"type":"Feature","properties":{"ZIP":"H1L4Z7"},"geometry":{"type":"Point","coordinates":[-73.522423,45.6015765]}},{"type":"Feature","properties":{"ZIP":"H1L6T1"},"geometry":{"type":"Point","coordinates":[-73.51091600000001,45.61235]}},{"type":"Feature","properties":{"ZIP":"H1L2M4"},"geometry":{"type":"Point","coordinates":[-73.5202695,45.6005165]}},{"type":"Feature","properties":{"ZIP":"H1L2H8"},"geometry":{"type":"Point","coordinates":[-73.51791499999999,45.609626500000005]}},{"type":"Feature","properties":{"ZIP":"H1L5X6"},"geometry":{"type":"Point","coordinates":[-73.52028150000001,45.591997]}},{"type":"Feature","properties":{"ZIP":"H1L1M8"},"geometry":{"type":"Point","coordinates":[-73.5321795,45.594550999999996]}},{"type":"Feature","properties":{"ZIP":"H1L2R5"},"geometry":{"type":"Point","coordinates":[-73.5148505,45.610881000000006]}},{"type":"Feature","properties":{"ZIP":"H1L3C7"},"geometry":{"type":"Point","coordinates":[-73.51675,45.5908685]}},{"type":"Feature","properties":{"ZIP":"H1L3R5"},"geometry":{"type":"Point","coordinates":[-73.508907,45.6135915]}},{"type":"Feature","properties":{"ZIP":"H1L3T1"},"geometry":{"type":"Point","coordinates":[-73.5093185,45.6093385]}},{"type":"Feature","properties":{"ZIP":"H1L3X7"},"geometry":{"type":"Point","coordinates":[-73.5218335,45.611798]}},{"type":"Feature","properties":{"ZIP":"H1L4W3"},"geometry":{"type":"Point","coordinates":[-73.5271755,45.6044585]}},{"type":"Feature","properties":{"ZIP":"H1L6E1"},"geometry":{"type":"Point","coordinates":[-73.5125155,45.587588]}},{"type":"Feature","properties":{"ZIP":"H1L6L2"},"geometry":{"type":"Point","coordinates":[-73.520412,45.5956865]}},{"type":"Feature","properties":{"ZIP":"H1L2A2"},"geometry":{"type":"Point","coordinates":[-73.519885,45.609994]}},{"type":"Feature","properties":{"ZIP":"H1L2M5"},"geometry":{"type":"Point","coordinates":[-73.5203775,45.600772]}},{"type":"Feature","properties":{"ZIP":"H1L4C7"},"geometry":{"type":"Point","coordinates":[-73.5189795,45.6095595]}},{"type":"Feature","properties":{"ZIP":"H1L4J5"},"geometry":{"type":"Point","coordinates":[-73.5166435,45.6062975]}},{"type":"Feature","properties":{"ZIP":"H1L5R5"},"geometry":{"type":"Point","coordinates":[-73.5262925,45.5967285]}},{"type":"Feature","properties":{"ZIP":"H1L2B4"},"geometry":{"type":"Point","coordinates":[-73.52811,45.592578]}},{"type":"Feature","properties":{"ZIP":"H1L2H9"},"geometry":{"type":"Point","coordinates":[-73.5179255,45.6095445]}},{"type":"Feature","properties":{"ZIP":"H1L2W7"},"geometry":{"type":"Point","coordinates":[-73.5159,45.60377]}},{"type":"Feature","properties":{"ZIP":"H1L4A2"},"geometry":{"type":"Point","coordinates":[-73.5105155,45.608603]}},{"type":"Feature","properties":{"ZIP":"H1L4V2"},"geometry":{"type":"Point","coordinates":[-73.51511199999999,45.600946]}},{"type":"Feature","properties":{"ZIP":"H1L5S8"},"geometry":{"type":"Point","coordinates":[-73.51108550000001,45.591133]}},{"type":"Feature","properties":{"ZIP":"H1L6H7"},"geometry":{"type":"Point","coordinates":[-73.528976,45.5919445]}},{"type":"Feature","properties":{"ZIP":"H1L6R4"},"geometry":{"type":"Point","coordinates":[-73.520355,45.609007500000004]}},{"type":"Feature","properties":{"ZIP":"H1L2Y4"},"geometry":{"type":"Point","coordinates":[-73.5185785,45.5960125]}},{"type":"Feature","properties":{"ZIP":"H1L3L1"},"geometry":{"type":"Point","coordinates":[-73.5115485,45.591443]}},{"type":"Feature","properties":{"ZIP":"H1L5N9"},"geometry":{"type":"Point","coordinates":[-73.532111,45.5992625]}},{"type":"Feature","properties":{"ZIP":"H1L6E2"},"geometry":{"type":"Point","coordinates":[-73.511831,45.5873785]}},{"type":"Feature","properties":{"ZIP":"H1L6L4"},"geometry":{"type":"Point","coordinates":[-73.52440849999999,45.613074]}},{"type":"Feature","properties":{"ZIP":"H1L1V5"},"geometry":{"type":"Point","coordinates":[-73.5307225,45.5938265]}},{"type":"Feature","properties":{"ZIP":"H1L2A3"},"geometry":{"type":"Point","coordinates":[-73.51964799999999,45.610486]}},{"type":"Feature","properties":{"ZIP":"H1L3G4"},"geometry":{"type":"Point","coordinates":[-73.514375,45.5931185]}},{"type":"Feature","properties":{"ZIP":"H1L5L4"},"geometry":{"type":"Point","coordinates":[-73.53104049999999,45.600607999999994]}},{"type":"Feature","properties":{"ZIP":"H1L6A4"},"geometry":{"type":"Point","coordinates":[-73.5279765,45.593568]}},{"type":"Feature","properties":{"ZIP":"H1L2B5"},"geometry":{"type":"Point","coordinates":[-73.5286725,45.591646499999996]}},{"type":"Feature","properties":{"ZIP":"H1L2J1"},"geometry":{"type":"Point","coordinates":[-73.5176065,45.610075499999994]}},{"type":"Feature","properties":{"ZIP":"H1L2N8"},"geometry":{"type":"Point","coordinates":[-73.517661,45.605239]}},{"type":"Feature","properties":{"ZIP":"H1L6R7"},"geometry":{"type":"Point","coordinates":[-73.5188565,45.6079935]}},{"type":"Feature","properties":{"ZIP":"H1L1J2"},"geometry":{"type":"Point","coordinates":[-73.529246,45.6019615]}},{"type":"Feature","properties":{"ZIP":"H1L1N1"},"geometry":{"type":"Point","coordinates":[-73.530625,45.597273]}},{"type":"Feature","properties":{"ZIP":"H1L2L5"},"geometry":{"type":"Point","coordinates":[-73.522052,45.5974765]}},{"type":"Feature","properties":{"ZIP":"H1L5P1"},"geometry":{"type":"Point","coordinates":[-73.531978,45.5992235]}},{"type":"Feature","properties":{"ZIP":"H1L6L5"},"geometry":{"type":"Point","coordinates":[-73.5144865,45.601472]}},{"type":"Feature","properties":{"ZIP":"H1L1K4"},"geometry":{"type":"Point","coordinates":[-73.522299,45.6058735]}},{"type":"Feature","properties":{"ZIP":"H1L2A4"},"geometry":{"type":"Point","coordinates":[-73.51964799999999,45.610486]}},{"type":"Feature","properties":{"ZIP":"H1L2M7"},"geometry":{"type":"Point","coordinates":[-73.5195565,45.601735]}},{"type":"Feature","properties":{"ZIP":"H1L2T3"},"geometry":{"type":"Point","coordinates":[-73.517413,45.601789499999995]}},{"type":"Feature","properties":{"ZIP":"H1L3M7"},"geometry":{"type":"Point","coordinates":[-73.5097615,45.602456000000004]}},{"type":"Feature","properties":{"ZIP":"H1L3V6"},"geometry":{"type":"Point","coordinates":[-73.513343,45.6111895]}},{"type":"Feature","properties":{"ZIP":"H1L4C9"},"geometry":{"type":"Point","coordinates":[-73.52113700000001,45.609943]}},{"type":"Feature","properties":{"ZIP":"H1L4X7"},"geometry":{"type":"Point","coordinates":[-73.5227735,45.602374]}},{"type":"Feature","properties":{"ZIP":"H1L6N7"},"geometry":{"type":"Point","coordinates":[-73.517679,45.589586999999995]}},{"type":"Feature","properties":{"ZIP":"H1L1S2"},"geometry":{"type":"Point","coordinates":[-73.525936,45.603466499999996]}},{"type":"Feature","properties":{"ZIP":"H1L2C3"},"geometry":{"type":"Point","coordinates":[-73.5262055,45.595763500000004]}},{"type":"Feature","properties":{"ZIP":"H1L2J2"},"geometry":{"type":"Point","coordinates":[-73.5175825,45.6101825]}},{"type":"Feature","properties":{"ZIP":"H1L3P1"},"geometry":{"type":"Point","coordinates":[-73.50852950000001,45.608557]}},{"type":"Feature","properties":{"ZIP":"H1L3W8"},"geometry":{"type":"Point","coordinates":[-73.511629,45.6100475]}},{"type":"Feature","properties":{"ZIP":"H1L4Y9"},"geometry":{"type":"Point","coordinates":[-73.518979,45.600421499999996]}},{"type":"Feature","properties":{"ZIP":"H1L5M8"},"geometry":{"type":"Point","coordinates":[-73.521602,45.596141]}},{"type":"Feature","properties":{"ZIP":"H1L6C1"},"geometry":{"type":"Point","coordinates":[-73.5208885,45.590734]}},{"type":"Feature","properties":{"ZIP":"H1L6H9"},"geometry":{"type":"Point","coordinates":[-73.53339199999999,45.593334]}},{"type":"Feature","properties":{"ZIP":"H1L3E2"},"geometry":{"type":"Point","coordinates":[-73.51648750000001,45.5916795]}},{"type":"Feature","properties":{"ZIP":"H1L1K5"},"geometry":{"type":"Point","coordinates":[-73.5262945,45.606931]}},{"type":"Feature","properties":{"ZIP":"H1L1V7"},"geometry":{"type":"Point","coordinates":[-73.5299615,45.593593]}},{"type":"Feature","properties":{"ZIP":"H1L3V7"},"geometry":{"type":"Point","coordinates":[-73.513959,45.6112955]}},{"type":"Feature","properties":{"ZIP":"H1L5R8"},"geometry":{"type":"Point","coordinates":[-73.5304075,45.597978499999996]}},{"type":"Feature","properties":{"ZIP":"H1L1S3"},"geometry":{"type":"Point","coordinates":[-73.5258255,45.603661]}},{"type":"Feature","properties":{"ZIP":"H1L5J3"},"geometry":{"type":"Point","coordinates":[-73.5287375,45.6008105]}},{"type":"Feature","properties":{"ZIP":"H1L5T3"},"geometry":{"type":"Point","coordinates":[-73.5255115,45.5949045]}},{"type":"Feature","properties":{"ZIP":"H1L5Y3"},"geometry":{"type":"Point","coordinates":[-73.52758700000001,45.5942535]}},{"type":"Feature","properties":{"ZIP":"H1L1B8"},"geometry":{"type":"Point","coordinates":[-73.530814,45.6039605]}},{"type":"Feature","properties":{"ZIP":"H1L1Z2"},"geometry":{"type":"Point","coordinates":[-73.5220365,45.606026]}},{"type":"Feature","properties":{"ZIP":"H1L3E4"},"geometry":{"type":"Point","coordinates":[-73.51453749999999,45.5951055]}},{"type":"Feature","properties":{"ZIP":"H1L3T5"},"geometry":{"type":"Point","coordinates":[-73.509576,45.61132]}},{"type":"Feature","properties":{"ZIP":"H1L6E5"},"geometry":{"type":"Point","coordinates":[-73.51863850000001,45.589516]}},{"type":"Feature","properties":{"ZIP":"H1L1H2"},"geometry":{"type":"Point","coordinates":[-73.53118749999999,45.598721]}},{"type":"Feature","properties":{"ZIP":"H1L2C5"},"geometry":{"type":"Point","coordinates":[-73.5254195,45.597077999999996]}},{"type":"Feature","properties":{"ZIP":"H1L2J4"},"geometry":{"type":"Point","coordinates":[-73.5172805,45.610688499999995]}},{"type":"Feature","properties":{"ZIP":"H1L4G5"},"geometry":{"type":"Point","coordinates":[-73.51092449999999,45.6071865]}},{"type":"Feature","properties":{"ZIP":"H1L5Y4"},"geometry":{"type":"Point","coordinates":[-73.52758700000001,45.5942535]}},{"type":"Feature","properties":{"ZIP":"H1L6C3"},"geometry":{"type":"Point","coordinates":[-73.5269985,45.592069]}},{"type":"Feature","properties":{"ZIP":"H1L4B9"},"geometry":{"type":"Point","coordinates":[-73.5124865,45.608412]}},{"type":"Feature","properties":{"ZIP":"H1L1K7"},"geometry":{"type":"Point","coordinates":[-73.5260055,45.607437]}},{"type":"Feature","properties":{"ZIP":"H1L2N1"},"geometry":{"type":"Point","coordinates":[-73.519316,45.6025995]}},{"type":"Feature","properties":{"ZIP":"H1L3V9"},"geometry":{"type":"Point","coordinates":[-73.5166115,45.611742500000005]}},{"type":"Feature","properties":{"ZIP":"H1L5H3"},"geometry":{"type":"Point","coordinates":[-73.52038999999999,45.598348]}},{"type":"Feature","properties":{"ZIP":"H1L6G8"},"geometry":{"type":"Point","coordinates":[-73.53484,45.594503]}},{"type":"Feature","properties":{"ZIP":"H1L2X6"},"geometry":{"type":"Point","coordinates":[-73.512832,45.609902]}},{"type":"Feature","properties":{"ZIP":"H1L3J3"},"geometry":{"type":"Point","coordinates":[-73.511732,45.5868755]}},{"type":"Feature","properties":{"ZIP":"H1L5N2"},"geometry":{"type":"Point","coordinates":[-73.52382850000001,45.5967955]}},{"type":"Feature","properties":{"ZIP":"H1L6C4"},"geometry":{"type":"Point","coordinates":[-73.52860849999999,45.592914]}},{"type":"Feature","properties":{"ZIP":"H1L1C1"},"geometry":{"type":"Point","coordinates":[-73.5305755,45.6043645]}},{"type":"Feature","properties":{"ZIP":"H1L2E9"},"geometry":{"type":"Point","coordinates":[-73.522305,45.6022855]}},{"type":"Feature","properties":{"ZIP":"H1L2S5"},"geometry":{"type":"Point","coordinates":[-73.51986199999999,45.596794]}},{"type":"Feature","properties":{"ZIP":"H1L6E7"},"geometry":{"type":"Point","coordinates":[-73.520865,45.5901555]}},{"type":"Feature","properties":{"ZIP":"H1L3G9"},"geometry":{"type":"Point","coordinates":[-73.51280249999999,45.592256]}},{"type":"Feature","properties":{"ZIP":"H1L5S2"},"geometry":{"type":"Point","coordinates":[-73.5320105,45.5984675]}},{"type":"Feature","properties":{"ZIP":"H1L1H5"},"geometry":{"type":"Point","coordinates":[-73.5304805,45.599908]}},{"type":"Feature","properties":{"ZIP":"H1L2P8"},"geometry":{"type":"Point","coordinates":[-73.5156255,45.6093975]}},{"type":"Feature","properties":{"ZIP":"H1L3P6"},"geometry":{"type":"Point","coordinates":[-73.508622,45.610650500000006]}},{"type":"Feature","properties":{"ZIP":"H1L5J6"},"geometry":{"type":"Point","coordinates":[-73.5132895,45.5953815]}},{"type":"Feature","properties":{"ZIP":"H1L5T6"},"geometry":{"type":"Point","coordinates":[-73.5300595,45.596315]}},{"type":"Feature","properties":{"ZIP":"H1L6S5"},"geometry":{"type":"Point","coordinates":[-73.51068699999999,45.5922665]}},{"type":"Feature","properties":{"ZIP":"H1L1C2"},"geometry":{"type":"Point","coordinates":[-73.5301735,45.6050345]}},{"type":"Feature","properties":{"ZIP":"H1L1N9"},"geometry":{"type":"Point","coordinates":[-73.5307505,45.5954655]}},{"type":"Feature","properties":{"ZIP":"H1L2M1"},"geometry":{"type":"Point","coordinates":[-73.521117,45.599404]}},{"type":"Feature","properties":{"ZIP":"H1L2Z2"},"geometry":{"type":"Point","coordinates":[-73.516998,45.5950915]}},{"type":"Feature","properties":{"ZIP":"H1L3T8"},"geometry":{"type":"Point","coordinates":[-73.5122825,45.611763499999995]}},{"type":"Feature","properties":{"ZIP":"H1L6M2"},"geometry":{"type":"Point","coordinates":[-73.52216849999999,45.590109999999996]}},{"type":"Feature","properties":{"ZIP":"H1L2N3"},"geometry":{"type":"Point","coordinates":[-73.5189815,45.603162999999995]}},{"type":"Feature","properties":{"ZIP":"H1L5S3"},"geometry":{"type":"Point","coordinates":[-73.532208,45.5985285]}},{"type":"Feature","properties":{"ZIP":"H1L1Y3"},"geometry":{"type":"Point","coordinates":[-73.5241625,45.602411000000004]}},{"type":"Feature","properties":{"ZIP":"H1L3C3"},"geometry":{"type":"Point","coordinates":[-73.5182415,45.588598]}},{"type":"Feature","properties":{"ZIP":"H1L3S6"},"geometry":{"type":"Point","coordinates":[-73.51019149999999,45.605822]}},{"type":"Feature","properties":{"ZIP":"H1L5Y7"},"geometry":{"type":"Point","coordinates":[-73.53121300000001,45.595369500000004]}},{"type":"Feature","properties":{"ZIP":"H1L1J8"},"geometry":{"type":"Point","coordinates":[-73.52643,45.604156]}},{"type":"Feature","properties":{"ZIP":"H1L1P2"},"geometry":{"type":"Point","coordinates":[-73.53004250000001,45.596633]}},{"type":"Feature","properties":{"ZIP":"H1L2Z4"},"geometry":{"type":"Point","coordinates":[-73.52001200000001,45.589586]}},{"type":"Feature","properties":{"ZIP":"H1L5W1"},"geometry":{"type":"Point","coordinates":[-73.5258245,45.594336999999996]}},{"type":"Feature","properties":{"ZIP":"H1L6M3"},"geometry":{"type":"Point","coordinates":[-73.5234655,45.5929775]}},{"type":"Feature","properties":{"ZIP":"H1L1A9"},"geometry":{"type":"Point","coordinates":[-73.533027,45.599401]}},{"type":"Feature","properties":{"ZIP":"H1L3C4"},"geometry":{"type":"Point","coordinates":[-73.51819449999999,45.588681]}},{"type":"Feature","properties":{"ZIP":"H1L4W1"},"geometry":{"type":"Point","coordinates":[-73.52500900000001,45.603798999999995]}},{"type":"Feature","properties":{"ZIP":"H1L5T8"},"geometry":{"type":"Point","coordinates":[-73.5310065,45.5966085]}},{"type":"Feature","properties":{"ZIP":"H1L5Y8"},"geometry":{"type":"Point","coordinates":[-73.532415,45.595740500000005]}},{"type":"Feature","properties":{"ZIP":"H1L1C6"},"geometry":{"type":"Point","coordinates":[-73.529181,45.605937999999995]}},{"type":"Feature","properties":{"ZIP":"H1L2M3"},"geometry":{"type":"Point","coordinates":[-73.52068349999999,45.599796999999995]}},{"type":"Feature","properties":{"ZIP":"H1L6M5"},"geometry":{"type":"Point","coordinates":[-73.51155399999999,45.5919575]}},{"type":"Feature","properties":{"ZIP":"H1L1G4"},"geometry":{"type":"Point","coordinates":[-73.53402650000001,45.593899]}},{"type":"Feature","properties":{"ZIP":"H1L1Y5"},"geometry":{"type":"Point","coordinates":[-73.52385050000001,45.603066999999996]}},{"type":"Feature","properties":{"ZIP":"H1L3C5"},"geometry":{"type":"Point","coordinates":[-73.51730850000001,45.5898395]}},{"type":"Feature","properties":{"ZIP":"H1L5V1"},"geometry":{"type":"Point","coordinates":[-73.5330185,45.597273]}},{"type":"Feature","properties":{"ZIP":"H1L2Z8"},"geometry":{"type":"Point","coordinates":[-73.5192165,45.591304]}},{"type":"Feature","properties":{"ZIP":"H1L3G1"},"geometry":{"type":"Point","coordinates":[-73.5135995,45.5967495]}},{"type":"Feature","properties":{"ZIP":"H1L3V2"},"geometry":{"type":"Point","coordinates":[-73.510058,45.6106085]}},{"type":"Feature","properties":{"ZIP":"H1L5R4"},"geometry":{"type":"Point","coordinates":[-73.524791,45.5962815]}},{"type":"Feature","properties":{"ZIP":"H1L1G5"},"geometry":{"type":"Point","coordinates":[-73.534068,45.5938335]}},{"type":"Feature","properties":{"ZIP":"H1L1B4"},"geometry":{"type":"Point","coordinates":[-73.531676,45.602507]}},{"type":"Feature","properties":{"ZIP":"H1L5Z1"},"geometry":{"type":"Point","coordinates":[-73.532809,45.595858]}},{"type":"Feature","properties":{"ZIP":"H1L1C8"},"geometry":{"type":"Point","coordinates":[-73.52857499999999,45.6076915]}},{"type":"Feature","properties":{"ZIP":"H1L2Z9"},"geometry":{"type":"Point","coordinates":[-73.5188205,45.5919985]}},{"type":"Feature","properties":{"ZIP":"H1L3V3"},"geometry":{"type":"Point","coordinates":[-73.510058,45.6106085]}},{"type":"Feature","properties":{"ZIP":"H1L1R9"},"geometry":{"type":"Point","coordinates":[-73.526315,45.602798]}},{"type":"Feature","properties":{"ZIP":"H1L2N7"},"geometry":{"type":"Point","coordinates":[-73.51794699999999,45.6046975]}},{"type":"Feature","properties":{"ZIP":"H1L1B5"},"geometry":{"type":"Point","coordinates":[-73.5310315,45.602757]}},{"type":"Feature","properties":{"ZIP":"H1L2E4"},"geometry":{"type":"Point","coordinates":[-73.52327249999999,45.600667]}},{"type":"Feature","properties":{"ZIP":"H1L2R9"},"geometry":{"type":"Point","coordinates":[-73.513093,45.614702]}},{"type":"Feature","properties":{"ZIP":"H1L3R7"},"geometry":{"type":"Point","coordinates":[-73.509439,45.6107635]}},{"type":"Feature","properties":{"ZIP":"H1L3T2"},"geometry":{"type":"Point","coordinates":[-73.5090615,45.6100625]}},{"type":"Feature","properties":{"ZIP":"H1L1C9"},"geometry":{"type":"Point","coordinates":[-73.52836049999999,45.607374]}},{"type":"Feature","properties":{"ZIP":"H1L2G7"},"geometry":{"type":"Point","coordinates":[-73.521293,45.603936]}},{"type":"Feature","properties":{"ZIP":"H1L2M6"},"geometry":{"type":"Point","coordinates":[-73.5199405,45.6011655]}},{"type":"Feature","properties":{"ZIP":"H1L3A1"},"geometry":{"type":"Point","coordinates":[-73.518854,45.591931]}},{"type":"Feature","properties":{"ZIP":"H1L1B6"},"geometry":{"type":"Point","coordinates":[-73.531226,45.603266]}},{"type":"Feature","properties":{"ZIP":"H1L2S1"},"geometry":{"type":"Point","coordinates":[-73.513386,45.613973]}},{"type":"Feature","properties":{"ZIP":"H1L2Y5"},"geometry":{"type":"Point","coordinates":[-73.51881850000001,45.595599]}},{"type":"Feature","properties":{"ZIP":"H1L3R9"},"geometry":{"type":"Point","coordinates":[-73.509206,45.611439000000004]}},{"type":"Feature","properties":{"ZIP":"H1L1E1"},"geometry":{"type":"Point","coordinates":[-73.5283115,45.6081365]}},{"type":"Feature","properties":{"ZIP":"H1L5R7"},"geometry":{"type":"Point","coordinates":[-73.5297905,45.5977905]}},{"type":"Feature","properties":{"ZIP":"H1L6A5"},"geometry":{"type":"Point","coordinates":[-73.52797,45.593579500000004]}},{"type":"Feature","properties":{"ZIP":"H1L6G5"},"geometry":{"type":"Point","coordinates":[-73.5322035,45.5936995]}},{"type":"Feature","properties":{"ZIP":"H1L1G8"},"geometry":{"type":"Point","coordinates":[-73.5323075,45.597605]}},{"type":"Feature","properties":{"ZIP":"H1L5T2"},"geometry":{"type":"Point","coordinates":[-73.5255115,45.5949045]}},{"type":"Feature","properties":{"ZIP":"H1L5Y2"},"geometry":{"type":"Point","coordinates":[-73.5261065,45.5938005]}},{"type":"Feature","properties":{"ZIP":"H1L1N2"},"geometry":{"type":"Point","coordinates":[-73.53052249999999,45.597423500000005]}},{"type":"Feature","properties":{"ZIP":"H1L3T4"},"geometry":{"type":"Point","coordinates":[-73.50971949999999,45.611348]}},{"type":"Feature","properties":{"ZIP":"H1L6L7"},"geometry":{"type":"Point","coordinates":[-73.520877,45.6127985]}},{"type":"Feature","properties":{"ZIP":"H1L2A5"},"geometry":{"type":"Point","coordinates":[-73.51937649999999,45.611059]}},{"type":"Feature","properties":{"ZIP":"H1L3A3"},"geometry":{"type":"Point","coordinates":[-73.5185075,45.592625999999996]}},{"type":"Feature","properties":{"ZIP":"H1L6G6"},"geometry":{"type":"Point","coordinates":[-73.53302400000001,45.593954]}},{"type":"Feature","properties":{"ZIP":"H1L1G9"},"geometry":{"type":"Point","coordinates":[-73.5323075,45.597605]}},{"type":"Feature","properties":{"ZIP":"H1L1N3"},"geometry":{"type":"Point","coordinates":[-73.5323445,45.592836500000004]}},{"type":"Feature","properties":{"ZIP":"H1L2E7"},"geometry":{"type":"Point","coordinates":[-73.5233725,45.6004735]}},{"type":"Feature","properties":{"ZIP":"H1L2A6"},"geometry":{"type":"Point","coordinates":[-73.51937649999999,45.611059]}},{"type":"Feature","properties":{"ZIP":"H1L5R9"},"geometry":{"type":"Point","coordinates":[-73.53060450000001,45.5980395]}},{"type":"Feature","properties":{"ZIP":"H1L6G7"},"geometry":{"type":"Point","coordinates":[-73.5338225,45.594209]}},{"type":"Feature","properties":{"ZIP":"H1L1A1"},"geometry":{"type":"Point","coordinates":[-73.536134,45.594289]}},{"type":"Feature","properties":{"ZIP":"H1L1B9"},"geometry":{"type":"Point","coordinates":[-73.53026249999999,45.6040755]}},{"type":"Feature","properties":{"ZIP":"H1L1N5"},"geometry":{"type":"Point","coordinates":[-73.5316735,45.5939435]}},{"type":"Feature","properties":{"ZIP":"H1L2Y9"},"geometry":{"type":"Point","coordinates":[-73.51684750000001,45.5954325]}},{"type":"Feature","properties":{"ZIP":"H1L3L5"},"geometry":{"type":"Point","coordinates":[-73.51163650000001,45.5963135]}},{"type":"Feature","properties":{"ZIP":"H1L6L9"},"geometry":{"type":"Point","coordinates":[-73.520877,45.6127985]}},{"type":"Feature","properties":{"ZIP":"H1L1V9"},"geometry":{"type":"Point","coordinates":[-73.529121,45.593511]}},{"type":"Feature","properties":{"ZIP":"H1L2A7"},"geometry":{"type":"Point","coordinates":[-73.51905500000001,45.6117545]}},{"type":"Feature","properties":{"ZIP":"H1L5S1"},"geometry":{"type":"Point","coordinates":[-73.531419,45.598288499999995]}},{"type":"Feature","properties":{"ZIP":"H1L6P5"},"geometry":{"type":"Point","coordinates":[-73.526146,45.6101245]}},{"type":"Feature","properties":{"ZIP":"H1L3E6"},"geometry":{"type":"Point","coordinates":[-73.5140695,45.595928]}},{"type":"Feature","properties":{"ZIP":"H1L3T7"},"geometry":{"type":"Point","coordinates":[-73.5119075,45.611726]}},{"type":"Feature","properties":{"ZIP":"H1L1W1"},"geometry":{"type":"Point","coordinates":[-73.52871300000001,45.5941955]}},{"type":"Feature","properties":{"ZIP":"H1L2N2"},"geometry":{"type":"Point","coordinates":[-73.5188645,45.603114500000004]}},{"type":"Feature","properties":{"ZIP":"H1L6P6"},"geometry":{"type":"Point","coordinates":[-73.51935,45.608470499999996]}},{"type":"Feature","properties":{"ZIP":"H1L2K3"},"geometry":{"type":"Point","coordinates":[-73.524677,45.5954465]}},{"type":"Feature","properties":{"ZIP":"H1L3J6"},"geometry":{"type":"Point","coordinates":[-73.50980849999999,45.586420000000004]}},{"type":"Feature","properties":{"ZIP":"H1L6K9"},"geometry":{"type":"Point","coordinates":[-73.53270599999999,45.600067]}},{"type":"Feature","properties":{"ZIP":"H1L5Y9"},"geometry":{"type":"Point","coordinates":[-73.532008,45.595614]}},{"type":"Feature","properties":{"ZIP":"H1L1C7"},"geometry":{"type":"Point","coordinates":[-73.5286555,45.606857500000004]}},{"type":"Feature","properties":{"ZIP":"H1L5Z2"},"geometry":{"type":"Point","coordinates":[-73.53361699999999,45.596107]}},{"type":"Feature","properties":{"ZIP":"H1L2V6"},"geometry":{"type":"Point","coordinates":[-73.5132385,45.610404]}},{"type":"Feature","properties":{"ZIP":"H1L0A5"},"geometry":{"type":"Point","coordinates":[-73.516967,45.603516]}},{"type":"Feature","properties":{"ZIP":"H1L6P2"},"geometry":{"type":"Point","coordinates":[-73.526385,45.611604]}},{"type":"Feature","properties":{"ZIP":"H1L1J6"},"geometry":{"type":"Point","coordinates":[-73.528243,45.603614]}}]}