{"type":"FeatureCollection","features":[{"type":"Feature","properties":{"ZIP":"J1N0C7","VERTICES":18},"geometry":{"type":"Point","coordinates":[-72.0055925,45.329671000000005]}},{"type":"Feature","properties":{"ZIP":"J1N1V9","VERTICES":15},"geometry":{"type":"Point","coordinates":[-71.98607200000001,45.380631]}},{"type":"Feature","properties":{"ZIP":"J1N4B9","VERTICES":15},"geometry":{"type":"Point","coordinates":[-71.977123,45.3822945]}},{"type":"Feature","properties":{"ZIP":"J1N0G9","VERTICES":14},"geometry":{"type":"Point","coordinates":[-72.087974,45.327873]}},{"type":"Feature","properties":{"ZIP":"J1N1N6","VERTICES":13},"geometry":{"type":"Point","coordinates":[-71.9845495,45.377033499999996]}},{"type":"Feature","properties":{"ZIP":"J1N2K2","VERTICES":13},"geometry":{"type":"Point","coordinates":[-71.991151,45.356448]}},{"type":"Feature","properties":{"ZIP":"J1N2B4","VERTICES":13},"geometry":{"type":"Point","coordinates":[-71.9679495,45.373408999999995]}},{"type":"Feature","properties":{"ZIP":"J1N2C7","VERTICES":13},"geometry":{"type":"Point","coordinates":[-71.9840495,45.3707965]}},{"type":"Feature","properties":{"ZIP":"J1N2M1","VERTICES":13},"geometry":{"type":"Point","coordinates":[-71.99814549999999,45.359812000000005]}},{"type":"Feature","properties":{"ZIP":"J1N4B6","VERTICES":13},"geometry":{"type":"Point","coordinates":[-71.99639250000001,45.35377149999999]}},{"type":"Feature","properties":{"ZIP":"J1N1W2","VERTICES":13},"geometry":{"type":"Point","coordinates":[-71.98719700000001,45.380199]}},{"type":"Feature","properties":{"ZIP":"J1N2M2","VERTICES":13},"geometry":{"type":"Point","coordinates":[-71.999563,45.360406]}},{"type":"Feature","properties":{"ZIP":"J1N3P8","VERTICES":13},"geometry":{"type":"Point","coordinates":[-72.002402,45.341643]}},{"type":"Feature","properties":{"ZIP":"J1N4A6","VERTICES":12},"geometry":{"type":"Point","coordinates":[-71.979518,45.383389]}},{"type":"Feature","properties":{"ZIP":"J1N2K3","VERTICES":12},"geometry":{"type":"Point","coordinates":[-71.99164350000001,45.3568065]}},{"type":"Feature","properties":{"ZIP":"J1N3Z1","VERTICES":12},"geometry":{"type":"Point","coordinates":[-72.0029435,45.357379]}},{"type":"Feature","properties":{"ZIP":"J1N3W3","VERTICES":12},"geometry":{"type":"Point","coordinates":[-71.9921115,45.353491]}},{"type":"Feature","properties":{"ZIP":"J1N1R6","VERTICES":12},"geometry":{"type":"Point","coordinates":[-71.9882675,45.383349]}},{"type":"Feature","properties":{"ZIP":"J1N3B6","VERTICES":12},"geometry":{"type":"Point","coordinates":[-71.9674805,45.3652345]}},{"type":"Feature","properties":{"ZIP":"J1N3H7","VERTICES":12},"geometry":{"type":"Point","coordinates":[-72.0474915,45.307716]}},{"type":"Feature","properties":{"ZIP":"J1N2J9","VERTICES":12},"geometry":{"type":"Point","coordinates":[-71.988519,45.357034]}},{"type":"Feature","properties":{"ZIP":"J1N1V4","VERTICES":12},"geometry":{"type":"Point","coordinates":[-71.983227,45.3835655]}},{"type":"Feature","properties":{"ZIP":"J1N3N9","VERTICES":11},"geometry":{"type":"Point","coordinates":[-72.0189755,45.338685]}},{"type":"Feature","properties":{"ZIP":"J1N2B2","VERTICES":11},"geometry":{"type":"Point","coordinates":[-71.968741,45.371145]}},{"type":"Feature","properties":{"ZIP":"J1N2H8","VERTICES":11},"geometry":{"type":"Point","coordinates":[-71.982472,45.3656885]}},{"type":"Feature","properties":{"ZIP":"J1N2Z5","VERTICES":11},"geometry":{"type":"Point","coordinates":[-71.9875625,45.343630000000005]}},{"type":"Feature","properties":{"ZIP":"J1N1N7","VERTICES":11},"geometry":{"type":"Point","coordinates":[-71.98397650000001,45.3773125]}},{"type":"Feature","properties":{"ZIP":"J1N2G6","VERTICES":11},"geometry":{"type":"Point","coordinates":[-71.983232,45.374254]}},{"type":"Feature","properties":{"ZIP":"J1N2H9","VERTICES":11},"geometry":{"type":"Point","coordinates":[-71.9858855,45.365667]}},{"type":"Feature","properties":{"ZIP":"J1N1H3","VERTICES":11},"geometry":{"type":"Point","coordinates":[-72.00854799999999,45.3598535]}},{"type":"Feature","properties":{"ZIP":"J1N2N1","VERTICES":11},"geometry":{"type":"Point","coordinates":[-71.9983575,45.358909999999995]}},{"type":"Feature","properties":{"ZIP":"J1N2W6","VERTICES":11},"geometry":{"type":"Point","coordinates":[-71.96053,45.369017]}},{"type":"Feature","properties":{"ZIP":"J1N4A9","VERTICES":11},"geometry":{"type":"Point","coordinates":[-71.979011,45.3833935]}},{"type":"Feature","properties":{"ZIP":"J1N2A1","VERTICES":11},"geometry":{"type":"Point","coordinates":[-71.961431,45.374037]}},{"type":"Feature","properties":{"ZIP":"J1N4K3","VERTICES":11},"geometry":{"type":"Point","coordinates":[-71.98281750000001,45.386084499999996]}},{"type":"Feature","properties":{"ZIP":"J1N1X7","VERTICES":11},"geometry":{"type":"Point","coordinates":[-71.96561399999999,45.382153]}},{"type":"Feature","properties":{"ZIP":"J1N2B5","VERTICES":11},"geometry":{"type":"Point","coordinates":[-71.96795750000001,45.373337]}},{"type":"Feature","properties":{"ZIP":"J1N3R7","VERTICES":11},"geometry":{"type":"Point","coordinates":[-71.989063,45.3606695]}},{"type":"Feature","properties":{"ZIP":"J1N2N4","VERTICES":11},"geometry":{"type":"Point","coordinates":[-71.991188,45.35484]}},{"type":"Feature","properties":{"ZIP":"J1N3W5","VERTICES":11},"geometry":{"type":"Point","coordinates":[-71.947401,45.367458]}},{"type":"Feature","properties":{"ZIP":"J1N4J5","VERTICES":11},"geometry":{"type":"Point","coordinates":[-71.99232,45.383472999999995]}},{"type":"Feature","properties":{"ZIP":"J1N0A4","VERTICES":11},"geometry":{"type":"Point","coordinates":[-71.98918499999999,45.386019000000005]}},{"type":"Feature","properties":{"ZIP":"J1N2S1","VERTICES":11},"geometry":{"type":"Point","coordinates":[-71.9767065,45.355933]}},{"type":"Feature","properties":{"ZIP":"J1N3V6","VERTICES":11},"geometry":{"type":"Point","coordinates":[-71.9959295,45.363175]}},{"type":"Feature","properties":{"ZIP":"J1N2S2","VERTICES":11},"geometry":{"type":"Point","coordinates":[-71.972042,45.357682499999996]}},{"type":"Feature","properties":{"ZIP":"J1N1W5","VERTICES":11},"geometry":{"type":"Point","coordinates":[-71.9836975,45.378857499999995]}},{"type":"Feature","properties":{"ZIP":"J1N3A7","VERTICES":11},"geometry":{"type":"Point","coordinates":[-72.01287099999999,45.3372685]}},{"type":"Feature","properties":{"ZIP":"J1N3Y4","VERTICES":10},"geometry":{"type":"Point","coordinates":[-71.97901200000001,45.3701585]}},{"type":"Feature","properties":{"ZIP":"J1N4L2","VERTICES":10},"geometry":{"type":"Point","coordinates":[-71.98935349999999,45.36261450000001]}},{"type":"Feature","properties":{"ZIP":"J1N2L5","VERTICES":10},"geometry":{"type":"Point","coordinates":[-71.9954615,45.3613195]}},{"type":"Feature","properties":{"ZIP":"J1N0C5","VERTICES":10},"geometry":{"type":"Point","coordinates":[-71.9686035,45.335711]}},{"type":"Feature","properties":{"ZIP":"J1N4G3","VERTICES":10},"geometry":{"type":"Point","coordinates":[-71.989968,45.3659895]}},{"type":"Feature","properties":{"ZIP":"J1N1Y6","VERTICES":10},"geometry":{"type":"Point","coordinates":[-71.9649475,45.376182]}},{"type":"Feature","properties":{"ZIP":"J1N2R2","VERTICES":10},"geometry":{"type":"Point","coordinates":[-72.0233635,45.349759]}},{"type":"Feature","properties":{"ZIP":"J1N3J1","VERTICES":10},"geometry":{"type":"Point","coordinates":[-72.04743049999999,45.310591]}},{"type":"Feature","properties":{"ZIP":"J1N4C6","VERTICES":10},"geometry":{"type":"Point","coordinates":[-72.0391025,45.3524245]}},{"type":"Feature","properties":{"ZIP":"J1N3T5","VERTICES":10},"geometry":{"type":"Point","coordinates":[-71.9823825,45.383073499999995]}},{"type":"Feature","properties":{"ZIP":"J1N3P2","VERTICES":10},"geometry":{"type":"Point","coordinates":[-72.000527,45.3413915]}},{"type":"Feature","properties":{"ZIP":"J1N3W1","VERTICES":10},"geometry":{"type":"Point","coordinates":[-72.00528349999999,45.35759]}},{"type":"Feature","properties":{"ZIP":"J1N4H6","VERTICES":10},"geometry":{"type":"Point","coordinates":[-71.955544,45.369487]}},{"type":"Feature","properties":{"ZIP":"J1N2V4","VERTICES":10},"geometry":{"type":"Point","coordinates":[-71.9657435,45.357096999999996]}},{"type":"Feature","properties":{"ZIP":"J1N1L3","VERTICES":10},"geometry":{"type":"Point","coordinates":[-71.9917925,45.376062000000005]}},{"type":"Feature","properties":{"ZIP":"J1N3W2","VERTICES":10},"geometry":{"type":"Point","coordinates":[-72.0065455,45.358958]}},{"type":"Feature","properties":{"ZIP":"J1N2Y3","VERTICES":10},"geometry":{"type":"Point","coordinates":[-71.954899,45.367871]}},{"type":"Feature","properties":{"ZIP":"J1N3E4","VERTICES":10},"geometry":{"type":"Point","coordinates":[-71.9975035,45.358063]}},{"type":"Feature","properties":{"ZIP":"J1N3R6","VERTICES":10},"geometry":{"type":"Point","coordinates":[-71.9896035,45.3609195]}},{"type":"Feature","properties":{"ZIP":"J1N2W7","VERTICES":10},"geometry":{"type":"Point","coordinates":[-71.9600275,45.369480499999995]}},{"type":"Feature","properties":{"ZIP":"J1N2G9","VERTICES":10},"geometry":{"type":"Point","coordinates":[-71.9857945,45.369343]}},{"type":"Feature","properties":{"ZIP":"J1N1X8","VERTICES":10},"geometry":{"type":"Point","coordinates":[-71.968325,45.3797975]}},{"type":"Feature","properties":{"ZIP":"J1N2N3","VERTICES":10},"geometry":{"type":"Point","coordinates":[-71.994772,45.356930500000004]}},{"type":"Feature","properties":{"ZIP":"J1N2H1","VERTICES":10},"geometry":{"type":"Point","coordinates":[-71.984865,45.368511]}},{"type":"Feature","properties":{"ZIP":"J1N2Y5","VERTICES":10},"geometry":{"type":"Point","coordinates":[-71.946071,45.3508355]}},{"type":"Feature","properties":{"ZIP":"J1N1N1","VERTICES":10},"geometry":{"type":"Point","coordinates":[-71.9874045,45.3785205]}},{"type":"Feature","properties":{"ZIP":"J1N4E4","VERTICES":10},"geometry":{"type":"Point","coordinates":[-71.9823245,45.366825]}},{"type":"Feature","properties":{"ZIP":"J1N1J2","VERTICES":10},"geometry":{"type":"Point","coordinates":[-71.99585049999999,45.370413]}},{"type":"Feature","properties":{"ZIP":"J1N2V8","VERTICES":10},"geometry":{"type":"Point","coordinates":[-71.9578515,45.359579499999995]}},{"type":"Feature","properties":{"ZIP":"J1N3H5","VERTICES":10},"geometry":{"type":"Point","coordinates":[-72.0504435,45.302532]}},{"type":"Feature","properties":{"ZIP":"J1N0A2","VERTICES":10},"geometry":{"type":"Point","coordinates":[-71.9987595,45.3530545]}},{"type":"Feature","properties":{"ZIP":"J1N2H3","VERTICES":10},"geometry":{"type":"Point","coordinates":[-71.9847065,45.3685845]}},{"type":"Feature","properties":{"ZIP":"J1N2M3","VERTICES":10},"geometry":{"type":"Point","coordinates":[-71.999137,45.3597325]}},{"type":"Feature","properties":{"ZIP":"J1N3H6","VERTICES":10},"geometry":{"type":"Point","coordinates":[-72.049275,45.3057185]}},{"type":"Feature","properties":{"ZIP":"J1N2J8","VERTICES":10},"geometry":{"type":"Point","coordinates":[-71.987853,45.357812499999994]}},{"type":"Feature","properties":{"ZIP":"J1N2X6","VERTICES":10},"geometry":{"type":"Point","coordinates":[-71.9432915,45.365154000000004]}},{"type":"Feature","properties":{"ZIP":"J1N3W8","VERTICES":10},"geometry":{"type":"Point","coordinates":[-71.986588,45.38361]}},{"type":"Feature","properties":{"ZIP":"J1N4C2","VERTICES":10},"geometry":{"type":"Point","coordinates":[-71.9991295,45.3539405]}},{"type":"Feature","properties":{"ZIP":"J1N2H6","VERTICES":9},"geometry":{"type":"Point","coordinates":[-71.9855905,45.367804500000005]}},{"type":"Feature","properties":{"ZIP":"J1N2Z4","VERTICES":9},"geometry":{"type":"Point","coordinates":[-71.989301,45.343723499999996]}},{"type":"Feature","properties":{"ZIP":"J1N3T2","VERTICES":9},"geometry":{"type":"Point","coordinates":[-71.990704,45.3644385]}},{"type":"Feature","properties":{"ZIP":"J1N1S4","VERTICES":9},"geometry":{"type":"Point","coordinates":[-71.9729355,45.3800525]}},{"type":"Feature","properties":{"ZIP":"J1N1Y5","VERTICES":9},"geometry":{"type":"Point","coordinates":[-71.96974349999999,45.377359]}},{"type":"Feature","properties":{"ZIP":"J1N2R1","VERTICES":9},"geometry":{"type":"Point","coordinates":[-72.0260995,45.348543]}},{"type":"Feature","properties":{"ZIP":"J1N3A8","VERTICES":9},"geometry":{"type":"Point","coordinates":[-72.0131815,45.337284999999994]}},{"type":"Feature","properties":{"ZIP":"J1N3K2","VERTICES":9},"geometry":{"type":"Point","coordinates":[-72.046329,45.339504000000005]}},{"type":"Feature","properties":{"ZIP":"J1N3T3","VERTICES":9},"geometry":{"type":"Point","coordinates":[-72.02432,45.3104935]}},{"type":"Feature","properties":{"ZIP":"J1N0H4","VERTICES":9},"geometry":{"type":"Point","coordinates":[-72.046543,45.3277665]}},{"type":"Feature","properties":{"ZIP":"J1N1Z8","VERTICES":9},"geometry":{"type":"Point","coordinates":[-71.9662385,45.37491]}},{"type":"Feature","properties":{"ZIP":"J1N3X2","VERTICES":9},"geometry":{"type":"Point","coordinates":[-72.0014055,45.357742]}},{"type":"Feature","properties":{"ZIP":"J1N1R3","VERTICES":9},"geometry":{"type":"Point","coordinates":[-71.99088449999999,45.381252]}},{"type":"Feature","properties":{"ZIP":"J1N1Y7","VERTICES":9},"geometry":{"type":"Point","coordinates":[-71.96391,45.378317499999994]}},{"type":"Feature","properties":{"ZIP":"J1N3B1","VERTICES":9},"geometry":{"type":"Point","coordinates":[-72.013515,45.3369495]}},{"type":"Feature","properties":{"ZIP":"J1N1V7","VERTICES":9},"geometry":{"type":"Point","coordinates":[-71.982234,45.3807665]}},{"type":"Feature","properties":{"ZIP":"J1N4C9","VERTICES":9},"geometry":{"type":"Point","coordinates":[-71.98813,45.3688]}},{"type":"Feature","properties":{"ZIP":"J1N0K7","VERTICES":9},"geometry":{"type":"Point","coordinates":[-71.9967445,45.352443]}},{"type":"Feature","properties":{"ZIP":"J1N2K4","VERTICES":9},"geometry":{"type":"Point","coordinates":[-71.99371,45.356903]}},{"type":"Feature","properties":{"ZIP":"J1N3B2","VERTICES":9},"geometry":{"type":"Point","coordinates":[-72.0036905,45.3375705]}},{"type":"Feature","properties":{"ZIP":"J1N0H6","VERTICES":9},"geometry":{"type":"Point","coordinates":[-71.9925385,45.386135]}},{"type":"Feature","properties":{"ZIP":"J1N1P3","VERTICES":9},"geometry":{"type":"Point","coordinates":[-71.9860565,45.3741855]}},{"type":"Feature","properties":{"ZIP":"J1N4E1","VERTICES":9},"geometry":{"type":"Point","coordinates":[-71.9869805,45.386125500000006]}},{"type":"Feature","properties":{"ZIP":"J1N0C8","VERTICES":9},"geometry":{"type":"Point","coordinates":[-71.982651,45.341545499999995]}},{"type":"Feature","properties":{"ZIP":"J1N2N2","VERTICES":9},"geometry":{"type":"Point","coordinates":[-71.9966575,45.3586245]}},{"type":"Feature","properties":{"ZIP":"J1N1L4","VERTICES":9},"geometry":{"type":"Point","coordinates":[-71.99255450000001,45.377452]}},{"type":"Feature","properties":{"ZIP":"J1N1Y9","VERTICES":9},"geometry":{"type":"Point","coordinates":[-71.967879,45.3779295]}},{"type":"Feature","properties":{"ZIP":"J1N4B1","VERTICES":9},"geometry":{"type":"Point","coordinates":[-72.082532,45.3218145]}},{"type":"Feature","properties":{"ZIP":"J1N0H7","VERTICES":9},"geometry":{"type":"Point","coordinates":[-71.957033,45.352824999999996]}},{"type":"Feature","properties":{"ZIP":"J1N4K4","VERTICES":9},"geometry":{"type":"Point","coordinates":[-71.9820875,45.385244]}},{"type":"Feature","properties":{"ZIP":"J1N2B6","VERTICES":9},"geometry":{"type":"Point","coordinates":[-71.970891,45.373435]}},{"type":"Feature","properties":{"ZIP":"J1N2V6","VERTICES":9},"geometry":{"type":"Point","coordinates":[-71.941674,45.406348]}},{"type":"Feature","properties":{"ZIP":"J1N0G4","VERTICES":9},"geometry":{"type":"Point","coordinates":[-72.050286,45.3485565]}},{"type":"Feature","properties":{"ZIP":"J1N1M9","VERTICES":9},"geometry":{"type":"Point","coordinates":[-71.98745199999999,45.377543]}},{"type":"Feature","properties":{"ZIP":"J1N2C8","VERTICES":9},"geometry":{"type":"Point","coordinates":[-71.9881135,45.367122499999994]}},{"type":"Feature","properties":{"ZIP":"J1N4B5","VERTICES":9},"geometry":{"type":"Point","coordinates":[-72.01727550000001,45.340479]}},{"type":"Feature","properties":{"ZIP":"J1N3A2","VERTICES":9},"geometry":{"type":"Point","coordinates":[-72.02520849999999,45.3106585]}},{"type":"Feature","properties":{"ZIP":"J1N3H4","VERTICES":9},"geometry":{"type":"Point","coordinates":[-72.0476745,45.324276499999996]}},{"type":"Feature","properties":{"ZIP":"J1N3T9","VERTICES":9},"geometry":{"type":"Point","coordinates":[-71.996847,45.371326499999995]}},{"type":"Feature","properties":{"ZIP":"J1N1T1","VERTICES":9},"geometry":{"type":"Point","coordinates":[-71.9763815,45.381447]}},{"type":"Feature","properties":{"ZIP":"J1N1R8","VERTICES":9},"geometry":{"type":"Point","coordinates":[-71.9892625,45.3811925]}},{"type":"Feature","properties":{"ZIP":"J1N2B8","VERTICES":9},"geometry":{"type":"Point","coordinates":[-71.9752465,45.372949500000004]}},{"type":"Feature","properties":{"ZIP":"J1N3A4","VERTICES":9},"geometry":{"type":"Point","coordinates":[-71.9986355,45.3354985]}},{"type":"Feature","properties":{"ZIP":"J1N3N2","VERTICES":9},"geometry":{"type":"Point","coordinates":[-71.88723,45.412944499999995]}},{"type":"Feature","properties":{"ZIP":"J1N4G9","VERTICES":9},"geometry":{"type":"Point","coordinates":[-71.98992899999999,45.3626025]}},{"type":"Feature","properties":{"ZIP":"J1N3J7","VERTICES":9},"geometry":{"type":"Point","coordinates":[-72.04723949999999,45.331483000000006]}},{"type":"Feature","properties":{"ZIP":"J1N0J5","VERTICES":9},"geometry":{"type":"Point","coordinates":[-71.95687699999999,45.366750499999995]}},{"type":"Feature","properties":{"ZIP":"J1N3X9","VERTICES":9},"geometry":{"type":"Point","coordinates":[-71.9492665,45.351414500000004]}},{"type":"Feature","properties":{"ZIP":"J1N4E5","VERTICES":9},"geometry":{"type":"Point","coordinates":[-71.99025750000001,45.383742]}},{"type":"Feature","properties":{"ZIP":"J1N4K8","VERTICES":9},"geometry":{"type":"Point","coordinates":[-71.9916045,45.385740999999996]}},{"type":"Feature","properties":{"ZIP":"J1N1Y2","VERTICES":9},"geometry":{"type":"Point","coordinates":[-71.9679455,45.381065500000005]}},{"type":"Feature","properties":{"ZIP":"J1N2B9","VERTICES":9},"geometry":{"type":"Point","coordinates":[-71.9752515,45.370999499999996]}},{"type":"Feature","properties":{"ZIP":"J1N1N3","VERTICES":9},"geometry":{"type":"Point","coordinates":[-71.9828335,45.377838]}},{"type":"Feature","properties":{"ZIP":"J1N1P8","VERTICES":9},"geometry":{"type":"Point","coordinates":[-71.990793,45.379239]}},{"type":"Feature","properties":{"ZIP":"J1N2H4","VERTICES":9},"geometry":{"type":"Point","coordinates":[-71.9846605,45.368657999999996]}},{"type":"Feature","properties":{"ZIP":"J1N4K9","VERTICES":9},"geometry":{"type":"Point","coordinates":[-72.004752,45.358421]}},{"type":"Feature","properties":{"ZIP":"J1N3A6","VERTICES":9},"geometry":{"type":"Point","coordinates":[-72.00364250000001,45.33755]}},{"type":"Feature","properties":{"ZIP":"J1N3N7","VERTICES":9},"geometry":{"type":"Point","coordinates":[-72.0223755,45.336043000000004]}},{"type":"Feature","properties":{"ZIP":"J1N1Z5","VERTICES":9},"geometry":{"type":"Point","coordinates":[-71.9738505,45.377482]}},{"type":"Feature","properties":{"ZIP":"J1N1P9","VERTICES":9},"geometry":{"type":"Point","coordinates":[-71.991113,45.378073]}},{"type":"Feature","properties":{"ZIP":"J1N2M5","VERTICES":9},"geometry":{"type":"Point","coordinates":[-72.0029445,45.360723]}},{"type":"Feature","properties":{"ZIP":"J1N3G5","VERTICES":9},"geometry":{"type":"Point","coordinates":[-72.0523215,45.335024000000004]}},{"type":"Feature","properties":{"ZIP":"J1N4E7","VERTICES":9},"geometry":{"type":"Point","coordinates":[-71.961566,45.3738885]}},{"type":"Feature","properties":{"ZIP":"J1N4L1","VERTICES":9},"geometry":{"type":"Point","coordinates":[-72.06137799999999,45.335088999999996]}},{"type":"Feature","properties":{"ZIP":"J1N0E7","VERTICES":9},"geometry":{"type":"Point","coordinates":[-71.99211199999999,45.3196475]}},{"type":"Feature","properties":{"ZIP":"J1N1Y4","VERTICES":9},"geometry":{"type":"Point","coordinates":[-71.97138000000001,45.3784235]}},{"type":"Feature","properties":{"ZIP":"J1N2L4","VERTICES":9},"geometry":{"type":"Point","coordinates":[-71.997895,45.361501]}},{"type":"Feature","properties":{"ZIP":"J1N2X7","VERTICES":9},"geometry":{"type":"Point","coordinates":[-71.9438315,45.3638375]}},{"type":"Feature","properties":{"ZIP":"J1N1R1","VERTICES":8},"geometry":{"type":"Point","coordinates":[-71.99173,45.379047]}},{"type":"Feature","properties":{"ZIP":"J1N2C3","VERTICES":8},"geometry":{"type":"Point","coordinates":[-71.97985600000001,45.3725115]}},{"type":"Feature","properties":{"ZIP":"J1N1Z7","VERTICES":8},"geometry":{"type":"Point","coordinates":[-71.9721895,45.3750795]}},{"type":"Feature","properties":{"ZIP":"J1N2S4","VERTICES":8},"geometry":{"type":"Point","coordinates":[-71.962608,45.3722075]}},{"type":"Feature","properties":{"ZIP":"J1N3R3","VERTICES":8},"geometry":{"type":"Point","coordinates":[-72.035916,45.339583]}},{"type":"Feature","properties":{"ZIP":"J1N4C4","VERTICES":8},"geometry":{"type":"Point","coordinates":[-71.9862935,45.3856355]}},{"type":"Feature","properties":{"ZIP":"J1N0K2","VERTICES":8},"geometry":{"type":"Point","coordinates":[-71.952732,45.3666735]}},{"type":"Feature","properties":{"ZIP":"J1N3Y7","VERTICES":8},"geometry":{"type":"Point","coordinates":[-71.9533805,45.369687]}},{"type":"Feature","properties":{"ZIP":"J1N1S5","VERTICES":8},"geometry":{"type":"Point","coordinates":[-71.9746925,45.380905]}},{"type":"Feature","properties":{"ZIP":"J1N2C4","VERTICES":8},"geometry":{"type":"Point","coordinates":[-71.9820995,45.3726975]}},{"type":"Feature","properties":{"ZIP":"J1N3P1","VERTICES":8},"geometry":{"type":"Point","coordinates":[-72.00802300000001,45.341377]}},{"type":"Feature","properties":{"ZIP":"J1N3V9","VERTICES":8},"geometry":{"type":"Point","coordinates":[-72.010872,45.342631]}},{"type":"Feature","properties":{"ZIP":"J1N2L6","VERTICES":8},"geometry":{"type":"Point","coordinates":[-71.99645100000001,45.3606835]}},{"type":"Feature","properties":{"ZIP":"J1N2X9","VERTICES":8},"geometry":{"type":"Point","coordinates":[-71.93675999999999,45.36426]}},{"type":"Feature","properties":{"ZIP":"J1N3R4","VERTICES":8},"geometry":{"type":"Point","coordinates":[-72.038837,45.339637999999994]}},{"type":"Feature","properties":{"ZIP":"J1N3G8","VERTICES":8},"geometry":{"type":"Point","coordinates":[-72.0617755,45.3315315]}},{"type":"Feature","properties":{"ZIP":"J1N1L2","VERTICES":8},"geometry":{"type":"Point","coordinates":[-71.990622,45.376442]}},{"type":"Feature","properties":{"ZIP":"J1N2C5","VERTICES":8},"geometry":{"type":"Point","coordinates":[-71.9792545,45.3720925]}},{"type":"Feature","properties":{"ZIP":"J1N2W5","VERTICES":8},"geometry":{"type":"Point","coordinates":[-71.959994,45.368329]}},{"type":"Feature","properties":{"ZIP":"J1N0B2","VERTICES":8},"geometry":{"type":"Point","coordinates":[-72.0023215,45.349307499999995]}},{"type":"Feature","properties":{"ZIP":"J1N1N8","VERTICES":8},"geometry":{"type":"Point","coordinates":[-71.98342,45.377219499999995]}},{"type":"Feature","properties":{"ZIP":"J1N2G7","VERTICES":8},"geometry":{"type":"Point","coordinates":[-71.98681099999999,45.3690305]}},{"type":"Feature","properties":{"ZIP":"J1N2S6","VERTICES":8},"geometry":{"type":"Point","coordinates":[-71.98843149999999,45.3520475]}},{"type":"Feature","properties":{"ZIP":"J1N4G5","VERTICES":8},"geometry":{"type":"Point","coordinates":[-71.9873265,45.386388499999995]}},{"type":"Feature","properties":{"ZIP":"J1N2C6","VERTICES":8},"geometry":{"type":"Point","coordinates":[-71.980073,45.370118500000004]}},{"type":"Feature","properties":{"ZIP":"J1N2R4","VERTICES":8},"geometry":{"type":"Point","coordinates":[-72.019875,45.351069499999994]}},{"type":"Feature","properties":{"ZIP":"J1N1V8","VERTICES":8},"geometry":{"type":"Point","coordinates":[-71.984011,45.3796105]}},{"type":"Feature","properties":{"ZIP":"J1N2S8","VERTICES":8},"geometry":{"type":"Point","coordinates":[-71.9955475,45.3431095]}},{"type":"Feature","properties":{"ZIP":"J1N0K8","VERTICES":8},"geometry":{"type":"Point","coordinates":[-71.9967445,45.352443]}},{"type":"Feature","properties":{"ZIP":"J1N1R5","VERTICES":8},"geometry":{"type":"Point","coordinates":[-71.989746,45.382658]}},{"type":"Feature","properties":{"ZIP":"J1N3H1","VERTICES":8},"geometry":{"type":"Point","coordinates":[-72.04991100000001,45.333492]}},{"type":"Feature","properties":{"ZIP":"J1N3M5","VERTICES":8},"geometry":{"type":"Point","coordinates":[-71.88331550000001,45.4083495]}},{"type":"Feature","properties":{"ZIP":"J1N2R5","VERTICES":8},"geometry":{"type":"Point","coordinates":[-72.0011665,45.3503425]}},{"type":"Feature","properties":{"ZIP":"J1N1P4","VERTICES":8},"geometry":{"type":"Point","coordinates":[-71.98597649999999,45.375594500000005]}},{"type":"Feature","properties":{"ZIP":"J1N2A2","VERTICES":8},"geometry":{"type":"Point","coordinates":[-71.96904950000001,45.375142499999995]}},{"type":"Feature","properties":{"ZIP":"J1N3E5","VERTICES":8},"geometry":{"type":"Point","coordinates":[-71.9965335,45.3576075]}},{"type":"Feature","properties":{"ZIP":"J1N0L1","VERTICES":8},"geometry":{"type":"Point","coordinates":[-71.98165750000001,45.386145]}},{"type":"Feature","properties":{"ZIP":"J1N2J4","VERTICES":8},"geometry":{"type":"Point","coordinates":[-71.988276,45.361512]}},{"type":"Feature","properties":{"ZIP":"J1N3H3","VERTICES":8},"geometry":{"type":"Point","coordinates":[-72.0496435,45.332049]}},{"type":"Feature","properties":{"ZIP":"J1N3M9","VERTICES":8},"geometry":{"type":"Point","coordinates":[-72.03786099999999,45.3383925]}},{"type":"Feature","properties":{"ZIP":"J1N4G7","VERTICES":8},"geometry":{"type":"Point","coordinates":[-71.9824255,45.3686965]}},{"type":"Feature","properties":{"ZIP":"J1N1S9","VERTICES":8},"geometry":{"type":"Point","coordinates":[-71.9756505,45.381339499999996]}},{"type":"Feature","properties":{"ZIP":"J1N1Z1","VERTICES":8},"geometry":{"type":"Point","coordinates":[-71.9664995,45.377004]}},{"type":"Feature","properties":{"ZIP":"J1N2K6","VERTICES":8},"geometry":{"type":"Point","coordinates":[-71.99079499999999,45.369904500000004]}},{"type":"Feature","properties":{"ZIP":"J1N2R6","VERTICES":8},"geometry":{"type":"Point","coordinates":[-71.99520000000001,45.349211999999994]}},{"type":"Feature","properties":{"ZIP":"J1N3P5","VERTICES":8},"geometry":{"type":"Point","coordinates":[-71.995829,45.341757]}},{"type":"Feature","properties":{"ZIP":"J1N0B6","VERTICES":8},"geometry":{"type":"Point","coordinates":[-71.9427485,45.349648]}},{"type":"Feature","properties":{"ZIP":"J1N0J1","VERTICES":8},"geometry":{"type":"Point","coordinates":[-71.963779,45.371118499999994]}},{"type":"Feature","properties":{"ZIP":"J1N1P5","VERTICES":8},"geometry":{"type":"Point","coordinates":[-71.98884799999999,45.377739000000005]}},{"type":"Feature","properties":{"ZIP":"J1N1W1","VERTICES":8},"geometry":{"type":"Point","coordinates":[-71.987189,45.3809805]}},{"type":"Feature","properties":{"ZIP":"J1N3E7","VERTICES":8},"geometry":{"type":"Point","coordinates":[-71.997484,45.357254999999995]}},{"type":"Feature","properties":{"ZIP":"J1N4K5","VERTICES":8},"geometry":{"type":"Point","coordinates":[-71.99804449999999,45.362483]}},{"type":"Feature","properties":{"ZIP":"J1N0L2","VERTICES":8},"geometry":{"type":"Point","coordinates":[-71.98165900000001,45.3862335]}},{"type":"Feature","properties":{"ZIP":"J1N1X9","VERTICES":8},"geometry":{"type":"Point","coordinates":[-71.967619,45.380317000000005]}},{"type":"Feature","properties":{"ZIP":"J1N0N9","VERTICES":8},"geometry":{"type":"Point","coordinates":[-71.99311,45.3871855]}},{"type":"Feature","properties":{"ZIP":"J1N1Z2","VERTICES":8},"geometry":{"type":"Point","coordinates":[-71.969401,45.377375]}},{"type":"Feature","properties":{"ZIP":"J1N2K7","VERTICES":8},"geometry":{"type":"Point","coordinates":[-71.99036,45.370085]}},{"type":"Feature","properties":{"ZIP":"J1N3P6","VERTICES":8},"geometry":{"type":"Point","coordinates":[-71.9957105,45.3416685]}},{"type":"Feature","properties":{"ZIP":"J1N2H2","VERTICES":8},"geometry":{"type":"Point","coordinates":[-71.983811,45.368652999999995]}},{"type":"Feature","properties":{"ZIP":"J1N3S6","VERTICES":8},"geometry":{"type":"Point","coordinates":[-71.952286,45.367366]}},{"type":"Feature","properties":{"ZIP":"J1N1N2","VERTICES":8},"geometry":{"type":"Point","coordinates":[-71.983567,45.3781205]}},{"type":"Feature","properties":{"ZIP":"J1N3W6","VERTICES":8},"geometry":{"type":"Point","coordinates":[-71.9489195,45.366436500000006]}},{"type":"Feature","properties":{"ZIP":"J1N4B8","VERTICES":8},"geometry":{"type":"Point","coordinates":[-71.9850305,45.3852775]}},{"type":"Feature","properties":{"ZIP":"J1N1P7","VERTICES":8},"geometry":{"type":"Point","coordinates":[-71.99308400000001,45.38225]}},{"type":"Feature","properties":{"ZIP":"J1N4A2","VERTICES":8},"geometry":{"type":"Point","coordinates":[-72.09530050000001,45.306917999999996]}},{"type":"Feature","properties":{"ZIP":"J1N2X5","VERTICES":8},"geometry":{"type":"Point","coordinates":[-71.9395995,45.3648825]}},{"type":"Feature","properties":{"ZIP":"J1N0J6","VERTICES":8},"geometry":{"type":"Point","coordinates":[-71.956909,45.366754]}},{"type":"Feature","properties":{"ZIP":"J1N1W4","VERTICES":8},"geometry":{"type":"Point","coordinates":[-71.982688,45.3788205]}},{"type":"Feature","properties":{"ZIP":"J1N0L9","VERTICES":8},"geometry":{"type":"Point","coordinates":[-71.9870815,45.362406500000006]}},{"type":"Feature","properties":{"ZIP":"J1N2P5","VERTICES":8},"geometry":{"type":"Point","coordinates":[-71.9922675,45.3540555]}},{"type":"Feature","properties":{"ZIP":"J1N2W1","VERTICES":8},"geometry":{"type":"Point","coordinates":[-71.9634935,45.3631035]}},{"type":"Feature","properties":{"ZIP":"J1N0A5","VERTICES":8},"geometry":{"type":"Point","coordinates":[-72.002189,45.3726535]}},{"type":"Feature","properties":{"ZIP":"J1N2L2","VERTICES":8},"geometry":{"type":"Point","coordinates":[-71.9954735,45.3629665]}},{"type":"Feature","properties":{"ZIP":"J1N3B8","VERTICES":8},"geometry":{"type":"Point","coordinates":[-71.991916,45.3117855]}},{"type":"Feature","properties":{"ZIP":"J1N0J9","VERTICES":8},"geometry":{"type":"Point","coordinates":[-71.9912075,45.3846435]}},{"type":"Feature","properties":{"ZIP":"J1N2T9","VERTICES":8},"geometry":{"type":"Point","coordinates":[-71.98517799999999,45.351909500000005]}},{"type":"Feature","properties":{"ZIP":"J1N2Z2","VERTICES":8},"geometry":{"type":"Point","coordinates":[-71.97241600000001,45.335236]}},{"type":"Feature","properties":{"ZIP":"J1N3T1","VERTICES":8},"geometry":{"type":"Point","coordinates":[-71.9908705,45.3662355]}},{"type":"Feature","properties":{"ZIP":"J1N2C2","VERTICES":8},"geometry":{"type":"Point","coordinates":[-71.977042,45.372048500000005]}},{"type":"Feature","properties":{"ZIP":"J1N4A4","VERTICES":8},"geometry":{"type":"Point","coordinates":[-72.0151465,45.3364155]}},{"type":"Feature","properties":{"ZIP":"J1N4C3","VERTICES":8},"geometry":{"type":"Point","coordinates":[-71.981741,45.367145]}},{"type":"Feature","properties":{"ZIP":"J1N4J8","VERTICES":8},"geometry":{"type":"Point","coordinates":[-71.973969,45.3606985]}},{"type":"Feature","properties":{"ZIP":"J1N0K1","VERTICES":7},"geometry":{"type":"Point","coordinates":[-71.9553645,45.366754]}},{"type":"Feature","properties":{"ZIP":"J1N2M7","VERTICES":7},"geometry":{"type":"Point","coordinates":[-72.0064975,45.358984500000005]}},{"type":"Feature","properties":{"ZIP":"J1N2V1","VERTICES":7},"geometry":{"type":"Point","coordinates":[-71.9821135,45.353131]}},{"type":"Feature","properties":{"ZIP":"J1N3H9","VERTICES":7},"geometry":{"type":"Point","coordinates":[-72.04825149999999,45.3083765]}},{"type":"Feature","properties":{"ZIP":"J1N3V8","VERTICES":7},"geometry":{"type":"Point","coordinates":[-71.9403015,45.361014499999996]}},{"type":"Feature","properties":{"ZIP":"J1N4H4","VERTICES":7},"geometry":{"type":"Point","coordinates":[-71.98414550000001,45.386102]}},{"type":"Feature","properties":{"ZIP":"J1N1V5","VERTICES":7},"geometry":{"type":"Point","coordinates":[-71.98359149999999,45.3835435]}},{"type":"Feature","properties":{"ZIP":"J1N3C4","VERTICES":7},"geometry":{"type":"Point","coordinates":[-71.98444,45.3661115]}},{"type":"Feature","properties":{"ZIP":"J1N1R2","VERTICES":7},"geometry":{"type":"Point","coordinates":[-71.9910715,45.3805225]}},{"type":"Feature","properties":{"ZIP":"J1N2M8","VERTICES":7},"geometry":{"type":"Point","coordinates":[-72.0047585,45.3593895]}},{"type":"Feature","properties":{"ZIP":"J1N3G7","VERTICES":7},"geometry":{"type":"Point","coordinates":[-72.05534,45.33046]}},{"type":"Feature","properties":{"ZIP":"J1N3M2","VERTICES":7},"geometry":{"type":"Point","coordinates":[-72.039936,45.342906]}},{"type":"Feature","properties":{"ZIP":"J1N0E9","VERTICES":7},"geometry":{"type":"Point","coordinates":[-72.008565,45.3132375]}},{"type":"Feature","properties":{"ZIP":"J1N0M4","VERTICES":7},"geometry":{"type":"Point","coordinates":[-71.9731065,45.372209]}},{"type":"Feature","properties":{"ZIP":"J1N2W4","VERTICES":7},"geometry":{"type":"Point","coordinates":[-71.960128,45.3677215]}},{"type":"Feature","properties":{"ZIP":"J1N1V6","VERTICES":7},"geometry":{"type":"Point","coordinates":[-71.98385200000001,45.3822595]}},{"type":"Feature","properties":{"ZIP":"J1N0C6","VERTICES":7},"geometry":{"type":"Point","coordinates":[-71.95840150000001,45.36883]}},{"type":"Feature","properties":{"ZIP":"J1N2B3","VERTICES":7},"geometry":{"type":"Point","coordinates":[-71.966869,45.372415000000004]}},{"type":"Feature","properties":{"ZIP":"J1N4G4","VERTICES":7},"geometry":{"type":"Point","coordinates":[-71.989995,45.386179]}},{"type":"Feature","properties":{"ZIP":"J1N0M7","VERTICES":7},"geometry":{"type":"Point","coordinates":[-71.8353485,45.428002500000005]}},{"type":"Feature","properties":{"ZIP":"J1N4A8","VERTICES":7},"geometry":{"type":"Point","coordinates":[-71.9939085,45.3532395]}},{"type":"Feature","properties":{"ZIP":"J1N3E1","VERTICES":7},"geometry":{"type":"Point","coordinates":[-71.985897,45.3831345]}},{"type":"Feature","properties":{"ZIP":"J1N3R5","VERTICES":7},"geometry":{"type":"Point","coordinates":[-72.039872,45.340079]}},{"type":"Feature","properties":{"ZIP":"J1N4K2","VERTICES":7},"geometry":{"type":"Point","coordinates":[-71.98364,45.387339499999996]}},{"type":"Feature","properties":{"ZIP":"J1N1R4","VERTICES":7},"geometry":{"type":"Point","coordinates":[-71.9919155,45.382292]}},{"type":"Feature","properties":{"ZIP":"J1N3M4","VERTICES":7},"geometry":{"type":"Point","coordinates":[-72.0421465,45.3410445]}},{"type":"Feature","properties":{"ZIP":"J1N3T6","VERTICES":7},"geometry":{"type":"Point","coordinates":[-71.98141849999999,45.383444999999995]}},{"type":"Feature","properties":{"ZIP":"J1N2J3","VERTICES":7},"geometry":{"type":"Point","coordinates":[-71.985884,45.361155499999995]}},{"type":"Feature","properties":{"ZIP":"J1N4G6","VERTICES":7},"geometry":{"type":"Point","coordinates":[-71.995915,45.3525885]}},{"type":"Feature","properties":{"ZIP":"J1N3B3","VERTICES":7},"geometry":{"type":"Point","coordinates":[-72.008072,45.335645]}},{"type":"Feature","properties":{"ZIP":"J1N3J4","VERTICES":7},"geometry":{"type":"Point","coordinates":[-72.046937,45.330295]}},{"type":"Feature","properties":{"ZIP":"J1N4H8","VERTICES":7},"geometry":{"type":"Point","coordinates":[-71.9846315,45.3873705]}},{"type":"Feature","properties":{"ZIP":"J1N3X5","VERTICES":7},"geometry":{"type":"Point","coordinates":[-71.9954945,45.3720895]}},{"type":"Feature","properties":{"ZIP":"J1N3A1","VERTICES":7},"geometry":{"type":"Point","coordinates":[-72.02381349999999,45.3116505]}},{"type":"Feature","properties":{"ZIP":"J1N2W8","VERTICES":7},"geometry":{"type":"Point","coordinates":[-71.9620845,45.3673465]}},{"type":"Feature","properties":{"ZIP":"J1N3B4","VERTICES":7},"geometry":{"type":"Point","coordinates":[-71.9923,45.335443]}},{"type":"Feature","properties":{"ZIP":"J1N3W4","VERTICES":7},"geometry":{"type":"Point","coordinates":[-71.95471,45.3688265]}},{"type":"Feature","properties":{"ZIP":"J1N3R8","VERTICES":7},"geometry":{"type":"Point","coordinates":[-71.9912195,45.350595]}},{"type":"Feature","properties":{"ZIP":"J1N1R7","VERTICES":7},"geometry":{"type":"Point","coordinates":[-71.989349,45.382183999999995]}},{"type":"Feature","properties":{"ZIP":"J1N3N1","VERTICES":7},"geometry":{"type":"Point","coordinates":[-71.885598,45.4115585]}},{"type":"Feature","properties":{"ZIP":"J1N0G5","VERTICES":7},"geometry":{"type":"Point","coordinates":[-72.0124255,45.333794]}},{"type":"Feature","properties":{"ZIP":"J1N2W9","VERTICES":7},"geometry":{"type":"Point","coordinates":[-71.957632,45.367725500000006]}},{"type":"Feature","properties":{"ZIP":"J1N3B5","VERTICES":7},"geometry":{"type":"Point","coordinates":[-72.0124005,45.36291799999999]}},{"type":"Feature","properties":{"ZIP":"J1N4J4","VERTICES":7},"geometry":{"type":"Point","coordinates":[-71.9819785,45.370418]}},{"type":"Feature","properties":{"ZIP":"J1N0B7","VERTICES":7},"geometry":{"type":"Point","coordinates":[-71.962485,45.35077]}},{"type":"Feature","properties":{"ZIP":"J1N0V7","VERTICES":7},"geometry":{"type":"Point","coordinates":[-72.0068845,45.310538]}},{"type":"Feature","properties":{"ZIP":"J1N4K7","VERTICES":7},"geometry":{"type":"Point","coordinates":[-71.95886200000001,45.3521265]}},{"type":"Feature","properties":{"ZIP":"J1N0E3","VERTICES":7},"geometry":{"type":"Point","coordinates":[-71.982642,45.318772499999994]}},{"type":"Feature","properties":{"ZIP":"J1N1Y1","VERTICES":7},"geometry":{"type":"Point","coordinates":[-71.96561399999999,45.382278]}},{"type":"Feature","properties":{"ZIP":"J1N2N8","VERTICES":7},"geometry":{"type":"Point","coordinates":[-71.9885265,45.354975499999995]}},{"type":"Feature","properties":{"ZIP":"J1N3V1","VERTICES":7},"geometry":{"type":"Point","coordinates":[-71.995334,45.371167]}},{"type":"Feature","properties":{"ZIP":"J1N0G6","VERTICES":7},"geometry":{"type":"Point","coordinates":[-72.081928,45.3428785]}},{"type":"Feature","properties":{"ZIP":"J1N1Z3","VERTICES":7},"geometry":{"type":"Point","coordinates":[-71.9697505,45.377793499999996]}},{"type":"Feature","properties":{"ZIP":"J1N2E6","VERTICES":7},"geometry":{"type":"Point","coordinates":[-71.9866575,45.366817999999995]}},{"type":"Feature","properties":{"ZIP":"J1N2X3","VERTICES":7},"geometry":{"type":"Point","coordinates":[-71.93529699999999,45.363911]}},{"type":"Feature","properties":{"ZIP":"J1N2T6","VERTICES":7},"geometry":{"type":"Point","coordinates":[-71.976468,45.353669499999995]}},{"type":"Feature","properties":{"ZIP":"J1N1R9","VERTICES":7},"geometry":{"type":"Point","coordinates":[-71.9891985,45.3795035]}},{"type":"Feature","properties":{"ZIP":"J1N3N6","VERTICES":7},"geometry":{"type":"Point","coordinates":[-72.0227495,45.3367435]}},{"type":"Feature","properties":{"ZIP":"J1N3V3","VERTICES":7},"geometry":{"type":"Point","coordinates":[-71.9768535,45.3728555]}},{"type":"Feature","properties":{"ZIP":"J1N4H1","VERTICES":7},"geometry":{"type":"Point","coordinates":[-71.961783,45.3760425]}},{"type":"Feature","properties":{"ZIP":"J1N3J8","VERTICES":7},"geometry":{"type":"Point","coordinates":[-72.026906,45.3654945]}},{"type":"Feature","properties":{"ZIP":"J1N2M4","VERTICES":7},"geometry":{"type":"Point","coordinates":[-72.00321199999999,45.360055]}},{"type":"Feature","properties":{"ZIP":"J1N2T8","VERTICES":7},"geometry":{"type":"Point","coordinates":[-71.98217,45.3531085]}},{"type":"Feature","properties":{"ZIP":"J1N2Z1","VERTICES":7},"geometry":{"type":"Point","coordinates":[-71.971987,45.334883500000004]}},{"type":"Feature","properties":{"ZIP":"J1N3L7","VERTICES":7},"geometry":{"type":"Point","coordinates":[-72.03622250000001,45.343937499999996]}},{"type":"Feature","properties":{"ZIP":"J1N4E6","VERTICES":7},"geometry":{"type":"Point","coordinates":[-71.9848905,45.3859445]}},{"type":"Feature","properties":{"ZIP":"J1N1S1","VERTICES":7},"geometry":{"type":"Point","coordinates":[-71.9827665,45.3757175]}},{"type":"Feature","properties":{"ZIP":"J1N2C1","VERTICES":7},"geometry":{"type":"Point","coordinates":[-71.97586100000001,45.372037]}},{"type":"Feature","properties":{"ZIP":"J1N4J7","VERTICES":7},"geometry":{"type":"Point","coordinates":[-72.07536999999999,45.323590499999995]}},{"type":"Feature","properties":{"ZIP":"J1N3L8","VERTICES":7},"geometry":{"type":"Point","coordinates":[-72.037522,45.34305]}},{"type":"Feature","properties":{"ZIP":"J1N1J5","VERTICES":7},"geometry":{"type":"Point","coordinates":[-72.00091649999999,45.3707385]}},{"type":"Feature","properties":{"ZIP":"J1N1S3","VERTICES":7},"geometry":{"type":"Point","coordinates":[-71.97255,45.380061]}},{"type":"Feature","properties":{"ZIP":"J1N2P6","VERTICES":7},"geometry":{"type":"Point","coordinates":[-71.99424400000001,45.358337]}},{"type":"Feature","properties":{"ZIP":"J1N3H8","VERTICES":7},"geometry":{"type":"Point","coordinates":[-72.04633799999999,45.310415000000006]}},{"type":"Feature","properties":{"ZIP":"J1N3N8","VERTICES":7},"geometry":{"type":"Point","coordinates":[-72.0194805,45.337779]}},{"type":"Feature","properties":{"ZIP":"J1N3V7","VERTICES":7},"geometry":{"type":"Point","coordinates":[-71.941172,45.3627235]}},{"type":"Feature","properties":{"ZIP":"J1N4H3","VERTICES":7},"geometry":{"type":"Point","coordinates":[-71.976933,45.3699725]}},{"type":"Feature","properties":{"ZIP":"J1N3R2","VERTICES":7},"geometry":{"type":"Point","coordinates":[-72.036561,45.338294000000005]}},{"type":"Feature","properties":{"ZIP":"J1N3W9","VERTICES":7},"geometry":{"type":"Point","coordinates":[-71.9817315,45.3516005]}},{"type":"Feature","properties":{"ZIP":"J1N0C4","VERTICES":6},"geometry":{"type":"Point","coordinates":[-71.948305,45.353990499999995]}},{"type":"Feature","properties":{"ZIP":"J1N1G8","VERTICES":6},"geometry":{"type":"Point","coordinates":[-72.00116750000001,45.364104999999995]}},{"type":"Feature","properties":{"ZIP":"J1N1W6","VERTICES":6},"geometry":{"type":"Point","coordinates":[-71.98087699999999,45.378448000000006]}},{"type":"Feature","properties":{"ZIP":"J1N2B1","VERTICES":6},"geometry":{"type":"Point","coordinates":[-71.965501,45.373706]}},{"type":"Feature","properties":{"ZIP":"J1N3M1","VERTICES":6},"geometry":{"type":"Point","coordinates":[-72.035949,45.344111]}},{"type":"Feature","properties":{"ZIP":"J1N0M3","VERTICES":6},"geometry":{"type":"Point","coordinates":[-71.97100950000001,45.371968]}},{"type":"Feature","properties":{"ZIP":"J1N2W3","VERTICES":6},"geometry":{"type":"Point","coordinates":[-71.961804,45.36457]}},{"type":"Feature","properties":{"ZIP":"J1N3X1","VERTICES":6},"geometry":{"type":"Point","coordinates":[-71.984523,45.352404]}},{"type":"Feature","properties":{"ZIP":"J1N1G9","VERTICES":6},"geometry":{"type":"Point","coordinates":[-72.01055550000001,45.358937499999996]}},{"type":"Feature","properties":{"ZIP":"J1N1W7","VERTICES":6},"geometry":{"type":"Point","coordinates":[-71.9658705,45.383868]}},{"type":"Feature","properties":{"ZIP":"J1N1L1","VERTICES":6},"geometry":{"type":"Point","coordinates":[-71.9892215,45.375646]}},{"type":"Feature","properties":{"ZIP":"J1N3A9","VERTICES":6},"geometry":{"type":"Point","coordinates":[-72.0084515,45.3390105]}},{"type":"Feature","properties":{"ZIP":"J1N0B1","VERTICES":6},"geometry":{"type":"Point","coordinates":[-71.982778,45.350642]}},{"type":"Feature","properties":{"ZIP":"J1N2S5","VERTICES":6},"geometry":{"type":"Point","coordinates":[-71.9653155,45.3697755]}},{"type":"Feature","properties":{"ZIP":"J1N3C6","VERTICES":6},"geometry":{"type":"Point","coordinates":[-71.938477,45.360383999999996]}},{"type":"Feature","properties":{"ZIP":"J1N4K1","VERTICES":6},"geometry":{"type":"Point","coordinates":[-71.9841365,45.386908500000004]}},{"type":"Feature","properties":{"ZIP":"J1N1H2","VERTICES":6},"geometry":{"type":"Point","coordinates":[-72.019999,45.3535055]}},{"type":"Feature","properties":{"ZIP":"J1N2M9","VERTICES":6},"geometry":{"type":"Point","coordinates":[-72.0018255,45.3588395]}},{"type":"Feature","properties":{"ZIP":"J1N2V3","VERTICES":6},"geometry":{"type":"Point","coordinates":[-71.9846,45.3487785]}},{"type":"Feature","properties":{"ZIP":"J1N2Z6","VERTICES":6},"geometry":{"type":"Point","coordinates":[-71.98700099999999,45.344989]}},{"type":"Feature","properties":{"ZIP":"J1N3M3","VERTICES":6},"geometry":{"type":"Point","coordinates":[-72.042045,45.3465745]}},{"type":"Feature","properties":{"ZIP":"J1N4L4","VERTICES":6},"geometry":{"type":"Point","coordinates":[-71.99101150000001,45.383655000000005]}},{"type":"Feature","properties":{"ZIP":"J1N0G1","VERTICES":6},"geometry":{"type":"Point","coordinates":[-72.05319850000001,45.331447]}},{"type":"Feature","properties":{"ZIP":"J1N1Z9","VERTICES":6},"geometry":{"type":"Point","coordinates":[-71.9644105,45.374532]}},{"type":"Feature","properties":{"ZIP":"J1N2Y2","VERTICES":6},"geometry":{"type":"Point","coordinates":[-71.942488,45.354434999999995]}},{"type":"Feature","properties":{"ZIP":"J1N3X3","VERTICES":6},"geometry":{"type":"Point","coordinates":[-71.979697,45.3691245]}},{"type":"Feature","properties":{"ZIP":"J1N1X6","VERTICES":6},"geometry":{"type":"Point","coordinates":[-71.96388350000001,45.3822525]}},{"type":"Feature","properties":{"ZIP":"J1N2J2","VERTICES":6},"geometry":{"type":"Point","coordinates":[-71.9852515,45.3630325]}},{"type":"Feature","properties":{"ZIP":"J1N2Z7","VERTICES":6},"geometry":{"type":"Point","coordinates":[-71.9846115,45.320217]}},{"type":"Feature","properties":{"ZIP":"J1N3G9","VERTICES":6},"geometry":{"type":"Point","coordinates":[-72.0512145,45.331081]}},{"type":"Feature","properties":{"ZIP":"J1N4L5","VERTICES":6},"geometry":{"type":"Point","coordinates":[-72.10011850000001,45.3048625]}},{"type":"Feature","properties":{"ZIP":"J1N0G2","VERTICES":6},"geometry":{"type":"Point","coordinates":[-72.07589,45.3154225]}},{"type":"Feature","properties":{"ZIP":"J1N1Y8","VERTICES":6},"geometry":{"type":"Point","coordinates":[-71.9664485,45.377967]}},{"type":"Feature","properties":{"ZIP":"J1N3P3","VERTICES":6},"geometry":{"type":"Point","coordinates":[-71.9962455,45.34296]}},{"type":"Feature","properties":{"ZIP":"J1N3X4","VERTICES":6},"geometry":{"type":"Point","coordinates":[-71.98773249999999,45.383894]}},{"type":"Feature","properties":{"ZIP":"J1N2V5","VERTICES":6},"geometry":{"type":"Point","coordinates":[-71.9659575,45.3582035]}},{"type":"Feature","properties":{"ZIP":"J1N2Z8","VERTICES":6},"geometry":{"type":"Point","coordinates":[-71.9846845,45.321847500000004]}},{"type":"Feature","properties":{"ZIP":"J1N3Z3","VERTICES":6},"geometry":{"type":"Point","coordinates":[-72.0064605,45.3130015]}},{"type":"Feature","properties":{"ZIP":"J1N0N4","VERTICES":6},"geometry":{"type":"Point","coordinates":[-71.9726735,45.372313000000005]}},{"type":"Feature","properties":{"ZIP":"J1N1S8","VERTICES":6},"geometry":{"type":"Point","coordinates":[-71.97522000000001,45.383187]}},{"type":"Feature","properties":{"ZIP":"J1N2K5","VERTICES":6},"geometry":{"type":"Point","coordinates":[-71.9914975,45.358041]}},{"type":"Feature","properties":{"ZIP":"J1N3P4","VERTICES":6},"geometry":{"type":"Point","coordinates":[-71.99596149999999,45.3418555]}},{"type":"Feature","properties":{"ZIP":"J1N0B5","VERTICES":6},"geometry":{"type":"Point","coordinates":[-71.9366785,45.349955]}},{"type":"Feature","properties":{"ZIP":"J1N0R8","VERTICES":6},"geometry":{"type":"Point","coordinates":[-71.98087100000001,45.3809325]}},{"type":"Feature","properties":{"ZIP":"J1N2L9","VERTICES":6},"geometry":{"type":"Point","coordinates":[-71.995723,45.359791]}},{"type":"Feature","properties":{"ZIP":"J1N4E2","VERTICES":6},"geometry":{"type":"Point","coordinates":[-71.99147500000001,45.360574]}},{"type":"Feature","properties":{"ZIP":"J1N1H9","VERTICES":6},"geometry":{"type":"Point","coordinates":[-71.9943775,45.366393]}},{"type":"Feature","properties":{"ZIP":"J1N3T8","VERTICES":6},"geometry":{"type":"Point","coordinates":[-72.017913,45.3113055]}},{"type":"Feature","properties":{"ZIP":"J1N3J5","VERTICES":6},"geometry":{"type":"Point","coordinates":[-72.04667850000001,45.330344499999995]}},{"type":"Feature","properties":{"ZIP":"J1N4J2","VERTICES":6},"geometry":{"type":"Point","coordinates":[-71.94918799999999,45.353067499999995]}},{"type":"Feature","properties":{"ZIP":"J1N0S5","VERTICES":6},"geometry":{"type":"Point","coordinates":[-71.993268,45.387538500000005]}},{"type":"Feature","properties":{"ZIP":"J1N2T3","VERTICES":6},"geometry":{"type":"Point","coordinates":[-72.03992099999999,45.3618965]}},{"type":"Feature","properties":{"ZIP":"J1N3X6","VERTICES":6},"geometry":{"type":"Point","coordinates":[-71.985098,45.369147]}},{"type":"Feature","properties":{"ZIP":"J1N1J1","VERTICES":6},"geometry":{"type":"Point","coordinates":[-71.994374,45.3701245]}},{"type":"Feature","properties":{"ZIP":"J1N2B7","VERTICES":6},"geometry":{"type":"Point","coordinates":[-71.974933,45.3730515]}},{"type":"Feature","properties":{"ZIP":"J1N2J5","VERTICES":6},"geometry":{"type":"Point","coordinates":[-71.987176,45.360281]}},{"type":"Feature","properties":{"ZIP":"J1N4G8","VERTICES":6},"geometry":{"type":"Point","coordinates":[-71.9859625,45.3881715]}},{"type":"Feature","properties":{"ZIP":"J1N0A1","VERTICES":6},"geometry":{"type":"Point","coordinates":[-72.070719,45.3246835]}},{"type":"Feature","properties":{"ZIP":"J1N2C9","VERTICES":6},"geometry":{"type":"Point","coordinates":[-71.9916035,45.36665]}},{"type":"Feature","properties":{"ZIP":"J1N3J6","VERTICES":6},"geometry":{"type":"Point","coordinates":[-72.046865,45.330319]}},{"type":"Feature","properties":{"ZIP":"J1N0J4","VERTICES":6},"geometry":{"type":"Point","coordinates":[-71.9786595,45.3811915]}},{"type":"Feature","properties":{"ZIP":"J1N1P6","VERTICES":6},"geometry":{"type":"Point","coordinates":[-71.9915275,45.3803835]}},{"type":"Feature","properties":{"ZIP":"J1N2T5","VERTICES":6},"geometry":{"type":"Point","coordinates":[-71.988169,45.3478215]}},{"type":"Feature","properties":{"ZIP":"J1N2Y6","VERTICES":6},"geometry":{"type":"Point","coordinates":[-71.9501535,45.350218999999996]}},{"type":"Feature","properties":{"ZIP":"J1N3G1","VERTICES":6},"geometry":{"type":"Point","coordinates":[-72.088499,45.3049855]}},{"type":"Feature","properties":{"ZIP":"J1N3L5","VERTICES":6},"geometry":{"type":"Point","coordinates":[-72.0367115,45.342921000000004]}},{"type":"Feature","properties":{"ZIP":"J1N3X7","VERTICES":6},"geometry":{"type":"Point","coordinates":[-72.005979,45.3125525]}},{"type":"Feature","properties":{"ZIP":"J1N0L3","VERTICES":6},"geometry":{"type":"Point","coordinates":[-71.95948250000001,45.3584965]}},{"type":"Feature","properties":{"ZIP":"J1N2J6","VERTICES":6},"geometry":{"type":"Point","coordinates":[-71.981988,45.358211]}},{"type":"Feature","properties":{"ZIP":"J1N0P2","VERTICES":6},"geometry":{"type":"Point","coordinates":[-71.981891,45.387752]}},{"type":"Feature","properties":{"ZIP":"J1N1T2","VERTICES":6},"geometry":{"type":"Point","coordinates":[-71.977931,45.3788755]}},{"type":"Feature","properties":{"ZIP":"J1N2R9","VERTICES":6},"geometry":{"type":"Point","coordinates":[-71.9879475,45.352762]}},{"type":"Feature","properties":{"ZIP":"J1N1W3","VERTICES":6},"geometry":{"type":"Point","coordinates":[-71.9821075,45.379335]}},{"type":"Feature","properties":{"ZIP":"J1N3G2","VERTICES":6},"geometry":{"type":"Point","coordinates":[-72.04751949999999,45.341215000000005]}},{"type":"Feature","properties":{"ZIP":"J1N3L6","VERTICES":6},"geometry":{"type":"Point","coordinates":[-72.0310025,45.346337]}},{"type":"Feature","properties":{"ZIP":"J1N3S8","VERTICES":6},"geometry":{"type":"Point","coordinates":[-71.979883,45.368187]}},{"type":"Feature","properties":{"ZIP":"J1N0E4","VERTICES":6},"geometry":{"type":"Point","coordinates":[-71.9636425,45.311593]}},{"type":"Feature","properties":{"ZIP":"J1N1J3","VERTICES":6},"geometry":{"type":"Point","coordinates":[-71.9968355,45.3704295]}},{"type":"Feature","properties":{"ZIP":"J1N2J7","VERTICES":6},"geometry":{"type":"Point","coordinates":[-71.9895655,45.358613]}},{"type":"Feature","properties":{"ZIP":"J1N2P3","VERTICES":6},"geometry":{"type":"Point","coordinates":[-71.98879199999999,45.354459]}},{"type":"Feature","properties":{"ZIP":"J1N3A5","VERTICES":6},"geometry":{"type":"Point","coordinates":[-71.999288,45.3347835]}},{"type":"Feature","properties":{"ZIP":"J1N1V2","VERTICES":6},"geometry":{"type":"Point","coordinates":[-71.9784985,45.378231]}},{"type":"Feature","properties":{"ZIP":"J1N1Z4","VERTICES":6},"geometry":{"type":"Point","coordinates":[-71.97428,45.377446500000005]}},{"type":"Feature","properties":{"ZIP":"J1N2G2","VERTICES":6},"geometry":{"type":"Point","coordinates":[-71.986763,45.369768]}},{"type":"Feature","properties":{"ZIP":"J1N3B7","VERTICES":6},"geometry":{"type":"Point","coordinates":[-71.957731,45.3483855]}},{"type":"Feature","properties":{"ZIP":"J1N0C2","VERTICES":6},"geometry":{"type":"Point","coordinates":[-71.9730785,45.3407175]}},{"type":"Feature","properties":{"ZIP":"J1N2A7","VERTICES":6},"geometry":{"type":"Point","coordinates":[-71.9857645,45.3726675]}},{"type":"Feature","properties":{"ZIP":"J1N3S9","VERTICES":6},"geometry":{"type":"Point","coordinates":[-71.9532605,45.3703595]}},{"type":"Feature","properties":{"ZIP":"J1N1J4","VERTICES":6},"geometry":{"type":"Point","coordinates":[-72.0000455,45.370328]}},{"type":"Feature","properties":{"ZIP":"J1N1Y3","VERTICES":6},"geometry":{"type":"Point","coordinates":[-71.97013000000001,45.3796185]}},{"type":"Feature","properties":{"ZIP":"J1N1V3","VERTICES":6},"geometry":{"type":"Point","coordinates":[-71.979289,45.379137]}},{"type":"Feature","properties":{"ZIP":"J1N3R1","VERTICES":6},"geometry":{"type":"Point","coordinates":[-72.029346,45.3373095]}},{"type":"Feature","properties":{"ZIP":"J1N0C3","VERTICES":6},"geometry":{"type":"Point","coordinates":[-71.967344,45.3524135]}},{"type":"Feature","properties":{"ZIP":"J1N1E8","VERTICES":6},"geometry":{"type":"Point","coordinates":[-71.9850935,45.372946999999996]}},{"type":"Feature","properties":{"ZIP":"J1N2A8","VERTICES":6},"geometry":{"type":"Point","coordinates":[-71.98057850000001,45.3755735]}},{"type":"Feature","properties":{"ZIP":"J1N2W2","VERTICES":6},"geometry":{"type":"Point","coordinates":[-71.96305100000001,45.363661500000006]}},{"type":"Feature","properties":{"ZIP":"J1N0A7","VERTICES":6},"geometry":{"type":"Point","coordinates":[-72.0124715,45.361832]}},{"type":"Feature","properties":{"ZIP":"J1N0P8","VERTICES":6},"geometry":{"type":"Point","coordinates":[-71.993438,45.3875495]}},{"type":"Feature","properties":{"ZIP":"J1N1N5","VERTICES":6},"geometry":{"type":"Point","coordinates":[-71.98393300000001,45.3763575]}},{"type":"Feature","properties":{"ZIP":"J1N2S3","VERTICES":6},"geometry":{"type":"Point","coordinates":[-71.967601,45.359872499999994]}},{"type":"Feature","properties":{"ZIP":"J1N3B9","VERTICES":6},"geometry":{"type":"Point","coordinates":[-71.979511,45.3760775]}},{"type":"Feature","properties":{"ZIP":"J1N3G6","VERTICES":5},"geometry":{"type":"Point","coordinates":[-72.052672,45.3336155]}},{"type":"Feature","properties":{"ZIP":"J1N1J7","VERTICES":5},"geometry":{"type":"Point","coordinates":[-71.99375,45.37193]}},{"type":"Feature","properties":{"ZIP":"J1N2K1","VERTICES":5},"geometry":{"type":"Point","coordinates":[-71.98899800000001,45.35639]}},{"type":"Feature","properties":{"ZIP":"J1N4A5","VERTICES":5},"geometry":{"type":"Point","coordinates":[-72.04027400000001,45.32039]}},{"type":"Feature","properties":{"ZIP":"J1N0A8","VERTICES":5},"geometry":{"type":"Point","coordinates":[-71.998722,45.374059]}},{"type":"Feature","properties":{"ZIP":"J1N0H2","VERTICES":5},"geometry":{"type":"Point","coordinates":[-72.034134,45.3550805]}},{"type":"Feature","properties":{"ZIP":"J1N0R1","VERTICES":5},"geometry":{"type":"Point","coordinates":[-71.9800835,45.387944]}},{"type":"Feature","properties":{"ZIP":"J1N2X8","VERTICES":5},"geometry":{"type":"Point","coordinates":[-71.941454,45.3633995]}},{"type":"Feature","properties":{"ZIP":"J1N4J9","VERTICES":5},"geometry":{"type":"Point","coordinates":[-71.993803,45.371044]}},{"type":"Feature","properties":{"ZIP":"J1N2V2","VERTICES":5},"geometry":{"type":"Point","coordinates":[-71.98414650000001,45.346208000000004]}},{"type":"Feature","properties":{"ZIP":"J1N4L3","VERTICES":5},"geometry":{"type":"Point","coordinates":[-71.9751435,45.366894]}},{"type":"Feature","properties":{"ZIP":"J1N4H5","VERTICES":5},"geometry":{"type":"Point","coordinates":[-71.9611765,45.374891500000004]}},{"type":"Feature","properties":{"ZIP":"J1N0R3","VERTICES":5},"geometry":{"type":"Point","coordinates":[-71.97054,45.370988]}},{"type":"Feature","properties":{"ZIP":"J1N3K3","VERTICES":5},"geometry":{"type":"Point","coordinates":[-72.02767800000001,45.3496235]}},{"type":"Feature","properties":{"ZIP":"J1N1X5","VERTICES":5},"geometry":{"type":"Point","coordinates":[-71.96352,45.379808999999995]}},{"type":"Feature","properties":{"ZIP":"J1N3Y8","VERTICES":5},"geometry":{"type":"Point","coordinates":[-71.9985145,45.3722335]}},{"type":"Feature","properties":{"ZIP":"J1N1S6","VERTICES":5},"geometry":{"type":"Point","coordinates":[-71.973637,45.382265000000004]}},{"type":"Feature","properties":{"ZIP":"J1N2R3","VERTICES":5},"geometry":{"type":"Point","coordinates":[-72.019455,45.352768499999996]}},{"type":"Feature","properties":{"ZIP":"J1N0H5","VERTICES":5},"geometry":{"type":"Point","coordinates":[-72.0300515,45.3058715]}},{"type":"Feature","properties":{"ZIP":"J1N0R6","VERTICES":5},"geometry":{"type":"Point","coordinates":[-71.9815495,45.388261]}},{"type":"Feature","properties":{"ZIP":"J1N2L7","VERTICES":5},"geometry":{"type":"Point","coordinates":[-71.9951105,45.360735500000004]}},{"type":"Feature","properties":{"ZIP":"J1N3K4","VERTICES":5},"geometry":{"type":"Point","coordinates":[-72.033019,45.3461695]}},{"type":"Feature","properties":{"ZIP":"J1N0N3","VERTICES":5},"geometry":{"type":"Point","coordinates":[-71.97256150000001,45.37231250000001]}},{"type":"Feature","properties":{"ZIP":"J1N1S7","VERTICES":5},"geometry":{"type":"Point","coordinates":[-71.97036349999999,45.38362]}},{"type":"Feature","properties":{"ZIP":"J1N0B4","VERTICES":5},"geometry":{"type":"Point","coordinates":[-71.97539950000001,45.353461499999995]}},{"type":"Feature","properties":{"ZIP":"J1N0R7","VERTICES":5},"geometry":{"type":"Point","coordinates":[-71.9815495,45.3882035]}},{"type":"Feature","properties":{"ZIP":"J1N2G8","VERTICES":5},"geometry":{"type":"Point","coordinates":[-71.985934,45.3714405]}},{"type":"Feature","properties":{"ZIP":"J1N2L8","VERTICES":5},"geometry":{"type":"Point","coordinates":[-71.9945395,45.359584]}},{"type":"Feature","properties":{"ZIP":"J1N3K5","VERTICES":5},"geometry":{"type":"Point","coordinates":[-72.038883,45.342586]}},{"type":"Feature","properties":{"ZIP":"J1N1H4","VERTICES":5},"geometry":{"type":"Point","coordinates":[-71.99598950000001,45.366753]}},{"type":"Feature","properties":{"ZIP":"J1N3T7","VERTICES":5},"geometry":{"type":"Point","coordinates":[-71.98134,45.382825]}},{"type":"Feature","properties":{"ZIP":"J1N0G3","VERTICES":5},"geometry":{"type":"Point","coordinates":[-72.0569235,45.345645000000005]}},{"type":"Feature","properties":{"ZIP":"J1N2Y4","VERTICES":5},"geometry":{"type":"Point","coordinates":[-71.9456395,45.353003]}},{"type":"Feature","properties":{"ZIP":"J1N3K8","VERTICES":5},"geometry":{"type":"Point","coordinates":[-72.0443665,45.340070499999996]}},{"type":"Feature","properties":{"ZIP":"J1N0C9","VERTICES":5},"geometry":{"type":"Point","coordinates":[-72.0005795,45.332379]}},{"type":"Feature","properties":{"ZIP":"J1N3Z4","VERTICES":5},"geometry":{"type":"Point","coordinates":[-72.052452,45.3015285]}},{"type":"Feature","properties":{"ZIP":"J1N0N8","VERTICES":5},"geometry":{"type":"Point","coordinates":[-71.9853285,45.329218]}},{"type":"Feature","properties":{"ZIP":"J1N3L4","VERTICES":5},"geometry":{"type":"Point","coordinates":[-72.040038,45.342034999999996]}},{"type":"Feature","properties":{"ZIP":"J1N0E2","VERTICES":5},"geometry":{"type":"Point","coordinates":[-71.9983405,45.3134615]}},{"type":"Feature","properties":{"ZIP":"J1N2R7","VERTICES":5},"geometry":{"type":"Point","coordinates":[-71.9917605,45.349754000000004]}},{"type":"Feature","properties":{"ZIP":"J1N2A4","VERTICES":5},"geometry":{"type":"Point","coordinates":[-71.979399,45.375979]}},{"type":"Feature","properties":{"ZIP":"J1N4A1","VERTICES":5},"geometry":{"type":"Point","coordinates":[-72.0387905,45.2906125]}},{"type":"Feature","properties":{"ZIP":"J1N2K9","VERTICES":5},"geometry":{"type":"Point","coordinates":[-71.9959005,45.363331]}},{"type":"Feature","properties":{"ZIP":"J1N3P7","VERTICES":5},"geometry":{"type":"Point","coordinates":[-72.00382450000001,45.342676]}},{"type":"Feature","properties":{"ZIP":"J1N0B9","VERTICES":5},"geometry":{"type":"Point","coordinates":[-71.958715,45.346432500000006]}},{"type":"Feature","properties":{"ZIP":"J1N0X3","VERTICES":5},"geometry":{"type":"Point","coordinates":[-72.001288,45.369069499999995]}},{"type":"Feature","properties":{"ZIP":"J1N2A6","VERTICES":5},"geometry":{"type":"Point","coordinates":[-71.967627,45.382877]}},{"type":"Feature","properties":{"ZIP":"J1N2Y7","VERTICES":5},"geometry":{"type":"Point","coordinates":[-71.95300399999999,45.347933499999996]}},{"type":"Feature","properties":{"ZIP":"J1N0L7","VERTICES":5},"geometry":{"type":"Point","coordinates":[-71.97286,45.372314]}},{"type":"Feature","properties":{"ZIP":"J1N2V9","VERTICES":5},"geometry":{"type":"Point","coordinates":[-71.963563,45.359789]}},{"type":"Feature","properties":{"ZIP":"J1N0G8","VERTICES":5},"geometry":{"type":"Point","coordinates":[-72.0958445,45.302467]}},{"type":"Feature","properties":{"ZIP":"J1N0P5","VERTICES":5},"geometry":{"type":"Point","coordinates":[-71.9866425,45.38924900000001]}},{"type":"Feature","properties":{"ZIP":"J1N2L1","VERTICES":5},"geometry":{"type":"Point","coordinates":[-71.99483000000001,45.3638945]}},{"type":"Feature","properties":{"ZIP":"J1N4J6","VERTICES":5},"geometry":{"type":"Point","coordinates":[-71.97754499999999,45.367667999999995]}},{"type":"Feature","properties":{"ZIP":"J1N1E7","VERTICES":5},"geometry":{"type":"Point","coordinates":[-71.93300400000001,45.375181999999995]}},{"type":"Feature","properties":{"ZIP":"J1N3G4","VERTICES":5},"geometry":{"type":"Point","coordinates":[-72.0513205,45.3362915]}},{"type":"Feature","properties":{"ZIP":"J1N3Y1","VERTICES":5},"geometry":{"type":"Point","coordinates":[-71.96210500000001,45.3416785]}},{"type":"Feature","properties":{"ZIP":"J1N0E5","VERTICES":5},"geometry":{"type":"Point","coordinates":[-71.957423,45.336096999999995]}},{"type":"Feature","properties":{"ZIP":"J1N4A3","VERTICES":5},"geometry":{"type":"Point","coordinates":[-72.0907035,45.308065]}},{"type":"Feature","properties":{"ZIP":"J1N0P7","VERTICES":5},"geometry":{"type":"Point","coordinates":[-71.99419750000001,45.387597]}},{"type":"Feature","properties":{"ZIP":"J1N1N4","VERTICES":5},"geometry":{"type":"Point","coordinates":[-71.98155249999999,45.377757]}},{"type":"Feature","properties":{"ZIP":"J1N3J9","VERTICES":5},"geometry":{"type":"Point","coordinates":[-72.0034315,45.398661000000004]}},{"type":"Feature","properties":{"ZIP":"J1N2H5","VERTICES":5},"geometry":{"type":"Point","coordinates":[-71.98298,45.367969]}},{"type":"Feature","properties":{"ZIP":"J1N3Y2","VERTICES":5},"geometry":{"type":"Point","coordinates":[-71.9626645,45.3838975]}},{"type":"Feature","properties":{"ZIP":"J1N0M2","VERTICES":5},"geometry":{"type":"Point","coordinates":[-71.9743905,45.37232]}},{"type":"Feature","properties":{"ZIP":"J1N0H1","VERTICES":5},"geometry":{"type":"Point","coordinates":[-72.0899685,45.307263]}},{"type":"Feature","properties":{"ZIP":"J1N1Z6","VERTICES":5},"geometry":{"type":"Point","coordinates":[-71.97228,45.375996]}},{"type":"Feature","properties":{"ZIP":"J1N0E8","VERTICES":4},"geometry":{"type":"Point","coordinates":[-71.9799345,45.338441]}},{"type":"Feature","properties":{"ZIP":"J1N0K4","VERTICES":4},"geometry":{"type":"Point","coordinates":[-71.9549805,45.367126]}},{"type":"Feature","properties":{"ZIP":"J1N3J2","VERTICES":4},"geometry":{"type":"Point","coordinates":[-72.0465105,45.3130695]}},{"type":"Feature","properties":{"ZIP":"J1N2A3","VERTICES":4},"geometry":{"type":"Point","coordinates":[-71.9733995,45.375201000000004]}},{"type":"Feature","properties":{"ZIP":"J1N4E3","VERTICES":4},"geometry":{"type":"Point","coordinates":[-71.9937495,45.365822]}},{"type":"Feature","properties":{"ZIP":"J1N3Z8","VERTICES":4},"geometry":{"type":"Point","coordinates":[-72.052014,45.302013]}},{"type":"Feature","properties":{"ZIP":"J1N3W7","VERTICES":4},"geometry":{"type":"Point","coordinates":[-72.041952,45.344559000000004]}},{"type":"Feature","properties":{"ZIP":"J1N4H2","VERTICES":4},"geometry":{"type":"Point","coordinates":[-71.961785,45.3769015]}},{"type":"Feature","properties":{"ZIP":"J1N3K1","VERTICES":4},"geometry":{"type":"Point","coordinates":[-72.04370800000001,45.3377725]}}]}