{"type":"FeatureCollection","features":[{"type":"Feature","properties":{"ZIP":"J2H2S9","VERTICES":14},"geometry":{"type":"Point","coordinates":[-72.733598,45.378879]}},{"type":"Feature","properties":{"ZIP":"J2H1W6","VERTICES":12},"geometry":{"type":"Point","coordinates":[-72.7149635,45.4191835]}},{"type":"Feature","properties":{"ZIP":"J2H2T2","VERTICES":12},"geometry":{"type":"Point","coordinates":[-72.6948485,45.394684999999996]}},{"type":"Feature","properties":{"ZIP":"J2H2J8","VERTICES":12},"geometry":{"type":"Point","coordinates":[-72.698336,45.396654]}},{"type":"Feature","properties":{"ZIP":"J2H1V4","VERTICES":11},"geometry":{"type":"Point","coordinates":[-72.711589,45.4148535]}},{"type":"Feature","properties":{"ZIP":"J2H2H9","VERTICES":11},"geometry":{"type":"Point","coordinates":[-72.713119,45.4201715]}},{"type":"Feature","properties":{"ZIP":"J2H2B1","VERTICES":11},"geometry":{"type":"Point","coordinates":[-72.726809,45.432846]}},{"type":"Feature","properties":{"ZIP":"J2H2S7","VERTICES":11},"geometry":{"type":"Point","coordinates":[-72.69485800000001,45.395070000000004]}},{"type":"Feature","properties":{"ZIP":"J2H2K5","VERTICES":11},"geometry":{"type":"Point","coordinates":[-72.7259985,45.440241]}},{"type":"Feature","properties":{"ZIP":"J2H0A3","VERTICES":11},"geometry":{"type":"Point","coordinates":[-72.6915415,45.389602]}},{"type":"Feature","properties":{"ZIP":"J2H0A4","VERTICES":11},"geometry":{"type":"Point","coordinates":[-72.69212350000001,45.388238]}},{"type":"Feature","properties":{"ZIP":"J2H1W7","VERTICES":11},"geometry":{"type":"Point","coordinates":[-72.7143205,45.419627]}},{"type":"Feature","properties":{"ZIP":"J2H2H7","VERTICES":11},"geometry":{"type":"Point","coordinates":[-72.7114105,45.4195795]}},{"type":"Feature","properties":{"ZIP":"J2H2V7","VERTICES":11},"geometry":{"type":"Point","coordinates":[-72.69163750000001,45.391793500000006]}},{"type":"Feature","properties":{"ZIP":"J2H2S2","VERTICES":11},"geometry":{"type":"Point","coordinates":[-72.709463,45.419862]}},{"type":"Feature","properties":{"ZIP":"J2H2L5","VERTICES":10},"geometry":{"type":"Point","coordinates":[-72.727889,45.4474425]}},{"type":"Feature","properties":{"ZIP":"J2H1Z6","VERTICES":10},"geometry":{"type":"Point","coordinates":[-72.7348245,45.426595]}},{"type":"Feature","properties":{"ZIP":"J2H2P8","VERTICES":10},"geometry":{"type":"Point","coordinates":[-72.72126549999999,45.449124]}},{"type":"Feature","properties":{"ZIP":"J2H2C3","VERTICES":10},"geometry":{"type":"Point","coordinates":[-72.7217495,45.433862000000005]}},{"type":"Feature","properties":{"ZIP":"J2H2T9","VERTICES":10},"geometry":{"type":"Point","coordinates":[-72.73267150000001,45.3819725]}},{"type":"Feature","properties":{"ZIP":"J2H0B7","VERTICES":10},"geometry":{"type":"Point","coordinates":[-72.7338745,45.377275499999996]}},{"type":"Feature","properties":{"ZIP":"J2H0A2","VERTICES":10},"geometry":{"type":"Point","coordinates":[-72.691817,45.388957500000004]}},{"type":"Feature","properties":{"ZIP":"J2H1Y7","VERTICES":10},"geometry":{"type":"Point","coordinates":[-72.7290805,45.4239895]}},{"type":"Feature","properties":{"ZIP":"J2H2J4","VERTICES":10},"geometry":{"type":"Point","coordinates":[-72.7019405,45.4050595]}},{"type":"Feature","properties":{"ZIP":"J2H2A2","VERTICES":10},"geometry":{"type":"Point","coordinates":[-72.74081749999999,45.425074]}},{"type":"Feature","properties":{"ZIP":"J2H2K9","VERTICES":10},"geometry":{"type":"Point","coordinates":[-72.72663800000001,45.379193]}},{"type":"Feature","properties":{"ZIP":"J2H2R9","VERTICES":10},"geometry":{"type":"Point","coordinates":[-72.69609449999999,45.3947715]}},{"type":"Feature","properties":{"ZIP":"J2H2P5","VERTICES":10},"geometry":{"type":"Point","coordinates":[-72.7129585,45.439605]}},{"type":"Feature","properties":{"ZIP":"J2H1H4","VERTICES":10},"geometry":{"type":"Point","coordinates":[-72.70710299999999,45.4068935]}},{"type":"Feature","properties":{"ZIP":"J2H2V8","VERTICES":9},"geometry":{"type":"Point","coordinates":[-72.69297449999999,45.3916175]}},{"type":"Feature","properties":{"ZIP":"J2H1C6","VERTICES":9},"geometry":{"type":"Point","coordinates":[-72.7315945,45.3806235]}},{"type":"Feature","properties":{"ZIP":"J2H2C2","VERTICES":9},"geometry":{"type":"Point","coordinates":[-72.7222225,45.4342925]}},{"type":"Feature","properties":{"ZIP":"J2H2K3","VERTICES":9},"geometry":{"type":"Point","coordinates":[-72.728685,45.4396385]}},{"type":"Feature","properties":{"ZIP":"J2H0E8","VERTICES":9},"geometry":{"type":"Point","coordinates":[-72.683323,45.3961695]}},{"type":"Feature","properties":{"ZIP":"J2H2S6","VERTICES":9},"geometry":{"type":"Point","coordinates":[-72.7082005,45.4173185]}},{"type":"Feature","properties":{"ZIP":"J2H2H1","VERTICES":9},"geometry":{"type":"Point","coordinates":[-72.71978050000001,45.44523]}},{"type":"Feature","properties":{"ZIP":"J2H2C4","VERTICES":9},"geometry":{"type":"Point","coordinates":[-72.7222165,45.4338835]}},{"type":"Feature","properties":{"ZIP":"J2H2R3","VERTICES":9},"geometry":{"type":"Point","coordinates":[-72.7119525,45.4204125]}},{"type":"Feature","properties":{"ZIP":"J2H1X6","VERTICES":9},"geometry":{"type":"Point","coordinates":[-72.71365700000001,45.423252]}},{"type":"Feature","properties":{"ZIP":"J2H1Y8","VERTICES":9},"geometry":{"type":"Point","coordinates":[-72.729758,45.4256955]}},{"type":"Feature","properties":{"ZIP":"J2H2K6","VERTICES":9},"geometry":{"type":"Point","coordinates":[-72.72673950000001,45.441164]}},{"type":"Feature","properties":{"ZIP":"J2H1X7","VERTICES":9},"geometry":{"type":"Point","coordinates":[-72.7116125,45.423081499999995]}},{"type":"Feature","properties":{"ZIP":"J2H2H3","VERTICES":9},"geometry":{"type":"Point","coordinates":[-72.722519,45.448322000000005]}},{"type":"Feature","properties":{"ZIP":"J2H2V3","VERTICES":9},"geometry":{"type":"Point","coordinates":[-72.71194600000001,45.420989000000006]}},{"type":"Feature","properties":{"ZIP":"J2H2R6","VERTICES":9},"geometry":{"type":"Point","coordinates":[-72.717415,45.3926175]}},{"type":"Feature","properties":{"ZIP":"J2H2H4","VERTICES":9},"geometry":{"type":"Point","coordinates":[-72.72486950000001,45.443695]}},{"type":"Feature","properties":{"ZIP":"J2H0A5","VERTICES":9},"geometry":{"type":"Point","coordinates":[-72.692398,45.3890135]}},{"type":"Feature","properties":{"ZIP":"J2H2V4","VERTICES":9},"geometry":{"type":"Point","coordinates":[-72.7146015,45.420539500000004]}},{"type":"Feature","properties":{"ZIP":"J2H1H1","VERTICES":9},"geometry":{"type":"Point","coordinates":[-72.71305100000001,45.418237]}},{"type":"Feature","properties":{"ZIP":"J2H0A6","VERTICES":9},"geometry":{"type":"Point","coordinates":[-72.692404,45.3883115]}},{"type":"Feature","properties":{"ZIP":"J2H0C9","VERTICES":9},"geometry":{"type":"Point","coordinates":[-72.6856365,45.3904485]}},{"type":"Feature","properties":{"ZIP":"J2H1H2","VERTICES":9},"geometry":{"type":"Point","coordinates":[-72.71305100000001,45.418236500000006]}},{"type":"Feature","properties":{"ZIP":"J2H2L2","VERTICES":9},"geometry":{"type":"Point","coordinates":[-72.724935,45.448783500000005]}},{"type":"Feature","properties":{"ZIP":"J2H2B7","VERTICES":9},"geometry":{"type":"Point","coordinates":[-72.7297275,45.433083499999995]}},{"type":"Feature","properties":{"ZIP":"J2H2T4","VERTICES":9},"geometry":{"type":"Point","coordinates":[-72.696403,45.395112]}},{"type":"Feature","properties":{"ZIP":"J2H1Z4","VERTICES":9},"geometry":{"type":"Point","coordinates":[-72.73588000000001,45.426013499999996]}},{"type":"Feature","properties":{"ZIP":"J2H2L4","VERTICES":9},"geometry":{"type":"Point","coordinates":[-72.725616,45.4454015]}},{"type":"Feature","properties":{"ZIP":"J2H1Z5","VERTICES":8},"geometry":{"type":"Point","coordinates":[-72.736962,45.4229905]}},{"type":"Feature","properties":{"ZIP":"J2H2E3","VERTICES":8},"geometry":{"type":"Point","coordinates":[-72.7118505,45.432256]}},{"type":"Feature","properties":{"ZIP":"J2H2P7","VERTICES":8},"geometry":{"type":"Point","coordinates":[-72.710262,45.439893]}},{"type":"Feature","properties":{"ZIP":"J2H1H7","VERTICES":8},"geometry":{"type":"Point","coordinates":[-72.7068275,45.407388999999995]}},{"type":"Feature","properties":{"ZIP":"J2H1Y4","VERTICES":8},"geometry":{"type":"Point","coordinates":[-72.72569899999999,45.426299]}},{"type":"Feature","properties":{"ZIP":"J2H1V6","VERTICES":8},"geometry":{"type":"Point","coordinates":[-72.712024,45.4157355]}},{"type":"Feature","properties":{"ZIP":"J2H1H8","VERTICES":8},"geometry":{"type":"Point","coordinates":[-72.713977,45.418537]}},{"type":"Feature","properties":{"ZIP":"J2H2A8","VERTICES":8},"geometry":{"type":"Point","coordinates":[-72.742324,45.4228515]}},{"type":"Feature","properties":{"ZIP":"J2H1K6","VERTICES":8},"geometry":{"type":"Point","coordinates":[-72.7125075,45.418047]}},{"type":"Feature","properties":{"ZIP":"J2H1H9","VERTICES":8},"geometry":{"type":"Point","coordinates":[-72.71584999999999,45.4175585]}},{"type":"Feature","properties":{"ZIP":"J2H1X4","VERTICES":8},"geometry":{"type":"Point","coordinates":[-72.7124895,45.426888000000005]}},{"type":"Feature","properties":{"ZIP":"J2H1K7","VERTICES":8},"geometry":{"type":"Point","coordinates":[-72.71599649999999,45.4182385]}},{"type":"Feature","properties":{"ZIP":"J2H1W2","VERTICES":8},"geometry":{"type":"Point","coordinates":[-72.711591,45.416979]}},{"type":"Feature","properties":{"ZIP":"J2H2L8","VERTICES":8},"geometry":{"type":"Point","coordinates":[-72.7288165,45.4482365]}},{"type":"Feature","properties":{"ZIP":"J2H2J3","VERTICES":8},"geometry":{"type":"Point","coordinates":[-72.699132,45.40822]}},{"type":"Feature","properties":{"ZIP":"J2H0B8","VERTICES":8},"geometry":{"type":"Point","coordinates":[-72.683911,45.389941]}},{"type":"Feature","properties":{"ZIP":"J2H1G7","VERTICES":8},"geometry":{"type":"Point","coordinates":[-72.7154425,45.4171405]}},{"type":"Feature","properties":{"ZIP":"J2H2V2","VERTICES":8},"geometry":{"type":"Point","coordinates":[-72.733086,45.378533000000004]}},{"type":"Feature","properties":{"ZIP":"J2H1W5","VERTICES":8},"geometry":{"type":"Point","coordinates":[-72.7145295,45.4196525]}},{"type":"Feature","properties":{"ZIP":"J2H2E9","VERTICES":8},"geometry":{"type":"Point","coordinates":[-72.711971,45.4375795]}},{"type":"Feature","properties":{"ZIP":"J2H1T3","VERTICES":8},"geometry":{"type":"Point","coordinates":[-72.7006935,45.423252500000004]}},{"type":"Feature","properties":{"ZIP":"J2H2T1","VERTICES":8},"geometry":{"type":"Point","coordinates":[-72.70871700000001,45.420379499999996]}},{"type":"Feature","properties":{"ZIP":"J2H1Z1","VERTICES":8},"geometry":{"type":"Point","coordinates":[-72.7278095,45.427264]}},{"type":"Feature","properties":{"ZIP":"J2H2N8","VERTICES":8},"geometry":{"type":"Point","coordinates":[-72.7320775,45.4414965]}},{"type":"Feature","properties":{"ZIP":"J2H1N3","VERTICES":8},"geometry":{"type":"Point","coordinates":[-72.70511,45.423469999999995]}},{"type":"Feature","properties":{"ZIP":"J2H2R8","VERTICES":8},"geometry":{"type":"Point","coordinates":[-72.696812,45.395283500000005]}},{"type":"Feature","properties":{"ZIP":"J2H1X9","VERTICES":8},"geometry":{"type":"Point","coordinates":[-72.723756,45.423343]}},{"type":"Feature","properties":{"ZIP":"J2H2B6","VERTICES":8},"geometry":{"type":"Point","coordinates":[-72.7269285,45.4350995]}},{"type":"Feature","properties":{"ZIP":"J2H2H5","VERTICES":8},"geometry":{"type":"Point","coordinates":[-72.71669349999999,45.429533]}},{"type":"Feature","properties":{"ZIP":"J2H2G4","VERTICES":8},"geometry":{"type":"Point","coordinates":[-72.711806,45.445143]}},{"type":"Feature","properties":{"ZIP":"J2H1C2","VERTICES":8},"geometry":{"type":"Point","coordinates":[-72.7167355,45.415434]}},{"type":"Feature","properties":{"ZIP":"J2H2H6","VERTICES":8},"geometry":{"type":"Point","coordinates":[-72.712035,45.4193225]}},{"type":"Feature","properties":{"ZIP":"J2H2T3","VERTICES":8},"geometry":{"type":"Point","coordinates":[-72.693695,45.3946525]}},{"type":"Feature","properties":{"ZIP":"J2H1Z3","VERTICES":8},"geometry":{"type":"Point","coordinates":[-72.7370435,45.4254645]}},{"type":"Feature","properties":{"ZIP":"J2H2C9","VERTICES":8},"geometry":{"type":"Point","coordinates":[-72.69557549999999,45.4240085]}},{"type":"Feature","properties":{"ZIP":"J2H1A6","VERTICES":8},"geometry":{"type":"Point","coordinates":[-72.715652,45.4151465]}},{"type":"Feature","properties":{"ZIP":"J2H1W9","VERTICES":8},"geometry":{"type":"Point","coordinates":[-72.7326375,45.380623]}},{"type":"Feature","properties":{"ZIP":"J2H1C3","VERTICES":8},"geometry":{"type":"Point","coordinates":[-72.7165635,45.415598]}},{"type":"Feature","properties":{"ZIP":"J2H1V3","VERTICES":8},"geometry":{"type":"Point","coordinates":[-72.71397250000001,45.418541]}},{"type":"Feature","properties":{"ZIP":"J2H2J9","VERTICES":8},"geometry":{"type":"Point","coordinates":[-72.701508,45.3961245]}},{"type":"Feature","properties":{"ZIP":"J2H1H6","VERTICES":8},"geometry":{"type":"Point","coordinates":[-72.7066825,45.4070185]}},{"type":"Feature","properties":{"ZIP":"J2H2B9","VERTICES":8},"geometry":{"type":"Point","coordinates":[-72.721057,45.434438]}},{"type":"Feature","properties":{"ZIP":"J2H2H8","VERTICES":8},"geometry":{"type":"Point","coordinates":[-72.710425,45.419501499999996]}},{"type":"Feature","properties":{"ZIP":"J2H0B1","VERTICES":7},"geometry":{"type":"Point","coordinates":[-72.726406,45.4027325]}},{"type":"Feature","properties":{"ZIP":"J2H2S3","VERTICES":7},"geometry":{"type":"Point","coordinates":[-72.709304,45.4203095]}},{"type":"Feature","properties":{"ZIP":"J2H1K3","VERTICES":7},"geometry":{"type":"Point","coordinates":[-72.706245,45.405054500000006]}},{"type":"Feature","properties":{"ZIP":"J2H2M7","VERTICES":7},"geometry":{"type":"Point","coordinates":[-72.7422955,45.435722]}},{"type":"Feature","properties":{"ZIP":"J2H2T7","VERTICES":7},"geometry":{"type":"Point","coordinates":[-72.7057505,45.420316]}},{"type":"Feature","properties":{"ZIP":"J2H0B5","VERTICES":7},"geometry":{"type":"Point","coordinates":[-72.73414199999999,45.376643]}},{"type":"Feature","properties":{"ZIP":"J2H2K2","VERTICES":7},"geometry":{"type":"Point","coordinates":[-72.7297605,45.4375875]}},{"type":"Feature","properties":{"ZIP":"J2H1P3","VERTICES":7},"geometry":{"type":"Point","coordinates":[-72.6988005,45.4227645]}},{"type":"Feature","properties":{"ZIP":"J2H2S4","VERTICES":7},"geometry":{"type":"Point","coordinates":[-72.709304,45.4203095]}},{"type":"Feature","properties":{"ZIP":"J2H1Y5","VERTICES":7},"geometry":{"type":"Point","coordinates":[-72.72627750000001,45.4298785]}},{"type":"Feature","properties":{"ZIP":"J2H1V8","VERTICES":7},"geometry":{"type":"Point","coordinates":[-72.7071035,45.4068935]}},{"type":"Feature","properties":{"ZIP":"J2H1Z7","VERTICES":7},"geometry":{"type":"Point","coordinates":[-72.737864,45.4276045]}},{"type":"Feature","properties":{"ZIP":"J2H2P9","VERTICES":7},"geometry":{"type":"Point","coordinates":[-72.71312950000001,45.441116]}},{"type":"Feature","properties":{"ZIP":"J2H1P4","VERTICES":7},"geometry":{"type":"Point","coordinates":[-72.695388,45.422417]}},{"type":"Feature","properties":{"ZIP":"J2H2G9","VERTICES":7},"geometry":{"type":"Point","coordinates":[-72.719876,45.4433985]}},{"type":"Feature","properties":{"ZIP":"J2H2L7","VERTICES":7},"geometry":{"type":"Point","coordinates":[-72.7295385,45.4441075]}},{"type":"Feature","properties":{"ZIP":"J2H1G6","VERTICES":7},"geometry":{"type":"Point","coordinates":[-72.7153305,45.417247]}},{"type":"Feature","properties":{"ZIP":"J2H1Z8","VERTICES":7},"geometry":{"type":"Point","coordinates":[-72.738483,45.426584500000004]}},{"type":"Feature","properties":{"ZIP":"J2H1B3","VERTICES":7},"geometry":{"type":"Point","coordinates":[-72.71464950000001,45.416696]}},{"type":"Feature","properties":{"ZIP":"J2H1J1","VERTICES":7},"geometry":{"type":"Point","coordinates":[-72.7043335,45.405015]}},{"type":"Feature","properties":{"ZIP":"J2H1X5","VERTICES":7},"geometry":{"type":"Point","coordinates":[-72.71351849999999,45.425818]}},{"type":"Feature","properties":{"ZIP":"J2H1E3","VERTICES":7},"geometry":{"type":"Point","coordinates":[-72.70654350000001,45.403296999999995]}},{"type":"Feature","properties":{"ZIP":"J2H1K8","VERTICES":7},"geometry":{"type":"Point","coordinates":[-72.716147,45.418282500000004]}},{"type":"Feature","properties":{"ZIP":"J2H1S9","VERTICES":7},"geometry":{"type":"Point","coordinates":[-72.70237750000001,45.4243865]}},{"type":"Feature","properties":{"ZIP":"J2H2V1","VERTICES":7},"geometry":{"type":"Point","coordinates":[-72.743173,45.4335435]}},{"type":"Feature","properties":{"ZIP":"J2H2H2","VERTICES":7},"geometry":{"type":"Point","coordinates":[-72.7187785,45.445683]}},{"type":"Feature","properties":{"ZIP":"J2H1K9","VERTICES":7},"geometry":{"type":"Point","coordinates":[-72.70959400000001,45.407128]}},{"type":"Feature","properties":{"ZIP":"J2H0B9","VERTICES":7},"geometry":{"type":"Point","coordinates":[-72.6839215,45.389805]}},{"type":"Feature","properties":{"ZIP":"J2H2R4","VERTICES":7},"geometry":{"type":"Point","coordinates":[-72.730706,45.392142]}},{"type":"Feature","properties":{"ZIP":"J2H1B6","VERTICES":7},"geometry":{"type":"Point","coordinates":[-72.708751,45.404032]}},{"type":"Feature","properties":{"ZIP":"J2H1R1","VERTICES":7},"geometry":{"type":"Point","coordinates":[-72.70932,45.4235905]}},{"type":"Feature","properties":{"ZIP":"J2H2B3","VERTICES":7},"geometry":{"type":"Point","coordinates":[-72.7267965,45.4318725]}},{"type":"Feature","properties":{"ZIP":"J2H2M1","VERTICES":7},"geometry":{"type":"Point","coordinates":[-72.73193649999999,45.4388215]}},{"type":"Feature","properties":{"ZIP":"J2H1L2","VERTICES":7},"geometry":{"type":"Point","coordinates":[-72.70694900000001,45.426951]}},{"type":"Feature","properties":{"ZIP":"J2H1Y9","VERTICES":7},"geometry":{"type":"Point","coordinates":[-72.7290845,45.4267765]}},{"type":"Feature","properties":{"ZIP":"J2H2C6","VERTICES":7},"geometry":{"type":"Point","coordinates":[-72.7288085,45.435307]}},{"type":"Feature","properties":{"ZIP":"J2H2B5","VERTICES":7},"geometry":{"type":"Point","coordinates":[-72.726711,45.434329000000005]}},{"type":"Feature","properties":{"ZIP":"J2H2M2","VERTICES":7},"geometry":{"type":"Point","coordinates":[-72.7327045,45.4282535]}},{"type":"Feature","properties":{"ZIP":"J2H0C8","VERTICES":7},"geometry":{"type":"Point","coordinates":[-72.68625750000001,45.3899885]}},{"type":"Feature","properties":{"ZIP":"J2H2L1","VERTICES":7},"geometry":{"type":"Point","coordinates":[-72.7263845,45.377335]}},{"type":"Feature","properties":{"ZIP":"J2H2M3","VERTICES":7},"geometry":{"type":"Point","coordinates":[-72.7314095,45.426629000000005]}},{"type":"Feature","properties":{"ZIP":"J2H1E8","VERTICES":7},"geometry":{"type":"Point","coordinates":[-72.7072625,45.4048775]}},{"type":"Feature","properties":{"ZIP":"J2H2C8","VERTICES":7},"geometry":{"type":"Point","coordinates":[-72.696088,45.4250905]}},{"type":"Feature","properties":{"ZIP":"J2H2V5","VERTICES":7},"geometry":{"type":"Point","coordinates":[-72.7350875,45.4335195]}},{"type":"Feature","properties":{"ZIP":"J2H1W8","VERTICES":7},"geometry":{"type":"Point","coordinates":[-72.71201199999999,45.418594999999996]}},{"type":"Feature","properties":{"ZIP":"J2H1K1","VERTICES":7},"geometry":{"type":"Point","coordinates":[-72.7130375,45.4166855]}},{"type":"Feature","properties":{"ZIP":"J2H1R9","VERTICES":7},"geometry":{"type":"Point","coordinates":[-72.7050745,45.424980000000005]}},{"type":"Feature","properties":{"ZIP":"J2H1G2","VERTICES":7},"geometry":{"type":"Point","coordinates":[-72.7140465,45.414739]}},{"type":"Feature","properties":{"ZIP":"J2H2A6","VERTICES":7},"geometry":{"type":"Point","coordinates":[-72.7441595,45.427254500000004]}},{"type":"Feature","properties":{"ZIP":"J2H2M6","VERTICES":7},"geometry":{"type":"Point","coordinates":[-72.74228149999999,45.433328]}},{"type":"Feature","properties":{"ZIP":"J2H0Y7","VERTICES":6},"geometry":{"type":"Point","coordinates":[-72.7166585,45.4265695]}},{"type":"Feature","properties":{"ZIP":"J2H1G3","VERTICES":6},"geometry":{"type":"Point","coordinates":[-72.707238,45.404523499999996]}},{"type":"Feature","properties":{"ZIP":"J2H1M3","VERTICES":6},"geometry":{"type":"Point","coordinates":[-72.7072835,45.4246945]}},{"type":"Feature","properties":{"ZIP":"J2H0E4","VERTICES":6},"geometry":{"type":"Point","coordinates":[-72.6845175,45.391597000000004]}},{"type":"Feature","properties":{"ZIP":"J2H1P1","VERTICES":6},"geometry":{"type":"Point","coordinates":[-72.7030835,45.4231745]}},{"type":"Feature","properties":{"ZIP":"J2H1X2","VERTICES":6},"geometry":{"type":"Point","coordinates":[-72.711694,45.426058499999996]}},{"type":"Feature","properties":{"ZIP":"J2H2A7","VERTICES":6},"geometry":{"type":"Point","coordinates":[-72.7360505,45.414922000000004]}},{"type":"Feature","properties":{"ZIP":"J2H1X3","VERTICES":6},"geometry":{"type":"Point","coordinates":[-72.711431,45.4245715]}},{"type":"Feature","properties":{"ZIP":"J2H2G8","VERTICES":6},"geometry":{"type":"Point","coordinates":[-72.720202,45.442600999999996]}},{"type":"Feature","properties":{"ZIP":"J2H2J1","VERTICES":6},"geometry":{"type":"Point","coordinates":[-72.7066195,45.406470999999996]}},{"type":"Feature","properties":{"ZIP":"J2H2M8","VERTICES":6},"geometry":{"type":"Point","coordinates":[-72.7415485,45.4318345]}},{"type":"Feature","properties":{"ZIP":"J2H2T8","VERTICES":6},"geometry":{"type":"Point","coordinates":[-72.733121,45.3814815]}},{"type":"Feature","properties":{"ZIP":"J2H2E6","VERTICES":6},"geometry":{"type":"Point","coordinates":[-72.71219149999999,45.436397]}},{"type":"Feature","properties":{"ZIP":"J2H1B2","VERTICES":6},"geometry":{"type":"Point","coordinates":[-72.714417,45.416925]}},{"type":"Feature","properties":{"ZIP":"J2H2A9","VERTICES":6},"geometry":{"type":"Point","coordinates":[-72.7436175,45.422855]}},{"type":"Feature","properties":{"ZIP":"J2H0A1","VERTICES":6},"geometry":{"type":"Point","coordinates":[-72.6911755,45.3908335]}},{"type":"Feature","properties":{"ZIP":"J2H1E2","VERTICES":6},"geometry":{"type":"Point","coordinates":[-72.729803,45.380736999999996]}},{"type":"Feature","properties":{"ZIP":"J2H1Y6","VERTICES":6},"geometry":{"type":"Point","coordinates":[-72.7271085,45.4226175]}},{"type":"Feature","properties":{"ZIP":"J2H2J2","VERTICES":6},"geometry":{"type":"Point","coordinates":[-72.7340615,45.38067100000001]}},{"type":"Feature","properties":{"ZIP":"J2H2N1","VERTICES":6},"geometry":{"type":"Point","coordinates":[-72.74362500000001,45.433569500000004]}},{"type":"Feature","properties":{"ZIP":"J2H1M7","VERTICES":6},"geometry":{"type":"Point","coordinates":[-72.7066885,45.4238745]}},{"type":"Feature","properties":{"ZIP":"J2H2E7","VERTICES":6},"geometry":{"type":"Point","coordinates":[-72.7130325,45.4361485]}},{"type":"Feature","properties":{"ZIP":"J2H2K4","VERTICES":6},"geometry":{"type":"Point","coordinates":[-72.7270635,45.437785500000004]}},{"type":"Feature","properties":{"ZIP":"J2H2R2","VERTICES":6},"geometry":{"type":"Point","coordinates":[-72.694619,45.3959735]}},{"type":"Feature","properties":{"ZIP":"J2H0E9","VERTICES":6},"geometry":{"type":"Point","coordinates":[-72.684065,45.398767]}},{"type":"Feature","properties":{"ZIP":"J2H1P6","VERTICES":6},"geometry":{"type":"Point","coordinates":[-72.70993849999999,45.4262535]}},{"type":"Feature","properties":{"ZIP":"J2H2N2","VERTICES":6},"geometry":{"type":"Point","coordinates":[-72.73741749999999,45.433549]}},{"type":"Feature","properties":{"ZIP":"J2H1W3","VERTICES":6},"geometry":{"type":"Point","coordinates":[-72.7116665,45.417416]}},{"type":"Feature","properties":{"ZIP":"J2H1Z9","VERTICES":6},"geometry":{"type":"Point","coordinates":[-72.7344225,45.415758499999995]}},{"type":"Feature","properties":{"ZIP":"J2H0G3","VERTICES":6},"geometry":{"type":"Point","coordinates":[-72.68401399999999,45.398536]}},{"type":"Feature","properties":{"ZIP":"J2H1J4","VERTICES":6},"geometry":{"type":"Point","coordinates":[-72.7063445,45.404836]}},{"type":"Feature","properties":{"ZIP":"J2H1P8","VERTICES":6},"geometry":{"type":"Point","coordinates":[-72.7086985,45.424296]}},{"type":"Feature","properties":{"ZIP":"J2H2B2","VERTICES":6},"geometry":{"type":"Point","coordinates":[-72.7261225,45.431803]}},{"type":"Feature","properties":{"ZIP":"J2H2L9","VERTICES":6},"geometry":{"type":"Point","coordinates":[-72.729511,45.443032]}},{"type":"Feature","properties":{"ZIP":"J2H2S8","VERTICES":6},"geometry":{"type":"Point","coordinates":[-72.708339,45.4178725]}},{"type":"Feature","properties":{"ZIP":"J2H0V2","VERTICES":6},"geometry":{"type":"Point","coordinates":[-72.71112049999999,45.4469065]}},{"type":"Feature","properties":{"ZIP":"J2H2N3","VERTICES":6},"geometry":{"type":"Point","coordinates":[-72.736959,45.434539]}},{"type":"Feature","properties":{"ZIP":"J2H1G8","VERTICES":6},"geometry":{"type":"Point","coordinates":[-72.7294005,45.380083]}},{"type":"Feature","properties":{"ZIP":"J2H1N1","VERTICES":6},"geometry":{"type":"Point","coordinates":[-72.705821,45.4227125]}},{"type":"Feature","properties":{"ZIP":"J2H2A1","VERTICES":6},"geometry":{"type":"Point","coordinates":[-72.7417785,45.429332]}},{"type":"Feature","properties":{"ZIP":"J2H0H1","VERTICES":6},"geometry":{"type":"Point","coordinates":[-72.704504,45.364252]}},{"type":"Feature","properties":{"ZIP":"J2H1J5","VERTICES":6},"geometry":{"type":"Point","coordinates":[-72.70795799999999,45.4034015]}},{"type":"Feature","properties":{"ZIP":"J2H2J5","VERTICES":6},"geometry":{"type":"Point","coordinates":[-72.702343,45.403885]}},{"type":"Feature","properties":{"ZIP":"J2H2N4","VERTICES":6},"geometry":{"type":"Point","coordinates":[-72.733977,45.430389500000004]}},{"type":"Feature","properties":{"ZIP":"J2H0C1","VERTICES":6},"geometry":{"type":"Point","coordinates":[-72.69689299999999,45.415993]}},{"type":"Feature","properties":{"ZIP":"J2H1A2","VERTICES":6},"geometry":{"type":"Point","coordinates":[-72.7100915,45.4031855]}},{"type":"Feature","properties":{"ZIP":"J2H1G9","VERTICES":6},"geometry":{"type":"Point","coordinates":[-72.727698,45.3790795]}},{"type":"Feature","properties":{"ZIP":"J2H1B7","VERTICES":6},"geometry":{"type":"Point","coordinates":[-72.71485849999999,45.4150195]}},{"type":"Feature","properties":{"ZIP":"J2H1J6","VERTICES":6},"geometry":{"type":"Point","coordinates":[-72.707742,45.4035035]}},{"type":"Feature","properties":{"ZIP":"J2H1R3","VERTICES":6},"geometry":{"type":"Point","coordinates":[-72.7079695,45.4230895]}},{"type":"Feature","properties":{"ZIP":"J2H1X8","VERTICES":6},"geometry":{"type":"Point","coordinates":[-72.7108375,45.4232665]}},{"type":"Feature","properties":{"ZIP":"J2H1E7","VERTICES":6},"geometry":{"type":"Point","coordinates":[-72.7133695,45.416456]}},{"type":"Feature","properties":{"ZIP":"J2H1L8","VERTICES":6},"geometry":{"type":"Point","coordinates":[-72.7072385,45.426937]}},{"type":"Feature","properties":{"ZIP":"J2H2C7","VERTICES":6},"geometry":{"type":"Point","coordinates":[-72.696722,45.427983499999996]}},{"type":"Feature","properties":{"ZIP":"J2H2J6","VERTICES":6},"geometry":{"type":"Point","coordinates":[-72.7016225,45.39545]}},{"type":"Feature","properties":{"ZIP":"J2H1A3","VERTICES":6},"geometry":{"type":"Point","coordinates":[-72.71011,45.403185]}},{"type":"Feature","properties":{"ZIP":"J2H2A3","VERTICES":6},"geometry":{"type":"Point","coordinates":[-72.73346599999999,45.4133535]}},{"type":"Feature","properties":{"ZIP":"J2H2G3","VERTICES":6},"geometry":{"type":"Point","coordinates":[-72.7114865,45.443922]}},{"type":"Feature","properties":{"ZIP":"J2H1T5","VERTICES":6},"geometry":{"type":"Point","coordinates":[-72.7009135,45.4253115]}},{"type":"Feature","properties":{"ZIP":"J2H1Z2","VERTICES":6},"geometry":{"type":"Point","coordinates":[-72.730063,45.428782]}},{"type":"Feature","properties":{"ZIP":"J2H2J7","VERTICES":6},"geometry":{"type":"Point","coordinates":[-72.695632,45.396484]}},{"type":"Feature","properties":{"ZIP":"J2H2P4","VERTICES":6},"geometry":{"type":"Point","coordinates":[-72.74067450000001,45.433925]}},{"type":"Feature","properties":{"ZIP":"J2H2A4","VERTICES":6},"geometry":{"type":"Point","coordinates":[-72.74261849999999,45.4241155]}},{"type":"Feature","properties":{"ZIP":"J2H1R5","VERTICES":6},"geometry":{"type":"Point","coordinates":[-72.706635,45.4225645]}},{"type":"Feature","properties":{"ZIP":"J2H1Y1","VERTICES":6},"geometry":{"type":"Point","coordinates":[-72.7238735,45.4269055]}},{"type":"Feature","properties":{"ZIP":"J2H2M4","VERTICES":6},"geometry":{"type":"Point","coordinates":[-72.73796,45.430344000000005]}},{"type":"Feature","properties":{"ZIP":"J2H1M1","VERTICES":6},"geometry":{"type":"Point","coordinates":[-72.707832,45.425492500000004]}},{"type":"Feature","properties":{"ZIP":"J2H1T8","VERTICES":6},"geometry":{"type":"Point","coordinates":[-72.698735,45.423877]}},{"type":"Feature","properties":{"ZIP":"J2H1N8","VERTICES":6},"geometry":{"type":"Point","coordinates":[-72.7043175,45.4268275]}},{"type":"Feature","properties":{"ZIP":"J2H2L3","VERTICES":6},"geometry":{"type":"Point","coordinates":[-72.726673,45.4486715]}},{"type":"Feature","properties":{"ZIP":"J2H0K1","VERTICES":6},"geometry":{"type":"Point","coordinates":[-72.733834,45.3778545]}},{"type":"Feature","properties":{"ZIP":"J2H1Y2","VERTICES":6},"geometry":{"type":"Point","coordinates":[-72.7224405,45.42456]}},{"type":"Feature","properties":{"ZIP":"J2H2B8","VERTICES":6},"geometry":{"type":"Point","coordinates":[-72.729758,45.4340675]}},{"type":"Feature","properties":{"ZIP":"J2H2M5","VERTICES":6},"geometry":{"type":"Point","coordinates":[-72.740939,45.431026]}},{"type":"Feature","properties":{"ZIP":"J2H0A9","VERTICES":6},"geometry":{"type":"Point","coordinates":[-72.69877650000001,45.4306895]}},{"type":"Feature","properties":{"ZIP":"J2H2E2","VERTICES":6},"geometry":{"type":"Point","coordinates":[-72.7119385,45.431374000000005]}},{"type":"Feature","properties":{"ZIP":"J2H2P6","VERTICES":6},"geometry":{"type":"Point","coordinates":[-72.71306000000001,45.440175499999995]}},{"type":"Feature","properties":{"ZIP":"J2H0E2","VERTICES":6},"geometry":{"type":"Point","coordinates":[-72.68628,45.3912795]}},{"type":"Feature","properties":{"ZIP":"J2H1A7","VERTICES":6},"geometry":{"type":"Point","coordinates":[-72.710017,45.405041]}},{"type":"Feature","properties":{"ZIP":"J2H1N9","VERTICES":6},"geometry":{"type":"Point","coordinates":[-72.70315550000001,45.4231875]}},{"type":"Feature","properties":{"ZIP":"J2H2G6","VERTICES":6},"geometry":{"type":"Point","coordinates":[-72.712104,45.4437415]}},{"type":"Feature","properties":{"ZIP":"J2H0K7","VERTICES":6},"geometry":{"type":"Point","coordinates":[-72.6986665,45.411064499999995]}},{"type":"Feature","properties":{"ZIP":"J2H1S1","VERTICES":6},"geometry":{"type":"Point","coordinates":[-72.7042495,45.4258595]}},{"type":"Feature","properties":{"ZIP":"J2H1Y3","VERTICES":6},"geometry":{"type":"Point","coordinates":[-72.7217825,45.425905]}},{"type":"Feature","properties":{"ZIP":"J2H2T5","VERTICES":6},"geometry":{"type":"Point","coordinates":[-72.6962415,45.394715500000004]}},{"type":"Feature","properties":{"ZIP":"J2H2K1","VERTICES":5},"geometry":{"type":"Point","coordinates":[-72.700243,45.3956545]}},{"type":"Feature","properties":{"ZIP":"J2H1A8","VERTICES":5},"geometry":{"type":"Point","coordinates":[-72.709816,45.4054105]}},{"type":"Feature","properties":{"ZIP":"J2H2G7","VERTICES":5},"geometry":{"type":"Point","coordinates":[-72.711129,45.444779]}},{"type":"Feature","properties":{"ZIP":"J2H0R2","VERTICES":5},"geometry":{"type":"Point","coordinates":[-72.697678,45.3888625]}},{"type":"Feature","properties":{"ZIP":"J2H1S4","VERTICES":5},"geometry":{"type":"Point","coordinates":[-72.70568499999999,45.4271655]}},{"type":"Feature","properties":{"ZIP":"J2H2C1","VERTICES":5},"geometry":{"type":"Point","coordinates":[-72.720299,45.4345175]}},{"type":"Feature","properties":{"ZIP":"J2H0Z2","VERTICES":5},"geometry":{"type":"Point","coordinates":[-72.71676500000001,45.4275345]}},{"type":"Feature","properties":{"ZIP":"J2H1M4","VERTICES":5},"geometry":{"type":"Point","coordinates":[-72.708382,45.423888000000005]}},{"type":"Feature","properties":{"ZIP":"J2H2E5","VERTICES":5},"geometry":{"type":"Point","coordinates":[-72.712257,45.434061]}},{"type":"Feature","properties":{"ZIP":"J2H0E7","VERTICES":5},"geometry":{"type":"Point","coordinates":[-72.709255,45.4155935]}},{"type":"Feature","properties":{"ZIP":"J2H1B1","VERTICES":5},"geometry":{"type":"Point","coordinates":[-72.7153495,45.415966999999995]}},{"type":"Feature","properties":{"ZIP":"J2H2L6","VERTICES":5},"geometry":{"type":"Point","coordinates":[-72.727707,45.444841]}},{"type":"Feature","properties":{"ZIP":"J2H0S5","VERTICES":5},"geometry":{"type":"Point","coordinates":[-72.71474950000001,45.433485000000005]}},{"type":"Feature","properties":{"ZIP":"J2H1S6","VERTICES":5},"geometry":{"type":"Point","coordinates":[-72.703621,45.4246665]}},{"type":"Feature","properties":{"ZIP":"J2H0B6","VERTICES":5},"geometry":{"type":"Point","coordinates":[-72.7331925,45.375957]}},{"type":"Feature","properties":{"ZIP":"J2H0Z3","VERTICES":5},"geometry":{"type":"Point","coordinates":[-72.684447,45.3941295]}},{"type":"Feature","properties":{"ZIP":"J2H1G5","VERTICES":5},"geometry":{"type":"Point","coordinates":[-72.729678,45.380602499999995]}},{"type":"Feature","properties":{"ZIP":"J2H1M6","VERTICES":5},"geometry":{"type":"Point","coordinates":[-72.7042935,45.423856]}},{"type":"Feature","properties":{"ZIP":"J2H0T7","VERTICES":5},"geometry":{"type":"Point","coordinates":[-72.708882,45.4455485]}},{"type":"Feature","properties":{"ZIP":"J2H1S8","VERTICES":5},"geometry":{"type":"Point","coordinates":[-72.70234400000001,45.424823]}},{"type":"Feature","properties":{"ZIP":"J2H0Z4","VERTICES":5},"geometry":{"type":"Point","coordinates":[-72.68535800000001,45.39473649999999]}},{"type":"Feature","properties":{"ZIP":"J2H0T9","VERTICES":5},"geometry":{"type":"Point","coordinates":[-72.713763,45.436567499999995]}},{"type":"Feature","properties":{"ZIP":"J2H0Z5","VERTICES":5},"geometry":{"type":"Point","coordinates":[-72.684346,45.393988]}},{"type":"Feature","properties":{"ZIP":"J2H1M8","VERTICES":5},"geometry":{"type":"Point","coordinates":[-72.70603,45.422536]}},{"type":"Feature","properties":{"ZIP":"J2H2E8","VERTICES":5},"geometry":{"type":"Point","coordinates":[-72.710935,45.43609]}},{"type":"Feature","properties":{"ZIP":"J2H1B4","VERTICES":5},"geometry":{"type":"Point","coordinates":[-72.7090335,45.403821]}},{"type":"Feature","properties":{"ZIP":"J2H1E4","VERTICES":5},"geometry":{"type":"Point","coordinates":[-72.7295445,45.3832465]}},{"type":"Feature","properties":{"ZIP":"J2H1T2","VERTICES":5},"geometry":{"type":"Point","coordinates":[-72.70253199999999,45.42679]}},{"type":"Feature","properties":{"ZIP":"J2H2C5","VERTICES":5},"geometry":{"type":"Point","coordinates":[-72.7287175,45.43204]}},{"type":"Feature","properties":{"ZIP":"J2H0Z6","VERTICES":5},"geometry":{"type":"Point","coordinates":[-72.686489,45.397428500000004]}},{"type":"Feature","properties":{"ZIP":"J2H0W2","VERTICES":5},"geometry":{"type":"Point","coordinates":[-72.721954,45.429914999999994]}},{"type":"Feature","properties":{"ZIP":"J2H1E6","VERTICES":5},"geometry":{"type":"Point","coordinates":[-72.727823,45.379590500000006]}},{"type":"Feature","properties":{"ZIP":"J2H1N2","VERTICES":5},"geometry":{"type":"Point","coordinates":[-72.7050525,45.423563]}},{"type":"Feature","properties":{"ZIP":"J2H2G2","VERTICES":5},"geometry":{"type":"Point","coordinates":[-72.7111535,45.446616]}},{"type":"Feature","properties":{"ZIP":"J2H0W6","VERTICES":5},"geometry":{"type":"Point","coordinates":[-72.7209875,45.422311]}},{"type":"Feature","properties":{"ZIP":"J2H1T4","VERTICES":5},"geometry":{"type":"Point","coordinates":[-72.7006955,45.4234785]}},{"type":"Feature","properties":{"ZIP":"J2H1C1","VERTICES":5},"geometry":{"type":"Point","coordinates":[-72.71485899999999,45.4150195]}},{"type":"Feature","properties":{"ZIP":"J2H1J7","VERTICES":5},"geometry":{"type":"Point","coordinates":[-72.7132335,45.415338]}},{"type":"Feature","properties":{"ZIP":"J2H0Y1","VERTICES":5},"geometry":{"type":"Point","coordinates":[-72.74663899999999,45.434070500000004]}},{"type":"Feature","properties":{"ZIP":"J2H1L9","VERTICES":5},"geometry":{"type":"Point","coordinates":[-72.707832,45.425493]}},{"type":"Feature","properties":{"ZIP":"J2H1A5","VERTICES":5},"geometry":{"type":"Point","coordinates":[-72.71553850000001,45.4155845]}},{"type":"Feature","properties":{"ZIP":"J2H1N4","VERTICES":5},"geometry":{"type":"Point","coordinates":[-72.7041735,45.425462499999995]}},{"type":"Feature","properties":{"ZIP":"J2H0J3","VERTICES":5},"geometry":{"type":"Point","coordinates":[-72.733768,45.373776]}},{"type":"Feature","properties":{"ZIP":"J2H1J9","VERTICES":5},"geometry":{"type":"Point","coordinates":[-72.7132335,45.415338]}},{"type":"Feature","properties":{"ZIP":"J2H0A7","VERTICES":5},"geometry":{"type":"Point","coordinates":[-72.69256999999999,45.387192999999996]}},{"type":"Feature","properties":{"ZIP":"J2H0Y5","VERTICES":5},"geometry":{"type":"Point","coordinates":[-72.716599,45.4222045]}},{"type":"Feature","properties":{"ZIP":"J2H2V6","VERTICES":5},"geometry":{"type":"Point","coordinates":[-72.69359399999999,45.391679]}},{"type":"Feature","properties":{"ZIP":"J2H2G5","VERTICES":5},"geometry":{"type":"Point","coordinates":[-72.713364,45.443865]}},{"type":"Feature","properties":{"ZIP":"J2H2S1","VERTICES":5},"geometry":{"type":"Point","coordinates":[-72.710553,45.417405]}},{"type":"Feature","properties":{"ZIP":"J2H0Y6","VERTICES":5},"geometry":{"type":"Point","coordinates":[-72.7145575,45.42149]}},{"type":"Feature","properties":{"ZIP":"J2H1M2","VERTICES":5},"geometry":{"type":"Point","coordinates":[-72.7068605,45.424693000000005]}},{"type":"Feature","properties":{"ZIP":"J2H1X1","VERTICES":5},"geometry":{"type":"Point","coordinates":[-72.7347365,45.3807]}},{"type":"Feature","properties":{"ZIP":"J2H1C5","VERTICES":5},"geometry":{"type":"Point","coordinates":[-72.7302415,45.378984]}},{"type":"Feature","properties":{"ZIP":"J2H1K2","VERTICES":5},"geometry":{"type":"Point","coordinates":[-72.71274199999999,45.414826000000005]}},{"type":"Feature","properties":{"ZIP":"J2H1G4","VERTICES":4},"geometry":{"type":"Point","coordinates":[-72.7290075,45.3794325]}},{"type":"Feature","properties":{"ZIP":"J2H1C9","VERTICES":4},"geometry":{"type":"Point","coordinates":[-72.728792,45.380607]}},{"type":"Feature","properties":{"ZIP":"J2H1R4","VERTICES":4},"geometry":{"type":"Point","coordinates":[-72.7079695,45.4230895]}}]}