{"type":"FeatureCollection","features":[{"type":"Feature","properties":{"ZIP":"L6C0H5"},"geometry":{"type":"Point","coordinates":[-79.3742125,43.90215]}},{"type":"Feature","properties":{"ZIP":"L6C0G9"},"geometry":{"type":"Point","coordinates":[-79.37179499999999,43.887654]}},{"type":"Feature","properties":{"ZIP":"L6C2J1"},"geometry":{"type":"Point","coordinates":[-79.3702955,43.875333499999996]}},{"type":"Feature","properties":{"ZIP":"L6C0H7"},"geometry":{"type":"Point","coordinates":[-79.3744495,43.902947499999996]}},{"type":"Feature","properties":{"ZIP":"L6C0X4"},"geometry":{"type":"Point","coordinates":[-79.376015,43.909405]}},{"type":"Feature","properties":{"ZIP":"L6C0V1"},"geometry":{"type":"Point","coordinates":[-79.332195,43.891813]}},{"type":"Feature","properties":{"ZIP":"L6C0C5"},"geometry":{"type":"Point","coordinates":[-79.298127,43.9002185]}},{"type":"Feature","properties":{"ZIP":"L6C0K8"},"geometry":{"type":"Point","coordinates":[-79.37606650000001,43.887017]}},{"type":"Feature","properties":{"ZIP":"L6C0C8"},"geometry":{"type":"Point","coordinates":[-79.375602,43.897407]}},{"type":"Feature","properties":{"ZIP":"L6C0L1"},"geometry":{"type":"Point","coordinates":[-79.3765025,43.888584]}},{"type":"Feature","properties":{"ZIP":"L6C2J2"},"geometry":{"type":"Point","coordinates":[-79.370432,43.875885]}},{"type":"Feature","properties":{"ZIP":"L6C0N9"},"geometry":{"type":"Point","coordinates":[-79.3739015,43.8938195]}},{"type":"Feature","properties":{"ZIP":"L6C2H3"},"geometry":{"type":"Point","coordinates":[-79.3660565,43.874804]}},{"type":"Feature","properties":{"ZIP":"L6C0W4"},"geometry":{"type":"Point","coordinates":[-79.31018449999999,43.882472]}},{"type":"Feature","properties":{"ZIP":"L6C0A9"},"geometry":{"type":"Point","coordinates":[-79.2994915,43.887032500000004]}},{"type":"Feature","properties":{"ZIP":"L6C2A6"},"geometry":{"type":"Point","coordinates":[-79.32621800000001,43.8893065]}},{"type":"Feature","properties":{"ZIP":"L6C0E7"},"geometry":{"type":"Point","coordinates":[-79.37692799999999,43.903686]}},{"type":"Feature","properties":{"ZIP":"L6C2Y4"},"geometry":{"type":"Point","coordinates":[-79.310067,43.8952395]}},{"type":"Feature","properties":{"ZIP":"L6C2K5"},"geometry":{"type":"Point","coordinates":[-79.3709825,43.8776175]}},{"type":"Feature","properties":{"ZIP":"L6C2R7"},"geometry":{"type":"Point","coordinates":[-79.3013355,43.89972]}},{"type":"Feature","properties":{"ZIP":"L6C0N1"},"geometry":{"type":"Point","coordinates":[-79.293773,43.9033245]}},{"type":"Feature","properties":{"ZIP":"L6C2N4"},"geometry":{"type":"Point","coordinates":[-79.310773,43.898568499999996]}},{"type":"Feature","properties":{"ZIP":"L6C0G8"},"geometry":{"type":"Point","coordinates":[-79.3730005,43.8876475]}},{"type":"Feature","properties":{"ZIP":"L6C0W5"},"geometry":{"type":"Point","coordinates":[-79.313311,43.8805645]}},{"type":"Feature","properties":{"ZIP":"L6C0P5"},"geometry":{"type":"Point","coordinates":[-79.3328665,43.891555499999996]}},{"type":"Feature","properties":{"ZIP":"L6C3E1"},"geometry":{"type":"Point","coordinates":[-79.364216,43.893491499999996]}},{"type":"Feature","properties":{"ZIP":"L6C0J6"},"geometry":{"type":"Point","coordinates":[-79.374994,43.8918]}},{"type":"Feature","properties":{"ZIP":"L6C0V7"},"geometry":{"type":"Point","coordinates":[-79.303888,43.888863]}},{"type":"Feature","properties":{"ZIP":"L6C2M7"},"geometry":{"type":"Point","coordinates":[-79.3087755,43.898496]}},{"type":"Feature","properties":{"ZIP":"L6C3A7"},"geometry":{"type":"Point","coordinates":[-79.2954315,43.8950525]}},{"type":"Feature","properties":{"ZIP":"L6C1V9"},"geometry":{"type":"Point","coordinates":[-79.3474155,43.874256]}},{"type":"Feature","properties":{"ZIP":"L6C0M3"},"geometry":{"type":"Point","coordinates":[-79.37333949999999,43.8907575]}},{"type":"Feature","properties":{"ZIP":"L6C2Z5"},"geometry":{"type":"Point","coordinates":[-79.36753,43.8814615]}},{"type":"Feature","properties":{"ZIP":"L6C0B6"},"geometry":{"type":"Point","coordinates":[-79.293195,43.897818]}},{"type":"Feature","properties":{"ZIP":"L6C2Z6"},"geometry":{"type":"Point","coordinates":[-79.371201,43.8781885]}},{"type":"Feature","properties":{"ZIP":"L6C0N8"},"geometry":{"type":"Point","coordinates":[-79.3736965,43.89315]}},{"type":"Feature","properties":{"ZIP":"L6C0T4"},"geometry":{"type":"Point","coordinates":[-79.375602,43.9103055]}},{"type":"Feature","properties":{"ZIP":"L6C3A9"},"geometry":{"type":"Point","coordinates":[-79.29396750000001,43.894829]}},{"type":"Feature","properties":{"ZIP":"L6C2Z7"},"geometry":{"type":"Point","coordinates":[-79.37133800000001,43.878769]}},{"type":"Feature","properties":{"ZIP":"L6C2Z8"},"geometry":{"type":"Point","coordinates":[-79.29444649999999,43.8903675]}},{"type":"Feature","properties":{"ZIP":"L6C2J4"},"geometry":{"type":"Point","coordinates":[-79.2945125,43.888504499999996]}},{"type":"Feature","properties":{"ZIP":"L6C0H8"},"geometry":{"type":"Point","coordinates":[-79.37578049999999,43.9022935]}},{"type":"Feature","properties":{"ZIP":"L6C2B7"},"geometry":{"type":"Point","coordinates":[-79.31594799999999,43.8972455]}},{"type":"Feature","properties":{"ZIP":"L6C2H4"},"geometry":{"type":"Point","coordinates":[-79.3669555,43.8762375]}},{"type":"Feature","properties":{"ZIP":"L6C0K4"},"geometry":{"type":"Point","coordinates":[-79.3745725,43.896192]}},{"type":"Feature","properties":{"ZIP":"L6C2G2"},"geometry":{"type":"Point","coordinates":[-79.31451,43.895038]}},{"type":"Feature","properties":{"ZIP":"L6C2H5"},"geometry":{"type":"Point","coordinates":[-79.3675255,43.875371]}},{"type":"Feature","properties":{"ZIP":"L6C1Z1"},"geometry":{"type":"Point","coordinates":[-79.3190525,43.891349500000004]}},{"type":"Feature","properties":{"ZIP":"L6C2T3"},"geometry":{"type":"Point","coordinates":[-79.346217,43.8795365]}},{"type":"Feature","properties":{"ZIP":"L6C3B6"},"geometry":{"type":"Point","coordinates":[-79.2714895,43.89299]}},{"type":"Feature","properties":{"ZIP":"L6C0S8"},"geometry":{"type":"Point","coordinates":[-79.3113495,43.886731]}},{"type":"Feature","properties":{"ZIP":"L6C2X9"},"geometry":{"type":"Point","coordinates":[-79.2988945,43.8961585]}},{"type":"Feature","properties":{"ZIP":"L6C0J5"},"geometry":{"type":"Point","coordinates":[-79.3752145,43.891009999999994]}},{"type":"Feature","properties":{"ZIP":"L6C0E8"},"geometry":{"type":"Point","coordinates":[-79.3768965,43.904738]}},{"type":"Feature","properties":{"ZIP":"L6C1S1"},"geometry":{"type":"Point","coordinates":[-79.3577625,43.8783215]}},{"type":"Feature","properties":{"ZIP":"L6C2V7"},"geometry":{"type":"Point","coordinates":[-79.3701305,43.8726935]}},{"type":"Feature","properties":{"ZIP":"L6C2S4"},"geometry":{"type":"Point","coordinates":[-79.294981,43.8924995]}},{"type":"Feature","properties":{"ZIP":"L6C0M2"},"geometry":{"type":"Point","coordinates":[-79.3779145,43.88848]}},{"type":"Feature","properties":{"ZIP":"L6C2G6"},"geometry":{"type":"Point","coordinates":[-79.311303,43.8969665]}},{"type":"Feature","properties":{"ZIP":"L6C2C3"},"geometry":{"type":"Point","coordinates":[-79.2949725,43.885085000000004]}},{"type":"Feature","properties":{"ZIP":"L6C0V8"},"geometry":{"type":"Point","coordinates":[-79.3052115,43.882204]}},{"type":"Feature","properties":{"ZIP":"L6C0B5"},"geometry":{"type":"Point","coordinates":[-79.2936455,43.8987065]}},{"type":"Feature","properties":{"ZIP":"L6C0C9"},"geometry":{"type":"Point","coordinates":[-79.374334,43.898495]}},{"type":"Feature","properties":{"ZIP":"L6C0T3"},"geometry":{"type":"Point","coordinates":[-79.31025249999999,43.883173]}},{"type":"Feature","properties":{"ZIP":"L6C2C4"},"geometry":{"type":"Point","coordinates":[-79.319351,43.893283499999995]}},{"type":"Feature","properties":{"ZIP":"L6C0L2"},"geometry":{"type":"Point","coordinates":[-79.37384399999999,43.907677500000005]}},{"type":"Feature","properties":{"ZIP":"L6C2K3"},"geometry":{"type":"Point","coordinates":[-79.370655,43.8767405]}},{"type":"Feature","properties":{"ZIP":"L6C3J1"},"geometry":{"type":"Point","coordinates":[-79.3652225,43.895005]}},{"type":"Feature","properties":{"ZIP":"L6C2L7"},"geometry":{"type":"Point","coordinates":[-79.30670950000001,43.890215]}},{"type":"Feature","properties":{"ZIP":"L6C0E2"},"geometry":{"type":"Point","coordinates":[-79.3741795,43.906177]}},{"type":"Feature","properties":{"ZIP":"L6C1H4"},"geometry":{"type":"Point","coordinates":[-79.338453,43.8869355]}},{"type":"Feature","properties":{"ZIP":"L6C0A6"},"geometry":{"type":"Point","coordinates":[-79.3746385,43.8975305]}},{"type":"Feature","properties":{"ZIP":"L6C0L4"},"geometry":{"type":"Point","coordinates":[-79.33506700000001,43.893175]}},{"type":"Feature","properties":{"ZIP":"L6C0T6"},"geometry":{"type":"Point","coordinates":[-79.37601649999999,43.910351500000004]}},{"type":"Feature","properties":{"ZIP":"L6C2N2"},"geometry":{"type":"Point","coordinates":[-79.30565999999999,43.898720999999995]}},{"type":"Feature","properties":{"ZIP":"L6C0R3"},"geometry":{"type":"Point","coordinates":[-79.30496450000001,43.886482]}},{"type":"Feature","properties":{"ZIP":"L6C2K6"},"geometry":{"type":"Point","coordinates":[-79.366342,43.877223]}},{"type":"Feature","properties":{"ZIP":"L6C2Y7"},"geometry":{"type":"Point","coordinates":[-79.3719695,43.8800225]}},{"type":"Feature","properties":{"ZIP":"L6C0K3"},"geometry":{"type":"Point","coordinates":[-79.377717,43.895934]}},{"type":"Feature","properties":{"ZIP":"L6C2C8"},"geometry":{"type":"Point","coordinates":[-79.292339,43.885861]}},{"type":"Feature","properties":{"ZIP":"L6C2T1"},"geometry":{"type":"Point","coordinates":[-79.29787350000001,43.8934695]}},{"type":"Feature","properties":{"ZIP":"L6C2X6"},"geometry":{"type":"Point","coordinates":[-79.3014815,43.8951625]}},{"type":"Feature","properties":{"ZIP":"L6C1W5"},"geometry":{"type":"Point","coordinates":[-79.351803,43.878222]}},{"type":"Feature","properties":{"ZIP":"L6C2K7"},"geometry":{"type":"Point","coordinates":[-79.3668345,43.878519999999995]}},{"type":"Feature","properties":{"ZIP":"L6C0S6"},"geometry":{"type":"Point","coordinates":[-79.308115,43.8876725]}},{"type":"Feature","properties":{"ZIP":"L6C1W6"},"geometry":{"type":"Point","coordinates":[-79.3555365,43.8811195]}},{"type":"Feature","properties":{"ZIP":"L6C2V4"},"geometry":{"type":"Point","coordinates":[-79.3698125,43.8741525]}},{"type":"Feature","properties":{"ZIP":"L6C0X7"},"geometry":{"type":"Point","coordinates":[-79.3128085,43.8796915]}},{"type":"Feature","properties":{"ZIP":"L6C2R9"},"geometry":{"type":"Point","coordinates":[-79.302525,43.9007795]}},{"type":"Feature","properties":{"ZIP":"L6C2W6"},"geometry":{"type":"Point","coordinates":[-79.31084050000001,43.892561]}},{"type":"Feature","properties":{"ZIP":"L6C0T9"},"geometry":{"type":"Point","coordinates":[-79.3789145,43.9086135]}},{"type":"Feature","properties":{"ZIP":"L6C2J7"},"geometry":{"type":"Point","coordinates":[-79.2941675,43.8892355]}},{"type":"Feature","properties":{"ZIP":"L6C2V5"},"geometry":{"type":"Point","coordinates":[-79.3698445,43.8734025]}},{"type":"Feature","properties":{"ZIP":"L6C2Z1"},"geometry":{"type":"Point","coordinates":[-79.37154699999999,43.881350499999996]}},{"type":"Feature","properties":{"ZIP":"L6C0J4"},"geometry":{"type":"Point","coordinates":[-79.373617,43.8915975]}},{"type":"Feature","properties":{"ZIP":"L6C0N3"},"geometry":{"type":"Point","coordinates":[-79.2924335,43.904075500000005]}},{"type":"Feature","properties":{"ZIP":"L6C1X9"},"geometry":{"type":"Point","coordinates":[-79.34373400000001,43.875609499999996]}},{"type":"Feature","properties":{"ZIP":"L6C2H6"},"geometry":{"type":"Point","coordinates":[-79.36612099999999,43.8755945]}},{"type":"Feature","properties":{"ZIP":"L6C3A4"},"geometry":{"type":"Point","coordinates":[-79.3706075,43.883606]}},{"type":"Feature","properties":{"ZIP":"L6C2J8"},"geometry":{"type":"Point","coordinates":[-79.296211,43.8883335]}},{"type":"Feature","properties":{"ZIP":"L6C0B2"},"geometry":{"type":"Point","coordinates":[-79.3029305,43.8881545]}},{"type":"Feature","properties":{"ZIP":"L6C2V6"},"geometry":{"type":"Point","coordinates":[-79.368678,43.87295]}},{"type":"Feature","properties":{"ZIP":"L6C1Y1"},"geometry":{"type":"Point","coordinates":[-79.341948,43.8767395]}},{"type":"Feature","properties":{"ZIP":"L6C2W8"},"geometry":{"type":"Point","coordinates":[-79.301911,43.897031]}},{"type":"Feature","properties":{"ZIP":"L6C2J9"},"geometry":{"type":"Point","coordinates":[-79.29695699999999,43.8894225]}},{"type":"Feature","properties":{"ZIP":"L6C2N7"},"geometry":{"type":"Point","coordinates":[-79.3162445,43.8927295]}},{"type":"Feature","properties":{"ZIP":"L6C0R8"},"geometry":{"type":"Point","coordinates":[-79.3062845,43.883677]}},{"type":"Feature","properties":{"ZIP":"L6C2G5"},"geometry":{"type":"Point","coordinates":[-79.311786,43.898689000000005]}},{"type":"Feature","properties":{"ZIP":"L6C0N5"},"geometry":{"type":"Point","coordinates":[-79.374525,43.894777500000004]}},{"type":"Feature","properties":{"ZIP":"L6C2M5"},"geometry":{"type":"Point","coordinates":[-79.3069285,43.8919415]}},{"type":"Feature","properties":{"ZIP":"L6C0K9"},"geometry":{"type":"Point","coordinates":[-79.37635700000001,43.888200499999996]}},{"type":"Feature","properties":{"ZIP":"L6C0B4"},"geometry":{"type":"Point","coordinates":[-79.27409,43.9349455]}},{"type":"Feature","properties":{"ZIP":"L6C1X1"},"geometry":{"type":"Point","coordinates":[-79.3518825,43.873185500000005]}},{"type":"Feature","properties":{"ZIP":"L6C2V8"},"geometry":{"type":"Point","coordinates":[-79.31999250000001,43.8944775]}},{"type":"Feature","properties":{"ZIP":"L6C0J7"},"geometry":{"type":"Point","coordinates":[-79.373144,43.892199000000005]}},{"type":"Feature","properties":{"ZIP":"L6C3C2"},"geometry":{"type":"Point","coordinates":[-79.3649605,43.8889025]}},{"type":"Feature","properties":{"ZIP":"L6C2V9"},"geometry":{"type":"Point","coordinates":[-79.320665,43.8952805]}},{"type":"Feature","properties":{"ZIP":"L6C2A1"},"geometry":{"type":"Point","coordinates":[-79.32454200000001,43.891161999999994]}},{"type":"Feature","properties":{"ZIP":"L6C2L6"},"geometry":{"type":"Point","coordinates":[-79.30849,43.8900165]}},{"type":"Feature","properties":{"ZIP":"L6C2S7"},"geometry":{"type":"Point","coordinates":[-79.2957945,43.893583]}},{"type":"Feature","properties":{"ZIP":"L6C0L3"},"geometry":{"type":"Point","coordinates":[-79.3740085,43.908397]}},{"type":"Feature","properties":{"ZIP":"L6C0H6"},"geometry":{"type":"Point","coordinates":[-79.375496,43.9016695]}},{"type":"Feature","properties":{"ZIP":"L6C0M7"},"geometry":{"type":"Point","coordinates":[-79.292915,43.9017645]}},{"type":"Feature","properties":{"ZIP":"L6C0K1"},"geometry":{"type":"Point","coordinates":[-79.3353005,43.889776]}},{"type":"Feature","properties":{"ZIP":"L6C0B8"},"geometry":{"type":"Point","coordinates":[-79.29432349999999,43.89620549999999]}},{"type":"Feature","properties":{"ZIP":"L6C2B5"},"geometry":{"type":"Point","coordinates":[-79.3151595,43.8966925]}},{"type":"Feature","properties":{"ZIP":"L6C2X5"},"geometry":{"type":"Point","coordinates":[-79.2987415,43.895081]}},{"type":"Feature","properties":{"ZIP":"L6C1M3"},"geometry":{"type":"Point","coordinates":[-79.28986900000001,43.9426125]}},{"type":"Feature","properties":{"ZIP":"L6C2W4"},"geometry":{"type":"Point","coordinates":[-79.30152849999999,43.8941535]}},{"type":"Feature","properties":{"ZIP":"L6C2Z9"},"geometry":{"type":"Point","coordinates":[-79.37098399999999,43.882815]}},{"type":"Feature","properties":{"ZIP":"L6C1R6"},"geometry":{"type":"Point","coordinates":[-79.3624585,43.87578]}},{"type":"Feature","properties":{"ZIP":"L6C3C7"},"geometry":{"type":"Point","coordinates":[-79.36644100000001,43.893373]}},{"type":"Feature","properties":{"ZIP":"L6C0X6"},"geometry":{"type":"Point","coordinates":[-79.31147150000001,43.881222]}},{"type":"Feature","properties":{"ZIP":"L6C3G2"},"geometry":{"type":"Point","coordinates":[-79.293239,43.890431]}},{"type":"Feature","properties":{"ZIP":"L6C0T8"},"geometry":{"type":"Point","coordinates":[-79.377673,43.9093515]}},{"type":"Feature","properties":{"ZIP":"L6C2J6"},"geometry":{"type":"Point","coordinates":[-79.2908425,43.888631000000004]}},{"type":"Feature","properties":{"ZIP":"L6C3B4"},"geometry":{"type":"Point","coordinates":[-79.32267200000001,43.894264500000006]}},{"type":"Feature","properties":{"ZIP":"L6C0R5"},"geometry":{"type":"Point","coordinates":[-79.305717,43.8877315]}},{"type":"Feature","properties":{"ZIP":"L6C0J3"},"geometry":{"type":"Point","coordinates":[-79.3715875,43.891546]}},{"type":"Feature","properties":{"ZIP":"L6C1G1"},"geometry":{"type":"Point","coordinates":[-79.3600095,43.8833695]}},{"type":"Feature","properties":{"ZIP":"L6C2M2"},"geometry":{"type":"Point","coordinates":[-79.309808,43.891205]}},{"type":"Feature","properties":{"ZIP":"L6C0P4"},"geometry":{"type":"Point","coordinates":[-79.3046895,43.8837515]}},{"type":"Feature","properties":{"ZIP":"L6C2N5"},"geometry":{"type":"Point","coordinates":[-79.3070655,43.896763]}},{"type":"Feature","properties":{"ZIP":"L6C0L8"},"geometry":{"type":"Point","coordinates":[-79.3682505,43.898573]}},{"type":"Feature","properties":{"ZIP":"L6C2P7"},"geometry":{"type":"Point","coordinates":[-79.3119835,43.895157499999996]}},{"type":"Feature","properties":{"ZIP":"L6C1G2"},"geometry":{"type":"Point","coordinates":[-79.3548165,43.887112]}},{"type":"Feature","properties":{"ZIP":"L6C2S1"},"geometry":{"type":"Point","coordinates":[-79.298159,43.8943895]}},{"type":"Feature","properties":{"ZIP":"L6C1J1"},"geometry":{"type":"Point","coordinates":[-79.369576,43.895565500000004]}},{"type":"Feature","properties":{"ZIP":"L6C1V6"},"geometry":{"type":"Point","coordinates":[-79.3502335,43.8737725]}},{"type":"Feature","properties":{"ZIP":"L6C1Z2"},"geometry":{"type":"Point","coordinates":[-79.3212925,43.891911]}},{"type":"Feature","properties":{"ZIP":"L6C2E2"},"geometry":{"type":"Point","coordinates":[-79.315627,43.888412]}},{"type":"Feature","properties":{"ZIP":"L6C1W8"},"geometry":{"type":"Point","coordinates":[-79.3538725,43.882082]}},{"type":"Feature","properties":{"ZIP":"L6C2M4"},"geometry":{"type":"Point","coordinates":[-79.307673,43.89169]}},{"type":"Feature","properties":{"ZIP":"L6C1Z3"},"geometry":{"type":"Point","coordinates":[-79.322219,43.89099]}},{"type":"Feature","properties":{"ZIP":"L6C2Y1"},"geometry":{"type":"Point","coordinates":[-79.2996065,43.897487999999996]}},{"type":"Feature","properties":{"ZIP":"L6C1Y2"},"geometry":{"type":"Point","coordinates":[-79.3469335,43.875879499999996]}},{"type":"Feature","properties":{"ZIP":"L6C0P7"},"geometry":{"type":"Point","coordinates":[-79.30252150000001,43.8839865]}},{"type":"Feature","properties":{"ZIP":"L6C2E4"},"geometry":{"type":"Point","coordinates":[-79.31423050000001,43.888349500000004]}},{"type":"Feature","properties":{"ZIP":"L6C2N8"},"geometry":{"type":"Point","coordinates":[-79.3166035,43.893847]}},{"type":"Feature","properties":{"ZIP":"L6C2Y2"},"geometry":{"type":"Point","coordinates":[-79.3110385,43.894021]}},{"type":"Feature","properties":{"ZIP":"L6C3C1"},"geometry":{"type":"Point","coordinates":[-79.365209,43.887815]}},{"type":"Feature","properties":{"ZIP":"L6C0T2"},"geometry":{"type":"Point","coordinates":[-79.310642,43.885373]}},{"type":"Feature","properties":{"ZIP":"L6C0S1"},"geometry":{"type":"Point","coordinates":[-79.30748,43.8846285]}},{"type":"Feature","properties":{"ZIP":"L6C2G7"},"geometry":{"type":"Point","coordinates":[-79.310996,43.897617999999994]}},{"type":"Feature","properties":{"ZIP":"L6C0J8"},"geometry":{"type":"Point","coordinates":[-79.3705585,43.891757999999996]}},{"type":"Feature","properties":{"ZIP":"L6C0N7"},"geometry":{"type":"Point","coordinates":[-79.3685695,43.9000875]}},{"type":"Feature","properties":{"ZIP":"L6C1A5"},"geometry":{"type":"Point","coordinates":[-79.3702385,43.906310000000005]}},{"type":"Feature","properties":{"ZIP":"L6C2X2"},"geometry":{"type":"Point","coordinates":[-79.303532,43.8964735]}},{"type":"Feature","properties":{"ZIP":"L6C3G8"},"geometry":{"type":"Point","coordinates":[-79.3630615,43.891760500000004]}},{"type":"Feature","properties":{"ZIP":"L6C1W1"},"geometry":{"type":"Point","coordinates":[-79.348183,43.874592]}},{"type":"Feature","properties":{"ZIP":"L6C2E6"},"geometry":{"type":"Point","coordinates":[-79.3124915,43.888726]}},{"type":"Feature","properties":{"ZIP":"L6C0S2"},"geometry":{"type":"Point","coordinates":[-79.3079015,43.8851995]}},{"type":"Feature","properties":{"ZIP":"L6C2B3"},"geometry":{"type":"Point","coordinates":[-79.31711100000001,43.894863]}},{"type":"Feature","properties":{"ZIP":"L6C2G8"},"geometry":{"type":"Point","coordinates":[-79.3115075,43.896369]}},{"type":"Feature","properties":{"ZIP":"L6C2R4"},"geometry":{"type":"Point","coordinates":[-79.30194900000001,43.898779000000005]}},{"type":"Feature","properties":{"ZIP":"L6C2W1"},"geometry":{"type":"Point","coordinates":[-79.319952,43.8957235]}},{"type":"Feature","properties":{"ZIP":"L6C0J9"},"geometry":{"type":"Point","coordinates":[-79.3170065,43.880198]}},{"type":"Feature","properties":{"ZIP":"L6C0G3"},"geometry":{"type":"Point","coordinates":[-79.378466,43.907615]}},{"type":"Feature","properties":{"ZIP":"L6C2T9"},"geometry":{"type":"Point","coordinates":[-79.30115,43.8935225]}},{"type":"Feature","properties":{"ZIP":"L6C0B7"},"geometry":{"type":"Point","coordinates":[-79.29350550000001,43.8978905]}},{"type":"Feature","properties":{"ZIP":"L6C0S3"},"geometry":{"type":"Point","coordinates":[-79.3087875,43.886289500000004]}},{"type":"Feature","properties":{"ZIP":"L6C0X3"},"geometry":{"type":"Point","coordinates":[-79.3143005,43.886583]}},{"type":"Feature","properties":{"ZIP":"L6C1M1"},"geometry":{"type":"Point","coordinates":[-79.312723,43.93715]}},{"type":"Feature","properties":{"ZIP":"L6C2B4"},"geometry":{"type":"Point","coordinates":[-79.3148745,43.896126]}},{"type":"Feature","properties":{"ZIP":"L6C3E7"},"geometry":{"type":"Point","coordinates":[-79.29613950000001,43.8956865]}},{"type":"Feature","properties":{"ZIP":"L6C1Y6"},"geometry":{"type":"Point","coordinates":[-79.35391200000001,43.8797665]}},{"type":"Feature","properties":{"ZIP":"L6C2X4"},"geometry":{"type":"Point","coordinates":[-79.3011535,43.894552000000004]}},{"type":"Feature","properties":{"ZIP":"L6C0W2"},"geometry":{"type":"Point","coordinates":[-79.3080175,43.882267999999996]}},{"type":"Feature","properties":{"ZIP":"L6C2V1"},"geometry":{"type":"Point","coordinates":[-79.300058,43.892782499999996]}},{"type":"Feature","properties":{"ZIP":"L6C2Y6"},"geometry":{"type":"Point","coordinates":[-79.37227899999999,43.879357]}},{"type":"Feature","properties":{"ZIP":"L6C2H2"},"geometry":{"type":"Point","coordinates":[-79.36635,43.874864]}},{"type":"Feature","properties":{"ZIP":"L6C2S9"},"geometry":{"type":"Point","coordinates":[-79.2973495,43.8936375]}},{"type":"Feature","properties":{"ZIP":"L6C3H2"},"geometry":{"type":"Point","coordinates":[-79.365764,43.895443]}},{"type":"Feature","properties":{"ZIP":"L6C0L5"},"geometry":{"type":"Point","coordinates":[-79.336964,43.892616000000004]}},{"type":"Feature","properties":{"ZIP":"L6C1R5"},"geometry":{"type":"Point","coordinates":[-79.362302,43.875926]}},{"type":"Feature","properties":{"ZIP":"L6C1X6"},"geometry":{"type":"Point","coordinates":[-79.3405205,43.875079]}},{"type":"Feature","properties":{"ZIP":"L6C2L9"},"geometry":{"type":"Point","coordinates":[-79.3049595,43.889979]}},{"type":"Feature","properties":{"ZIP":"L6C0P2"},"geometry":{"type":"Point","coordinates":[-79.37418149999999,43.894987]}},{"type":"Feature","properties":{"ZIP":"L6C2J5"},"geometry":{"type":"Point","coordinates":[-79.292941,43.8878855]}},{"type":"Feature","properties":{"ZIP":"L6C3B3"},"geometry":{"type":"Point","coordinates":[-79.32291699999999,43.8941435]}},{"type":"Feature","properties":{"ZIP":"L6C0A8"},"geometry":{"type":"Point","coordinates":[-79.301452,43.887667]}},{"type":"Feature","properties":{"ZIP":"L6C2G1"},"geometry":{"type":"Point","coordinates":[-79.309403,43.8894925]}},{"type":"Feature","properties":{"ZIP":"L6C2V3"},"geometry":{"type":"Point","coordinates":[-79.30237299999999,43.8925305]}},{"type":"Feature","properties":{"ZIP":"L6C0C2"},"geometry":{"type":"Point","coordinates":[-79.3106475,43.891159]}},{"type":"Feature","properties":{"ZIP":"L6C0J2"},"geometry":{"type":"Point","coordinates":[-79.36957749999999,43.89084149999999]}},{"type":"Feature","properties":{"ZIP":"L6C1E9"},"geometry":{"type":"Point","coordinates":[-79.3613015,43.882937]}},{"type":"Feature","properties":{"ZIP":"L6C1X7"},"geometry":{"type":"Point","coordinates":[-79.341794,43.876216]}},{"type":"Feature","properties":{"ZIP":"L6C2M1"},"geometry":{"type":"Point","coordinates":[-79.27326049999999,43.892309499999996]}},{"type":"Feature","properties":{"ZIP":"L6C2W5"},"geometry":{"type":"Point","coordinates":[-79.3028535,43.893989000000005]}},{"type":"Feature","properties":{"ZIP":"L6C3A2"},"geometry":{"type":"Point","coordinates":[-79.371205,43.884185]}},{"type":"Feature","properties":{"ZIP":"L6C0E5"},"geometry":{"type":"Point","coordinates":[-79.37446700000001,43.9037665]}},{"type":"Feature","properties":{"ZIP":"L6C1P1"},"geometry":{"type":"Point","coordinates":[-79.3265395,43.928090499999996]}},{"type":"Feature","properties":{"ZIP":"L6C2C9"},"geometry":{"type":"Point","coordinates":[-79.2918705,43.8853335]}},{"type":"Feature","properties":{"ZIP":"L6C2X7"},"geometry":{"type":"Point","coordinates":[-79.30165450000001,43.8959185]}},{"type":"Feature","properties":{"ZIP":"L6C3H4"},"geometry":{"type":"Point","coordinates":[-79.365428,43.896332]}},{"type":"Feature","properties":{"ZIP":"L6C0L7"},"geometry":{"type":"Point","coordinates":[-79.3662515,43.8987345]}},{"type":"Feature","properties":{"ZIP":"L6C1R7"},"geometry":{"type":"Point","coordinates":[-79.3627865,43.875033]}},{"type":"Feature","properties":{"ZIP":"L6C2K8"},"geometry":{"type":"Point","coordinates":[-79.36701199999999,43.87944]}},{"type":"Feature","properties":{"ZIP":"L6C1P2"},"geometry":{"type":"Point","coordinates":[-79.325774,43.925068499999995]}},{"type":"Feature","properties":{"ZIP":"L6C2X8"},"geometry":{"type":"Point","coordinates":[-79.3003075,43.895835000000005]}},{"type":"Feature","properties":{"ZIP":"L6C0W6"},"geometry":{"type":"Point","coordinates":[-79.3134745,43.883157999999995]}},{"type":"Feature","properties":{"ZIP":"L6C1L2"},"geometry":{"type":"Point","coordinates":[-79.357025,43.9077165]}},{"type":"Feature","properties":{"ZIP":"L6C1R8"},"geometry":{"type":"Point","coordinates":[-79.362558,43.8764235]}},{"type":"Feature","properties":{"ZIP":"L6C2A7"},"geometry":{"type":"Point","coordinates":[-79.319881,43.894042999999996]}},{"type":"Feature","properties":{"ZIP":"L6C2K9"},"geometry":{"type":"Point","coordinates":[-79.367098,43.8803955]}},{"type":"Feature","properties":{"ZIP":"L6C3C9"},"geometry":{"type":"Point","coordinates":[-79.3636735,43.8923915]}},{"type":"Feature","properties":{"ZIP":"L6C1M6"},"geometry":{"type":"Point","coordinates":[-79.341544,43.885428]}},{"type":"Feature","properties":{"ZIP":"L6C3G4"},"geometry":{"type":"Point","coordinates":[-79.2924995,43.891108]}},{"type":"Feature","properties":{"ZIP":"L6C2L2"},"geometry":{"type":"Point","coordinates":[-79.3479425,43.878596]}},{"type":"Feature","properties":{"ZIP":"L6C1A2"},"geometry":{"type":"Point","coordinates":[-79.3372165,43.883371999999994]}},{"type":"Feature","properties":{"ZIP":"L6C2C1"},"geometry":{"type":"Point","coordinates":[-79.295962,43.885538999999994]}},{"type":"Feature","properties":{"ZIP":"L6C3G5"},"geometry":{"type":"Point","coordinates":[-79.2928265,43.891108]}},{"type":"Feature","properties":{"ZIP":"L6C0A1"},"geometry":{"type":"Point","coordinates":[-79.3729405,43.8988825]}},{"type":"Feature","properties":{"ZIP":"L6C0V4"},"geometry":{"type":"Point","coordinates":[-79.30796050000001,43.883183]}},{"type":"Feature","properties":{"ZIP":"L6C1V7"},"geometry":{"type":"Point","coordinates":[-79.3492305,43.8720455]}},{"type":"Feature","properties":{"ZIP":"L6C2T5"},"geometry":{"type":"Point","coordinates":[-79.297016,43.8921215]}},{"type":"Feature","properties":{"ZIP":"L6C0H2"},"geometry":{"type":"Point","coordinates":[-79.37131249999999,43.888566999999995]}},{"type":"Feature","properties":{"ZIP":"L6C0W8"},"geometry":{"type":"Point","coordinates":[-79.3203925,43.874221000000006]}},{"type":"Feature","properties":{"ZIP":"L6C0C7"},"geometry":{"type":"Point","coordinates":[-79.3749265,43.8992435]}},{"type":"Feature","properties":{"ZIP":"L6C2W9"},"geometry":{"type":"Point","coordinates":[-79.3086325,43.8929735]}},{"type":"Feature","properties":{"ZIP":"L6C3A6"},"geometry":{"type":"Point","coordinates":[-79.370395,43.883236499999995]}},{"type":"Feature","properties":{"ZIP":"L6C3G6"},"geometry":{"type":"Point","coordinates":[-79.3663315,43.890294]}},{"type":"Feature","properties":{"ZIP":"L6C2K1"},"geometry":{"type":"Point","coordinates":[-79.29221799999999,43.888704000000004]}},{"type":"Feature","properties":{"ZIP":"L6C2T6"},"geometry":{"type":"Point","coordinates":[-79.29894350000001,43.89169750000001]}},{"type":"Feature","properties":{"ZIP":"L6C2Z4"},"geometry":{"type":"Point","coordinates":[-79.367684,43.882397]}},{"type":"Feature","properties":{"ZIP":"L6C0N6"},"geometry":{"type":"Point","coordinates":[-79.3746575,43.895286]}},{"type":"Feature","properties":{"ZIP":"L6C0P8"},"geometry":{"type":"Point","coordinates":[-79.30469500000001,43.8848465]}},{"type":"Feature","properties":{"ZIP":"L6C2E5"},"geometry":{"type":"Point","coordinates":[-79.313333,43.88853]}},{"type":"Feature","properties":{"ZIP":"L6C3H9"},"geometry":{"type":"Point","coordinates":[-79.3668125,43.896364]}},{"type":"Feature","properties":{"ZIP":"L6C0H4"},"geometry":{"type":"Point","coordinates":[-79.374178,43.9011565]}},{"type":"Feature","properties":{"ZIP":"L6C0X1"},"geometry":{"type":"Point","coordinates":[-79.3138905,43.8839335]}},{"type":"Feature","properties":{"ZIP":"L6C1X2"},"geometry":{"type":"Point","coordinates":[-79.3470725,43.8721685]}},{"type":"Feature","properties":{"ZIP":"L6C2B2"},"geometry":{"type":"Point","coordinates":[-79.3170195,43.895897000000005]}},{"type":"Feature","properties":{"ZIP":"L6C2S6"},"geometry":{"type":"Point","coordinates":[-79.294806,43.892973]}},{"type":"Feature","properties":{"ZIP":"L6C0A4"},"geometry":{"type":"Point","coordinates":[-79.371269,43.897737000000006]}},{"type":"Feature","properties":{"ZIP":"L6C0P9"},"geometry":{"type":"Point","coordinates":[-79.303313,43.88576]}},{"type":"Feature","properties":{"ZIP":"L6C0V9"},"geometry":{"type":"Point","coordinates":[-79.306837,43.8819]}},{"type":"Feature","properties":{"ZIP":"L6C1R2"},"geometry":{"type":"Point","coordinates":[-79.363309,43.8784565]}},{"type":"Feature","properties":{"ZIP":"L6C2T8"},"geometry":{"type":"Point","coordinates":[-79.2996965,43.893566500000006]}},{"type":"Feature","properties":{"ZIP":"L6C0X2"},"geometry":{"type":"Point","coordinates":[-79.3139765,43.884586]}},{"type":"Feature","properties":{"ZIP":"L6C1S4"},"geometry":{"type":"Point","coordinates":[-79.35524649999999,43.874265]}},{"type":"Feature","properties":{"ZIP":"L6C1X3"},"geometry":{"type":"Point","coordinates":[-79.34404599999999,43.8725545]}},{"type":"Feature","properties":{"ZIP":"L6C1N6"},"geometry":{"type":"Point","coordinates":[-79.3147125,43.881302500000004]}},{"type":"Feature","properties":{"ZIP":"L6C1Y5"},"geometry":{"type":"Point","coordinates":[-79.3498075,43.877781999999996]}},{"type":"Feature","properties":{"ZIP":"L6C2C5"},"geometry":{"type":"Point","coordinates":[-79.2913475,43.887233499999994]}},{"type":"Feature","properties":{"ZIP":"L6C0W1"},"geometry":{"type":"Point","coordinates":[-79.3141655,43.8789035]}},{"type":"Feature","properties":{"ZIP":"L6C2K4"},"geometry":{"type":"Point","coordinates":[-79.37082799999999,43.87708]}},{"type":"Feature","properties":{"ZIP":"L6C1E5"},"geometry":{"type":"Point","coordinates":[-79.34798950000001,43.8875485]}},{"type":"Feature","properties":{"ZIP":"L6C1S5"},"geometry":{"type":"Point","coordinates":[-79.363665,43.878883]}},{"type":"Feature","properties":{"ZIP":"L6C2G9"},"geometry":{"type":"Point","coordinates":[-79.31082649999999,43.895725999999996]}},{"type":"Feature","properties":{"ZIP":"L6C2R5"},"geometry":{"type":"Point","coordinates":[-79.30234949999999,43.898331999999996]}},{"type":"Feature","properties":{"ZIP":"L6C2C6"},"geometry":{"type":"Point","coordinates":[-79.29168849999999,43.887254999999996]}},{"type":"Feature","properties":{"ZIP":"L6C1R4"},"geometry":{"type":"Point","coordinates":[-79.3603785,43.878955000000005]}},{"type":"Feature","properties":{"ZIP":"L6C1W3"},"geometry":{"type":"Point","coordinates":[-79.35158799999999,43.876527499999995]}},{"type":"Feature","properties":{"ZIP":"L6C2E8"},"geometry":{"type":"Point","coordinates":[-79.3109515,43.889102]}},{"type":"Feature","properties":{"ZIP":"L6C2P3"},"geometry":{"type":"Point","coordinates":[-79.31541150000001,43.891945500000006]}},{"type":"Feature","properties":{"ZIP":"L6C1X5"},"geometry":{"type":"Point","coordinates":[-79.345361,43.875153]}},{"type":"Feature","properties":{"ZIP":"L6C2L8"},"geometry":{"type":"Point","coordinates":[-79.3062195,43.890773]}},{"type":"Feature","properties":{"ZIP":"L6C2R6"},"geometry":{"type":"Point","coordinates":[-79.3006325,43.898746]}},{"type":"Feature","properties":{"ZIP":"L6C0K2"},"geometry":{"type":"Point","coordinates":[-79.373666,43.9071955]}},{"type":"Feature","properties":{"ZIP":"L6C0P1"},"geometry":{"type":"Point","coordinates":[-79.37553299999999,43.8928425]}},{"type":"Feature","properties":{"ZIP":"L6C2C7"},"geometry":{"type":"Point","coordinates":[-79.29043300000001,43.886208499999995]}},{"type":"Feature","properties":{"ZIP":"L6C3B2"},"geometry":{"type":"Point","coordinates":[-79.294459,43.8913575]}},{"type":"Feature","properties":{"ZIP":"L6C0A7"},"geometry":{"type":"Point","coordinates":[-79.37513000000001,43.898878999999994]}},{"type":"Feature","properties":{"ZIP":"L6C2E9"},"geometry":{"type":"Point","coordinates":[-79.310167,43.8892845]}},{"type":"Feature","properties":{"ZIP":"L6C2P4"},"geometry":{"type":"Point","coordinates":[-79.3128605,43.892451]}},{"type":"Feature","properties":{"ZIP":"L6C0B9"},"geometry":{"type":"Point","coordinates":[-79.2932595,43.896443500000004]}},{"type":"Feature","properties":{"ZIP":"L6C0E4"},"geometry":{"type":"Point","coordinates":[-79.37427600000001,43.904746]}},{"type":"Feature","properties":{"ZIP":"L6C1V2"},"geometry":{"type":"Point","coordinates":[-79.3594195,43.8804255]}},{"type":"Feature","properties":{"ZIP":"L6C1Y8"},"geometry":{"type":"Point","coordinates":[-79.34597099999999,43.894247500000006]}},{"type":"Feature","properties":{"ZIP":"L6C0L6"},"geometry":{"type":"Point","coordinates":[-79.36753350000001,43.897565]}},{"type":"Feature","properties":{"ZIP":"L6C2P5"},"geometry":{"type":"Point","coordinates":[-79.31207950000001,43.893305999999995]}},{"type":"Feature","properties":{"ZIP":"L6C1M4"},"geometry":{"type":"Point","coordinates":[-79.28986800000001,43.9426125]}},{"type":"Feature","properties":{"ZIP":"L6C1S8"},"geometry":{"type":"Point","coordinates":[-79.35583,43.872474]}},{"type":"Feature","properties":{"ZIP":"L6C1C5"},"geometry":{"type":"Point","coordinates":[-79.30344249999999,43.884203]}},{"type":"Feature","properties":{"ZIP":"L6C3C8"},"geometry":{"type":"Point","coordinates":[-79.3645535,43.8927115]}},{"type":"Feature","properties":{"ZIP":"L6C0N2"},"geometry":{"type":"Point","coordinates":[-79.2941745,43.902347]}},{"type":"Feature","properties":{"ZIP":"L6C3A3"},"geometry":{"type":"Point","coordinates":[-79.3690035,43.884459]}},{"type":"Feature","properties":{"ZIP":"L6C3G3"},"geometry":{"type":"Point","coordinates":[-79.2924285,43.890435]}},{"type":"Feature","properties":{"ZIP":"L6C0E6"},"geometry":{"type":"Point","coordinates":[-79.3760715,43.9041045]}},{"type":"Feature","properties":{"ZIP":"L6C1B2"},"geometry":{"type":"Point","coordinates":[-79.36429150000001,43.882768999999996]}},{"type":"Feature","properties":{"ZIP":"L6C0B1"},"geometry":{"type":"Point","coordinates":[-79.30185900000001,43.8884305]}},{"type":"Feature","properties":{"ZIP":"L6C0R6"},"geometry":{"type":"Point","coordinates":[-79.305832,43.8883745]}},{"type":"Feature","properties":{"ZIP":"L6C1W7"},"geometry":{"type":"Point","coordinates":[-79.354107,43.878013499999994]}},{"type":"Feature","properties":{"ZIP":"L6C2G3"},"geometry":{"type":"Point","coordinates":[-79.3138935,43.895495]}},{"type":"Feature","properties":{"ZIP":"L6C2W7"},"geometry":{"type":"Point","coordinates":[-79.300015,43.891039]}},{"type":"Feature","properties":{"ZIP":"L6C1B3"},"geometry":{"type":"Point","coordinates":[-79.3446685,43.884611500000005]}},{"type":"Feature","properties":{"ZIP":"L6C3H6"},"geometry":{"type":"Point","coordinates":[-79.3663155,43.897463]}},{"type":"Feature","properties":{"ZIP":"L6C0L9"},"geometry":{"type":"Point","coordinates":[-79.36925550000001,43.8993225]}},{"type":"Feature","properties":{"ZIP":"L6C0R7"},"geometry":{"type":"Point","coordinates":[-79.3060945,43.882693]}},{"type":"Feature","properties":{"ZIP":"L6C0W7"},"geometry":{"type":"Point","coordinates":[-79.312894,43.883994]}},{"type":"Feature","properties":{"ZIP":"L6C2A8"},"geometry":{"type":"Point","coordinates":[-79.3189285,43.8918155]}},{"type":"Feature","properties":{"ZIP":"L6C2G4"},"geometry":{"type":"Point","coordinates":[-79.3129605,43.8980105]}},{"type":"Feature","properties":{"ZIP":"L6C2P8"},"geometry":{"type":"Point","coordinates":[-79.3366125,43.878803]}},{"type":"Feature","properties":{"ZIP":"L6C1G3"},"geometry":{"type":"Point","coordinates":[-79.3548275,43.887178500000005]}},{"type":"Feature","properties":{"ZIP":"L6C2H7"},"geometry":{"type":"Point","coordinates":[-79.367984,43.8738495]}},{"type":"Feature","properties":{"ZIP":"L6C3A5"},"geometry":{"type":"Point","coordinates":[-79.367887,43.883542500000004]}},{"type":"Feature","properties":{"ZIP":"L6C1L4"},"geometry":{"type":"Point","coordinates":[-79.32881,43.914728499999995]}},{"type":"Feature","properties":{"ZIP":"L6C2L3"},"geometry":{"type":"Point","coordinates":[-79.34485749999999,43.878855]}},{"type":"Feature","properties":{"ZIP":"L6C2R1"},"geometry":{"type":"Point","coordinates":[-79.3042715,43.899279500000006]}},{"type":"Feature","properties":{"ZIP":"L6C3E2"},"geometry":{"type":"Point","coordinates":[-79.3658145,43.894433]}},{"type":"Feature","properties":{"ZIP":"L6C1T3"},"geometry":{"type":"Point","coordinates":[-79.358097,43.870521]}},{"type":"Feature","properties":{"ZIP":"L6C2C2"},"geometry":{"type":"Point","coordinates":[-79.294732,43.8863275]}},{"type":"Feature","properties":{"ZIP":"L6C2H8"},"geometry":{"type":"Point","coordinates":[-79.370166,43.8744885]}},{"type":"Feature","properties":{"ZIP":"L6C0E9"},"geometry":{"type":"Point","coordinates":[-79.3771185,43.905030499999995]}},{"type":"Feature","properties":{"ZIP":"L6C3H8"},"geometry":{"type":"Point","coordinates":[-79.3659475,43.896958999999995]}},{"type":"Feature","properties":{"ZIP":"L6C0R9"},"geometry":{"type":"Point","coordinates":[-79.307478,43.884012999999996]}},{"type":"Feature","properties":{"ZIP":"L6C0W9"},"geometry":{"type":"Point","coordinates":[-79.3117635,43.885336499999994]}},{"type":"Feature","properties":{"ZIP":"L6C3E3"},"geometry":{"type":"Point","coordinates":[-79.36698200000001,43.891512000000006]}},{"type":"Feature","properties":{"ZIP":"L6C1A4"},"geometry":{"type":"Point","coordinates":[-79.33513400000001,43.876475]}},{"type":"Feature","properties":{"ZIP":"L6C1N3"},"geometry":{"type":"Point","coordinates":[-79.34785099999999,43.910457]}},{"type":"Feature","properties":{"ZIP":"L6C1T4"},"geometry":{"type":"Point","coordinates":[-79.35830949999999,43.8712995]}},{"type":"Feature","properties":{"ZIP":"L6C2X1"},"geometry":{"type":"Point","coordinates":[-79.30756099999999,43.893387]}},{"type":"Feature","properties":{"ZIP":"L6C3G7"},"geometry":{"type":"Point","coordinates":[-79.362295,43.890975499999996]}},{"type":"Feature","properties":{"ZIP":"L6C0A3"},"geometry":{"type":"Point","coordinates":[-79.37105249999999,43.899007]}},{"type":"Feature","properties":{"ZIP":"L6C1J4"},"geometry":{"type":"Point","coordinates":[-79.37349499999999,43.9110935]}},{"type":"Feature","properties":{"ZIP":"L6C1R1"},"geometry":{"type":"Point","coordinates":[-79.36284,43.8772855]}},{"type":"Feature","properties":{"ZIP":"L6C2K2"},"geometry":{"type":"Point","coordinates":[-79.2909685,43.889070000000004]}},{"type":"Feature","properties":{"ZIP":"L6C2N9"},"geometry":{"type":"Point","coordinates":[-79.3144475,43.8944105]}},{"type":"Feature","properties":{"ZIP":"L6C2T7"},"geometry":{"type":"Point","coordinates":[-79.29798600000001,43.892649500000005]}},{"type":"Feature","properties":{"ZIP":"L6C2Y3"},"geometry":{"type":"Point","coordinates":[-79.3090615,43.894593]}},{"type":"Feature","properties":{"ZIP":"L6C2L5"},"geometry":{"type":"Point","coordinates":[-79.3077835,43.889627000000004]}},{"type":"Feature","properties":{"ZIP":"L6C2R3"},"geometry":{"type":"Point","coordinates":[-79.33687499999999,43.8798045]}},{"type":"Feature","properties":{"ZIP":"L6C1N4"},"geometry":{"type":"Point","coordinates":[-79.3521115,43.9274495]}},{"type":"Feature","properties":{"ZIP":"L6C1T5"},"geometry":{"type":"Point","coordinates":[-79.35896650000001,43.872279500000005]}},{"type":"Feature","properties":{"ZIP":"L6C1Y4"},"geometry":{"type":"Point","coordinates":[-79.350016,43.8794245]}},{"type":"Feature","properties":{"ZIP":"L6C2M8"},"geometry":{"type":"Point","coordinates":[-79.3066535,43.899685000000005]}},{"type":"Feature","properties":{"ZIP":"L6C3A8"},"geometry":{"type":"Point","coordinates":[-79.2948775,43.8946695]}},{"type":"Feature","properties":{"ZIP":"L6C0G2"},"geometry":{"type":"Point","coordinates":[-79.377002,43.906419]}},{"type":"Feature","properties":{"ZIP":"L6C1J5"},"geometry":{"type":"Point","coordinates":[-79.3766255,43.9114475]}},{"type":"Feature","properties":{"ZIP":"L6C1W2"},"geometry":{"type":"Point","coordinates":[-79.361896,43.880069500000005]}},{"type":"Feature","properties":{"ZIP":"L6C2A2"},"geometry":{"type":"Point","coordinates":[-79.32370850000001,43.891788]}},{"type":"Feature","properties":{"ZIP":"L6C2E7"},"geometry":{"type":"Point","coordinates":[-79.311721,43.888923500000004]}},{"type":"Feature","properties":{"ZIP":"L6C2Y5"},"geometry":{"type":"Point","coordinates":[-79.3082025,43.895371]}},{"type":"Feature","properties":{"ZIP":"L6C3C4"},"geometry":{"type":"Point","coordinates":[-79.3647055,43.890063]}},{"type":"Feature","properties":{"ZIP":"L6C0T5"},"geometry":{"type":"Point","coordinates":[-79.3752945,43.909542]}},{"type":"Feature","properties":{"ZIP":"L6C2N1"},"geometry":{"type":"Point","coordinates":[-79.30761749999999,43.898407]}},{"type":"Feature","properties":{"ZIP":"L6C2S8"},"geometry":{"type":"Point","coordinates":[-79.296745,43.8930255]}},{"type":"Feature","properties":{"ZIP":"L6C3H1"},"geometry":{"type":"Point","coordinates":[-79.3456125,43.882510499999995]}},{"type":"Feature","properties":{"ZIP":"L6C0R2"},"geometry":{"type":"Point","coordinates":[-79.306198,43.886245]}},{"type":"Feature","properties":{"ZIP":"L6C3C5"},"geometry":{"type":"Point","coordinates":[-79.36337449999999,43.8905895]}},{"type":"Feature","properties":{"ZIP":"L6C1M2"},"geometry":{"type":"Point","coordinates":[-79.322018,43.9350245]}},{"type":"Feature","properties":{"ZIP":"L6C2W3"},"geometry":{"type":"Point","coordinates":[-79.30960350000001,43.8927785]}},{"type":"Feature","properties":{"ZIP":"L6C0E3"},"geometry":{"type":"Point","coordinates":[-79.373894,43.90562]}},{"type":"Feature","properties":{"ZIP":"L6C1H5"},"geometry":{"type":"Point","coordinates":[-79.3393245,43.8878225]}},{"type":"Feature","properties":{"ZIP":"L6C1Y7"},"geometry":{"type":"Point","coordinates":[-79.3533925,43.879523]}},{"type":"Feature","properties":{"ZIP":"L6C0G6"},"geometry":{"type":"Point","coordinates":[-79.372778,43.885568]}},{"type":"Feature","properties":{"ZIP":"L6C1K6"},"geometry":{"type":"Point","coordinates":[-79.3075755,43.900338500000004]}},{"type":"Feature","properties":{"ZIP":"L6C2A4"},"geometry":{"type":"Point","coordinates":[-79.32291699999999,43.8937635]}},{"type":"Feature","properties":{"ZIP":"L6C2V2"},"geometry":{"type":"Point","coordinates":[-79.3015545,43.892382]}},{"type":"Feature","properties":{"ZIP":"L6C3C6"},"geometry":{"type":"Point","coordinates":[-79.36707,43.893417]}},{"type":"Feature","properties":{"ZIP":"L6C0M9"},"geometry":{"type":"Point","coordinates":[-79.2936045,43.902555500000005]}},{"type":"Feature","properties":{"ZIP":"L6C0S5"},"geometry":{"type":"Point","coordinates":[-79.309354,43.887474]}},{"type":"Feature","properties":{"ZIP":"L6C0X5"},"geometry":{"type":"Point","coordinates":[-79.31278449999999,43.881877]}},{"type":"Feature","properties":{"ZIP":"L6C2B6"},"geometry":{"type":"Point","coordinates":[-79.315452,43.897817]}},{"type":"Feature","properties":{"ZIP":"L6C3E9"},"geometry":{"type":"Point","coordinates":[-79.296718,43.896468]}},{"type":"Feature","properties":{"ZIP":"L6C2N3"},"geometry":{"type":"Point","coordinates":[-79.30489499999999,43.898307]}},{"type":"Feature","properties":{"ZIP":"L6C3H3"},"geometry":{"type":"Point","coordinates":[-79.365783,43.895113]}},{"type":"Feature","properties":{"ZIP":"L6C0R4"},"geometry":{"type":"Point","coordinates":[-79.304537,43.887292]}},{"type":"Feature","properties":{"ZIP":"L6C2A5"},"geometry":{"type":"Point","coordinates":[-79.31905,43.890442]}},{"type":"Feature","properties":{"ZIP":"L6C0P3"},"geometry":{"type":"Point","coordinates":[-79.375718,43.8938435]}},{"type":"Feature","properties":{"ZIP":"L6C1S9"},"geometry":{"type":"Point","coordinates":[-79.35649749999999,43.8713915]}},{"type":"Feature","properties":{"ZIP":"L6C1X8"},"geometry":{"type":"Point","coordinates":[-79.3422275,43.875106]}},{"type":"Feature","properties":{"ZIP":"L6C2B8"},"geometry":{"type":"Point","coordinates":[-79.2982045,43.884454000000005]}},{"type":"Feature","properties":{"ZIP":"L6C1V5"},"geometry":{"type":"Point","coordinates":[-79.34984850000001,43.8756085]}},{"type":"Feature","properties":{"ZIP":"L6C3H5"},"geometry":{"type":"Point","coordinates":[-79.36679749999999,43.89541199999999]}},{"type":"Feature","properties":{"ZIP":"L6C1A1"},"geometry":{"type":"Point","coordinates":[-79.33772300000001,43.8843005]}},{"type":"Feature","properties":{"ZIP":"L6C2M3"},"geometry":{"type":"Point","coordinates":[-79.30847349999999,43.8912735]}},{"type":"Feature","properties":{"ZIP":"L6C0K7"},"geometry":{"type":"Point","coordinates":[-79.37632400000001,43.895089]}},{"type":"Feature","properties":{"ZIP":"L6C2T4"},"geometry":{"type":"Point","coordinates":[-79.349307,43.87998]}},{"type":"Feature","properties":{"ZIP":"L6C3B8"},"geometry":{"type":"Point","coordinates":[-79.329453,43.888277]}},{"type":"Feature","properties":{"ZIP":"L6C1R9"},"geometry":{"type":"Point","coordinates":[-79.35965250000001,43.878566500000005]}},{"type":"Feature","properties":{"ZIP":"L6C0S9"},"geometry":{"type":"Point","coordinates":[-79.310779,43.88618]}},{"type":"Feature","properties":{"ZIP":"L6C1M9"},"geometry":{"type":"Point","coordinates":[-79.352093,43.9273785]}},{"type":"Feature","properties":{"ZIP":"L6C1B4"},"geometry":{"type":"Point","coordinates":[-79.345271,43.890539000000004]}},{"type":"Feature","properties":{"ZIP":"L6C3B9"},"geometry":{"type":"Point","coordinates":[-79.363822,43.8879845]}},{"type":"Feature","properties":{"ZIP":"L6C3H7"},"geometry":{"type":"Point","coordinates":[-79.36745450000001,43.8968275]}},{"type":"Feature","properties":{"ZIP":"L6C0B3"},"geometry":{"type":"Point","coordinates":[-79.30162150000001,43.8887905]}},{"type":"Feature","properties":{"ZIP":"L6C1W9"},"geometry":{"type":"Point","coordinates":[-79.352015,43.8805725]}},{"type":"Feature","properties":{"ZIP":"L6C2A9"},"geometry":{"type":"Point","coordinates":[-79.31828250000001,43.8925]}},{"type":"Feature","properties":{"ZIP":"L6C2Z3"},"geometry":{"type":"Point","coordinates":[-79.3703635,43.882075]}},{"type":"Feature","properties":{"ZIP":"L6C1A3"},"geometry":{"type":"Point","coordinates":[-79.33718350000001,43.883140499999996]}},{"type":"Feature","properties":{"ZIP":"L6C1B5"},"geometry":{"type":"Point","coordinates":[-79.35097350000001,43.889336]}},{"type":"Feature","properties":{"ZIP":"L6C0H3"},"geometry":{"type":"Point","coordinates":[-79.375576,43.899919499999996]}},{"type":"Feature","properties":{"ZIP":"L6C1L5"},"geometry":{"type":"Point","coordinates":[-79.31030799999999,43.9196735]}},{"type":"Feature","properties":{"ZIP":"L6C1S2"},"geometry":{"type":"Point","coordinates":[-79.357092,43.8772945]}},{"type":"Feature","properties":{"ZIP":"L6C2L4"},"geometry":{"type":"Point","coordinates":[-79.30732549999999,43.889962999999995]}},{"type":"Feature","properties":{"ZIP":"L6C1Y3"},"geometry":{"type":"Point","coordinates":[-79.341127,43.874469]}},{"type":"Feature","properties":{"ZIP":"L6C2S5"},"geometry":{"type":"Point","coordinates":[-79.29414750000001,43.8934985]}},{"type":"Feature","properties":{"ZIP":"L6C0G1"},"geometry":{"type":"Point","coordinates":[-79.3780225,43.9063935]}},{"type":"Feature","properties":{"ZIP":"L6C1Z8"},"geometry":{"type":"Point","coordinates":[-79.320763,43.892656]}},{"type":"Feature","properties":{"ZIP":"L6C3E4"},"geometry":{"type":"Point","coordinates":[-79.36596449999999,43.891652]}},{"type":"Feature","properties":{"ZIP":"L6C2P1"},"geometry":{"type":"Point","coordinates":[-79.31467649999999,43.893783]}},{"type":"Feature","properties":{"ZIP":"L6C3C3"},"geometry":{"type":"Point","coordinates":[-79.363034,43.8881045]}},{"type":"Feature","properties":{"ZIP":"L6C0M4"},"geometry":{"type":"Point","coordinates":[-79.3208035,43.8999285]}},{"type":"Feature","properties":{"ZIP":"L6C1G8"},"geometry":{"type":"Point","coordinates":[-79.3008285,43.886254]}},{"type":"Feature","properties":{"ZIP":"L6C2M9"},"geometry":{"type":"Point","coordinates":[-79.3056095,43.899478]}},{"type":"Feature","properties":{"ZIP":"L6C2X3"},"geometry":{"type":"Point","coordinates":[-79.3033525,43.895196]}},{"type":"Feature","properties":{"ZIP":"L6C3G9"},"geometry":{"type":"Point","coordinates":[-79.365316,43.890264]}},{"type":"Feature","properties":{"ZIP":"L6C0A5"},"geometry":{"type":"Point","coordinates":[-79.37321800000001,43.8976465]}},{"type":"Feature","properties":{"ZIP":"L6C0R1"},"geometry":{"type":"Point","coordinates":[-79.3057215,43.885304000000005]}},{"type":"Feature","properties":{"ZIP":"L6C2W2"},"geometry":{"type":"Point","coordinates":[-79.31910500000001,43.8960165]}},{"type":"Feature","properties":{"ZIP":"L6C2A3"},"geometry":{"type":"Point","coordinates":[-79.323538,43.892797]}},{"type":"Feature","properties":{"ZIP":"L6C0S4"},"geometry":{"type":"Point","coordinates":[-79.308949,43.886579499999996]}},{"type":"Feature","properties":{"ZIP":"L6C3E8"},"geometry":{"type":"Point","coordinates":[-79.29666,43.895627000000005]}},{"type":"Feature","properties":{"ZIP":"L6C1N8"},"geometry":{"type":"Point","coordinates":[-79.3216655,43.90905]}},{"type":"Feature","properties":{"ZIP":"L6C0W3"},"geometry":{"type":"Point","coordinates":[-79.31063,43.881424499999994]}},{"type":"Feature","properties":{"ZIP":"L6C1C3"},"geometry":{"type":"Point","coordinates":[-79.357331,43.8875565]}},{"type":"Feature","properties":{"ZIP":"L6C1S7"},"geometry":{"type":"Point","coordinates":[-79.35385500000001,43.871736999999996]}},{"type":"Feature","properties":{"ZIP":"L6C0T7"},"geometry":{"type":"Point","coordinates":[-79.3767925,43.909931]}},{"type":"Feature","properties":{"ZIP":"L6C1N9"},"geometry":{"type":"Point","coordinates":[-79.320539,43.9039185]}},{"type":"Feature","properties":{"ZIP":"L6C1K8"},"geometry":{"type":"Point","coordinates":[-79.38083,43.902066500000004]}},{"type":"Feature","properties":{"ZIP":"L6C2Y8"},"geometry":{"type":"Point","coordinates":[-79.36899700000001,43.8807555]}},{"type":"Feature","properties":{"ZIP":"L6C1B1"},"geometry":{"type":"Point","coordinates":[-79.360113,43.885957]}},{"type":"Feature","properties":{"ZIP":"L6C1Y9"},"geometry":{"type":"Point","coordinates":[-79.36303050000001,43.869355999999996]}},{"type":"Feature","properties":{"ZIP":"L6C1K9"},"geometry":{"type":"Point","coordinates":[-79.377392,43.902821]}},{"type":"Feature","properties":{"ZIP":"L6C2P6"},"geometry":{"type":"Point","coordinates":[-79.3125795,43.894491]}},{"type":"Feature","properties":{"ZIP":"L6C2Y9"},"geometry":{"type":"Point","coordinates":[-79.370296,43.881332]}},{"type":"Feature","properties":{"ZIP":"L6C0C3"},"geometry":{"type":"Point","coordinates":[-79.31088700000001,43.8914605]}},{"type":"Feature","properties":{"ZIP":"L6C0S7"},"geometry":{"type":"Point","coordinates":[-79.3118675,43.887375500000005]}},{"type":"Feature","properties":{"ZIP":"L6C0K5"},"geometry":{"type":"Point","coordinates":[-79.37667300000001,43.894977999999995]}},{"type":"Feature","properties":{"ZIP":"L6C1H9"},"geometry":{"type":"Point","coordinates":[-79.37020799999999,43.898125]}},{"type":"Feature","properties":{"ZIP":"L6C1C6"},"geometry":{"type":"Point","coordinates":[-79.3547615,43.885642000000004]}},{"type":"Feature","properties":{"ZIP":"L6C1T1"},"geometry":{"type":"Point","coordinates":[-79.35587849999999,43.87021]}},{"type":"Feature","properties":{"ZIP":"L6C2B9"},"geometry":{"type":"Point","coordinates":[-79.2959525,43.8844285]}},{"type":"Feature","properties":{"ZIP":"L6C2N6"},"geometry":{"type":"Point","coordinates":[-79.315214,43.892679]}},{"type":"Feature","properties":{"ZIP":"L6C0H1"},"geometry":{"type":"Point","coordinates":[-79.3728745,43.888349500000004]}},{"type":"Feature","properties":{"ZIP":"L6C1C7"},"geometry":{"type":"Point","coordinates":[-79.356987,43.887245]}},{"type":"Feature","properties":{"ZIP":"L6C1L3"},"geometry":{"type":"Point","coordinates":[-79.334467,43.913259499999995]}},{"type":"Feature","properties":{"ZIP":"L6C0N4"},"geometry":{"type":"Point","coordinates":[-79.31198599999999,43.8917065]}},{"type":"Feature","properties":{"ZIP":"L6C1T2"},"geometry":{"type":"Point","coordinates":[-79.3577865,43.8696465]}},{"type":"Feature","properties":{"ZIP":"L6C2S2"},"geometry":{"type":"Point","coordinates":[-79.295541,43.89197]}},{"type":"Feature","properties":{"ZIP":"L6C0P6"},"geometry":{"type":"Point","coordinates":[-79.3058305,43.885185]}},{"type":"Feature","properties":{"ZIP":"L6C1J2"},"geometry":{"type":"Point","coordinates":[-79.37122550000001,43.902201500000004]}},{"type":"Feature","properties":{"ZIP":"L6C1P5"},"geometry":{"type":"Point","coordinates":[-79.377124,43.925858500000004]}},{"type":"Feature","properties":{"ZIP":"L6C2E3"},"geometry":{"type":"Point","coordinates":[-79.3146735,43.8878815]}},{"type":"Feature","properties":{"ZIP":"L6C1C8"},"geometry":{"type":"Point","coordinates":[-79.342629,43.887006]}},{"type":"Feature","properties":{"ZIP":"L6C0T1"},"geometry":{"type":"Point","coordinates":[-79.310378,43.885782]}},{"type":"Feature","properties":{"ZIP":"L6C1N1"},"geometry":{"type":"Point","coordinates":[-79.352202,43.9332065]}},{"type":"Feature","properties":{"ZIP":"L6C0A2"},"geometry":{"type":"Point","coordinates":[-79.3152255,43.888869]}},{"type":"Feature","properties":{"ZIP":"L6C1J3"},"geometry":{"type":"Point","coordinates":[-79.372028,43.9054055]}},{"type":"Feature","properties":{"ZIP":"L6C1V8"},"geometry":{"type":"Point","coordinates":[-79.35058749999999,43.871717000000004]}},{"type":"Feature","properties":{"ZIP":"L6C1C9"},"geometry":{"type":"Point","coordinates":[-79.34648200000001,43.8870965]}},{"type":"Feature","properties":{"ZIP":"L6C2H9"},"geometry":{"type":"Point","coordinates":[-79.370187,43.8750085]}},{"type":"Feature","properties":{"ZIP":"L6C1B6"},"geometry":{"type":"Point","coordinates":[-79.347881,43.8897595]}},{"type":"Feature","properties":{"ZIP":"L6C1E1"},"geometry":{"type":"Point","coordinates":[-79.3445835,43.8856945]}},{"type":"Feature","properties":{"ZIP":"L6C1L7"},"geometry":{"type":"Point","coordinates":[-79.36987199999999,43.92376]}},{"type":"Feature","properties":{"ZIP":"L6C1S3"},"geometry":{"type":"Point","coordinates":[-79.3570955,43.874703]}},{"type":"Feature","properties":{"ZIP":"L6C1G7"},"geometry":{"type":"Point","coordinates":[-79.3431405,43.8894175]}},{"type":"Feature","properties":{"ZIP":"L6C1L9"},"geometry":{"type":"Point","coordinates":[-79.34564649999999,43.929733999999996]}},{"type":"Feature","properties":{"ZIP":"L6C3E6"},"geometry":{"type":"Point","coordinates":[-79.29562899999999,43.8957315]}},{"type":"Feature","properties":{"ZIP":"L6C1A6"},"geometry":{"type":"Point","coordinates":[-79.3694555,43.901482]}},{"type":"Feature","properties":{"ZIP":"L6C1T8"},"geometry":{"type":"Point","coordinates":[-79.355824,43.8754175]}},{"type":"Feature","properties":{"ZIP":"L6C2P2"},"geometry":{"type":"Point","coordinates":[-79.314477,43.8930665]}},{"type":"Feature","properties":{"ZIP":"L6C1X4"},"geometry":{"type":"Point","coordinates":[-79.34517,43.874622]}},{"type":"Feature","properties":{"ZIP":"L6C1T9"},"geometry":{"type":"Point","coordinates":[-79.357772,43.879199]}},{"type":"Feature","properties":{"ZIP":"L6C2J3"},"geometry":{"type":"Point","coordinates":[-79.37134499999999,43.8754335]}},{"type":"Feature","properties":{"ZIP":"L6C3B1"},"geometry":{"type":"Point","coordinates":[-79.300314,43.890605]}},{"type":"Feature","properties":{"ZIP":"L6C1K4"},"geometry":{"type":"Point","coordinates":[-79.328103,43.895587]}},{"type":"Feature","properties":{"ZIP":"L6C0M8"},"geometry":{"type":"Point","coordinates":[-79.29359149999999,43.9000575]}},{"type":"Feature","properties":{"ZIP":"L6C1E6"},"geometry":{"type":"Point","coordinates":[-79.3478685,43.8837205]}},{"type":"Feature","properties":{"ZIP":"L6C1A8"},"geometry":{"type":"Point","coordinates":[-79.35636099999999,43.8903515]}},{"type":"Feature","properties":{"ZIP":"L6C1V1"},"geometry":{"type":"Point","coordinates":[-79.351833,43.874646999999996]}},{"type":"Feature","properties":{"ZIP":"L6C1W4"},"geometry":{"type":"Point","coordinates":[-79.3526935,43.8768965]}},{"type":"Feature","properties":{"ZIP":"L6C1E8"},"geometry":{"type":"Point","coordinates":[-79.34906000000001,43.8834315]}},{"type":"Feature","properties":{"ZIP":"L6C1A9"},"geometry":{"type":"Point","coordinates":[-79.35735600000001,43.889713]}},{"type":"Feature","properties":{"ZIP":"L6C0G7"},"geometry":{"type":"Point","coordinates":[-79.373891,43.887374]}},{"type":"Feature","properties":{"ZIP":"L6C2R8"},"geometry":{"type":"Point","coordinates":[-79.303563,43.900490000000005]}},{"type":"Feature","properties":{"ZIP":"L6C1H8"},"geometry":{"type":"Point","coordinates":[-79.3649755,43.877037]}},{"type":"Feature","properties":{"ZIP":"L6C1V3"},"geometry":{"type":"Point","coordinates":[-79.35882,43.8796545]}},{"type":"Feature","properties":{"ZIP":"L6C2T2"},"geometry":{"type":"Point","coordinates":[-79.34598,43.879172499999996]}},{"type":"Feature","properties":{"ZIP":"L6C1M5"},"geometry":{"type":"Point","coordinates":[-79.33904799999999,43.8756245]}},{"type":"Feature","properties":{"ZIP":"L6C2E1"},"geometry":{"type":"Point","coordinates":[-79.29308950000001,43.888107]}},{"type":"Feature","properties":{"ZIP":"L6C0C4"},"geometry":{"type":"Point","coordinates":[-79.394654,43.842782]}},{"type":"Feature","properties":{"ZIP":"L6C1P3"},"geometry":{"type":"Point","coordinates":[-79.3284375,43.93573]}},{"type":"Feature","properties":{"ZIP":"L6C2Z2"},"geometry":{"type":"Point","coordinates":[-79.3714875,43.8816705]}},{"type":"Feature","properties":{"ZIP":"L6C1G5"},"geometry":{"type":"Point","coordinates":[-79.3398005,43.882856000000004]}},{"type":"Feature","properties":{"ZIP":"L6C1P6"},"geometry":{"type":"Point","coordinates":[-79.3528665,43.889711000000005]}},{"type":"Feature","properties":{"ZIP":"L6C1Z4"},"geometry":{"type":"Point","coordinates":[-79.3254495,43.8901045]}},{"type":"Feature","properties":{"ZIP":"L6C2B1"},"geometry":{"type":"Point","coordinates":[-79.35982849999999,43.88011]}},{"type":"Feature","properties":{"ZIP":"L6C2R2"},"geometry":{"type":"Point","coordinates":[-79.3026145,43.899193]}},{"type":"Feature","properties":{"ZIP":"L6C1G6"},"geometry":{"type":"Point","coordinates":[-79.3379245,43.886483999999996]}},{"type":"Feature","properties":{"ZIP":"L6C1B9"},"geometry":{"type":"Point","coordinates":[-79.343681,43.887601000000004]}},{"type":"Feature","properties":{"ZIP":"L6C0E1"},"geometry":{"type":"Point","coordinates":[-79.3760715,43.9062525]}},{"type":"Feature","properties":{"ZIP":"L6C1C1"},"geometry":{"type":"Point","coordinates":[-79.346632,43.8855075]}},{"type":"Feature","properties":{"ZIP":"L6C1J8"},"geometry":{"type":"Point","coordinates":[-79.3597975,43.887587499999995]}},{"type":"Feature","properties":{"ZIP":"L6C1R3"},"geometry":{"type":"Point","coordinates":[-79.36013399999999,43.877174499999995]}},{"type":"Feature","properties":{"ZIP":"L6C1A7"},"geometry":{"type":"Point","coordinates":[-79.370142,43.902977]}},{"type":"Feature","properties":{"ZIP":"L6C1N7"},"geometry":{"type":"Point","coordinates":[-79.31652600000001,43.888514]}},{"type":"Feature","properties":{"ZIP":"L6C0G4"},"geometry":{"type":"Point","coordinates":[-79.378373,43.9070915]}},{"type":"Feature","properties":{"ZIP":"L6C1C2"},"geometry":{"type":"Point","coordinates":[-79.35190399999999,43.8851135]}},{"type":"Feature","properties":{"ZIP":"L6C1S6"},"geometry":{"type":"Point","coordinates":[-79.320961,43.915343]}},{"type":"Feature","properties":{"ZIP":"L6C1H7"},"geometry":{"type":"Point","coordinates":[-79.36649349999999,43.8833245]}},{"type":"Feature","properties":{"ZIP":"L6C0M1"},"geometry":{"type":"Point","coordinates":[-79.3725495,43.8803415]}},{"type":"Feature","properties":{"ZIP":"L6C1E2"},"geometry":{"type":"Point","coordinates":[-79.3440995,43.8839855]}},{"type":"Feature","properties":{"ZIP":"L6C1C4"},"geometry":{"type":"Point","coordinates":[-79.3433435,43.8888775]}}]}