{"type":"FeatureCollection","features":[{"type":"Feature","properties":{"ZIP":"L8V2X7"},"geometry":{"type":"Point","coordinates":[-79.8501905,43.239161499999994]}},{"type":"Feature","properties":{"ZIP":"L8V4T4"},"geometry":{"type":"Point","coordinates":[-79.8569135,43.2265705]}},{"type":"Feature","properties":{"ZIP":"L8V3K4"},"geometry":{"type":"Point","coordinates":[-79.85704150000001,43.220863]}},{"type":"Feature","properties":{"ZIP":"L8V4X5"},"geometry":{"type":"Point","coordinates":[-79.85916800000001,43.225367]}},{"type":"Feature","properties":{"ZIP":"L8V4T3"},"geometry":{"type":"Point","coordinates":[-79.85691299999999,43.22657]}},{"type":"Feature","properties":{"ZIP":"L8V3E7"},"geometry":{"type":"Point","coordinates":[-79.8469985,43.238723]}},{"type":"Feature","properties":{"ZIP":"L8V4T7"},"geometry":{"type":"Point","coordinates":[-79.8567385,43.2279155]}},{"type":"Feature","properties":{"ZIP":"L8V2V3"},"geometry":{"type":"Point","coordinates":[-79.8525435,43.23974]}},{"type":"Feature","properties":{"ZIP":"L8V2K8"},"geometry":{"type":"Point","coordinates":[-79.8489155,43.219775999999996]}},{"type":"Feature","properties":{"ZIP":"L8V4G5"},"geometry":{"type":"Point","coordinates":[-79.8423895,43.223618]}},{"type":"Feature","properties":{"ZIP":"L8V2P3"},"geometry":{"type":"Point","coordinates":[-79.845789,43.2181575]}},{"type":"Feature","properties":{"ZIP":"L8V2L5"},"geometry":{"type":"Point","coordinates":[-79.8551655,43.2209725]}},{"type":"Feature","properties":{"ZIP":"L8V2H2"},"geometry":{"type":"Point","coordinates":[-79.8491695,43.2216705]}},{"type":"Feature","properties":{"ZIP":"L8V2H6"},"geometry":{"type":"Point","coordinates":[-79.848907,43.222187]}},{"type":"Feature","properties":{"ZIP":"L8V4N2"},"geometry":{"type":"Point","coordinates":[-79.8512465,43.2144115]}},{"type":"Feature","properties":{"ZIP":"L8V4K9"},"geometry":{"type":"Point","coordinates":[-79.844394,43.2155175]}},{"type":"Feature","properties":{"ZIP":"L8V4L1"},"geometry":{"type":"Point","coordinates":[-79.8444925,43.215277]}},{"type":"Feature","properties":{"ZIP":"L8V2G7"},"geometry":{"type":"Point","coordinates":[-79.8555435,43.2240755]}},{"type":"Feature","properties":{"ZIP":"L8V4H7"},"geometry":{"type":"Point","coordinates":[-79.8355785,43.236015]}},{"type":"Feature","properties":{"ZIP":"L8V4J9"},"geometry":{"type":"Point","coordinates":[-79.8402915,43.2250675]}},{"type":"Feature","properties":{"ZIP":"L8V2X8"},"geometry":{"type":"Point","coordinates":[-79.85015899999999,43.238999]}},{"type":"Feature","properties":{"ZIP":"L8V2L1"},"geometry":{"type":"Point","coordinates":[-79.849903,43.21925]}},{"type":"Feature","properties":{"ZIP":"L8V4N6"},"geometry":{"type":"Point","coordinates":[-79.852798,43.2144925]}},{"type":"Feature","properties":{"ZIP":"L8V5A5"},"geometry":{"type":"Point","coordinates":[-79.85631000000001,43.215505]}},{"type":"Feature","properties":{"ZIP":"L8V2V6"},"geometry":{"type":"Point","coordinates":[-79.8537415,43.237118]}},{"type":"Feature","properties":{"ZIP":"L8V3H4"},"geometry":{"type":"Point","coordinates":[-79.8545655,43.222916999999995]}},{"type":"Feature","properties":{"ZIP":"L8V3M4"},"geometry":{"type":"Point","coordinates":[-79.8491625,43.227872500000004]}},{"type":"Feature","properties":{"ZIP":"L8V2P5"},"geometry":{"type":"Point","coordinates":[-79.84623149999999,43.217803]}},{"type":"Feature","properties":{"ZIP":"L8V3G3"},"geometry":{"type":"Point","coordinates":[-79.8490315,43.2332855]}},{"type":"Feature","properties":{"ZIP":"L8V3M5"},"geometry":{"type":"Point","coordinates":[-79.84908949999999,43.228032]}},{"type":"Feature","properties":{"ZIP":"L8V3E2"},"geometry":{"type":"Point","coordinates":[-79.852056,43.229485]}},{"type":"Feature","properties":{"ZIP":"L8V4E8"},"geometry":{"type":"Point","coordinates":[-79.838461,43.2340705]}},{"type":"Feature","properties":{"ZIP":"L8V4R2"},"geometry":{"type":"Point","coordinates":[-79.8533695,43.2133045]}},{"type":"Feature","properties":{"ZIP":"L8V2L7"},"geometry":{"type":"Point","coordinates":[-79.8546405,43.219409999999996]}},{"type":"Feature","properties":{"ZIP":"L8V3R3"},"geometry":{"type":"Point","coordinates":[-79.852125,43.218393500000005]}},{"type":"Feature","properties":{"ZIP":"L8V1M7"},"geometry":{"type":"Point","coordinates":[-79.8421245,43.233688]}},{"type":"Feature","properties":{"ZIP":"L8V4H2"},"geometry":{"type":"Point","coordinates":[-79.8375935,43.2338665]}},{"type":"Feature","properties":{"ZIP":"L8V4Z7"},"geometry":{"type":"Point","coordinates":[-79.85919899999999,43.215900000000005]}},{"type":"Feature","properties":{"ZIP":"L8V2H5"},"geometry":{"type":"Point","coordinates":[-79.848907,43.222187]}},{"type":"Feature","properties":{"ZIP":"L8V4P2"},"geometry":{"type":"Point","coordinates":[-79.8529155,43.212987]}},{"type":"Feature","properties":{"ZIP":"L8V3G7"},"geometry":{"type":"Point","coordinates":[-79.85102599999999,43.228924000000006]}},{"type":"Feature","properties":{"ZIP":"L8V4R9"},"geometry":{"type":"Point","coordinates":[-79.8551255,43.214149]}},{"type":"Feature","properties":{"ZIP":"L8V2Y6"},"geometry":{"type":"Point","coordinates":[-79.854849,43.228685999999996]}},{"type":"Feature","properties":{"ZIP":"L8V3L7"},"geometry":{"type":"Point","coordinates":[-79.846778,43.233298500000004]}},{"type":"Feature","properties":{"ZIP":"L8V5A1"},"geometry":{"type":"Point","coordinates":[-79.860949,43.2166365]}},{"type":"Feature","properties":{"ZIP":"L8V1K3"},"geometry":{"type":"Point","coordinates":[-79.841888,43.234389500000006]}},{"type":"Feature","properties":{"ZIP":"L8V2W4"},"geometry":{"type":"Point","coordinates":[-79.8570235,43.229405]}},{"type":"Feature","properties":{"ZIP":"L8V4H6"},"geometry":{"type":"Point","coordinates":[-79.83552900000001,43.23613]}},{"type":"Feature","properties":{"ZIP":"L8V1C4"},"geometry":{"type":"Point","coordinates":[-79.8422215,43.2385745]}},{"type":"Feature","properties":{"ZIP":"L8V2Z9"},"geometry":{"type":"Point","coordinates":[-79.8484345,43.239326500000004]}},{"type":"Feature","properties":{"ZIP":"L8V2T2"},"geometry":{"type":"Point","coordinates":[-79.85372100000001,43.2399225]}},{"type":"Feature","properties":{"ZIP":"L8V3N4"},"geometry":{"type":"Point","coordinates":[-79.853569,43.2176545]}},{"type":"Feature","properties":{"ZIP":"L8V4B8"},"geometry":{"type":"Point","coordinates":[-79.8439415,43.223766]}},{"type":"Feature","properties":{"ZIP":"L8V2J5"},"geometry":{"type":"Point","coordinates":[-79.8505165,43.2210345]}},{"type":"Feature","properties":{"ZIP":"L8V2V4"},"geometry":{"type":"Point","coordinates":[-79.852522,43.239633999999995]}},{"type":"Feature","properties":{"ZIP":"L8V2A8"},"geometry":{"type":"Point","coordinates":[-79.8471195,43.2260325]}},{"type":"Feature","properties":{"ZIP":"L8V2W6"},"geometry":{"type":"Point","coordinates":[-79.851392,43.2393615]}},{"type":"Feature","properties":{"ZIP":"L8V4A3"},"geometry":{"type":"Point","coordinates":[-79.845061,43.224008999999995]}},{"type":"Feature","properties":{"ZIP":"L8V2G8"},"geometry":{"type":"Point","coordinates":[-79.8560435,43.2234665]}},{"type":"Feature","properties":{"ZIP":"L8V2M6"},"geometry":{"type":"Point","coordinates":[-79.85682,43.219032]}},{"type":"Feature","properties":{"ZIP":"L8V4H8"},"geometry":{"type":"Point","coordinates":[-79.8365015,43.2338975]}},{"type":"Feature","properties":{"ZIP":"L8V2W7"},"geometry":{"type":"Point","coordinates":[-79.8523945,43.237159500000004]}},{"type":"Feature","properties":{"ZIP":"L8V2G9"},"geometry":{"type":"Point","coordinates":[-79.856071,43.2234755]}},{"type":"Feature","properties":{"ZIP":"L8V0A3"},"geometry":{"type":"Point","coordinates":[-79.20994300000001,43.7470455]}},{"type":"Feature","properties":{"ZIP":"L8V4Z4"},"geometry":{"type":"Point","coordinates":[-79.85859099999999,43.2146995]}},{"type":"Feature","properties":{"ZIP":"L8V3E1"},"geometry":{"type":"Point","coordinates":[-79.85093499999999,43.232025]}},{"type":"Feature","properties":{"ZIP":"L8V3T5"},"geometry":{"type":"Point","coordinates":[-79.843991,43.2327565]}},{"type":"Feature","properties":{"ZIP":"L8V3Y2"},"geometry":{"type":"Point","coordinates":[-79.842022,43.2325225]}},{"type":"Feature","properties":{"ZIP":"L8V2J8"},"geometry":{"type":"Point","coordinates":[-79.847945,43.220415]}},{"type":"Feature","properties":{"ZIP":"L8V3P9"},"geometry":{"type":"Point","coordinates":[-79.848107,43.227711]}},{"type":"Feature","properties":{"ZIP":"L8V4E7"},"geometry":{"type":"Point","coordinates":[-79.83848449999999,43.234142000000006]}},{"type":"Feature","properties":{"ZIP":"L8V2L6"},"geometry":{"type":"Point","coordinates":[-79.855654,43.2211165]}},{"type":"Feature","properties":{"ZIP":"L8V3B8"},"geometry":{"type":"Point","coordinates":[-79.856203,43.224844000000004]}},{"type":"Feature","properties":{"ZIP":"L8V2M9"},"geometry":{"type":"Point","coordinates":[-79.854815,43.2178745]}},{"type":"Feature","properties":{"ZIP":"L8V3T6"},"geometry":{"type":"Point","coordinates":[-79.8450595,43.230450000000005]}},{"type":"Feature","properties":{"ZIP":"L8V3V9"},"geometry":{"type":"Point","coordinates":[-79.8494905,43.2180375]}},{"type":"Feature","properties":{"ZIP":"L8V4K4"},"geometry":{"type":"Point","coordinates":[-79.84215900000001,43.220812499999994]}},{"type":"Feature","properties":{"ZIP":"L8V1B5"},"geometry":{"type":"Point","coordinates":[-79.84891999999999,43.2402005]}},{"type":"Feature","properties":{"ZIP":"L8V3E3"},"geometry":{"type":"Point","coordinates":[-79.852237,43.229045]}},{"type":"Feature","properties":{"ZIP":"L8V3Y4"},"geometry":{"type":"Point","coordinates":[-79.843232,43.229783999999995]}},{"type":"Feature","properties":{"ZIP":"L8V4N9"},"geometry":{"type":"Point","coordinates":[-79.85005699999999,43.2125755]}},{"type":"Feature","properties":{"ZIP":"L8V3G5"},"geometry":{"type":"Point","coordinates":[-79.849716,43.2317015]}},{"type":"Feature","properties":{"ZIP":"L8V3L4"},"geometry":{"type":"Point","coordinates":[-79.845429,43.2363125]}},{"type":"Feature","properties":{"ZIP":"L8V3W1"},"geometry":{"type":"Point","coordinates":[-79.8494905,43.2180375]}},{"type":"Feature","properties":{"ZIP":"L8V3M7"},"geometry":{"type":"Point","coordinates":[-79.85068150000001,43.224351999999996]}},{"type":"Feature","properties":{"ZIP":"L8V3P1"},"geometry":{"type":"Point","coordinates":[-79.84469949999999,43.2358125]}},{"type":"Feature","properties":{"ZIP":"L8V2W1"},"geometry":{"type":"Point","coordinates":[-79.8556125,43.232815]}},{"type":"Feature","properties":{"ZIP":"L8V3C3"},"geometry":{"type":"Point","coordinates":[-79.8479175,43.2384965]}},{"type":"Feature","properties":{"ZIP":"L8V4B3"},"geometry":{"type":"Point","coordinates":[-79.84164,43.2293545]}},{"type":"Feature","properties":{"ZIP":"L8V4Z8"},"geometry":{"type":"Point","coordinates":[-79.8587385,43.2150455]}},{"type":"Feature","properties":{"ZIP":"L8V2N4"},"geometry":{"type":"Point","coordinates":[-79.8462025,43.218106]}},{"type":"Feature","properties":{"ZIP":"L8V2Y5"},"geometry":{"type":"Point","coordinates":[-79.8530285,43.2325995]}},{"type":"Feature","properties":{"ZIP":"L8V4V8"},"geometry":{"type":"Point","coordinates":[-79.85522399999999,43.217078]}},{"type":"Feature","properties":{"ZIP":"L8V2W2"},"geometry":{"type":"Point","coordinates":[-79.856134,43.2312175]}},{"type":"Feature","properties":{"ZIP":"L8V1H2"},"geometry":{"type":"Point","coordinates":[-79.846227,43.237451]}},{"type":"Feature","properties":{"ZIP":"L8V4C7"},"geometry":{"type":"Point","coordinates":[-79.84737150000001,43.217064]}},{"type":"Feature","properties":{"ZIP":"L8V4X3"},"geometry":{"type":"Point","coordinates":[-79.859456,43.22610400000001]}},{"type":"Feature","properties":{"ZIP":"L8V2X5"},"geometry":{"type":"Point","coordinates":[-79.85615949999999,43.2285865]}},{"type":"Feature","properties":{"ZIP":"L8V3J1"},"geometry":{"type":"Point","coordinates":[-79.84828350000001,43.232923]}},{"type":"Feature","properties":{"ZIP":"L8V4H5"},"geometry":{"type":"Point","coordinates":[-79.838648,43.2312495]}},{"type":"Feature","properties":{"ZIP":"L8V4W1"},"geometry":{"type":"Point","coordinates":[-79.8575425,43.2246365]}},{"type":"Feature","properties":{"ZIP":"L8V2K7"},"geometry":{"type":"Point","coordinates":[-79.84923,43.2198475]}},{"type":"Feature","properties":{"ZIP":"L8V3R8"},"geometry":{"type":"Point","coordinates":[-79.8438015,43.235684500000005]}},{"type":"Feature","properties":{"ZIP":"L8V3W5"},"geometry":{"type":"Point","coordinates":[-79.841985,43.235279500000004]}},{"type":"Feature","properties":{"ZIP":"L8V2G6"},"geometry":{"type":"Point","coordinates":[-79.855545,43.224070999999995]}},{"type":"Feature","properties":{"ZIP":"L8V1Y1"},"geometry":{"type":"Point","coordinates":[-79.847591,43.229058]}},{"type":"Feature","properties":{"ZIP":"L8V4E2"},"geometry":{"type":"Point","coordinates":[-79.84549899999999,43.215983]}},{"type":"Feature","properties":{"ZIP":"L8V5B5"},"geometry":{"type":"Point","coordinates":[-79.856629,43.213795000000005]}},{"type":"Feature","properties":{"ZIP":"L8V3L9"},"geometry":{"type":"Point","coordinates":[-79.84717649999999,43.232383999999996]}},{"type":"Feature","properties":{"ZIP":"L8V4A2"},"geometry":{"type":"Point","coordinates":[-79.84511499999999,43.224139]}},{"type":"Feature","properties":{"ZIP":"L8V4S4"},"geometry":{"type":"Point","coordinates":[-79.8570135,43.227976999999996]}},{"type":"Feature","properties":{"ZIP":"L8V3J3"},"geometry":{"type":"Point","coordinates":[-79.848922,43.231474]}},{"type":"Feature","properties":{"ZIP":"L8V3T2"},"geometry":{"type":"Point","coordinates":[-79.84289849999999,43.2355535]}},{"type":"Feature","properties":{"ZIP":"L8V5A3"},"geometry":{"type":"Point","coordinates":[-79.8581925,43.2159925]}},{"type":"Feature","properties":{"ZIP":"L8V3K5"},"geometry":{"type":"Point","coordinates":[-79.856964,43.2210315]}},{"type":"Feature","properties":{"ZIP":"L8V5B6"},"geometry":{"type":"Point","coordinates":[-79.8574625,43.213893]}},{"type":"Feature","properties":{"ZIP":"L8V1G3"},"geometry":{"type":"Point","coordinates":[-79.846417,43.237900499999995]}},{"type":"Feature","properties":{"ZIP":"L8V1L8"},"geometry":{"type":"Point","coordinates":[-79.8483115,43.2347825]}},{"type":"Feature","properties":{"ZIP":"L8V3H2"},"geometry":{"type":"Point","coordinates":[-79.8518915,43.227053]}},{"type":"Feature","properties":{"ZIP":"L8V1N6"},"geometry":{"type":"Point","coordinates":[-79.839652,43.2320855]}},{"type":"Feature","properties":{"ZIP":"L8V3N5"},"geometry":{"type":"Point","coordinates":[-79.85535250000001,43.213627]}},{"type":"Feature","properties":{"ZIP":"L8V3T3"},"geometry":{"type":"Point","coordinates":[-79.84287599999999,43.235485999999995]}},{"type":"Feature","properties":{"ZIP":"L8V2V5"},"geometry":{"type":"Point","coordinates":[-79.853515,43.237382499999995]}},{"type":"Feature","properties":{"ZIP":"L8V3A2"},"geometry":{"type":"Point","coordinates":[-79.85033050000001,43.2360215]}},{"type":"Feature","properties":{"ZIP":"L8V3K8"},"geometry":{"type":"Point","coordinates":[-79.8552265,43.219662]}},{"type":"Feature","properties":{"ZIP":"L8V3V5"},"geometry":{"type":"Point","coordinates":[-79.8516195,43.2182005]}},{"type":"Feature","properties":{"ZIP":"L8V4E5"},"geometry":{"type":"Point","coordinates":[-79.83785,43.2359665]}},{"type":"Feature","properties":{"ZIP":"L8V4K1"},"geometry":{"type":"Point","coordinates":[-79.8403545,43.2249305]}},{"type":"Feature","properties":{"ZIP":"L8V3H3"},"geometry":{"type":"Point","coordinates":[-79.852969,43.225660000000005]}},{"type":"Feature","properties":{"ZIP":"L8V3W8"},"geometry":{"type":"Point","coordinates":[-79.84420750000001,43.2298545]}},{"type":"Feature","properties":{"ZIP":"L8V4G7"},"geometry":{"type":"Point","coordinates":[-79.8436425,43.220833999999996]}},{"type":"Feature","properties":{"ZIP":"L8V4M2"},"geometry":{"type":"Point","coordinates":[-79.8462695,43.214600000000004]}},{"type":"Feature","properties":{"ZIP":"L8V4Z3"},"geometry":{"type":"Point","coordinates":[-79.859015,43.214431]}},{"type":"Feature","properties":{"ZIP":"L8V1B1"},"geometry":{"type":"Point","coordinates":[-79.8514335,43.240891500000004]}},{"type":"Feature","properties":{"ZIP":"L8V2T4"},"geometry":{"type":"Point","coordinates":[-79.854713,43.237617]}},{"type":"Feature","properties":{"ZIP":"L8V3C9"},"geometry":{"type":"Point","coordinates":[-79.85087200000001,43.2321055]}},{"type":"Feature","properties":{"ZIP":"L8V3N6"},"geometry":{"type":"Point","coordinates":[-79.854511,43.2155275]}},{"type":"Feature","properties":{"ZIP":"L8V3T4"},"geometry":{"type":"Point","coordinates":[-79.8441075,43.232807]}},{"type":"Feature","properties":{"ZIP":"L8V3Y1"},"geometry":{"type":"Point","coordinates":[-79.84091950000001,43.235433]}},{"type":"Feature","properties":{"ZIP":"L8V4C1"},"geometry":{"type":"Point","coordinates":[-79.84487150000001,43.221202500000004]}},{"type":"Feature","properties":{"ZIP":"L8V1S6"},"geometry":{"type":"Point","coordinates":[-79.839098,43.229336]}},{"type":"Feature","properties":{"ZIP":"L8V2J7"},"geometry":{"type":"Point","coordinates":[-79.8789275,43.22659]}},{"type":"Feature","properties":{"ZIP":"L8V3L1"},"geometry":{"type":"Point","coordinates":[-79.8433985,43.2396235]}},{"type":"Feature","properties":{"ZIP":"L8V3P8"},"geometry":{"type":"Point","coordinates":[-79.84814850000001,43.2276855]}},{"type":"Feature","properties":{"ZIP":"L8V3V6"},"geometry":{"type":"Point","coordinates":[-79.849902,43.218497]}},{"type":"Feature","properties":{"ZIP":"L8V4K2"},"geometry":{"type":"Point","coordinates":[-79.841113,43.223194500000005]}},{"type":"Feature","properties":{"ZIP":"L8V4W5"},"geometry":{"type":"Point","coordinates":[-79.85812250000001,43.224320500000005]}},{"type":"Feature","properties":{"ZIP":"L8V2S1"},"geometry":{"type":"Point","coordinates":[-79.850864,43.2416295]}},{"type":"Feature","properties":{"ZIP":"L8V2W8"},"geometry":{"type":"Point","coordinates":[-79.852442,43.237120000000004]}},{"type":"Feature","properties":{"ZIP":"L8V4G8"},"geometry":{"type":"Point","coordinates":[-79.8436055,43.2209265]}},{"type":"Feature","properties":{"ZIP":"L8V4S8"},"geometry":{"type":"Point","coordinates":[-79.85101800000001,43.212202500000004]}},{"type":"Feature","properties":{"ZIP":"L8V1B3"},"geometry":{"type":"Point","coordinates":[-79.850094,43.240579]}},{"type":"Feature","properties":{"ZIP":"L8V1J5"},"geometry":{"type":"Point","coordinates":[-79.84657150000001,43.2366345]}},{"type":"Feature","properties":{"ZIP":"L8V3N7"},"geometry":{"type":"Point","coordinates":[-79.843966,43.237798]}},{"type":"Feature","properties":{"ZIP":"L8V4J1"},"geometry":{"type":"Point","coordinates":[-79.8374735,43.231648]}},{"type":"Feature","properties":{"ZIP":"L8V4N7"},"geometry":{"type":"Point","coordinates":[-79.8527745,43.214549500000004]}},{"type":"Feature","properties":{"ZIP":"L8V2V7"},"geometry":{"type":"Point","coordinates":[-79.854678,43.2351135]}},{"type":"Feature","properties":{"ZIP":"L8V3V7"},"geometry":{"type":"Point","coordinates":[-79.85001199999999,43.218236000000005]}},{"type":"Feature","properties":{"ZIP":"L8V3Z4"},"geometry":{"type":"Point","coordinates":[-79.841109,43.23228]}},{"type":"Feature","properties":{"ZIP":"L8V4K3"},"geometry":{"type":"Point","coordinates":[-79.841482,43.222336999999996]}},{"type":"Feature","properties":{"ZIP":"L8V4R1"},"geometry":{"type":"Point","coordinates":[-79.8479775,43.2119675]}},{"type":"Feature","properties":{"ZIP":"L8V1M4"},"geometry":{"type":"Point","coordinates":[-79.84445550000001,43.234137000000004]}},{"type":"Feature","properties":{"ZIP":"L8V2S2"},"geometry":{"type":"Point","coordinates":[-79.849794,43.241358500000004]}},{"type":"Feature","properties":{"ZIP":"L8V3S4"},"geometry":{"type":"Point","coordinates":[-79.845959,43.230760000000004]}},{"type":"Feature","properties":{"ZIP":"L8V3J7"},"geometry":{"type":"Point","coordinates":[-79.850029,43.228241499999996]}},{"type":"Feature","properties":{"ZIP":"L8V4J2"},"geometry":{"type":"Point","coordinates":[-79.8375805,43.231397]}},{"type":"Feature","properties":{"ZIP":"L8V4V3"},"geometry":{"type":"Point","coordinates":[-79.8594095,43.226196]}},{"type":"Feature","properties":{"ZIP":"L8V1K9"},"geometry":{"type":"Point","coordinates":[-79.85456400000001,43.236298500000004]}},{"type":"Feature","properties":{"ZIP":"L8V1Z1"},"geometry":{"type":"Point","coordinates":[-79.8413415,43.226028]}},{"type":"Feature","properties":{"ZIP":"L8V2V8"},"geometry":{"type":"Point","coordinates":[-79.8545105,43.235061]}},{"type":"Feature","properties":{"ZIP":"L8V1G7"},"geometry":{"type":"Point","coordinates":[-79.8490415,43.2376025]}},{"type":"Feature","properties":{"ZIP":"L8V4B1"},"geometry":{"type":"Point","coordinates":[-79.83839499999999,43.236442]}},{"type":"Feature","properties":{"ZIP":"L8V4H1"},"geometry":{"type":"Point","coordinates":[-79.8361605,43.2361425]}},{"type":"Feature","properties":{"ZIP":"L8V2H3"},"geometry":{"type":"Point","coordinates":[-79.8479225,43.221963]}},{"type":"Feature","properties":{"ZIP":"L8V2T7"},"geometry":{"type":"Point","coordinates":[-79.8557045,43.2351285]}},{"type":"Feature","properties":{"ZIP":"L8V3N9"},"geometry":{"type":"Point","coordinates":[-79.8446255,43.2359845]}},{"type":"Feature","properties":{"ZIP":"L8V3T7"},"geometry":{"type":"Point","coordinates":[-79.843762,43.2333045]}},{"type":"Feature","properties":{"ZIP":"L8V1Z2"},"geometry":{"type":"Point","coordinates":[-79.85427849999999,43.2279055]}},{"type":"Feature","properties":{"ZIP":"L8V2V9"},"geometry":{"type":"Point","coordinates":[-79.855354,43.2329735]}},{"type":"Feature","properties":{"ZIP":"L8V2C6"},"geometry":{"type":"Point","coordinates":[-79.8540735,43.2251205]}},{"type":"Feature","properties":{"ZIP":"L8V2X2"},"geometry":{"type":"Point","coordinates":[-79.85426799999999,43.232869]}},{"type":"Feature","properties":{"ZIP":"L8V3X3"},"geometry":{"type":"Point","coordinates":[-79.8453615,43.2269565]}},{"type":"Feature","properties":{"ZIP":"L8V1J9"},"geometry":{"type":"Point","coordinates":[-79.8441325,43.2348935]}},{"type":"Feature","properties":{"ZIP":"L8V3E4"},"geometry":{"type":"Point","coordinates":[-79.8526345,43.227241500000005]}},{"type":"Feature","properties":{"ZIP":"L8V3J9"},"geometry":{"type":"Point","coordinates":[-79.850656,43.226777999999996]}},{"type":"Feature","properties":{"ZIP":"L8V3Y5"},"geometry":{"type":"Point","coordinates":[-79.84327400000001,43.2297035]}},{"type":"Feature","properties":{"ZIP":"L8V4C5"},"geometry":{"type":"Point","coordinates":[-79.8481745,43.217534]}},{"type":"Feature","properties":{"ZIP":"L8V3G6"},"geometry":{"type":"Point","coordinates":[-79.84995950000001,43.2317495]}},{"type":"Feature","properties":{"ZIP":"L8V3R4"},"geometry":{"type":"Point","coordinates":[-79.8525315,43.2174665]}},{"type":"Feature","properties":{"ZIP":"L8V3Z7"},"geometry":{"type":"Point","coordinates":[-79.8434225,43.2277835]}},{"type":"Feature","properties":{"ZIP":"L8V4K6"},"geometry":{"type":"Point","coordinates":[-79.84324749999999,43.2182525]}},{"type":"Feature","properties":{"ZIP":"L8V2X3"},"geometry":{"type":"Point","coordinates":[-79.85431650000001,43.232859000000005]}},{"type":"Feature","properties":{"ZIP":"L8V3S7"},"geometry":{"type":"Point","coordinates":[-79.847149,43.227595]}},{"type":"Feature","properties":{"ZIP":"L8V4H3"},"geometry":{"type":"Point","coordinates":[-79.83760950000001,43.2339355]}},{"type":"Feature","properties":{"ZIP":"L8V3T9"},"geometry":{"type":"Point","coordinates":[-79.8461985,43.2272145]}},{"type":"Feature","properties":{"ZIP":"L8V1T4"},"geometry":{"type":"Point","coordinates":[-79.8549655,43.23195]}},{"type":"Feature","properties":{"ZIP":"L8V3Z8"},"geometry":{"type":"Point","coordinates":[-79.84340900000001,43.227837]}},{"type":"Feature","properties":{"ZIP":"L8V4G2"},"geometry":{"type":"Point","coordinates":[-79.8403885,43.229531]}},{"type":"Feature","properties":{"ZIP":"L8V2M1"},"geometry":{"type":"Point","coordinates":[-79.8560205,43.220394]}},{"type":"Feature","properties":{"ZIP":"L8V3S8"},"geometry":{"type":"Point","coordinates":[-79.847098,43.227628499999994]}},{"type":"Feature","properties":{"ZIP":"L8V4B4"},"geometry":{"type":"Point","coordinates":[-79.8423075,43.227675000000005]}},{"type":"Feature","properties":{"ZIP":"L8V4T5"},"geometry":{"type":"Point","coordinates":[-79.859142,43.22846]}},{"type":"Feature","properties":{"ZIP":"L8V2H7"},"geometry":{"type":"Point","coordinates":[-79.85997,43.2232575]}},{"type":"Feature","properties":{"ZIP":"L8V4P3"},"geometry":{"type":"Point","coordinates":[-79.8521685,43.213274999999996]}},{"type":"Feature","properties":{"ZIP":"L8V3R7"},"geometry":{"type":"Point","coordinates":[-79.843027,43.23749]}},{"type":"Feature","properties":{"ZIP":"L8V1H3"},"geometry":{"type":"Point","coordinates":[-79.846637,43.237564]}},{"type":"Feature","properties":{"ZIP":"L8V1N2"},"geometry":{"type":"Point","coordinates":[-79.8399005,43.233188999999996]}},{"type":"Feature","properties":{"ZIP":"L8V1W4"},"geometry":{"type":"Point","coordinates":[-79.843808,43.229041499999994]}},{"type":"Feature","properties":{"ZIP":"L8V3N2"},"geometry":{"type":"Point","coordinates":[-79.8525195,43.220065]}},{"type":"Feature","properties":{"ZIP":"L8V3S9"},"geometry":{"type":"Point","coordinates":[-79.8420725,43.237275]}},{"type":"Feature","properties":{"ZIP":"L8V4T6"},"geometry":{"type":"Point","coordinates":[-79.85805500000001,43.228213999999994]}},{"type":"Feature","properties":{"ZIP":"L8V2J1"},"geometry":{"type":"Point","coordinates":[-79.8545865,43.222198]}},{"type":"Feature","properties":{"ZIP":"L8V2V2"},"geometry":{"type":"Point","coordinates":[-79.858024,43.2295725]}},{"type":"Feature","properties":{"ZIP":"L8V4E1"},"geometry":{"type":"Point","coordinates":[-79.8466265,43.21525]}},{"type":"Feature","properties":{"ZIP":"L8V4S3"},"geometry":{"type":"Point","coordinates":[-79.85805500000001,43.228213999999994]}},{"type":"Feature","properties":{"ZIP":"L8V4X4"},"geometry":{"type":"Point","coordinates":[-79.85915,43.2253625]}},{"type":"Feature","properties":{"ZIP":"L8V1N3"},"geometry":{"type":"Point","coordinates":[-79.840458,43.233323]}},{"type":"Feature","properties":{"ZIP":"L8V2X6"},"geometry":{"type":"Point","coordinates":[-79.855977,43.229084]}},{"type":"Feature","properties":{"ZIP":"L8V3N3"},"geometry":{"type":"Point","coordinates":[-79.853278,43.2183105]}},{"type":"Feature","properties":{"ZIP":"L8V3T1"},"geometry":{"type":"Point","coordinates":[-79.8423655,43.237143]}},{"type":"Feature","properties":{"ZIP":"L8V3X7"},"geometry":{"type":"Point","coordinates":[-79.839916,43.2377515]}},{"type":"Feature","properties":{"ZIP":"L8V4B7"},"geometry":{"type":"Point","coordinates":[-79.8437135,43.223653999999996]}},{"type":"Feature","properties":{"ZIP":"L8V3Y9"},"geometry":{"type":"Point","coordinates":[-79.8394515,43.2365635]}},{"type":"Feature","properties":{"ZIP":"L8V4J8"},"geometry":{"type":"Point","coordinates":[-79.839789,43.2262235]}},{"type":"Feature","properties":{"ZIP":"L8V4P5"},"geometry":{"type":"Point","coordinates":[-79.85214350000001,43.213269]}},{"type":"Feature","properties":{"ZIP":"L8V2W5"},"geometry":{"type":"Point","coordinates":[-79.851383,43.2392945]}},{"type":"Feature","properties":{"ZIP":"L8V3R9"},"geometry":{"type":"Point","coordinates":[-79.843886,43.235727]}},{"type":"Feature","properties":{"ZIP":"L8V3W6"},"geometry":{"type":"Point","coordinates":[-79.8431075,43.232687999999996]}},{"type":"Feature","properties":{"ZIP":"L8V3X8"},"geometry":{"type":"Point","coordinates":[-79.8399585,43.23765]}},{"type":"Feature","properties":{"ZIP":"L8V3A1"},"geometry":{"type":"Point","coordinates":[-79.848435,43.239326500000004]}},{"type":"Feature","properties":{"ZIP":"L8V3P6"},"geometry":{"type":"Point","coordinates":[-79.8466945,43.231008]}},{"type":"Feature","properties":{"ZIP":"L8V3M1"},"geometry":{"type":"Point","coordinates":[-79.8472875,43.2321305]}},{"type":"Feature","properties":{"ZIP":"L8V3S1"},"geometry":{"type":"Point","coordinates":[-79.84503649999999,43.2327865]}},{"type":"Feature","properties":{"ZIP":"L8V3W7"},"geometry":{"type":"Point","coordinates":[-79.8430395,43.232525499999994]}},{"type":"Feature","properties":{"ZIP":"L8V2T3"},"geometry":{"type":"Point","coordinates":[-79.853573,43.239945500000005]}},{"type":"Feature","properties":{"ZIP":"L8V3C8"},"geometry":{"type":"Point","coordinates":[-79.85009,43.234035500000005]}},{"type":"Feature","properties":{"ZIP":"L8V3X9"},"geometry":{"type":"Point","coordinates":[-79.840882,43.2355225]}},{"type":"Feature","properties":{"ZIP":"L8V5A4"},"geometry":{"type":"Point","coordinates":[-79.856709,43.215606]}},{"type":"Feature","properties":{"ZIP":"L8V3P7"},"geometry":{"type":"Point","coordinates":[-79.8467885,43.2309855]}},{"type":"Feature","properties":{"ZIP":"L8V1L9"},"geometry":{"type":"Point","coordinates":[-79.847953,43.2346985]}},{"type":"Feature","properties":{"ZIP":"L8V4A4"},"geometry":{"type":"Point","coordinates":[-79.846141,43.2215815]}},{"type":"Feature","properties":{"ZIP":"L8V1J4"},"geometry":{"type":"Point","coordinates":[-79.8465715,43.236634499999994]}},{"type":"Feature","properties":{"ZIP":"L8V1N7"},"geometry":{"type":"Point","coordinates":[-79.83994000000001,43.2314175]}},{"type":"Feature","properties":{"ZIP":"L8V2M7"},"geometry":{"type":"Point","coordinates":[-79.856901,43.219052500000004]}},{"type":"Feature","properties":{"ZIP":"L8V2X9"},"geometry":{"type":"Point","coordinates":[-79.85117550000001,43.236826]}},{"type":"Feature","properties":{"ZIP":"L8V3J5"},"geometry":{"type":"Point","coordinates":[-79.8497125,43.2296125]}},{"type":"Feature","properties":{"ZIP":"L8V4H9"},"geometry":{"type":"Point","coordinates":[-79.83664999999999,43.2336275]}},{"type":"Feature","properties":{"ZIP":"L8V3A3"},"geometry":{"type":"Point","coordinates":[-79.8503435,43.235992499999995]}},{"type":"Feature","properties":{"ZIP":"L8V3Z3"},"geometry":{"type":"Point","coordinates":[-79.841014,43.232125999999994]}},{"type":"Feature","properties":{"ZIP":"L8V4E6"},"geometry":{"type":"Point","coordinates":[-79.8376595,43.2358165]}},{"type":"Feature","properties":{"ZIP":"L8V4P9"},"geometry":{"type":"Point","coordinates":[-79.8496655,43.212695499999995]}},{"type":"Feature","properties":{"ZIP":"L8V1V1"},"geometry":{"type":"Point","coordinates":[-79.8513465,43.2309965]}},{"type":"Feature","properties":{"ZIP":"L8V3B7"},"geometry":{"type":"Point","coordinates":[-79.85663650000001,43.224605]}},{"type":"Feature","properties":{"ZIP":"L8V3W9"},"geometry":{"type":"Point","coordinates":[-79.8442805,43.229896]}},{"type":"Feature","properties":{"ZIP":"L8V4A5"},"geometry":{"type":"Point","coordinates":[-79.8461725,43.2216255]}},{"type":"Feature","properties":{"ZIP":"L8V3J6"},"geometry":{"type":"Point","coordinates":[-79.85020349999999,43.228295]}},{"type":"Feature","properties":{"ZIP":"L8V5A6"},"geometry":{"type":"Point","coordinates":[-79.85692399999999,43.215027500000005]}},{"type":"Feature","properties":{"ZIP":"L8V3A4"},"geometry":{"type":"Point","coordinates":[-79.8510985,43.234198000000006]}},{"type":"Feature","properties":{"ZIP":"L8V2W9"},"geometry":{"type":"Point","coordinates":[-79.85338899999999,43.2348535]}},{"type":"Feature","properties":{"ZIP":"L8V3H5"},"geometry":{"type":"Point","coordinates":[-79.854287,43.224154]}},{"type":"Feature","properties":{"ZIP":"L8V4A9"},"geometry":{"type":"Point","coordinates":[-79.8386295,43.2364815]}},{"type":"Feature","properties":{"ZIP":"L8V4G9"},"geometry":{"type":"Point","coordinates":[-79.836679,43.2357905]}},{"type":"Feature","properties":{"ZIP":"L8V2Y2"},"geometry":{"type":"Point","coordinates":[-79.852158,43.23459]}},{"type":"Feature","properties":{"ZIP":"L8V3Y3"},"geometry":{"type":"Point","coordinates":[-79.8420365,43.232325]}},{"type":"Feature","properties":{"ZIP":"L8V3A5"},"geometry":{"type":"Point","coordinates":[-79.851147,43.23422600000001]}},{"type":"Feature","properties":{"ZIP":"L8V3G4"},"geometry":{"type":"Point","coordinates":[-79.84923,43.2333845]}},{"type":"Feature","properties":{"ZIP":"L8V3R1"},"geometry":{"type":"Point","coordinates":[-79.85151400000001,43.219775]}},{"type":"Feature","properties":{"ZIP":"L8V4W7"},"geometry":{"type":"Point","coordinates":[-79.857811,43.223256000000006]}},{"type":"Feature","properties":{"ZIP":"L8V2S3"},"geometry":{"type":"Point","coordinates":[-79.849794,43.241358500000004]}},{"type":"Feature","properties":{"ZIP":"L8V2X1"},"geometry":{"type":"Point","coordinates":[-79.85343900000001,43.234874500000004]}},{"type":"Feature","properties":{"ZIP":"L8V3X2"},"geometry":{"type":"Point","coordinates":[-79.844872,43.228006500000006]}},{"type":"Feature","properties":{"ZIP":"L8V4T2"},"geometry":{"type":"Point","coordinates":[-79.85604599999999,43.2271615]}},{"type":"Feature","properties":{"ZIP":"L8V2Y3"},"geometry":{"type":"Point","coordinates":[-79.8521725,43.23469]}},{"type":"Feature","properties":{"ZIP":"L8V3J8"},"geometry":{"type":"Point","coordinates":[-79.850695,43.226831]}},{"type":"Feature","properties":{"ZIP":"L8V2P7"},"geometry":{"type":"Point","coordinates":[-79.84629000000001,43.216834500000004]}},{"type":"Feature","properties":{"ZIP":"L8V3A6"},"geometry":{"type":"Point","coordinates":[-79.8519725,43.2321815]}},{"type":"Feature","properties":{"ZIP":"L8V3Z6"},"geometry":{"type":"Point","coordinates":[-79.842414,43.229371]}},{"type":"Feature","properties":{"ZIP":"L8V1G8"},"geometry":{"type":"Point","coordinates":[-79.84911299999999,43.237615]}},{"type":"Feature","properties":{"ZIP":"L8V2L8"},"geometry":{"type":"Point","coordinates":[-79.8544535,43.218838]}},{"type":"Feature","properties":{"ZIP":"L8V2T8"},"geometry":{"type":"Point","coordinates":[-79.856535,43.233094]}},{"type":"Feature","properties":{"ZIP":"L8V3T8"},"geometry":{"type":"Point","coordinates":[-79.84629000000001,43.227265]}},{"type":"Feature","properties":{"ZIP":"L8V4P1"},"geometry":{"type":"Point","coordinates":[-79.8504985,43.212098]}},{"type":"Feature","properties":{"ZIP":"L8V5A9"},"geometry":{"type":"Point","coordinates":[-79.8553855,43.216297999999995]}},{"type":"Feature","properties":{"ZIP":"L8V3A7"},"geometry":{"type":"Point","coordinates":[-79.8520665,43.2322075]}},{"type":"Feature","properties":{"ZIP":"L8V3L5"},"geometry":{"type":"Point","coordinates":[-79.84573800000001,43.235622000000006]}},{"type":"Feature","properties":{"ZIP":"L8V4R4"},"geometry":{"type":"Point","coordinates":[-79.853884,43.214362]}},{"type":"Feature","properties":{"ZIP":"L8V1W1"},"geometry":{"type":"Point","coordinates":[-79.845268,43.229418499999994]}},{"type":"Feature","properties":{"ZIP":"L8V2L9"},"geometry":{"type":"Point","coordinates":[-79.8559995,43.220395499999995]}},{"type":"Feature","properties":{"ZIP":"L8V3X4"},"geometry":{"type":"Point","coordinates":[-79.84557,43.2262725]}},{"type":"Feature","properties":{"ZIP":"L8V3E5"},"geometry":{"type":"Point","coordinates":[-79.85262700000001,43.227241]}},{"type":"Feature","properties":{"ZIP":"L8V4C6"},"geometry":{"type":"Point","coordinates":[-79.848292,43.2172945]}},{"type":"Feature","properties":{"ZIP":"L8V1Z6"},"geometry":{"type":"Point","coordinates":[-79.85185200000001,43.2278565]}},{"type":"Feature","properties":{"ZIP":"L8V3A9"},"geometry":{"type":"Point","coordinates":[-79.8532615,43.228903]}},{"type":"Feature","properties":{"ZIP":"L8V3R6"},"geometry":{"type":"Point","coordinates":[-79.843223,43.237552]}},{"type":"Feature","properties":{"ZIP":"L8V3W3"},"geometry":{"type":"Point","coordinates":[-79.841399,43.236939]}},{"type":"Feature","properties":{"ZIP":"L8V2C9"},"geometry":{"type":"Point","coordinates":[-79.85228599999999,43.224562500000005]}},{"type":"Feature","properties":{"ZIP":"L8V2S6"},"geometry":{"type":"Point","coordinates":[-79.8476895,43.240868]}},{"type":"Feature","properties":{"ZIP":"L8V2X4"},"geometry":{"type":"Point","coordinates":[-79.8552505,43.2306435]}},{"type":"Feature","properties":{"ZIP":"L8V3C4"},"geometry":{"type":"Point","coordinates":[-79.848071,43.2385955]}},{"type":"Feature","properties":{"ZIP":"L8V3H9"},"geometry":{"type":"Point","coordinates":[-79.8480525,43.232820000000004]}},{"type":"Feature","properties":{"ZIP":"L8V4H4"},"geometry":{"type":"Point","coordinates":[-79.838707,43.231004]}},{"type":"Feature","properties":{"ZIP":"L8V2V1"},"geometry":{"type":"Point","coordinates":[-79.85793699999999,43.229777]}},{"type":"Feature","properties":{"ZIP":"L8V3E6"},"geometry":{"type":"Point","coordinates":[-79.8468975,43.23864450000001]}},{"type":"Feature","properties":{"ZIP":"L8V3K2"},"geometry":{"type":"Point","coordinates":[-79.85187300000001,43.2240325]}},{"type":"Feature","properties":{"ZIP":"L8V2W3"},"geometry":{"type":"Point","coordinates":[-79.854995,43.232615]}},{"type":"Feature","properties":{"ZIP":"L8V3B1"},"geometry":{"type":"Point","coordinates":[-79.853335,43.2289285]}},{"type":"Feature","properties":{"ZIP":"L8V3G8"},"geometry":{"type":"Point","coordinates":[-79.850607,43.229678]}},{"type":"Feature","properties":{"ZIP":"L8V3W4"},"geometry":{"type":"Point","coordinates":[-79.84035800000001,43.23540800000001]}},{"type":"Feature","properties":{"ZIP":"L8V3Z9"},"geometry":{"type":"Point","coordinates":[-79.844248,43.2259765]}},{"type":"Feature","properties":{"ZIP":"L8V4S2"},"geometry":{"type":"Point","coordinates":[-79.859142,43.22846]}},{"type":"Feature","properties":{"ZIP":"L8V2M2"},"geometry":{"type":"Point","coordinates":[-79.8534155,43.219528]}},{"type":"Feature","properties":{"ZIP":"L8V3X6"},"geometry":{"type":"Point","coordinates":[-79.83999299999999,43.238534]}},{"type":"Feature","properties":{"ZIP":"L8V4B6"},"geometry":{"type":"Point","coordinates":[-79.843132,43.225588]}},{"type":"Feature","properties":{"ZIP":"L8V3Y8"},"geometry":{"type":"Point","coordinates":[-79.8393735,43.236619000000005]}},{"type":"Feature","properties":{"ZIP":"L8V5B4"},"geometry":{"type":"Point","coordinates":[-79.8577375,43.213894499999995]}},{"type":"Feature","properties":{"ZIP":"L8V1G1"},"geometry":{"type":"Point","coordinates":[-79.8366865,43.237243]}},{"type":"Feature","properties":{"ZIP":"L8V1T6"},"geometry":{"type":"Point","coordinates":[-79.85326549999999,43.2315075]}},{"type":"Feature","properties":{"ZIP":"L8V2A2"},"geometry":{"type":"Point","coordinates":[-79.8546345,43.227157]}},{"type":"Feature","properties":{"ZIP":"L8V2R5"},"geometry":{"type":"Point","coordinates":[-79.846603,43.216099]}},{"type":"Feature","properties":{"ZIP":"L8V3G9"},"geometry":{"type":"Point","coordinates":[-79.8509825,43.228484]}},{"type":"Feature","properties":{"ZIP":"L8V4G4"},"geometry":{"type":"Point","coordinates":[-79.8406335,43.227865]}},{"type":"Feature","properties":{"ZIP":"L8V1A6"},"geometry":{"type":"Point","coordinates":[-79.853533,43.2413125]}},{"type":"Feature","properties":{"ZIP":"L8V1H5"},"geometry":{"type":"Point","coordinates":[-79.842048,43.2363535]}},{"type":"Feature","properties":{"ZIP":"L8V3J2"},"geometry":{"type":"Point","coordinates":[-79.848754,43.2312835]}},{"type":"Feature","properties":{"ZIP":"L8V4N3"},"geometry":{"type":"Point","coordinates":[-79.85120749999999,43.2156765]}},{"type":"Feature","properties":{"ZIP":"L8V1K4"},"geometry":{"type":"Point","coordinates":[-79.84178,43.234364]}},{"type":"Feature","properties":{"ZIP":"L8V3P5"},"geometry":{"type":"Point","coordinates":[-79.84588099999999,43.233019]}},{"type":"Feature","properties":{"ZIP":"L8V3V3"},"geometry":{"type":"Point","coordinates":[-79.8491895,43.220427]}},{"type":"Feature","properties":{"ZIP":"L8V1L7"},"geometry":{"type":"Point","coordinates":[-79.849021,43.2349525]}},{"type":"Feature","properties":{"ZIP":"L8V3B3"},"geometry":{"type":"Point","coordinates":[-79.853744,43.227124]}},{"type":"Feature","properties":{"ZIP":"L8V1A7"},"geometry":{"type":"Point","coordinates":[-79.8529225,43.2412675]}},{"type":"Feature","properties":{"ZIP":"L8V1H6"},"geometry":{"type":"Point","coordinates":[-79.84113550000001,43.2361425]}},{"type":"Feature","properties":{"ZIP":"L8V1N4"},"geometry":{"type":"Point","coordinates":[-79.83840649999999,43.232832]}},{"type":"Feature","properties":{"ZIP":"L8V1W7"},"geometry":{"type":"Point","coordinates":[-79.8421895,43.228887]}},{"type":"Feature","properties":{"ZIP":"L8V2M4"},"geometry":{"type":"Point","coordinates":[-79.8554225,43.2194705]}},{"type":"Feature","properties":{"ZIP":"L8V3C7"},"geometry":{"type":"Point","coordinates":[-79.850144,43.2337465]}},{"type":"Feature","properties":{"ZIP":"L8V4N4"},"geometry":{"type":"Point","coordinates":[-79.84805850000001,43.213105]}},{"type":"Feature","properties":{"ZIP":"L8V4T8"},"geometry":{"type":"Point","coordinates":[-79.8557925,43.2276355]}},{"type":"Feature","properties":{"ZIP":"L8V1C8"},"geometry":{"type":"Point","coordinates":[-79.8430545,43.238638]}},{"type":"Feature","properties":{"ZIP":"L8V1K5"},"geometry":{"type":"Point","coordinates":[-79.8411095,43.234218999999996]}},{"type":"Feature","properties":{"ZIP":"L8V1S3"},"geometry":{"type":"Point","coordinates":[-79.83884549999999,43.230442]}},{"type":"Feature","properties":{"ZIP":"L8V2P1"},"geometry":{"type":"Point","coordinates":[-79.8443935,43.2170505]}},{"type":"Feature","properties":{"ZIP":"L8V3E9"},"geometry":{"type":"Point","coordinates":[-79.8476015,43.237066]}},{"type":"Feature","properties":{"ZIP":"L8V3V4"},"geometry":{"type":"Point","coordinates":[-79.85159150000001,43.2182665]}},{"type":"Feature","properties":{"ZIP":"L8V3Z1"},"geometry":{"type":"Point","coordinates":[-79.84016199999999,43.234949]}},{"type":"Feature","properties":{"ZIP":"L8V4E4"},"geometry":{"type":"Point","coordinates":[-79.845669,43.215648]}},{"type":"Feature","properties":{"ZIP":"L8V4P6"},"geometry":{"type":"Point","coordinates":[-79.85102850000001,43.2134405]}},{"type":"Feature","properties":{"ZIP":"L8V1T8"},"geometry":{"type":"Point","coordinates":[-79.8525795,43.2313335]}},{"type":"Feature","properties":{"ZIP":"L8V2R8"},"geometry":{"type":"Point","coordinates":[-79.85204350000001,43.242046]}},{"type":"Feature","properties":{"ZIP":"L8V4G6"},"geometry":{"type":"Point","coordinates":[-79.8426365,43.223521500000004]}},{"type":"Feature","properties":{"ZIP":"L8V4Y9"},"geometry":{"type":"Point","coordinates":[-79.85435799999999,43.215867]}},{"type":"Feature","properties":{"ZIP":"L8V3J4"},"geometry":{"type":"Point","coordinates":[-79.84950549999999,43.229673500000004]}},{"type":"Feature","properties":{"ZIP":"L8V4B9"},"geometry":{"type":"Point","coordinates":[-79.84496200000001,43.221228999999994]}},{"type":"Feature","properties":{"ZIP":"L8V4N5"},"geometry":{"type":"Point","coordinates":[-79.8496625,43.2134765]}},{"type":"Feature","properties":{"ZIP":"L8V1Y4"},"geometry":{"type":"Point","coordinates":[-79.8454975,43.2286405]}},{"type":"Feature","properties":{"ZIP":"L8V2J6"},"geometry":{"type":"Point","coordinates":[-79.8515935,43.2211705]}},{"type":"Feature","properties":{"ZIP":"L8V3G1"},"geometry":{"type":"Point","coordinates":[-79.84790799999999,43.236866]}},{"type":"Feature","properties":{"ZIP":"L8V4W4"},"geometry":{"type":"Point","coordinates":[-79.853827,43.217061]}},{"type":"Feature","properties":{"ZIP":"L8V1G4"},"geometry":{"type":"Point","coordinates":[-79.846359,43.237883]}},{"type":"Feature","properties":{"ZIP":"L8V2B1"},"geometry":{"type":"Point","coordinates":[-79.84525049999999,43.225480000000005]}},{"type":"Feature","properties":{"ZIP":"L8V2R9"},"geometry":{"type":"Point","coordinates":[-79.8508055,43.2417455]}},{"type":"Feature","properties":{"ZIP":"L8V3S2"},"geometry":{"type":"Point","coordinates":[-79.845181,43.232768500000006]}},{"type":"Feature","properties":{"ZIP":"L8V1E1"},"geometry":{"type":"Point","coordinates":[-79.8411285,43.238305999999994]}},{"type":"Feature","properties":{"ZIP":"L8V1K7"},"geometry":{"type":"Point","coordinates":[-79.855689,43.236591000000004]}},{"type":"Feature","properties":{"ZIP":"L8V2P4"},"geometry":{"type":"Point","coordinates":[-79.846405,43.218748500000004]}},{"type":"Feature","properties":{"ZIP":"L8V1G5"},"geometry":{"type":"Point","coordinates":[-79.851483,43.2381585]}},{"type":"Feature","properties":{"ZIP":"L8V2B9"},"geometry":{"type":"Point","coordinates":[-79.8539255,43.2259155]}},{"type":"Feature","properties":{"ZIP":"L8V3S3"},"geometry":{"type":"Point","coordinates":[-79.84590399999999,43.23075]}},{"type":"Feature","properties":{"ZIP":"L8V2H1"},"geometry":{"type":"Point","coordinates":[-79.85020650000001,43.2220045]}},{"type":"Feature","properties":{"ZIP":"L8V2M8"},"geometry":{"type":"Point","coordinates":[-79.8555255,43.2180495]}},{"type":"Feature","properties":{"ZIP":"L8V2T5"},"geometry":{"type":"Point","coordinates":[-79.854598,43.237564]}},{"type":"Feature","properties":{"ZIP":"L8V4V2"},"geometry":{"type":"Point","coordinates":[-79.857684,43.226078]}},{"type":"Feature","properties":{"ZIP":"L8V1K8"},"geometry":{"type":"Point","coordinates":[-79.8544825,43.236277]}},{"type":"Feature","properties":{"ZIP":"L8V3L2"},"geometry":{"type":"Point","coordinates":[-79.8445105,43.238331]}},{"type":"Feature","properties":{"ZIP":"L8V4W6"},"geometry":{"type":"Point","coordinates":[-79.8585575,43.223710499999996]}},{"type":"Feature","properties":{"ZIP":"L8V0A5"},"geometry":{"type":"Point","coordinates":[-79.846269,43.214601]}},{"type":"Feature","properties":{"ZIP":"L8V1V2"},"geometry":{"type":"Point","coordinates":[-79.84986699999999,43.230602]}},{"type":"Feature","properties":{"ZIP":"L8V2C1"},"geometry":{"type":"Point","coordinates":[-79.8539015,43.225907500000005]}},{"type":"Feature","properties":{"ZIP":"L8V4M6"},"geometry":{"type":"Point","coordinates":[-79.852541,43.2157295]}},{"type":"Feature","properties":{"ZIP":"L8V4Z5"},"geometry":{"type":"Point","coordinates":[-79.8587835,43.2139365]}},{"type":"Feature","properties":{"ZIP":"L8V1B4"},"geometry":{"type":"Point","coordinates":[-79.84957750000001,43.24046]}},{"type":"Feature","properties":{"ZIP":"L8V1J6"},"geometry":{"type":"Point","coordinates":[-79.8453575,43.23518]}},{"type":"Feature","properties":{"ZIP":"L8V2T6"},"geometry":{"type":"Point","coordinates":[-79.8557015,43.235071]}},{"type":"Feature","properties":{"ZIP":"L8V3N8"},"geometry":{"type":"Point","coordinates":[-79.8438125,43.2376685]}},{"type":"Feature","properties":{"ZIP":"L8V4C3"},"geometry":{"type":"Point","coordinates":[-79.847418,43.2185665]}},{"type":"Feature","properties":{"ZIP":"L8V1E4"},"geometry":{"type":"Point","coordinates":[-79.8394715,43.2379405]}},{"type":"Feature","properties":{"ZIP":"L8V2J9"},"geometry":{"type":"Point","coordinates":[-79.8461365,43.2199835]}},{"type":"Feature","properties":{"ZIP":"L8V3Z5"},"geometry":{"type":"Point","coordinates":[-79.8424285,43.229485999999994]}},{"type":"Feature","properties":{"ZIP":"L8V1M6"},"geometry":{"type":"Point","coordinates":[-79.8440225,43.2341095]}},{"type":"Feature","properties":{"ZIP":"L8V2C5"},"geometry":{"type":"Point","coordinates":[-79.855011,43.225359]}},{"type":"Feature","properties":{"ZIP":"L8V3M6"},"geometry":{"type":"Point","coordinates":[-79.849727,43.226566000000005]}},{"type":"Feature","properties":{"ZIP":"L8V1P1"},"geometry":{"type":"Point","coordinates":[-79.85550599999999,43.234249500000004]}},{"type":"Feature","properties":{"ZIP":"L8V1X4"},"geometry":{"type":"Point","coordinates":[-79.854544,43.230901]}},{"type":"Feature","properties":{"ZIP":"L8V2N1"},"geometry":{"type":"Point","coordinates":[-79.8542555,43.2177325]}},{"type":"Feature","properties":{"ZIP":"L8V1E6"},"geometry":{"type":"Point","coordinates":[-79.8383675,43.2376845]}},{"type":"Feature","properties":{"ZIP":"L8V1T2"},"geometry":{"type":"Point","coordinates":[-79.85678,43.232374]}},{"type":"Feature","properties":{"ZIP":"L8V2K1"},"geometry":{"type":"Point","coordinates":[-79.844905,43.21968]}},{"type":"Feature","properties":{"ZIP":"L8V1V6"},"geometry":{"type":"Point","coordinates":[-79.847217,43.229864]}},{"type":"Feature","properties":{"ZIP":"L8V2S4"},"geometry":{"type":"Point","coordinates":[-79.848743,43.2410905]}},{"type":"Feature","properties":{"ZIP":"L8V3H7"},"geometry":{"type":"Point","coordinates":[-79.852911,43.2245195]}},{"type":"Feature","properties":{"ZIP":"L8V3S6"},"geometry":{"type":"Point","coordinates":[-79.8464525,43.229141]}},{"type":"Feature","properties":{"ZIP":"L8V4B2"},"geometry":{"type":"Point","coordinates":[-79.8414815,43.2292195]}},{"type":"Feature","properties":{"ZIP":"L8V4M8"},"geometry":{"type":"Point","coordinates":[-79.852784,43.2158895]}},{"type":"Feature","properties":{"ZIP":"L8V1P2"},"geometry":{"type":"Point","coordinates":[-79.85550599999999,43.234249500000004]}},{"type":"Feature","properties":{"ZIP":"L8V1X5"},"geometry":{"type":"Point","coordinates":[-79.8533195,43.230579000000006]}},{"type":"Feature","properties":{"ZIP":"L8V2Y4"},"geometry":{"type":"Point","coordinates":[-79.85303400000001,43.2325995]}},{"type":"Feature","properties":{"ZIP":"L8V4J4"},"geometry":{"type":"Point","coordinates":[-79.8382065,43.2299305]}},{"type":"Feature","properties":{"ZIP":"L8V1T3"},"geometry":{"type":"Point","coordinates":[-79.8551605,43.231999]}},{"type":"Feature","properties":{"ZIP":"L8V1Z3"},"geometry":{"type":"Point","coordinates":[-79.854289,43.227900500000004]}},{"type":"Feature","properties":{"ZIP":"L8V2P8"},"geometry":{"type":"Point","coordinates":[-79.852327,43.2163065]}},{"type":"Feature","properties":{"ZIP":"L8V3W2"},"geometry":{"type":"Point","coordinates":[-79.84102999999999,43.237137]}},{"type":"Feature","properties":{"ZIP":"L8V4G1"},"geometry":{"type":"Point","coordinates":[-79.839226,43.232344499999996]}},{"type":"Feature","properties":{"ZIP":"L8V1H1"},"geometry":{"type":"Point","coordinates":[-79.85033050000001,43.238106]}},{"type":"Feature","properties":{"ZIP":"L8V1M8"},"geometry":{"type":"Point","coordinates":[-79.8430455,43.233878000000004]}},{"type":"Feature","properties":{"ZIP":"L8V2S5"},"geometry":{"type":"Point","coordinates":[-79.848742,43.24109]}},{"type":"Feature","properties":{"ZIP":"L8V3H8"},"geometry":{"type":"Point","coordinates":[-79.8529715,43.224334]}},{"type":"Feature","properties":{"ZIP":"L8V3M8"},"geometry":{"type":"Point","coordinates":[-79.851087,43.2234015]}},{"type":"Feature","properties":{"ZIP":"L8V4M9"},"geometry":{"type":"Point","coordinates":[-79.847984,43.213087]}},{"type":"Feature","properties":{"ZIP":"L8V1K1"},"geometry":{"type":"Point","coordinates":[-79.8423465,43.2344955]}},{"type":"Feature","properties":{"ZIP":"L8V1P5"},"geometry":{"type":"Point","coordinates":[-79.850904,43.233149499999996]}},{"type":"Feature","properties":{"ZIP":"L8V3K1"},"geometry":{"type":"Point","coordinates":[-79.851864,43.224056000000004]}},{"type":"Feature","properties":{"ZIP":"L8V3Y6"},"geometry":{"type":"Point","coordinates":[-79.838693,43.2381775]}},{"type":"Feature","properties":{"ZIP":"L8V4J5"},"geometry":{"type":"Point","coordinates":[-79.838299,43.2297195]}},{"type":"Feature","properties":{"ZIP":"L8V5B1"},"geometry":{"type":"Point","coordinates":[-79.85607300000001,43.2163485]}},{"type":"Feature","properties":{"ZIP":"L8V1E8"},"geometry":{"type":"Point","coordinates":[-79.83757349999999,43.237502500000005]}},{"type":"Feature","properties":{"ZIP":"L8V2R1"},"geometry":{"type":"Point","coordinates":[-79.84958,43.2162035]}},{"type":"Feature","properties":{"ZIP":"L8V3N1"},"geometry":{"type":"Point","coordinates":[-79.85235750000001,43.220473999999996]}},{"type":"Feature","properties":{"ZIP":"L8V4N1"},"geometry":{"type":"Point","coordinates":[-79.8499325,43.213539]}},{"type":"Feature","properties":{"ZIP":"L8V4Z9"},"geometry":{"type":"Point","coordinates":[-79.856331,43.216302]}},{"type":"Feature","properties":{"ZIP":"L8V1R9"},"geometry":{"type":"Point","coordinates":[-79.841368,43.230901]}},{"type":"Feature","properties":{"ZIP":"L8V3Y7"},"geometry":{"type":"Point","coordinates":[-79.838739,43.238046499999996]}},{"type":"Feature","properties":{"ZIP":"L8V4J6"},"geometry":{"type":"Point","coordinates":[-79.8387065,43.228911]}},{"type":"Feature","properties":{"ZIP":"L8V5B2"},"geometry":{"type":"Point","coordinates":[-79.8458945,43.21191]}},{"type":"Feature","properties":{"ZIP":"L8V1L5"},"geometry":{"type":"Point","coordinates":[-79.8501005,43.235206000000005]}},{"type":"Feature","properties":{"ZIP":"L8V1T5"},"geometry":{"type":"Point","coordinates":[-79.853724,43.2316325]}},{"type":"Feature","properties":{"ZIP":"L8V2A1"},"geometry":{"type":"Point","coordinates":[-79.8535675,43.22694]}},{"type":"Feature","properties":{"ZIP":"L8V2R2"},"geometry":{"type":"Point","coordinates":[-79.849509,43.216494]}},{"type":"Feature","properties":{"ZIP":"L8V4G3"},"geometry":{"type":"Point","coordinates":[-79.8405345,43.2295135]}},{"type":"Feature","properties":{"ZIP":"L8V2E1"},"geometry":{"type":"Point","coordinates":[-79.851237,43.2243]}},{"type":"Feature","properties":{"ZIP":"L8V3C5"},"geometry":{"type":"Point","coordinates":[-79.84911199999999,43.236069]}},{"type":"Feature","properties":{"ZIP":"L8V1S1"},"geometry":{"type":"Point","coordinates":[-79.84078199999999,43.2307925]}},{"type":"Feature","properties":{"ZIP":"L8V2N8"},"geometry":{"type":"Point","coordinates":[-79.84694400000001,43.2179505]}},{"type":"Feature","properties":{"ZIP":"L8V3P4"},"geometry":{"type":"Point","coordinates":[-79.845799,43.233104]}},{"type":"Feature","properties":{"ZIP":"L8V4P4"},"geometry":{"type":"Point","coordinates":[-79.85372100000001,43.213628]}},{"type":"Feature","properties":{"ZIP":"L8V1L6"},"geometry":{"type":"Point","coordinates":[-79.8501005,43.235206000000005]}},{"type":"Feature","properties":{"ZIP":"L8V3L8"},"geometry":{"type":"Point","coordinates":[-79.8468005,43.233247500000004]}},{"type":"Feature","properties":{"ZIP":"L8V4A1"},"geometry":{"type":"Point","coordinates":[-79.844352,43.225909]}},{"type":"Feature","properties":{"ZIP":"L8V1W6"},"geometry":{"type":"Point","coordinates":[-79.84211049999999,43.228659500000006]}},{"type":"Feature","properties":{"ZIP":"L8V2M3"},"geometry":{"type":"Point","coordinates":[-79.855413,43.2194965]}},{"type":"Feature","properties":{"ZIP":"L8V3C6"},"geometry":{"type":"Point","coordinates":[-79.848105,43.237136]}},{"type":"Feature","properties":{"ZIP":"L8V5A2"},"geometry":{"type":"Point","coordinates":[-79.8574945,43.2166945]}},{"type":"Feature","properties":{"ZIP":"L8V1S2"},"geometry":{"type":"Point","coordinates":[-79.840438,43.230723499999996]}},{"type":"Feature","properties":{"ZIP":"L8V2J2"},"geometry":{"type":"Point","coordinates":[-79.8617545,43.2237995]}},{"type":"Feature","properties":{"ZIP":"L8V2N9"},"geometry":{"type":"Point","coordinates":[-79.84694400000001,43.2179505]}},{"type":"Feature","properties":{"ZIP":"L8V3E8"},"geometry":{"type":"Point","coordinates":[-79.8471405,43.238091]}},{"type":"Feature","properties":{"ZIP":"L8V4W2"},"geometry":{"type":"Point","coordinates":[-79.858283,43.223862499999996]}},{"type":"Feature","properties":{"ZIP":"L8V1G2"},"geometry":{"type":"Point","coordinates":[-79.835961,43.236993]}},{"type":"Feature","properties":{"ZIP":"L8V1T7"},"geometry":{"type":"Point","coordinates":[-79.85163299999999,43.231072]}},{"type":"Feature","properties":{"ZIP":"L8V2A3"},"geometry":{"type":"Point","coordinates":[-79.8530045,43.22661]}},{"type":"Feature","properties":{"ZIP":"L8V3H1"},"geometry":{"type":"Point","coordinates":[-79.8515485,43.2272975]}},{"type":"Feature","properties":{"ZIP":"L8V1Y2"},"geometry":{"type":"Point","coordinates":[-79.8471025,43.228963500000006]}},{"type":"Feature","properties":{"ZIP":"L8V4W3"},"geometry":{"type":"Point","coordinates":[-79.85868199999999,43.225446500000004]}},{"type":"Feature","properties":{"ZIP":"L8V3B5"},"geometry":{"type":"Point","coordinates":[-79.8543085,43.226296500000004]}},{"type":"Feature","properties":{"ZIP":"L8V4M1"},"geometry":{"type":"Point","coordinates":[-79.84616700000001,43.2143945]}},{"type":"Feature","properties":{"ZIP":"L8V4S5"},"geometry":{"type":"Point","coordinates":[-79.846639,43.234373500000004]}},{"type":"Feature","properties":{"ZIP":"L8V1A9"},"geometry":{"type":"Point","coordinates":[-79.85251,43.2411405]}},{"type":"Feature","properties":{"ZIP":"L8V1J1"},"geometry":{"type":"Point","coordinates":[-79.8375935,43.235328499999994]}},{"type":"Feature","properties":{"ZIP":"L8V1W8"},"geometry":{"type":"Point","coordinates":[-79.84158550000001,43.228739000000004]}},{"type":"Feature","properties":{"ZIP":"L8V4T9"},"geometry":{"type":"Point","coordinates":[-79.8469845,43.239692000000005]}},{"type":"Feature","properties":{"ZIP":"L8V1C9"},"geometry":{"type":"Point","coordinates":[-79.842218,43.238313500000004]}},{"type":"Feature","properties":{"ZIP":"L8V1K6"},"geometry":{"type":"Point","coordinates":[-79.855689,43.236591000000004]}},{"type":"Feature","properties":{"ZIP":"L8V1S4"},"geometry":{"type":"Point","coordinates":[-79.839459,43.230577499999995]}},{"type":"Feature","properties":{"ZIP":"L8V3Z2"},"geometry":{"type":"Point","coordinates":[-79.841072,43.232507]}},{"type":"Feature","properties":{"ZIP":"L8V4P7"},"geometry":{"type":"Point","coordinates":[-79.85133300000001,43.212689499999996]}},{"type":"Feature","properties":{"ZIP":"L8V5B7"},"geometry":{"type":"Point","coordinates":[-79.84550949999999,43.2130135]}},{"type":"Feature","properties":{"ZIP":"L8V1T9"},"geometry":{"type":"Point","coordinates":[-79.8511585,43.230981]}},{"type":"Feature","properties":{"ZIP":"L8V3B6"},"geometry":{"type":"Point","coordinates":[-79.854986,43.2257545]}},{"type":"Feature","properties":{"ZIP":"L8V3M2"},"geometry":{"type":"Point","coordinates":[-79.84862949999999,43.229202]}},{"type":"Feature","properties":{"ZIP":"L8V4S6"},"geometry":{"type":"Point","coordinates":[-79.8641805,43.224399]}},{"type":"Feature","properties":{"ZIP":"L8V1W9"},"geometry":{"type":"Point","coordinates":[-79.84026850000001,43.2284095]}},{"type":"Feature","properties":{"ZIP":"L8V4V1"},"geometry":{"type":"Point","coordinates":[-79.85675499999999,43.226594000000006]}},{"type":"Feature","properties":{"ZIP":"L8V1Y6"},"geometry":{"type":"Point","coordinates":[-79.8446685,43.226833]}},{"type":"Feature","properties":{"ZIP":"L8V3G2"},"geometry":{"type":"Point","coordinates":[-79.847771,43.236576]}},{"type":"Feature","properties":{"ZIP":"L8V1M1"},"geometry":{"type":"Point","coordinates":[-79.846982,43.234314]}},{"type":"Feature","properties":{"ZIP":"L8V4M4"},"geometry":{"type":"Point","coordinates":[-79.850457,43.2165575]}},{"type":"Feature","properties":{"ZIP":"L8V1N8"},"geometry":{"type":"Point","coordinates":[-79.8564545,43.2344645]}},{"type":"Feature","properties":{"ZIP":"L8V2Y1"},"geometry":{"type":"Point","coordinates":[-79.851071,43.236814499999994]}},{"type":"Feature","properties":{"ZIP":"L8V4C2"},"geometry":{"type":"Point","coordinates":[-79.846457,43.2195205]}},{"type":"Feature","properties":{"ZIP":"L8V1E2"},"geometry":{"type":"Point","coordinates":[-79.84013300000001,43.2380885]}},{"type":"Feature","properties":{"ZIP":"L8V1S7"},"geometry":{"type":"Point","coordinates":[-79.83943,43.229248999999996]}},{"type":"Feature","properties":{"ZIP":"L8V1Y7"},"geometry":{"type":"Point","coordinates":[-79.84466850000001,43.2268335]}},{"type":"Feature","properties":{"ZIP":"L8V1G6"},"geometry":{"type":"Point","coordinates":[-79.85001,43.2378085]}},{"type":"Feature","properties":{"ZIP":"L8V3X1"},"geometry":{"type":"Point","coordinates":[-79.844623,43.228806000000006]}},{"type":"Feature","properties":{"ZIP":"L8V1N9"},"geometry":{"type":"Point","coordinates":[-79.8565855,43.234494]}},{"type":"Feature","properties":{"ZIP":"L8V1X3"},"geometry":{"type":"Point","coordinates":[-79.8542875,43.230832500000005]}},{"type":"Feature","properties":{"ZIP":"L8V5A7"},"geometry":{"type":"Point","coordinates":[-79.85785,43.2145825]}},{"type":"Feature","properties":{"ZIP":"L8V1T1"},"geometry":{"type":"Point","coordinates":[-79.855902,43.232188]}},{"type":"Feature","properties":{"ZIP":"L8V2P6"},"geometry":{"type":"Point","coordinates":[-79.845121,43.2168185]}},{"type":"Feature","properties":{"ZIP":"L8V3L3"},"geometry":{"type":"Point","coordinates":[-79.845253,43.23671]}},{"type":"Feature","properties":{"ZIP":"L8V0A7"},"geometry":{"type":"Point","coordinates":[-79.8560665,43.2182465]}},{"type":"Feature","properties":{"ZIP":"L8V1V3"},"geometry":{"type":"Point","coordinates":[-79.85065449999999,43.230816]}},{"type":"Feature","properties":{"ZIP":"L8V3C1"},"geometry":{"type":"Point","coordinates":[-79.8548455,43.2249085]}},{"type":"Feature","properties":{"ZIP":"L8V3H6"},"geometry":{"type":"Point","coordinates":[-79.855001,43.2224815]}},{"type":"Feature","properties":{"ZIP":"L8V3S5"},"geometry":{"type":"Point","coordinates":[-79.84656050000001,43.229093500000005]}},{"type":"Feature","properties":{"ZIP":"L8V4Z6"},"geometry":{"type":"Point","coordinates":[-79.859178,43.2157365]}},{"type":"Feature","properties":{"ZIP":"L8V1J8"},"geometry":{"type":"Point","coordinates":[-79.8446035,43.2350025]}},{"type":"Feature","properties":{"ZIP":"L8V4C4"},"geometry":{"type":"Point","coordinates":[-79.8472435,43.218771000000004]}},{"type":"Feature","properties":{"ZIP":"L8V4V6"},"geometry":{"type":"Point","coordinates":[-79.8582195,43.22507]}},{"type":"Feature","properties":{"ZIP":"L8V5A8"},"geometry":{"type":"Point","coordinates":[-79.856392,43.216497000000004]}},{"type":"Feature","properties":{"ZIP":"L8V4E9"},"geometry":{"type":"Point","coordinates":[-79.8392395,43.232397]}},{"type":"Feature","properties":{"ZIP":"L8V4K5"},"geometry":{"type":"Point","coordinates":[-79.842175,43.22056499999999]}},{"type":"Feature","properties":{"ZIP":"L8V4W8"},"geometry":{"type":"Point","coordinates":[-79.8576625,43.226048]}},{"type":"Feature","properties":{"ZIP":"L8V1A1"},"geometry":{"type":"Point","coordinates":[-79.85549850000001,43.243444499999995]}},{"type":"Feature","properties":{"ZIP":"L8V3C2"},"geometry":{"type":"Point","coordinates":[-79.8548815,43.224869999999996]}},{"type":"Feature","properties":{"ZIP":"L8V2N2"},"geometry":{"type":"Point","coordinates":[-79.8525755,43.218644499999996]}},{"type":"Feature","properties":{"ZIP":"L8V4V7"},"geometry":{"type":"Point","coordinates":[-79.8581615,43.2250945]}},{"type":"Feature","properties":{"ZIP":"L8V1E7"},"geometry":{"type":"Point","coordinates":[-79.8384545,43.237705000000005]}},{"type":"Feature","properties":{"ZIP":"L8V1L3"},"geometry":{"type":"Point","coordinates":[-79.85118,43.2354595]}},{"type":"Feature","properties":{"ZIP":"L8V2K2"},"geometry":{"type":"Point","coordinates":[-79.850067,43.220935499999996]}},{"type":"Feature","properties":{"ZIP":"L8V4W9"},"geometry":{"type":"Point","coordinates":[-79.85794250000001,43.22327799999999]}},{"type":"Feature","properties":{"ZIP":"L8V1A3"},"geometry":{"type":"Point","coordinates":[-79.8499775,43.242272]}},{"type":"Feature","properties":{"ZIP":"L8V2C7"},"geometry":{"type":"Point","coordinates":[-79.8541905,43.2250375]}},{"type":"Feature","properties":{"ZIP":"L8V1B8"},"geometry":{"type":"Point","coordinates":[-79.847706,43.2398315]}},{"type":"Feature","properties":{"ZIP":"L8V1X6"},"geometry":{"type":"Point","coordinates":[-79.853231,43.230556]}},{"type":"Feature","properties":{"ZIP":"L8V2T9"},"geometry":{"type":"Point","coordinates":[-79.85659050000001,43.233205]}},{"type":"Feature","properties":{"ZIP":"L8V1L4"},"geometry":{"type":"Point","coordinates":[-79.85118,43.2354595]}},{"type":"Feature","properties":{"ZIP":"L8V2K3"},"geometry":{"type":"Point","coordinates":[-79.8428085,43.2195]}},{"type":"Feature","properties":{"ZIP":"L8V3L6"},"geometry":{"type":"Point","coordinates":[-79.84616650000001,43.23468149999999]}},{"type":"Feature","properties":{"ZIP":"L8V4K7"},"geometry":{"type":"Point","coordinates":[-79.8429495,43.218945000000005]}},{"type":"Feature","properties":{"ZIP":"L8V4X1"},"geometry":{"type":"Point","coordinates":[-79.856827,43.2253925]}},{"type":"Feature","properties":{"ZIP":"L8V1A4"},"geometry":{"type":"Point","coordinates":[-79.8489905,43.242000000000004]}},{"type":"Feature","properties":{"ZIP":"L8V1N1"},"geometry":{"type":"Point","coordinates":[-79.8409915,43.2333575]}},{"type":"Feature","properties":{"ZIP":"L8V1W3"},"geometry":{"type":"Point","coordinates":[-79.844236,43.229351]}},{"type":"Feature","properties":{"ZIP":"L8V3X5"},"geometry":{"type":"Point","coordinates":[-79.83942300000001,43.238637]}},{"type":"Feature","properties":{"ZIP":"L8V1C1"},"geometry":{"type":"Point","coordinates":[-79.8453705,43.23926]}},{"type":"Feature","properties":{"ZIP":"L8V1K2"},"geometry":{"type":"Point","coordinates":[-79.842916,43.2346135]}},{"type":"Feature","properties":{"ZIP":"L8V1X7"},"geometry":{"type":"Point","coordinates":[-79.8524245,43.230343]}},{"type":"Feature","properties":{"ZIP":"L8V2N5"},"geometry":{"type":"Point","coordinates":[-79.84619950000001,43.218099]}},{"type":"Feature","properties":{"ZIP":"L8V3P3"},"geometry":{"type":"Point","coordinates":[-79.845234,43.2344405]}},{"type":"Feature","properties":{"ZIP":"L8V3V1"},"geometry":{"type":"Point","coordinates":[-79.8489105,43.2211025]}},{"type":"Feature","properties":{"ZIP":"L8V4V9"},"geometry":{"type":"Point","coordinates":[-79.8555935,43.217211000000006]}},{"type":"Feature","properties":{"ZIP":"L8V1E9"},"geometry":{"type":"Point","coordinates":[-79.8372375,43.2374235]}},{"type":"Feature","properties":{"ZIP":"L8V2K6"},"geometry":{"type":"Point","coordinates":[-79.8427035,43.219119500000005]}},{"type":"Feature","properties":{"ZIP":"L8V1A5"},"geometry":{"type":"Point","coordinates":[-79.847656,43.241633]}},{"type":"Feature","properties":{"ZIP":"L8V2S8"},"geometry":{"type":"Point","coordinates":[-79.8404535,43.2383065]}},{"type":"Feature","properties":{"ZIP":"L8V1X9"},"geometry":{"type":"Point","coordinates":[-79.8481535,43.229163]}},{"type":"Feature","properties":{"ZIP":"L8V2Y7"},"geometry":{"type":"Point","coordinates":[-79.8545925,43.2290345]}},{"type":"Feature","properties":{"ZIP":"L8V3K3"},"geometry":{"type":"Point","coordinates":[-79.8564875,43.222077]}},{"type":"Feature","properties":{"ZIP":"L8V3V2"},"geometry":{"type":"Point","coordinates":[-79.8489105,43.2211025]}},{"type":"Feature","properties":{"ZIP":"L8V4J7"},"geometry":{"type":"Point","coordinates":[-79.839012,43.227697000000006]}},{"type":"Feature","properties":{"ZIP":"L8V3B2"},"geometry":{"type":"Point","coordinates":[-79.8537225,43.227247000000006]}},{"type":"Feature","properties":{"ZIP":"L8V2T1"},"geometry":{"type":"Point","coordinates":[-79.8404915,43.2383875]}},{"type":"Feature","properties":{"ZIP":"L8V1X2"},"geometry":{"type":"Point","coordinates":[-79.840136,43.22838]}},{"type":"Feature","properties":{"ZIP":"L8V4S9"},"geometry":{"type":"Point","coordinates":[-79.8570915,43.2324]}},{"type":"Feature","properties":{"ZIP":"L8V4N8"},"geometry":{"type":"Point","coordinates":[-79.849057,43.213119]}},{"type":"Feature","properties":{"ZIP":"L8V4M7"},"geometry":{"type":"Point","coordinates":[-79.851785,43.215288]}},{"type":"Feature","properties":{"ZIP":"L8V4J3"},"geometry":{"type":"Point","coordinates":[-79.83684,43.233115999999995]}},{"type":"Feature","properties":{"ZIP":"L8V1L2"},"geometry":{"type":"Point","coordinates":[-79.853552,43.236034000000004]}},{"type":"Feature","properties":{"ZIP":"L8V4R3"},"geometry":{"type":"Point","coordinates":[-79.854029,43.214033]}},{"type":"Feature","properties":{"ZIP":"L8V3P2"},"geometry":{"type":"Point","coordinates":[-79.8453285,43.234447]}},{"type":"Feature","properties":{"ZIP":"L8V1C3"},"geometry":{"type":"Point","coordinates":[-79.84256450000001,43.2386575]}}]}